station,valid,metar
ZGSZ,1997-01-01 00:00,ZGSZ 010000Z AUTO 07004KT 2 1/2SM 16/14 RMK SLP202 T01600135 52013 IEM_DS3505
ZGSZ,1997-01-01 01:00,ZGSZ 010100Z AUTO 10002KT 1 1/2SM 18/18 A3012 RMK T01800180 IEM_DS3505
ZGSZ,1997-01-01 02:00,ZGSZ 010200Z AUTO 15002KT 1 1/2SM 21/18 A3012 RMK T02100180 IEM_DS3505
ZGSZ,1997-01-01 03:00,ZGSZ 010300Z AUTO 00000KT 3SM 21/15 A3012 RMK SLP201 T02060148 57001 IEM_DS3505
ZGSZ,1997-01-01 04:00,ZGSZ 010400Z AUTO 29008KT 1 1/2SM 23/17 A3009 RMK T02300170 IEM_DS3505
ZGSZ,1997-01-01 05:00,ZGSZ 010500Z AUTO 27008KT 1 1/2SM 24/18 A3006 RMK T02400180 IEM_DS3505
ZGSZ,1997-01-01 06:00,ZGSZ 010600Z AUTO 27006KT 4SM 25/16 A3003 RMK SLP173 T02510165 57027 IEM_DS3505
ZGSZ,1997-01-01 07:00,ZGSZ 010700Z AUTO 28006KT 1 1/2SM 24/18 A3000 RMK T02400180 IEM_DS3505
ZGSZ,1997-01-01 08:00,ZGSZ 010800Z AUTO 28002KT 1 1/2SM 24/18 A3000 RMK T02400180 IEM_DS3505
ZGSZ,1997-01-01 09:00,ZGSZ 010900Z AUTO 22004KT 4SM 23/16 A3000 RMK SLP171 T02330163 57002 IEM_DS3505
ZGSZ,1997-01-01 10:00,ZGSZ 011000Z AUTO 17004KT 1 1/4SM 21/19 A3003 RMK T02100190 IEM_DS3505
ZGSZ,1997-01-01 11:00,ZGSZ 011100Z AUTO 16002KT 1 1/4SM 20/19 A3006 RMK T02000190 IEM_DS3505
ZGSZ,1997-01-01 12:00,ZGSZ 011200Z AUTO 00000KT 3SM 20/16 A3006 RMK SLP189 T02050164 52017 IEM_DS3505
ZGSZ,1997-01-01 13:00,ZGSZ 011300Z AUTO 14002KT 1 1/2SM 19/18 A3009 RMK T01900180 IEM_DS3505
ZGSZ,1997-01-01 14:00,ZGSZ 011400Z AUTO 11002KT 1 1/4SM 19/18 A3009 RMK T01900180 IEM_DS3505
ZGSZ,1997-01-01 15:00,ZGSZ 011500Z AUTO 08002KT 1 1/4SM 18/18 A3009 RMK T01800180 IEM_DS3505
ZGSZ,1997-01-01 16:00,ZGSZ 011600Z AUTO 01004KT 1 1/4SM 18/17 A3009 RMK T01800170 IEM_DS3505
ZGSZ,1997-01-01 18:00,ZGSZ 011800Z AUTO 04004KT 2SM 19/16 RMK SLP191 T01870157 57004 IEM_DS3505
ZGSZ,1997-01-01 21:00,ZGSZ 012100Z AUTO 07006KT 4SM 18/13 A3006 RMK SLP189 T01830132 57002 IEM_DS3505
ZGSZ,1997-01-01 22:00,ZGSZ 012200Z AUTO 08008KT 2SM 21/13 A3006 RMK T02100130 IEM_DS3505
ZGSZ,1997-01-02 00:00,ZGSZ 020000Z AUTO 04004KT 4SM 18/13 A3012 RMK SLP208 T01800128 52018 IEM_DS3505
ZGSZ,1997-01-02 01:00,ZGSZ 020100Z AUTO 05006KT 2 1/2SM 20/14 A3015 RMK T02000140 IEM_DS3505
ZGSZ,1997-01-02 02:00,ZGSZ 020200Z AUTO 01002KT 2SM 22/13 A3015 RMK T02200130 IEM_DS3505
ZGSZ,1997-01-02 03:00,ZGSZ 020300Z AUTO 04006KT 3SM 21/13 A3012 RMK SLP207 T02070128 54000 IEM_DS3505
ZGSZ,1997-01-02 04:00,ZGSZ 020400Z AUTO 25002KT 2SM 23/13 A3009 RMK T02300130 IEM_DS3505
ZGSZ,1997-01-02 05:00,ZGSZ 020500Z AUTO 19008KT 2SM 24/13 A3006 RMK T02400130 IEM_DS3505
ZGSZ,1997-01-02 06:00,ZGSZ 020600Z AUTO 14006KT 4SM 24/12 A3003 RMK SLP176 T02370120 57031 IEM_DS3505
ZGSZ,1997-01-02 07:00,ZGSZ 020700Z AUTO 22004KT 2 1/2SM 22/17 A3000 RMK T02200170 IEM_DS3505
ZGSZ,1997-01-02 08:00,ZGSZ 020800Z AUTO 21006KT 2SM 21/18 A3000 RMK T02100180 IEM_DS3505
ZGSZ,1997-01-02 09:00,ZGSZ 020900Z AUTO 11010KT 4SM 20/15 A3003 RMK SLP171 T02040146 57005 IEM_DS3505
ZGSZ,1997-01-02 10:00,ZGSZ 021000Z AUTO 20008KT 2SM 20/17 A3003 RMK T02000170 IEM_DS3505
ZGSZ,1997-01-02 11:00,ZGSZ 021100Z AUTO 13008KT 2SM 21/16 A3003 RMK T02100160 IEM_DS3505
ZGSZ,1997-01-02 12:00,ZGSZ 021200Z AUTO 14008KT 3SM 18/15 A3006 RMK 60000 SLP188 T01840150 52016 IEM_DS3505
ZGSZ,1997-01-02 13:00,ZGSZ 021300Z AUTO 11008KT 2SM 19/16 A3006 RMK T01900160 IEM_DS3505
ZGSZ,1997-01-02 14:00,ZGSZ 021400Z AUTO 11012KT 2SM 19/16 A3006 RMK T01900160 IEM_DS3505
ZGSZ,1997-01-02 15:00,ZGSZ 021500Z AUTO 10010KT 1 1/2SM 19/16 A3006 RMK T01900160 IEM_DS3505
ZGSZ,1997-01-02 16:00,ZGSZ 021600Z AUTO 11008KT 1 1/2SM 18/17 A3003 RMK T01800170 IEM_DS3505
ZGSZ,1997-01-02 18:00,ZGSZ 021800Z AUTO 07006KT 7SM 18/14 RMK 60000 SLP176 T01790143 57010 IEM_DS3505
ZGSZ,1997-01-02 21:00,ZGSZ 022100Z AUTO 04004KT 6SM 18/14 A3003 RMK 70001 SLP177 T01800138 52001 IEM_DS3505
ZGSZ,1997-01-02 22:00,ZGSZ 022200Z AUTO 05008KT 1 1/2SM 17/16 A3003 RMK T01700160 IEM_DS3505
ZGSZ,1997-01-02 23:00,ZGSZ 022300Z AUTO 07008KT 1 1/2SM 17/16 A3006 RMK T01700160 IEM_DS3505
ZGSZ,1997-01-03 00:00,ZGSZ 030000Z AUTO 04006KT 4SM 17/14 A3006 RMK 60002 70004 SLP187 T01670144 52009 IEM_DS3505
ZGSZ,1997-01-03 01:00,ZGSZ 030100Z AUTO 07004KT 1 1/4SM 17/16 A3009 RMK T01700160 IEM_DS3505
ZGSZ,1997-01-03 02:00,ZGSZ 030200Z AUTO 07002KT 1SM 17/16 A3009 RMK T01700160 IEM_DS3505
ZGSZ,1997-01-03 03:00,ZGSZ 030300Z AUTO 32002KT 4SM 17/16 A3009 RMK SLP197 T01660156 52010 IEM_DS3505
ZGSZ,1997-01-03 04:00,ZGSZ 030400Z AUTO 01006KT 1SM 17/17 A3009 RMK T01700170 IEM_DS3505
ZGSZ,1997-01-03 05:00,ZGSZ 030500Z AUTO 02006KT 1 1/2SM 17/17 A3003 RMK T01700170 IEM_DS3505
ZGSZ,1997-01-03 06:00,ZGSZ 030600Z AUTO 04010KT 3SM 16/15 RMK 60008 SLP172 T01650151 57025 IEM_DS3505
ZGSZ,1997-01-03 08:00,ZGSZ 030800Z AUTO 01006KT 2SM 16/16 A3000 RMK T01600160 IEM_DS3505
ZGSZ,1997-01-03 09:00,ZGSZ 030900Z AUTO 04008KT 3SM 16/15 A3000 RMK SLP168 T01630154 57004 IEM_DS3505
ZGSZ,1997-01-03 10:00,ZGSZ 031000Z AUTO 01010KT 2SM 16/16 A3000 RMK T01600160 IEM_DS3505
ZGSZ,1997-01-03 11:00,ZGSZ 031100Z AUTO 02008KT 2SM 16/16 A3003 RMK T01600160 IEM_DS3505
ZGSZ,1997-01-03 12:00,ZGSZ 031200Z AUTO 04006KT 4SM 16/15 A3006 RMK 60020 SLP180 T01570152 52012 IEM_DS3505
ZGSZ,1997-01-03 13:00,ZGSZ 031300Z AUTO 02006KT 2 1/2SM 16/16 A3006 RMK T01600160 IEM_DS3505
ZGSZ,1997-01-03 14:00,ZGSZ 031400Z AUTO 04008KT 3SM 16/16 A3006 RMK T01600160 IEM_DS3505
ZGSZ,1997-01-03 18:00,ZGSZ 031800Z AUTO 04008KT 5SM 16/15 RMK 60008 SLP178 T01590149 57006 IEM_DS3505
ZGSZ,1997-01-03 21:00,ZGSZ 032100Z AUTO 04004KT 11SM 16/15 RMK 70035 SLP175 T01630146 57003 IEM_DS3505
ZGSZ,1997-01-03 22:00,ZGSZ 032200Z AUTO 36006KT 6SM 16/16 A3003 RMK T01600160 IEM_DS3505
ZGSZ,1997-01-03 23:00,ZGSZ 032300Z AUTO 02006KT 7SM 16/15 A3006 RMK T01600150 IEM_DS3505
ZGSZ,1997-01-04 00:00,ZGSZ 040000Z AUTO 04004KT 6SM 16/15 A3009 RMK 60000 70035 SLP192 T01610147 52017 IEM_DS3505
ZGSZ,1997-01-04 01:00,ZGSZ 040100Z AUTO 35006KT 3SM 17/17 A3012 RMK T01700170 IEM_DS3505
ZGSZ,1997-01-04 02:00,ZGSZ 040200Z AUTO 01006KT 7SM 18/16 A3012 RMK T01800160 IEM_DS3505
ZGSZ,1997-01-04 03:00,ZGSZ 040300Z AUTO 04004KT 6SM 18/15 A3012 RMK SLP202 T01790148 52010 IEM_DS3505
ZGSZ,1997-01-04 04:00,ZGSZ 040400Z AUTO 01006KT 7SM 19/16 A3009 RMK T01900160 IEM_DS3505
ZGSZ,1997-01-04 05:00,ZGSZ 040500Z AUTO 02006KT 7SM 19/16 A3006 RMK T01900160 IEM_DS3505
ZGSZ,1997-01-04 06:00,ZGSZ 040600Z AUTO 36004KT 6SM 19/15 A3003 RMK SLP173 T01890148 57029 IEM_DS3505
ZGSZ,1997-01-04 07:00,ZGSZ 040700Z AUTO 33006KT 7SM 20/17 A3000 RMK T02000170 IEM_DS3505
ZGSZ,1997-01-04 08:00,ZGSZ 040800Z AUTO 02006KT 7SM 20/16 A3000 RMK T02000160 IEM_DS3505
ZGSZ,1997-01-04 09:00,ZGSZ 040900Z AUTO 02006KT 7SM 19/15 A3003 RMK SLP173 T01940152 54000 IEM_DS3505
ZGSZ,1997-01-04 10:00,ZGSZ 041000Z AUTO 06002KT 6SM 19/15 A3003 RMK T01900150 IEM_DS3505
ZGSZ,1997-01-04 11:00,ZGSZ 041100Z AUTO 00000KT 3SM 19/16 A3006 RMK T01900160 IEM_DS3505
ZGSZ,1997-01-04 12:00,ZGSZ 041200Z AUTO 04004KT 7SM 18/15 A3009 RMK SLP196 T01850149 52023 IEM_DS3505
ZGSZ,1997-01-04 13:00,ZGSZ 041300Z AUTO 01002KT 2 1/2SM 18/15 A3009 RMK T01800150 IEM_DS3505
ZGSZ,1997-01-04 14:00,ZGSZ 041400Z AUTO 03004KT 2SM 17/14 A3012 RMK T01700140 IEM_DS3505
ZGSZ,1997-01-04 15:00,ZGSZ 041500Z AUTO 36006KT 1 1/2SM 16/14 A3012 RMK T01600140 IEM_DS3505
ZGSZ,1997-01-04 16:00,ZGSZ 041600Z AUTO 04002KT 2SM 17/15 A3012 RMK T01700150 IEM_DS3505
ZGSZ,1997-01-04 17:00,ZGSZ 041700Z AUTO 01006KT 2SM 17/15 A3012 RMK T01700150 IEM_DS3505
ZGSZ,1997-01-04 18:00,ZGSZ 041800Z AUTO 04008KT 9SM 16/12 RMK SLP206 T01640120 52002 IEM_DS3505
ZGSZ,1997-01-04 21:00,ZGSZ 042100Z AUTO 04008KT 10SM 15/10 A3015 RMK 70000 SLP212 T01510101 52006 IEM_DS3505
ZGSZ,1997-01-04 22:00,ZGSZ 042200Z AUTO 03010KT 4SM 15/12 A3018 RMK T01500120 IEM_DS3505
ZGSZ,1997-01-04 23:00,ZGSZ 042300Z AUTO 02008KT 6SM 15/12 A3018 RMK T01500120 IEM_DS3505
ZGSZ,1997-01-05 00:00,ZGSZ 050000Z AUTO 04012KT 6SM 15/07 A3021 RMK SLP237 T01470074 52025 IEM_DS3505
ZGSZ,1997-01-05 01:00,ZGSZ 050100Z AUTO 01012KT 6SM 15/10 A3024 RMK T01500100 IEM_DS3505
ZGSZ,1997-01-05 02:00,ZGSZ 050200Z AUTO 02019KT 4SM 15/10 A3027 RMK T01500100 IEM_DS3505
ZGSZ,1997-01-05 03:00,ZGSZ 050300Z AUTO 04010KT 4SM 15/07 A3027 RMK SLP255 T01520068 52018 IEM_DS3505
ZGSZ,1997-01-05 04:00,ZGSZ 050400Z AUTO 02012KT 4SM 17/09 A3027 RMK T01700090 IEM_DS3505
ZGSZ,1997-01-05 05:00,ZGSZ 050500Z AUTO 01014KT 4SM 17/09 A3021 RMK T01700090 IEM_DS3505
ZGSZ,1997-01-05 06:00,ZGSZ 050600Z AUTO 04008KT 7SM 18/06 RMK SLP219 T01840060 57036 IEM_DS3505
ZGSZ,1997-01-05 07:00,ZGSZ 050700Z AUTO 02014KT 6SM 18/08 A3015 RMK T01800080 IEM_DS3505
ZGSZ,1997-01-05 08:00,ZGSZ 050800Z AUTO 04012KT 6SM 18/08 A3015 RMK T01800080 IEM_DS3505
ZGSZ,1997-01-05 09:00,ZGSZ 050900Z AUTO 04014KT 9SM 17/06 A3015 RMK SLP214 T01690058 57005 IEM_DS3505
ZGSZ,1997-01-05 10:00,ZGSZ 051000Z AUTO 02010KT 6SM 17/07 A3018 RMK T01700070 IEM_DS3505
ZGSZ,1997-01-05 11:00,ZGSZ 051100Z AUTO 02010KT 6SM 16/07 A3018 RMK T01600070 IEM_DS3505
ZGSZ,1997-01-05 12:00,ZGSZ 051200Z AUTO 04006KT 7SM 15/06 RMK SLP238 T01500058 52024 IEM_DS3505
ZGSZ,1997-01-05 13:00,ZGSZ 051300Z AUTO 03014KT 6SM 15/05 A3021 RMK T01500050 IEM_DS3505
ZGSZ,1997-01-05 14:00,ZGSZ 051400Z AUTO 08006KT 6SM 15/05 A3024 RMK T01500050 IEM_DS3505
ZGSZ,1997-01-05 18:00,ZGSZ 051800Z AUTO 36008KT 10SM 12/02 RMK SLP249 T01210024 52001 IEM_DS3505
ZGSZ,1997-01-05 21:00,ZGSZ 052100Z AUTO 07010KT 11SM 11/02 A3024 RMK SLP246 T01070022 57004 IEM_DS3505
ZGSZ,1997-01-05 22:00,ZGSZ 052200Z AUTO 02002KT 6SM 11/03 A3024 RMK T01100030 IEM_DS3505
ZGSZ,1997-01-06 00:00,ZGSZ 060000Z AUTO 04006KT 10SM 10/03 A3027 RMK SLP262 T01010026 52016 IEM_DS3505
ZGSZ,1997-01-06 01:00,ZGSZ 060100Z AUTO 34002KT 6SM 12/04 A3030 RMK T01200040 IEM_DS3505
ZGSZ,1997-01-06 02:00,ZGSZ 060200Z AUTO 36006KT 6SM 13/04 A3033 RMK T01300040 IEM_DS3505
ZGSZ,1997-01-06 03:00,ZGSZ 060300Z AUTO 04006KT 8SM 14/05 A3030 RMK SLP268 T01360047 52006 IEM_DS3505
ZGSZ,1997-01-06 04:00,ZGSZ 060400Z AUTO 05002KT 6SM 16/06 A3030 RMK T01600060 IEM_DS3505
ZGSZ,1997-01-06 05:00,ZGSZ 060500Z AUTO 09006KT 6SM 18/07 A3027 RMK T01800070 IEM_DS3505
ZGSZ,1997-01-06 06:00,ZGSZ 060600Z AUTO 07006KT 7SM 18/07 A3021 RMK SLP241 T01850072 57026 IEM_DS3505
ZGSZ,1997-01-06 07:00,ZGSZ 060700Z AUTO 35008KT 6SM 18/07 A3018 RMK T01800070 IEM_DS3505
ZGSZ,1997-01-06 08:00,ZGSZ 060800Z AUTO 35006KT 6SM 19/07 A3018 RMK T01900070 IEM_DS3505
ZGSZ,1997-01-06 09:00,ZGSZ 060900Z AUTO 11006KT 6SM 17/08 A3018 RMK SLP230 T01710081 57012 IEM_DS3505
ZGSZ,1997-01-06 10:00,ZGSZ 061000Z AUTO 02004KT 4SM 17/07 A3018 RMK T01700070 IEM_DS3505
ZGSZ,1997-01-06 11:00,ZGSZ 061100Z AUTO 06006KT 3SM 16/08 A3021 RMK T01600080 IEM_DS3505
ZGSZ,1997-01-06 12:00,ZGSZ 061200Z AUTO 14004KT 7SM 15/10 A3024 RMK SLP250 T01490099 52020 IEM_DS3505
ZGSZ,1997-01-06 13:00,ZGSZ 061300Z AUTO 10004KT 3SM 15/11 A3027 RMK T01500110 IEM_DS3505
ZGSZ,1997-01-06 14:00,ZGSZ 061400Z AUTO 09004KT 2 1/2SM 14/11 A3027 RMK T01400110 IEM_DS3505
ZGSZ,1997-01-06 15:00,ZGSZ 061500Z AUTO 11004KT 2 1/2SM 14/11 A3030 RMK T01400110 IEM_DS3505
ZGSZ,1997-01-06 18:00,ZGSZ 061800Z AUTO 07004KT 3SM 13/10 RMK SLP255 T01300101 57006 IEM_DS3505
ZGSZ,1997-01-06 21:00,ZGSZ 062100Z AUTO 02004KT 2 1/2SM 12/09 A3027 RMK SLP250 T01180094 57006 IEM_DS3505
ZGSZ,1997-01-06 22:00,ZGSZ 062200Z AUTO 06006KT 4SM 12/10 A3027 RMK T01200100 IEM_DS3505
ZGSZ,1997-01-06 23:00,ZGSZ 062300Z AUTO 05006KT 3SM 12/10 A3030 RMK T01200100 IEM_DS3505
ZGSZ,1997-01-07 00:00,ZGSZ 070000Z AUTO 09004KT 3SM 11/08 A3030 RMK SLP271 T01090080 52020 IEM_DS3505
ZGSZ,1997-01-07 01:00,ZGSZ 070100Z AUTO 36006KT 4SM 12/07 A3033 RMK T01200070 IEM_DS3505
ZGSZ,1997-01-07 02:00,ZGSZ 070200Z AUTO 04006KT 6SM 14/05 A3033 RMK T01400050 IEM_DS3505
ZGSZ,1997-01-07 03:00,ZGSZ 070300Z AUTO 04010KT 6SM 13/06 A3033 RMK SLP277 T01340057 52006 IEM_DS3505
ZGSZ,1997-01-07 04:00,ZGSZ 070400Z AUTO 07004KT 6SM 16/07 A3030 RMK T01600070 IEM_DS3505
ZGSZ,1997-01-07 05:00,ZGSZ 070500Z AUTO 01004KT 6SM 17/06 A3027 RMK T01700060 IEM_DS3505
ZGSZ,1997-01-07 06:00,ZGSZ 070600Z AUTO 04004KT 7SM 18/06 A3024 RMK SLP245 T01820060 57031 IEM_DS3505
ZGSZ,1997-01-07 07:00,ZGSZ 070700Z AUTO 35008KT 6SM 19/07 A3024 RMK T01900070 IEM_DS3505
ZGSZ,1997-01-07 08:00,ZGSZ 070800Z AUTO 35008KT 6SM 18/07 A3021 RMK T01800070 IEM_DS3505
ZGSZ,1997-01-07 09:00,ZGSZ 070900Z AUTO 04006KT 6SM 18/06 A3024 RMK SLP240 T01810058 57005 IEM_DS3505
ZGSZ,1997-01-07 10:00,ZGSZ 071000Z AUTO 02008KT 6SM 17/07 A3024 RMK T01700070 IEM_DS3505
ZGSZ,1997-01-07 11:00,ZGSZ 071100Z AUTO 03006KT 6SM 16/07 A3027 RMK T01600070 IEM_DS3505
ZGSZ,1997-01-07 12:00,ZGSZ 071200Z AUTO 04012KT 7SM 15/05 A3027 RMK SLP262 T01540050 52021 IEM_DS3505
ZGSZ,1997-01-07 13:00,ZGSZ 071300Z AUTO 04008KT 6SM 15/05 A3030 RMK T01500050 IEM_DS3505
ZGSZ,1997-01-07 14:00,ZGSZ 071400Z AUTO 03006KT 6SM 14/06 A3033 RMK T01400060 IEM_DS3505
ZGSZ,1997-01-07 18:00,ZGSZ 071800Z AUTO 02008KT 11SM 11/03 RMK SLP275 T01130033 57001 IEM_DS3505
ZGSZ,1997-01-07 21:00,ZGSZ 072100Z AUTO 36012KT 9SM 10/02 A3033 RMK SLP272 T01010020 57003 IEM_DS3505
ZGSZ,1997-01-07 22:00,ZGSZ 072200Z AUTO 03010KT 6SM 09/03 A3033 RMK T00900030 IEM_DS3505
ZGSZ,1997-01-07 23:00,ZGSZ 072300Z AUTO 01010KT 6SM 09/03 A3036 RMK T00900030 IEM_DS3505
ZGSZ,1997-01-08 00:00,ZGSZ 080000Z AUTO 07008KT 7SM 09/01 A3039 RMK SLP291 T00880014 52019 IEM_DS3505
ZGSZ,1997-01-08 01:00,ZGSZ 080100Z AUTO 02010KT 6SM 09/03 A3039 RMK T00900030 IEM_DS3505
ZGSZ,1997-01-08 02:00,ZGSZ 080200Z AUTO 01010KT 6SM 10/03 A3039 RMK T01000030 IEM_DS3505
ZGSZ,1997-01-08 03:00,ZGSZ 080300Z AUTO 04006KT 5SM 11/02 A3039 RMK SLP299 T01080020 52008 IEM_DS3505
ZGSZ,1997-01-08 05:00,ZGSZ 080500Z AUTO 36014KT 6SM 13/04 A3033 RMK T01300040 IEM_DS3505
ZGSZ,1997-01-08 06:00,ZGSZ 080600Z AUTO 11004KT 5SM 16/04 A3030 RMK SLP265 T01630043 57034 IEM_DS3505
ZGSZ,1997-01-08 07:00,ZGSZ 080700Z AUTO 36012KT 6SM 15/05 A3027 RMK T01500050 IEM_DS3505
ZGSZ,1997-01-08 08:00,ZGSZ 080800Z AUTO 01006KT 6SM 15/05 A3027 RMK T01500050 IEM_DS3505
ZGSZ,1997-01-08 09:00,ZGSZ 080900Z AUTO 04006KT 6SM 15/04 A3027 RMK SLP258 T01510040 57007 IEM_DS3505
ZGSZ,1997-01-08 10:00,ZGSZ 081000Z AUTO 04006KT 6SM 14/05 A3030 RMK T01400050 IEM_DS3505
ZGSZ,1997-01-08 11:00,ZGSZ 081100Z AUTO 03008KT 6SM 14/05 A3030 RMK T01400050 IEM_DS3505
ZGSZ,1997-01-08 12:00,ZGSZ 081200Z AUTO 04008KT 6SM 13/04 A3030 RMK SLP270 T01290040 52012 IEM_DS3505
ZGSZ,1997-01-08 13:00,ZGSZ 081300Z AUTO 01006KT 6SM 12/05 A3033 RMK T01200050 IEM_DS3505
ZGSZ,1997-01-08 18:00,ZGSZ 081800Z AUTO 02008KT 6SM 10/02 RMK SLP279 T00970020 54000 IEM_DS3505
ZGSZ,1997-01-08 21:00,ZGSZ 082100Z AUTO 04012KT 7SM 08/02 A3030 RMK SLP264 T00830017 57015 IEM_DS3505
ZGSZ,1997-01-08 22:00,ZGSZ 082200Z AUTO 01006KT 6SM 09/04 A3030 RMK T00900040 IEM_DS3505
ZGSZ,1997-01-08 23:00,ZGSZ 082300Z AUTO 03008KT 6SM 08/03 A3030 RMK T00800030 IEM_DS3505
ZGSZ,1997-01-09 00:00,ZGSZ 090000Z AUTO 02010KT 7SM 08/02 A3033 RMK SLP271 T00840015 52007 IEM_DS3505
ZGSZ,1997-01-09 01:00,ZGSZ 090100Z AUTO 36012KT 5SM 08/03 A3036 RMK T00800030 IEM_DS3505
ZGSZ,1997-01-09 02:00,ZGSZ 090200Z AUTO 01008KT 5SM 09/03 A3036 RMK T00900030 IEM_DS3505
ZGSZ,1997-01-09 03:00,ZGSZ 090300Z AUTO 36006KT 7SM 10/02 RMK SLP276 T01040015 52005 IEM_DS3505
ZGSZ,1997-01-09 05:00,ZGSZ 090500Z AUTO 36012KT 4SM 12/04 A3027 RMK T01200040 IEM_DS3505
ZGSZ,1997-01-09 06:00,ZGSZ 090600Z AUTO 04008KT 8SM 14/03 A3024 RMK SLP247 T01390026 57029 IEM_DS3505
ZGSZ,1997-01-09 08:00,ZGSZ 090800Z AUTO 03008KT 6SM 14/03 A3024 RMK T01400030 IEM_DS3505
ZGSZ,1997-01-09 09:00,ZGSZ 090900Z AUTO 04004KT 8SM 14/03 A3024 RMK SLP242 T01390026 57005 IEM_DS3505
ZGSZ,1997-01-09 10:00,ZGSZ 091000Z AUTO 02006KT 6SM 13/04 A3024 RMK T01300040 IEM_DS3505
ZGSZ,1997-01-09 11:00,ZGSZ 091100Z AUTO 06002KT 6SM 12/04 A3024 RMK T01200040 IEM_DS3505
ZGSZ,1997-01-09 12:00,ZGSZ 091200Z AUTO 36004KT 7SM 12/04 A3027 RMK SLP251 T01190041 52009 IEM_DS3505
ZGSZ,1997-01-09 13:00,ZGSZ 091300Z AUTO 04002KT 2SM 12/05 A3027 RMK T01200050 IEM_DS3505
ZGSZ,1997-01-09 14:00,ZGSZ 091400Z AUTO 34004KT 2 1/2SM 11/05 A3030 RMK T01100050 IEM_DS3505
ZGSZ,1997-01-09 15:00,ZGSZ 091500Z AUTO 01006KT 2SM 11/04 A3030 RMK T01100040 IEM_DS3505
ZGSZ,1997-01-09 18:00,ZGSZ 091800Z AUTO 04008KT 7SM 10/01 RMK SLP260 T01000009 54000 IEM_DS3505
ZGSZ,1997-01-09 21:00,ZGSZ 092100Z AUTO 04008KT 7SM 09/01 A3024 RMK SLP249 T00870010 57011 IEM_DS3505
ZGSZ,1997-01-09 22:00,ZGSZ 092200Z AUTO 36008KT 6SM 08/02 A3027 RMK T00800020 IEM_DS3505
ZGSZ,1997-01-09 23:00,ZGSZ 092300Z AUTO 36008KT 6SM 08/02 A3027 RMK T00800020 IEM_DS3505
ZGSZ,1997-01-10 00:00,ZGSZ 100000Z AUTO 36008KT 6SM 07/02 A3030 RMK T00700020 IEM_DS3505
ZGSZ,1997-01-10 01:00,ZGSZ 100100Z AUTO 01010KT 6SM 09/02 A3030 RMK T00900020 IEM_DS3505
ZGSZ,1997-01-10 02:00,ZGSZ 100200Z AUTO 02010KT 6SM 11/01 A3030 RMK T01100010 IEM_DS3505
ZGSZ,1997-01-10 03:00,ZGSZ 100300Z AUTO 07010KT 6SM 11/00 A3030 RMK SLP265 T01110000 52003 IEM_DS3505
ZGSZ,1997-01-10 04:00,ZGSZ 100400Z AUTO 33008KT 6SM 14/02 A3027 RMK T01400020 IEM_DS3505
ZGSZ,1997-01-10 05:00,ZGSZ 100500Z AUTO 35008KT 6SM 15/02 A3024 RMK T01500020 IEM_DS3505
ZGSZ,1997-01-10 06:00,ZGSZ 100600Z AUTO 02008KT 7SM 17/02 A3021 RMK SLP228 T01710019 57037 IEM_DS3505
ZGSZ,1997-01-10 07:00,ZGSZ 100700Z AUTO 35008KT 6SM 17/03 A3018 RMK T01700030 IEM_DS3505
ZGSZ,1997-01-10 08:00,ZGSZ 100800Z AUTO 02010KT 6SM 17/03 A3015 RMK T01700030 IEM_DS3505
ZGSZ,1997-01-10 09:00,ZGSZ 100900Z AUTO 36004KT 8SM 17/03 A3015 RMK SLP218 T01690029 57010 IEM_DS3505
ZGSZ,1997-01-10 10:00,ZGSZ 101000Z AUTO 02006KT 6SM 16/02 A3018 RMK T01600020 IEM_DS3505
ZGSZ,1997-01-10 12:00,ZGSZ 101200Z AUTO 04002KT 7SM 14/02 A3021 RMK SLP234 T01350020 52016 IEM_DS3505
ZGSZ,1997-01-10 13:00,ZGSZ 101300Z AUTO 35002KT 1 1/4SM 11/05 A3024 RMK T01100050 IEM_DS3505
ZGSZ,1997-01-10 14:00,ZGSZ 101400Z AUTO 01004KT 2SM 13/03 A3024 RMK T01300030 IEM_DS3505
ZGSZ,1997-01-10 18:00,ZGSZ 101800Z AUTO 04006KT 9SM 12/M01 RMK SLP254 T01151008 52005 IEM_DS3505
ZGSZ,1997-01-10 21:00,ZGSZ 102100Z AUTO 04006KT 10SM 10/M02 A3024 RMK SLP247 T01051024 57007 IEM_DS3505
ZGSZ,1997-01-10 22:00,ZGSZ 102200Z AUTO 02006KT 6SM 09/M01 A3027 RMK T00901010 IEM_DS3505
ZGSZ,1997-01-10 23:00,ZGSZ 102300Z AUTO 01006KT 6SM 08/M01 A3027 RMK T00801010 IEM_DS3505
ZGSZ,1997-01-11 00:00,ZGSZ 110000Z AUTO 02006KT 11SM 10/M01 A3030 RMK SLP261 T00961006 52014 IEM_DS3505
ZGSZ,1997-01-11 01:00,ZGSZ 110100Z AUTO 02004KT 6SM 11/M01 A3030 RMK T01101010 IEM_DS3505
ZGSZ,1997-01-11 02:00,ZGSZ 110200Z AUTO 35008KT 6SM 13/00 A3033 RMK T01300000 IEM_DS3505
ZGSZ,1997-01-11 03:00,ZGSZ 110300Z AUTO 02004KT 10SM 13/M02 A3030 RMK SLP265 T01311018 52004 IEM_DS3505
ZGSZ,1997-01-11 04:00,ZGSZ 110400Z AUTO 34010KT 6SM 16/M01 A3027 RMK T01601010 IEM_DS3505
ZGSZ,1997-01-11 05:00,ZGSZ 110500Z AUTO 34010KT 6SM 18/00 A3024 RMK T01800000 IEM_DS3505
ZGSZ,1997-01-11 06:00,ZGSZ 110600Z AUTO 36008KT 9SM 20/M05 A3018 RMK SLP226 T01951054 57038 IEM_DS3505
ZGSZ,1997-01-11 07:00,ZGSZ 110700Z AUTO 01008KT 6SM 20/M04 A3015 RMK T02001040 IEM_DS3505
ZGSZ,1997-01-11 08:00,ZGSZ 110800Z AUTO 35008KT 6SM 20/M05 A3015 RMK T02001050 IEM_DS3505
ZGSZ,1997-01-11 09:00,ZGSZ 110900Z AUTO 04006KT 11SM 19/M01 A3015 RMK SLP212 T01931008 57014 IEM_DS3505
ZGSZ,1997-01-11 10:00,ZGSZ 111000Z AUTO 36006KT 6SM 18/M03 A3015 RMK T01801030 IEM_DS3505
ZGSZ,1997-01-11 11:00,ZGSZ 111100Z AUTO 06002KT 6SM 17/M04 A3015 RMK T01701040 IEM_DS3505
ZGSZ,1997-01-11 12:00,ZGSZ 111200Z AUTO 00000KT 9SM 14/04 A3018 RMK SLP230 T01450040 52017 IEM_DS3505
ZGSZ,1997-01-11 13:00,ZGSZ 111300Z AUTO 11004KT 6SM 13/01 A3021 RMK T01300010 IEM_DS3505
ZGSZ,1997-01-11 14:00,ZGSZ 111400Z AUTO 00000KT 2 1/2SM 13/01 A3021 RMK T01300010 IEM_DS3505
ZGSZ,1997-01-11 15:00,ZGSZ 111500Z AUTO 07004KT 2 1/2SM 11/03 A3021 RMK T01100030 IEM_DS3505
ZGSZ,1997-01-11 18:00,ZGSZ 111800Z AUTO 04004KT 5SM 12/05 RMK SLP238 T01180050 57002 IEM_DS3505
ZGSZ,1997-01-11 21:00,ZGSZ 112100Z AUTO 04006KT 4SM 11/06 A3021 RMK SLP231 T01100061 57007 IEM_DS3505
ZGSZ,1997-01-11 22:00,ZGSZ 112200Z AUTO 00000KT 2 1/2SM 09/06 A3021 RMK T00900060 IEM_DS3505
ZGSZ,1997-01-11 23:00,ZGSZ 112300Z AUTO 35002KT 2 1/2SM 09/06 A3021 RMK T00900060 IEM_DS3505
ZGSZ,1997-01-12 00:00,ZGSZ 120000Z AUTO 04004KT 7SM 11/04 A3024 RMK SLP244 T01140040 52012 IEM_DS3505
ZGSZ,1997-01-12 01:00,ZGSZ 120100Z AUTO 00000KT 2 1/2SM 13/07 A3024 RMK T01300070 IEM_DS3505
ZGSZ,1997-01-12 02:00,ZGSZ 120200Z AUTO 32002KT 6SM 16/03 A3027 RMK T01600030 IEM_DS3505
ZGSZ,1997-01-12 03:00,ZGSZ 120300Z AUTO 36004KT 8SM 15/05 A3024 RMK SLP247 T01530049 52003 IEM_DS3505
ZGSZ,1997-01-12 05:00,ZGSZ 120500Z AUTO 24006KT 6SM 19/04 A3018 RMK T01900040 IEM_DS3505
ZGSZ,1997-01-12 06:00,ZGSZ 120600Z AUTO 07008KT 10SM 19/05 A3015 RMK SLP218 T01930049 57028 IEM_DS3505
ZGSZ,1997-01-12 07:00,ZGSZ 120700Z AUTO 26006KT 6SM 19/04 A3015 RMK T01900040 IEM_DS3505
ZGSZ,1997-01-12 08:00,ZGSZ 120800Z AUTO 21002KT 6SM 18/07 A3012 RMK T01800070 IEM_DS3505
ZGSZ,1997-01-12 09:00,ZGSZ 120900Z AUTO 09004KT 11SM 18/07 A3012 RMK SLP209 T01820073 57009 IEM_DS3505
ZGSZ,1997-01-12 10:00,ZGSZ 121000Z AUTO 20002KT 6SM 17/10 A3012 RMK T01700100 IEM_DS3505
ZGSZ,1997-01-12 11:00,ZGSZ 121100Z AUTO 00000KT 6SM 16/11 A3015 RMK T01600110 IEM_DS3505
ZGSZ,1997-01-12 12:00,ZGSZ 121200Z AUTO 07004KT 9SM 15/09 A3015 RMK SLP216 T01520087 52006 IEM_DS3505
ZGSZ,1997-01-12 13:00,ZGSZ 121300Z AUTO 11004KT 2SM 15/09 A3015 RMK T01500090 IEM_DS3505
ZGSZ,1997-01-12 14:00,ZGSZ 121400Z AUTO 10006KT 2 1/2SM 14/08 A3018 RMK T01400080 IEM_DS3505
ZGSZ,1997-01-12 15:00,ZGSZ 121500Z AUTO 10002KT 2 1/2SM 15/09 A3015 RMK T01500090 IEM_DS3505
ZGSZ,1997-01-12 18:00,ZGSZ 121800Z AUTO 09004KT 9SM 15/09 RMK SLP211 T01530091 57004 IEM_DS3505
ZGSZ,1997-01-12 21:00,ZGSZ 122100Z AUTO 07010KT 9SM 15/10 A3009 RMK SLP201 T01490101 57010 IEM_DS3505
ZGSZ,1997-01-12 22:00,ZGSZ 122200Z AUTO 07004KT 6SM 14/08 A3012 RMK T01400080 IEM_DS3505
ZGSZ,1997-01-12 23:00,ZGSZ 122300Z AUTO 07002KT 6SM 14/07 A3012 RMK T01400070 IEM_DS3505
ZGSZ,1997-01-13 00:00,ZGSZ 130000Z AUTO 09004KT 9SM 15/07 A3012 RMK SLP209 T01460073 52008 IEM_DS3505
ZGSZ,1997-01-13 01:00,ZGSZ 130100Z AUTO 02004KT 4SM 16/06 A3015 RMK T01600060 IEM_DS3505
ZGSZ,1997-01-13 02:00,ZGSZ 130200Z AUTO 10008KT 5SM 17/05 A3015 RMK T01700050 IEM_DS3505
ZGSZ,1997-01-13 03:00,ZGSZ 130300Z AUTO 09008KT 6SM 18/08 A3015 RMK SLP216 T01750083 52007 IEM_DS3505
ZGSZ,1997-01-13 04:00,ZGSZ 130400Z AUTO 25004KT 6SM 19/08 A3012 RMK T01900080 IEM_DS3505
ZGSZ,1997-01-13 05:00,ZGSZ 130500Z AUTO 26004KT 6SM 19/08 A3009 RMK T01900080 IEM_DS3505
ZGSZ,1997-01-13 06:00,ZGSZ 130600Z AUTO 14008KT 7SM 20/11 A3006 RMK SLP189 T01950109 57027 IEM_DS3505
ZGSZ,1997-01-13 07:00,ZGSZ 130700Z AUTO 24004KT 6SM 19/09 A3003 RMK T01900090 IEM_DS3505
ZGSZ,1997-01-13 08:00,ZGSZ 130800Z AUTO 21004KT 6SM 18/11 A3003 RMK T01800110 IEM_DS3505
ZGSZ,1997-01-13 09:00,ZGSZ 130900Z AUTO 11006KT 7SM 18/12 A3003 RMK SLP181 T01820115 57008 IEM_DS3505
ZGSZ,1997-01-13 10:00,ZGSZ 131000Z AUTO 10006KT 3SM 19/12 A3003 RMK T01900120 IEM_DS3505
ZGSZ,1997-01-13 11:00,ZGSZ 131100Z AUTO 13006KT 4SM 18/12 A3006 RMK T01800120 IEM_DS3505
ZGSZ,1997-01-13 12:00,ZGSZ 131200Z AUTO 14006KT 8SM 17/12 A3009 RMK SLP197 T01730122 52016 IEM_DS3505
ZGSZ,1997-01-13 13:00,ZGSZ 131300Z AUTO 08004KT 6SM 18/12 A3009 RMK T01800120 IEM_DS3505
ZGSZ,1997-01-13 14:00,ZGSZ 131400Z AUTO 12002KT 7SM 18/12 A3009 RMK T01800120 IEM_DS3505
ZGSZ,1997-01-13 15:00,ZGSZ 131500Z AUTO 12002KT 7SM 18/13 A3009 RMK T01800130 IEM_DS3505
ZGSZ,1997-01-13 16:00,ZGSZ 131600Z AUTO 06002KT 7SM 17/13 A3009 RMK T01700130 IEM_DS3505
ZGSZ,1997-01-13 17:00,ZGSZ 131700Z AUTO 04002KT 6SM 17/13 A3009 RMK T01700130 IEM_DS3505
ZGSZ,1997-01-13 18:00,ZGSZ 131800Z AUTO 04004KT 4SM 17/14 RMK SLP190 T01660136 57009 IEM_DS3505
ZGSZ,1997-01-13 21:00,ZGSZ 132100Z AUTO 04006KT 4SM 16/14 A3006 RMK 70002 SLP183 T01550135 57007 IEM_DS3505
ZGSZ,1997-01-13 22:00,ZGSZ 132200Z AUTO 35004KT 2 1/2SM 16/14 A3006 RMK T01600140 IEM_DS3505
ZGSZ,1997-01-13 23:00,ZGSZ 132300Z AUTO 36004KT 2 1/2SM 15/14 A3009 RMK T01500140 IEM_DS3505
ZGSZ,1997-01-14 00:00,ZGSZ 140000Z AUTO 04008KT 4SM 16/14 A3009 RMK 60004 70004 SLP202 T01550135 52019 IEM_DS3505
ZGSZ,1997-01-14 01:00,ZGSZ 140100Z AUTO 01008KT 3SM 16/15 A3012 RMK T01600150 IEM_DS3505
ZGSZ,1997-01-14 02:00,ZGSZ 140200Z AUTO 02006KT 1 1/4SM 17/16 A3015 RMK T01700160 IEM_DS3505
ZGSZ,1997-01-14 03:00,ZGSZ 140300Z AUTO 02006KT 4SM 17/15 A3012 RMK SLP211 T01710152 52009 IEM_DS3505
ZGSZ,1997-01-14 04:00,ZGSZ 140400Z AUTO 36010KT 2SM 17/16 A3012 RMK T01700160 IEM_DS3505
ZGSZ,1997-01-14 05:00,ZGSZ 140500Z AUTO 35006KT 3SM 18/17 A3009 RMK T01800170 IEM_DS3505
ZGSZ,1997-01-14 06:00,ZGSZ 140600Z AUTO 04008KT 6SM 18/15 A3006 RMK 60000 SLP185 T01820148 57026 IEM_DS3505
ZGSZ,1997-01-14 07:00,ZGSZ 140700Z AUTO 06008KT 7SM 19/16 A3003 RMK T01900160 IEM_DS3505
ZGSZ,1997-01-14 08:00,ZGSZ 140800Z AUTO 02004KT 6SM 19/16 A3003 RMK T01900160 IEM_DS3505
ZGSZ,1997-01-14 09:00,ZGSZ 140900Z AUTO 02006KT 6SM 18/15 A3006 RMK SLP182 T01840146 57003 IEM_DS3505
ZGSZ,1997-01-14 10:00,ZGSZ 141000Z AUTO 05006KT 5SM 18/15 A3006 RMK T01800150 IEM_DS3505
ZGSZ,1997-01-14 11:00,ZGSZ 141100Z AUTO 35004KT 4SM 17/15 A3006 RMK T01700150 IEM_DS3505
ZGSZ,1997-01-14 12:00,ZGSZ 141200Z AUTO 04006KT 4SM 17/14 A3009 RMK SLP197 T01660143 52015 IEM_DS3505
ZGSZ,1997-01-14 13:00,ZGSZ 141300Z AUTO 07008KT 5SM 17/15 A3009 RMK T01700150 IEM_DS3505
ZGSZ,1997-01-14 14:00,ZGSZ 141400Z AUTO 07006KT 4SM 17/15 A3009 RMK T01700150 IEM_DS3505
ZGSZ,1997-01-14 15:00,ZGSZ 141500Z AUTO 34006KT 1 1/4SM 16/15 A3012 RMK T01600150 IEM_DS3505
ZGSZ,1997-01-14 16:00,ZGSZ 141600Z AUTO 05004KT 2SM 16/15 A3009 RMK T01600150 IEM_DS3505
ZGSZ,1997-01-14 18:00,ZGSZ 141800Z AUTO 04004KT 4SM 16/14 RMK SLP196 T01560135 57006 IEM_DS3505
ZGSZ,1997-01-14 21:00,ZGSZ 142100Z AUTO 04004KT 4SM 15/13 A3009 RMK 70004 SLP194 T01500130 57002 IEM_DS3505
ZGSZ,1997-01-14 23:00,ZGSZ 142300Z AUTO 08004KT 2SM 15/14 A3012 RMK T01500140 IEM_DS3505
ZGSZ,1997-01-15 00:00,ZGSZ 150000Z AUTO 04004KT 5SM 15/13 RMK 70001 SLP205 T01520129 52011 IEM_DS3505
ZGSZ,1997-01-15 01:00,ZGSZ 150100Z AUTO 35002KT 2SM 16/15 A3015 RMK T01600150 IEM_DS3505
ZGSZ,1997-01-15 02:00,ZGSZ 150200Z AUTO 07004KT 3SM 17/14 A3015 RMK T01700140 IEM_DS3505
ZGSZ,1997-01-15 03:00,ZGSZ 150300Z AUTO 09004KT 6SM 18/14 RMK SLP209 T01770140 52004 IEM_DS3505
ZGSZ,1997-01-15 04:00,ZGSZ 150400Z AUTO 27006KT 4SM 20/15 A3009 RMK T02000150 IEM_DS3505
ZGSZ,1997-01-15 05:00,ZGSZ 150500Z AUTO 29008KT 4SM 21/16 A3006 RMK T02100160 IEM_DS3505
ZGSZ,1997-01-15 06:00,ZGSZ 150600Z AUTO 09006KT 9SM 22/14 A3003 RMK SLP175 T02190139 57034 IEM_DS3505
ZGSZ,1997-01-15 08:00,ZGSZ 150800Z AUTO 25002KT 3SM 20/15 A3000 RMK T02000150 IEM_DS3505
ZGSZ,1997-01-15 09:00,ZGSZ 150900Z AUTO 14006KT 7SM 20/14 A3000 RMK SLP170 T02010145 57005 IEM_DS3505
ZGSZ,1997-01-15 10:00,ZGSZ 151000Z AUTO 17004KT 2SM 18/15 A3000 RMK T01800150 IEM_DS3505
ZGSZ,1997-01-15 11:00,ZGSZ 151100Z AUTO 19006KT 2SM 18/16 A3003 RMK T01800160 IEM_DS3505
ZGSZ,1997-01-15 12:00,ZGSZ 151200Z AUTO 14008KT 7SM 17/14 A3006 RMK SLP187 T01700138 52017 IEM_DS3505
ZGSZ,1997-01-15 13:00,ZGSZ 151300Z AUTO 12004KT 1 1/2SM 17/16 A3006 RMK T01700160 IEM_DS3505
ZGSZ,1997-01-15 14:00,ZGSZ 151400Z AUTO 13008KT 2 1/2SM 17/15 A3009 RMK T01700150 IEM_DS3505
ZGSZ,1997-01-15 15:00,ZGSZ 151500Z AUTO 12004KT 2 1/2SM 17/15 A3009 RMK T01700150 IEM_DS3505
ZGSZ,1997-01-15 18:00,ZGSZ 151800Z AUTO 04004KT 6SM 16/14 RMK SLP190 T01590138 57002 IEM_DS3505
ZGSZ,1997-01-15 21:00,ZGSZ 152100Z AUTO 04004KT 6SM 15/14 RMK SLP186 T01500136 57004 IEM_DS3505
ZGSZ,1997-01-15 22:00,ZGSZ 152200Z AUTO 10006KT 3SM 15/14 A3006 RMK T01500140 IEM_DS3505
ZGSZ,1997-01-15 23:00,ZGSZ 152300Z AUTO 08002KT 2 1/2SM 15/15 A3009 RMK T01500150 IEM_DS3505
ZGSZ,1997-01-16 00:00,ZGSZ 160000Z AUTO 07006KT 3SM 16/14 A3009 RMK SLP197 T01560136 52011 IEM_DS3505
ZGSZ,1997-01-16 01:00,ZGSZ 160100Z AUTO 00000KT 2SM 17/16 A3009 RMK T01700160 IEM_DS3505
ZGSZ,1997-01-16 02:00,ZGSZ 160200Z AUTO 09008KT 3SM 19/16 A3009 RMK T01900160 IEM_DS3505
ZGSZ,1997-01-16 03:00,ZGSZ 160300Z AUTO 04008KT 3SM 18/14 A3009 RMK SLP194 T01790144 57003 IEM_DS3505
ZGSZ,1997-01-16 04:00,ZGSZ 160400Z AUTO 08004KT 4SM 22/16 A3006 RMK T02200160 IEM_DS3505
ZGSZ,1997-01-16 05:00,ZGSZ 160500Z AUTO 26006KT 2 1/2SM 21/17 A3000 RMK T02100170 IEM_DS3505
ZGSZ,1997-01-16 06:00,ZGSZ 160600Z AUTO 04006KT 6SM 23/15 A2997 RMK SLP157 T02310151 57036 IEM_DS3505
ZGSZ,1997-01-16 07:00,ZGSZ 160700Z AUTO 21006KT 3SM 21/17 A2997 RMK T02100170 IEM_DS3505
ZGSZ,1997-01-16 08:00,ZGSZ 160800Z AUTO 18008KT 5SM 20/17 A2997 RMK T02000170 IEM_DS3505
ZGSZ,1997-01-16 09:00,ZGSZ 160900Z AUTO 16002KT 4SM 21/15 A2997 RMK SLP157 T02100153 57001 IEM_DS3505
ZGSZ,1997-01-16 10:00,ZGSZ 161000Z AUTO 19006KT 6SM 19/16 A3000 RMK T01900160 IEM_DS3505
ZGSZ,1997-01-16 11:00,ZGSZ 161100Z AUTO 15004KT 4SM 18/16 A3000 RMK T01800160 IEM_DS3505
ZGSZ,1997-01-16 12:00,ZGSZ 161200Z AUTO 14008KT 9SM 18/14 A3003 RMK SLP173 T01790141 52016 IEM_DS3505
ZGSZ,1997-01-16 13:00,ZGSZ 161300Z AUTO 12004KT 1 1/2SM 18/16 A3003 RMK T01800160 IEM_DS3505
ZGSZ,1997-01-16 14:00,ZGSZ 161400Z AUTO 11004KT 2 1/2SM 18/15 A3006 RMK T01800150 IEM_DS3505
ZGSZ,1997-01-16 15:00,ZGSZ 161500Z AUTO 12004KT 2 1/2SM 17/15 A3006 RMK T01700150 IEM_DS3505
ZGSZ,1997-01-16 16:00,ZGSZ 161600Z AUTO 11004KT 2 1/2SM 17/15 A3006 RMK T01700150 IEM_DS3505
ZGSZ,1997-01-16 17:00,ZGSZ 161700Z AUTO 11006KT 3SM 17/15 A3003 RMK T01700150 IEM_DS3505
ZGSZ,1997-01-16 18:00,ZGSZ 161800Z AUTO 09006KT 7SM 17/15 A3006 RMK SLP180 T01690148 57006 IEM_DS3505
ZGSZ,1997-01-16 21:00,ZGSZ 162100Z AUTO 09006KT 7SM 17/15 A3006 RMK SLP184 T01700148 52003 IEM_DS3505
ZGSZ,1997-01-16 22:00,ZGSZ 162200Z AUTO 11006KT 2SM 17/16 A3003 RMK T01700160 IEM_DS3505
ZGSZ,1997-01-16 23:00,ZGSZ 162300Z AUTO 11008KT 2 1/2SM 16/15 A3006 RMK T01600150 IEM_DS3505
ZGSZ,1997-01-17 00:00,ZGSZ 170000Z AUTO 11004KT 7SM 17/14 A3006 RMK SLP192 T01670144 52008 IEM_DS3505
ZGSZ,1997-01-17 01:00,ZGSZ 170100Z AUTO 10006KT 4SM 19/15 A3009 RMK T01900150 IEM_DS3505
ZGSZ,1997-01-17 02:00,ZGSZ 170200Z AUTO 10008KT 6SM 20/16 A3009 RMK T02000160 IEM_DS3505
ZGSZ,1997-01-17 03:00,ZGSZ 170300Z AUTO 09006KT 12SM 19/14 A3009 RMK SLP198 T01900140 52006 IEM_DS3505
ZGSZ,1997-01-17 04:00,ZGSZ 170400Z AUTO 15006KT 6SM 22/15 A3006 RMK T02200150 IEM_DS3505
ZGSZ,1997-01-17 05:00,ZGSZ 170500Z AUTO 20006KT 6SM 23/15 A3003 RMK T02300150 IEM_DS3505
ZGSZ,1997-01-17 06:00,ZGSZ 170600Z AUTO 11006KT 17SM 22/14 A3003 RMK SLP172 T02240141 57025 IEM_DS3505
ZGSZ,1997-01-17 07:00,ZGSZ 170700Z AUTO 21006KT 6SM 22/17 A3000 RMK T02200170 IEM_DS3505
ZGSZ,1997-01-17 08:00,ZGSZ 170800Z AUTO 21006KT 6SM 22/17 A3000 RMK T02200170 IEM_DS3505
ZGSZ,1997-01-17 09:00,ZGSZ 170900Z AUTO 14008KT 17SM 21/14 A3000 RMK SLP168 T02070136 57004 IEM_DS3505
ZGSZ,1997-01-17 10:00,ZGSZ 171000Z AUTO 20006KT 6SM 19/17 A3000 RMK T01900170 IEM_DS3505
ZGSZ,1997-01-17 11:00,ZGSZ 171100Z AUTO 18006KT 6SM 19/17 A3003 RMK T01900170 IEM_DS3505
ZGSZ,1997-01-17 12:00,ZGSZ 171200Z AUTO 14006KT 12SM 18/14 A3003 RMK SLP179 T01830141 52010 IEM_DS3505
ZGSZ,1997-01-17 13:00,ZGSZ 171300Z AUTO 19004KT 6SM 18/17 A3003 RMK T01800170 IEM_DS3505
ZGSZ,1997-01-17 14:00,ZGSZ 171400Z AUTO 05002KT 6SM 17/16 A3006 RMK T01700160 IEM_DS3505
ZGSZ,1997-01-17 15:00,ZGSZ 171500Z AUTO 13004KT 6SM 17/15 A3006 RMK T01700150 IEM_DS3505
ZGSZ,1997-01-17 18:00,ZGSZ 171800Z AUTO 09004KT 7SM 17/15 RMK SLP178 T01700148 57007 IEM_DS3505
ZGSZ,1997-01-17 21:00,ZGSZ 172100Z AUTO 04004KT 4SM 16/15 A3000 RMK SLP171 T01640147 57008 IEM_DS3505
ZGSZ,1997-01-17 22:00,ZGSZ 172200Z AUTO 07002KT 1 1/2SM 15/15 A3003 RMK T01500150 IEM_DS3505
ZGSZ,1997-01-17 23:00,ZGSZ 172300Z AUTO 11002KT 1 1/2SM 14/14 A3003 RMK T01400140 IEM_DS3505
ZGSZ,1997-01-18 00:00,ZGSZ 180000Z AUTO 09004KT 2 1/2SM 16/14 A3003 RMK SLP182 T01580142 52011 IEM_DS3505
ZGSZ,1997-01-18 01:00,ZGSZ 180100Z AUTO 02002KT 1 1/2SM 17/17 A3006 RMK T01700170 IEM_DS3505
ZGSZ,1997-01-18 02:00,ZGSZ 180200Z AUTO 29006KT 2SM 19/17 A3009 RMK T01900170 IEM_DS3505
ZGSZ,1997-01-18 03:00,ZGSZ 180300Z AUTO 09004KT 6SM 20/15 A3009 RMK SLP192 T01980154 52010 IEM_DS3505
ZGSZ,1997-01-18 04:00,ZGSZ 180400Z AUTO 27006KT 1 1/4SM 21/17 A3006 RMK T02100170 IEM_DS3505
ZGSZ,1997-01-18 05:00,ZGSZ 180500Z AUTO 30012KT 1SM 22/17 A3003 RMK T02200170 IEM_DS3505
ZGSZ,1997-01-18 06:00,ZGSZ 180600Z AUTO 04002KT 6SM 23/15 A3000 RMK SLP166 T02300154 57025 IEM_DS3505
ZGSZ,1997-01-18 07:00,ZGSZ 180700Z AUTO 29006KT 1 1/4SM 22/17 A3000 RMK T02200170 IEM_DS3505
ZGSZ,1997-01-18 08:00,ZGSZ 180800Z AUTO 29006KT 1 1/4SM 22/17 A2997 RMK T02200170 IEM_DS3505
ZGSZ,1997-01-18 09:00,ZGSZ 180900Z AUTO 14006KT 6SM 22/16 A2997 RMK SLP162 T02160162 57004 IEM_DS3505
ZGSZ,1997-01-18 10:00,ZGSZ 181000Z AUTO 30006KT 1SM 20/17 A3000 RMK T02000170 IEM_DS3505
ZGSZ,1997-01-18 11:00,ZGSZ 181100Z AUTO 29006KT 1 1/4SM 20/16 A3000 RMK T02000160 IEM_DS3505
ZGSZ,1997-01-18 12:00,ZGSZ 181200Z AUTO 14006KT 6SM 19/16 A3003 RMK SLP177 T01920160 52014 IEM_DS3505
ZGSZ,1997-01-18 13:00,ZGSZ 181300Z AUTO 29006KT 2 1/2SM 18/15 A3006 RMK T01800150 IEM_DS3505
ZGSZ,1997-01-18 14:00,ZGSZ 181400Z AUTO 29006KT 2 1/2SM 17/14 A3006 RMK T01700140 IEM_DS3505
ZGSZ,1997-01-18 18:00,ZGSZ 181800Z AUTO 04004KT 6SM 18/15 RMK SLP184 T01810152 57002 IEM_DS3505
ZGSZ,1997-01-18 21:00,ZGSZ 182100Z AUTO 04006KT 6SM 17/14 A3000 RMK SLP170 T01730145 57014 IEM_DS3505
ZGSZ,1997-01-18 22:00,ZGSZ 182200Z AUTO 36006KT 2 1/2SM 17/14 A3003 RMK T01700140 IEM_DS3505
ZGSZ,1997-01-18 23:00,ZGSZ 182300Z AUTO 36008KT 2 1/2SM 16/14 A3003 RMK T01600140 IEM_DS3505
ZGSZ,1997-01-19 00:00,ZGSZ 190000Z AUTO 04008KT 4SM 17/14 A3006 RMK SLP185 T01710141 52014 IEM_DS3505
ZGSZ,1997-01-19 01:00,ZGSZ 190100Z AUTO 05004KT 7SM 17/15 A3009 RMK T01700150 IEM_DS3505
ZGSZ,1997-01-19 02:00,ZGSZ 190200Z AUTO 05002KT 7SM 18/15 A3012 RMK T01800150 IEM_DS3505
ZGSZ,1997-01-19 03:00,ZGSZ 190300Z AUTO 04004KT 4SM 17/13 A3012 RMK SLP203 T01730126 52018 IEM_DS3505
ZGSZ,1997-01-19 04:00,ZGSZ 190400Z AUTO 31008KT 4SM 18/15 A3009 RMK T01800150 IEM_DS3505
ZGSZ,1997-01-19 05:00,ZGSZ 190500Z AUTO 36010KT 4SM 18/14 A3009 RMK T01800140 IEM_DS3505
ZGSZ,1997-01-19 06:00,ZGSZ 190600Z AUTO 36002KT 4SM 19/14 A3003 RMK SLP177 T01920136 57026 IEM_DS3505
ZGSZ,1997-01-19 07:00,ZGSZ 190700Z AUTO 02006KT 6SM 20/14 A3000 RMK T02000140 IEM_DS3505
ZGSZ,1997-01-19 08:00,ZGSZ 190800Z AUTO 35008KT 6SM 20/14 A3000 RMK T02000140 IEM_DS3505
ZGSZ,1997-01-19 09:00,ZGSZ 190900Z AUTO 04002KT 4SM 20/13 A3000 RMK SLP164 T02030133 57012 IEM_DS3505
ZGSZ,1997-01-19 10:00,ZGSZ 191000Z AUTO 31008KT 3SM 18/15 A3000 RMK T01800150 IEM_DS3505
ZGSZ,1997-01-19 11:00,ZGSZ 191100Z AUTO 36004KT 3SM 18/14 A3003 RMK T01800140 IEM_DS3505
ZGSZ,1997-01-19 12:00,ZGSZ 191200Z AUTO 00000KT 4SM 18/15 A3003 RMK SLP173 T01820151 52008 IEM_DS3505
ZGSZ,1997-01-19 13:00,ZGSZ 191300Z AUTO 35006KT 2SM 17/14 A3003 RMK T01700140 IEM_DS3505
ZGSZ,1997-01-19 14:00,ZGSZ 191400Z AUTO 34004KT 2SM 17/14 A3003 RMK T01700140 IEM_DS3505
ZGSZ,1997-01-19 15:00,ZGSZ 191500Z AUTO 32006KT 1 1/2SM 16/14 A3003 RMK T01600140 IEM_DS3505
ZGSZ,1997-01-19 18:00,ZGSZ 191800Z AUTO 04002KT 6SM 16/13 RMK SLP169 T01620126 57013 IEM_DS3505
ZGSZ,1997-01-19 21:00,ZGSZ 192100Z AUTO 04004KT 7SM 16/12 A3000 RMK SLP165 T01550118 57004 IEM_DS3505
ZGSZ,1997-01-19 22:00,ZGSZ 192200Z AUTO 07002KT 3SM 15/14 A3000 RMK T01500140 IEM_DS3505
ZGSZ,1997-01-19 23:00,ZGSZ 192300Z AUTO 34002KT 3SM 15/14 A3003 RMK T01500140 IEM_DS3505
ZGSZ,1997-01-20 00:00,ZGSZ 200000Z AUTO 04002KT 6SM 16/12 A3003 RMK SLP176 T01570122 52011 IEM_DS3505
ZGSZ,1997-01-20 01:00,ZGSZ 200100Z AUTO 00000KT 2 1/2SM 16/15 A3006 RMK T01600150 IEM_DS3505
ZGSZ,1997-01-20 02:00,ZGSZ 200200Z AUTO 30002KT 2SM 17/15 A3006 RMK T01700150 IEM_DS3505
ZGSZ,1997-01-20 03:00,ZGSZ 200300Z AUTO 04006KT 4SM 20/15 A3006 RMK SLP186 T01960147 52010 IEM_DS3505
ZGSZ,1997-01-20 04:00,ZGSZ 200400Z AUTO 07002KT 2 1/2SM 21/16 A3003 RMK T02100160 IEM_DS3505
ZGSZ,1997-01-20 05:00,ZGSZ 200500Z AUTO 26004KT 2SM 23/17 A2997 RMK T02300170 IEM_DS3505
ZGSZ,1997-01-20 06:00,ZGSZ 200600Z AUTO 09008KT 5SM 24/16 A2994 RMK SLP144 T02380159 57041 IEM_DS3505
ZGSZ,1997-01-20 07:00,ZGSZ 200700Z AUTO 22004KT 2SM 22/17 A2991 RMK T02200170 IEM_DS3505
ZGSZ,1997-01-20 08:00,ZGSZ 200800Z AUTO 22004KT 2SM 22/17 A2991 RMK T02200170 IEM_DS3505
ZGSZ,1997-01-20 09:00,ZGSZ 200900Z AUTO 14008KT 5SM 22/16 A2991 RMK SLP139 T02180155 57005 IEM_DS3505
ZGSZ,1997-01-20 10:00,ZGSZ 201000Z AUTO 21002KT 2SM 20/17 A2991 RMK T02000170 IEM_DS3505
ZGSZ,1997-01-20 11:00,ZGSZ 201100Z AUTO 19002KT 1 1/2SM 19/18 A2994 RMK T01900180 IEM_DS3505
ZGSZ,1997-01-20 12:00,ZGSZ 201200Z AUTO 14008KT 4SM 19/15 A2997 RMK SLP156 T01860154 52016 IEM_DS3505
ZGSZ,1997-01-20 13:00,ZGSZ 201300Z AUTO 00000KT 1 1/2SM 19/18 A2997 RMK T01900180 IEM_DS3505
ZGSZ,1997-01-20 14:00,ZGSZ 201400Z AUTO 14004KT 1 1/2SM 19/18 A3000 RMK T01900180 IEM_DS3505
ZGSZ,1997-01-20 15:00,ZGSZ 201500Z AUTO 10002KT 1 1/2SM 19/17 A3000 RMK T01900170 IEM_DS3505
ZGSZ,1997-01-20 16:00,ZGSZ 201600Z AUTO 09002KT 1 1/2SM 19/17 A3000 RMK T01900170 IEM_DS3505
ZGSZ,1997-01-20 17:00,ZGSZ 201700Z AUTO 11008KT 1 1/2SM 19/17 A3000 RMK T01900170 IEM_DS3505
ZGSZ,1997-01-20 18:00,ZGSZ 201800Z AUTO 11008KT 4SM 18/16 RMK SLP163 T01840161 57002 IEM_DS3505
ZGSZ,1997-01-20 21:00,ZGSZ 202100Z AUTO 09004KT 4SM 18/16 A3000 RMK SLP165 T01760156 52004 IEM_DS3505
ZGSZ,1997-01-20 22:00,ZGSZ 202200Z AUTO 11006KT 1 1/2SM 17/16 A3000 RMK T01700160 IEM_DS3505
ZGSZ,1997-01-20 23:00,ZGSZ 202300Z AUTO 10004KT 1 1/2SM 17/16 A3003 RMK T01700160 IEM_DS3505
ZGSZ,1997-01-21 00:00,ZGSZ 210000Z AUTO 14006KT 6SM 17/15 A3003 RMK SLP181 T01730151 52013 IEM_DS3505
ZGSZ,1997-01-21 01:00,ZGSZ 210100Z AUTO 11004KT 2SM 19/17 A3006 RMK T01900170 IEM_DS3505
ZGSZ,1997-01-21 02:00,ZGSZ 210200Z AUTO 14002KT 2 1/2SM 21/18 A3006 RMK T02100180 IEM_DS3505
ZGSZ,1997-01-21 03:00,ZGSZ 210300Z AUTO 04002KT 7SM 21/16 A3006 RMK SLP184 T02060158 52004 IEM_DS3505
ZGSZ,1997-01-21 04:00,ZGSZ 210400Z AUTO 29006KT 2 1/2SM 23/18 A3003 RMK T02300180 IEM_DS3505
ZGSZ,1997-01-21 05:00,ZGSZ 210500Z AUTO 26006KT 4SM 23/18 A3000 RMK T02300180 IEM_DS3505
ZGSZ,1997-01-21 06:00,ZGSZ 210600Z AUTO 04006KT 6SM 26/17 A2997 RMK SLP156 T02610166 57028 IEM_DS3505
ZGSZ,1997-01-21 07:00,ZGSZ 210700Z AUTO 25002KT 6SM 23/17 A2997 RMK T02300170 IEM_DS3505
ZGSZ,1997-01-21 08:00,ZGSZ 210800Z AUTO 22002KT 6SM 23/18 A2997 RMK T02300180 IEM_DS3505
ZGSZ,1997-01-21 09:00,ZGSZ 210900Z AUTO 14006KT 7SM 22/16 A2997 RMK SLP161 T02250161 52005 IEM_DS3505
ZGSZ,1997-01-21 10:00,ZGSZ 211000Z AUTO 19006KT 2 1/2SM 21/19 A3000 RMK T02100190 IEM_DS3505
ZGSZ,1997-01-21 11:00,ZGSZ 211100Z AUTO 16004KT 2 1/2SM 20/19 A3000 RMK T02000190 IEM_DS3505
ZGSZ,1997-01-21 12:00,ZGSZ 211200Z AUTO 11010KT 6SM 19/16 A3003 RMK SLP176 T01910159 52014 IEM_DS3505
ZGSZ,1997-01-21 13:00,ZGSZ 211300Z AUTO 10008KT 2SM 20/17 A3003 RMK T02000170 IEM_DS3505
ZGSZ,1997-01-21 14:00,ZGSZ 211400Z AUTO 11008KT 4SM 20/17 A3006 RMK T02000170 IEM_DS3505
ZGSZ,1997-01-21 15:00,ZGSZ 211500Z AUTO 11014KT 4SM 20/18 A3006 RMK T02000180 IEM_DS3505
ZGSZ,1997-01-21 16:00,ZGSZ 211600Z AUTO 11012KT 4SM 19/16 A3006 RMK T01900160 IEM_DS3505
ZGSZ,1997-01-21 18:00,ZGSZ 211800Z AUTO 11010KT 7SM 18/13 RMK SLP189 T01750129 52001 IEM_DS3505
ZGSZ,1997-01-21 21:00,ZGSZ 212100Z AUTO 09012KT 6SM 17/13 A3003 RMK SLP182 T01710130 57007 IEM_DS3505
ZGSZ,1997-01-21 22:00,ZGSZ 212200Z AUTO 12010KT 6SM 17/15 A3003 RMK T01700150 IEM_DS3505
ZGSZ,1997-01-21 23:00,ZGSZ 212300Z AUTO 11012KT 2 1/2SM 17/15 A3006 RMK T01700150 IEM_DS3505
ZGSZ,1997-01-22 00:00,ZGSZ 220000Z AUTO 09008KT 6SM 17/13 A3006 RMK SLP193 T01700133 52010 IEM_DS3505
ZGSZ,1997-01-22 01:00,ZGSZ 220100Z AUTO 10016KT 6SM 18/15 A3009 RMK T01800150 IEM_DS3505
ZGSZ,1997-01-22 02:00,ZGSZ 220200Z AUTO 11016KT 7SM 19/15 A3009 RMK T01900150 IEM_DS3505
ZGSZ,1997-01-22 03:00,ZGSZ 220300Z AUTO 07010KT 6SM 17/12 A3009 RMK SLP199 T01690124 52006 IEM_DS3505
ZGSZ,1997-01-22 04:00,ZGSZ 220400Z AUTO 12014KT 7SM 19/14 A3006 RMK T01900140 IEM_DS3505
ZGSZ,1997-01-22 05:00,ZGSZ 220500Z AUTO 10014KT 7SM 19/14 A3003 RMK T01900140 IEM_DS3505
ZGSZ,1997-01-22 06:00,ZGSZ 220600Z AUTO 07006KT 4SM 17/12 A3000 RMK SLP171 T01670122 57028 IEM_DS3505
ZGSZ,1997-01-22 07:00,ZGSZ 220700Z AUTO 09012KT 5SM 18/14 A3000 RMK T01800140 IEM_DS3505
ZGSZ,1997-01-22 08:00,ZGSZ 220800Z AUTO 11016KT 5SM 18/14 A2997 RMK T01800140 IEM_DS3505
ZGSZ,1997-01-22 09:00,ZGSZ 220900Z AUTO 14010KT 4SM 16/11 A2997 RMK SLP161 T01620114 57010 IEM_DS3505
ZGSZ,1997-01-22 10:00,ZGSZ 221000Z AUTO 11012KT 4SM 17/14 A2997 RMK T01700140 IEM_DS3505
ZGSZ,1997-01-22 11:00,ZGSZ 221100Z AUTO 11012KT 4SM 16/13 A2997 RMK T01600130 IEM_DS3505
ZGSZ,1997-01-22 12:00,ZGSZ 221200Z AUTO 09008KT 4SM 16/12 A2997 RMK SLP159 T01580118 57002 IEM_DS3505
ZGSZ,1997-01-22 13:00,ZGSZ 221300Z AUTO 12012KT 5SM 17/14 A3000 RMK T01700140 IEM_DS3505
ZGSZ,1997-01-22 14:00,ZGSZ 221400Z AUTO 10016KT 7SM 16/14 A2997 RMK T01600140 IEM_DS3505
ZGSZ,1997-01-22 15:00,ZGSZ 221500Z AUTO 11014KT 7SM 16/14 A2997 RMK T01600140 IEM_DS3505
ZGSZ,1997-01-22 16:00,ZGSZ 221600Z AUTO 11017KT 7SM 16/14 A2994 RMK T01600140 IEM_DS3505
ZGSZ,1997-01-22 18:00,ZGSZ 221800Z AUTO 09006KT 9SM 15/13 RMK 60000 SLP143 T01510126 57020 IEM_DS3505
ZGSZ,1997-01-22 21:00,ZGSZ 222100Z AUTO 14010KT 9SM 16/13 A2985 RMK 70002 SLP126 T01550128 57017 IEM_DS3505
ZGSZ,1997-01-22 22:00,ZGSZ 222200Z AUTO 11010KT 7SM 16/15 A2985 RMK T01600150 IEM_DS3505
ZGSZ,1997-01-22 23:00,ZGSZ 222300Z AUTO 12012KT 7SM 16/15 A2985 RMK T01600150 IEM_DS3505
ZGSZ,1997-01-23 00:00,ZGSZ 230000Z AUTO 11008KT 6SM 16/14 A2985 RMK 60002 70002 SLP127 T01590138 52001 IEM_DS3505
ZGSZ,1997-01-23 01:00,ZGSZ 230100Z AUTO 12012KT 7SM 17/16 A2985 RMK T01700160 IEM_DS3505
ZGSZ,1997-01-23 02:00,ZGSZ 230200Z AUTO 12012KT 7SM 19/16 A2988 RMK T01900160 IEM_DS3505
ZGSZ,1997-01-23 03:00,ZGSZ 230300Z AUTO 14006KT 6SM 17/15 A2985 RMK SLP122 T01680146 57005 IEM_DS3505
ZGSZ,1997-01-23 04:00,ZGSZ 230400Z AUTO 11010KT 7SM 19/17 A2983 RMK T01900170 IEM_DS3505
ZGSZ,1997-01-23 05:00,ZGSZ 230500Z AUTO 12014KT 7SM 18/17 A2977 RMK T01800170 IEM_DS3505
ZGSZ,1997-01-23 06:00,ZGSZ 230600Z AUTO 14010KT 6SM 17/16 A2974 RMK 60002 SLP086 T01670155 57036 IEM_DS3505
ZGSZ,1997-01-23 07:00,ZGSZ 230700Z AUTO 34008KT 2SM 18/18 A2974 RMK T01800180 IEM_DS3505
ZGSZ,1997-01-23 08:00,ZGSZ 230800Z AUTO 33014KT 1SM 16/16 A2974 RMK T01600160 IEM_DS3505
ZGSZ,1997-01-23 09:00,ZGSZ 230900Z AUTO 32010KT 4SM 17/17 RMK SLP086 T01710166 54000 IEM_DS3505
ZGSZ,1997-01-23 10:00,ZGSZ 231000Z AUTO 35014KT 7SM 13/13 A2983 RMK T01300130 IEM_DS3505
ZGSZ,1997-01-23 11:00,ZGSZ 231100Z AUTO 36012KT 7SM 12/12 A2985 RMK T01200120 IEM_DS3505
ZGSZ,1997-01-23 12:00,ZGSZ 231200Z AUTO 02008KT 5SM 12/11 A2991 RMK 60059 SLP132 T01250112 52046 IEM_DS3505
ZGSZ,1997-01-23 13:00,ZGSZ 231300Z AUTO 01014KT 7SM 12/12 A2991 RMK T01200120 IEM_DS3505
ZGSZ,1997-01-23 14:00,ZGSZ 231400Z AUTO 36010KT 7SM 12/11 A2991 RMK T01200110 IEM_DS3505
ZGSZ,1997-01-23 15:00,ZGSZ 231500Z AUTO 36014KT 7SM 11/11 A2991 RMK T01100110 IEM_DS3505
ZGSZ,1997-01-23 16:00,ZGSZ 231600Z AUTO 02012KT 7SM 11/10 A2991 RMK T01100100 IEM_DS3505
ZGSZ,1997-01-23 17:00,ZGSZ 231700Z AUTO 36012KT 7SM 11/10 A2994 RMK T01100100 IEM_DS3505
ZGSZ,1997-01-23 18:00,ZGSZ 231800Z AUTO 34002KT 12SM 10/08 A2994 RMK 60031 SLP142 T01040077 52001 IEM_DS3505
ZGSZ,1997-01-23 19:00,ZGSZ 231900Z AUTO 36014KT 7SM 10/09 A2994 RMK T01000090 IEM_DS3505
ZGSZ,1997-01-23 21:00,ZGSZ 232100Z AUTO 04008KT 12SM 10/08 A2994 RMK 70091 SLP145 T01000075 52003 IEM_DS3505
ZGSZ,1997-01-23 22:00,ZGSZ 232200Z AUTO 01010KT 6SM 10/08 A3000 RMK T01000080 IEM_DS3505
ZGSZ,1997-01-23 23:00,ZGSZ 232300Z AUTO 36012KT 7SM 09/06 A3003 RMK T00900060 IEM_DS3505
ZGSZ,1997-01-24 00:00,ZGSZ 240000Z AUTO 04008KT 17SM 09/06 RMK 70091 SLP167 T00920059 52021 IEM_DS3505
ZGSZ,1997-01-24 01:00,ZGSZ 240100Z AUTO 36012KT 6SM 09/06 A3003 RMK T00900060 IEM_DS3505
ZGSZ,1997-01-24 02:00,ZGSZ 240200Z AUTO 01010KT 6SM 10/06 A3006 RMK T01000060 IEM_DS3505
ZGSZ,1997-01-24 03:00,ZGSZ 240300Z AUTO 07008KT 19SM 10/03 RMK SLP186 T01000033 52019 IEM_DS3505
ZGSZ,1997-01-24 04:00,ZGSZ 240400Z AUTO 02014KT 6SM 11/06 A3006 RMK T01100060 IEM_DS3505
ZGSZ,1997-01-24 05:00,ZGSZ 240500Z AUTO 36012KT 6SM 11/06 A3003 RMK T01100060 IEM_DS3505
ZGSZ,1997-01-24 06:00,ZGSZ 240600Z AUTO 36008KT 16SM 12/04 A3000 RMK SLP165 T01250041 57021 IEM_DS3505
ZGSZ,1997-01-24 07:00,ZGSZ 240700Z AUTO 01012KT 6SM 12/05 A3000 RMK T01200050 IEM_DS3505
ZGSZ,1997-01-24 08:00,ZGSZ 240800Z AUTO 02010KT 6SM 12/05 A3000 RMK T01200050 IEM_DS3505
ZGSZ,1997-01-24 09:00,ZGSZ 240900Z AUTO 36006KT 10SM 12/05 A3000 RMK SLP165 T01200050 54000 IEM_DS3505
ZGSZ,1997-01-24 10:00,ZGSZ 241000Z AUTO 02012KT 6SM 12/05 A3003 RMK T01200050 IEM_DS3505
ZGSZ,1997-01-24 11:00,ZGSZ 241100Z AUTO 03008KT 6SM 11/05 A3003 RMK T01100050 IEM_DS3505
ZGSZ,1997-01-24 12:00,ZGSZ 241200Z AUTO 36010KT 11SM 10/02 A3006 RMK SLP189 T01010020 52024 IEM_DS3505
ZGSZ,1997-01-24 13:00,ZGSZ 241300Z AUTO 03014KT 6SM 09/04 A3009 RMK T00900040 IEM_DS3505
ZGSZ,1997-01-24 14:00,ZGSZ 241400Z AUTO 03010KT 6SM 09/04 A3009 RMK T00900040 IEM_DS3505
ZGSZ,1997-01-24 15:00,ZGSZ 241500Z AUTO 03008KT 6SM 08/04 A3009 RMK T00800040 IEM_DS3505
ZGSZ,1997-01-24 16:00,ZGSZ 241600Z AUTO 02010KT 6SM 08/03 A3009 RMK T00800030 IEM_DS3505
ZGSZ,1997-01-24 18:00,ZGSZ 241800Z AUTO 04012KT 12SM 07/02 RMK SLP191 T00740015 57007 IEM_DS3505
ZGSZ,1997-01-24 21:00,ZGSZ 242100Z AUTO 04008KT 12SM 07/02 A3009 RMK SLP194 T00730016 52003 IEM_DS3505
ZGSZ,1997-01-24 22:00,ZGSZ 242200Z AUTO 01010KT 7SM 07/03 A3012 RMK T00700030 IEM_DS3505
ZGSZ,1997-01-24 23:00,ZGSZ 242300Z AUTO 02010KT 7SM 07/03 A3012 RMK T00700030 IEM_DS3505
ZGSZ,1997-01-25 00:00,ZGSZ 250000Z AUTO 36008KT 8SM 07/02 A3015 RMK SLP214 T00730019 52020 IEM_DS3505
ZGSZ,1997-01-25 01:00,ZGSZ 250100Z AUTO 02010KT 7SM 08/03 A3018 RMK T00800030 IEM_DS3505
ZGSZ,1997-01-25 02:00,ZGSZ 250200Z AUTO 02012KT 7SM 08/03 A3021 RMK T00800030 IEM_DS3505
ZGSZ,1997-01-25 03:00,ZGSZ 250300Z AUTO 04006KT 5SM 08/03 A3021 RMK SLP234 T00810029 52019 IEM_DS3505
ZGSZ,1997-01-25 04:00,ZGSZ 250400Z AUTO 03012KT 7SM 08/04 A3018 RMK T00800040 IEM_DS3505
ZGSZ,1997-01-25 05:00,ZGSZ 250500Z AUTO 01010KT 7SM 09/04 A3015 RMK T00900040 IEM_DS3505
ZGSZ,1997-01-25 06:00,ZGSZ 250600Z AUTO 04006KT 5SM 10/04 A3012 RMK SLP207 T01020038 57026 IEM_DS3505
ZGSZ,1997-01-25 07:00,ZGSZ 250700Z AUTO 01008KT 7SM 11/06 A3012 RMK T01100060 IEM_DS3505
ZGSZ,1997-01-25 08:00,ZGSZ 250800Z AUTO 36010KT 7SM 11/05 A3009 RMK T01100050 IEM_DS3505
ZGSZ,1997-01-25 09:00,ZGSZ 250900Z AUTO 04006KT 5SM 11/04 A3012 RMK SLP199 T01100043 57008 IEM_DS3505
ZGSZ,1997-01-25 10:00,ZGSZ 251000Z AUTO 02006KT 7SM 11/06 A3012 RMK T01100060 IEM_DS3505
ZGSZ,1997-01-25 11:00,ZGSZ 251100Z AUTO 02004KT 7SM 11/06 A3012 RMK T01100060 IEM_DS3505
ZGSZ,1997-01-25 12:00,ZGSZ 251200Z AUTO 09002KT 5SM 11/04 A3015 RMK SLP215 T01090044 52016 IEM_DS3505
ZGSZ,1997-01-25 13:00,ZGSZ 251300Z AUTO 01008KT 7SM 11/06 A3018 RMK T01100060 IEM_DS3505
ZGSZ,1997-01-25 14:00,ZGSZ 251400Z AUTO 01006KT 7SM 11/06 A3018 RMK T01100060 IEM_DS3505
ZGSZ,1997-01-25 15:00,ZGSZ 251500Z AUTO 36004KT 7SM 11/06 A3018 RMK T01100060 IEM_DS3505
ZGSZ,1997-01-25 18:00,ZGSZ 251800Z AUTO 04008KT 5SM 11/04 RMK SLP221 T01080043 57003 IEM_DS3505
ZGSZ,1997-01-25 21:00,ZGSZ 252100Z AUTO 04006KT 5SM 10/02 A3018 RMK SLP218 T01020024 57003 IEM_DS3505
ZGSZ,1997-01-25 22:00,ZGSZ 252200Z AUTO 35008KT 7SM 08/05 A3018 RMK T00800050 IEM_DS3505
ZGSZ,1997-01-25 23:00,ZGSZ 252300Z AUTO 35008KT 7SM 08/04 A3018 RMK T00800040 IEM_DS3505
ZGSZ,1997-01-26 00:00,ZGSZ 260000Z AUTO 04006KT 7SM 09/02 A3021 RMK SLP231 T00900020 52013 IEM_DS3505
ZGSZ,1997-01-26 01:00,ZGSZ 260100Z AUTO 02008KT 4SM 09/03 A3021 RMK T00900030 IEM_DS3505
ZGSZ,1997-01-26 02:00,ZGSZ 260200Z AUTO 02008KT 6SM 11/04 A3021 RMK T01100040 IEM_DS3505
ZGSZ,1997-01-26 03:00,ZGSZ 260300Z AUTO 04006KT 7SM 12/01 A3021 RMK SLP234 T01150006 52003 IEM_DS3505
ZGSZ,1997-01-26 04:00,ZGSZ 260400Z AUTO 36010KT 6SM 14/04 A3018 RMK T01400040 IEM_DS3505
ZGSZ,1997-01-26 05:00,ZGSZ 260500Z AUTO 34010KT 6SM 15/04 A3015 RMK T01500040 IEM_DS3505
ZGSZ,1997-01-26 06:00,ZGSZ 260600Z AUTO 04006KT 9SM 17/02 A3012 RMK SLP198 T01660018 57035 IEM_DS3505
ZGSZ,1997-01-26 07:00,ZGSZ 260700Z AUTO 35008KT 6SM 16/04 A3009 RMK T01600040 IEM_DS3505
ZGSZ,1997-01-26 08:00,ZGSZ 260800Z AUTO 30006KT 6SM 16/05 A3009 RMK T01600050 IEM_DS3505
ZGSZ,1997-01-26 09:00,ZGSZ 260900Z AUTO 34002KT 7SM 17/04 A3009 RMK SLP193 T01680043 57005 IEM_DS3505
ZGSZ,1997-01-26 10:00,ZGSZ 261000Z AUTO 02006KT 6SM 15/05 A3012 RMK T01500050 IEM_DS3505
ZGSZ,1997-01-26 11:00,ZGSZ 261100Z AUTO 01004KT 6SM 14/05 A3012 RMK T01400050 IEM_DS3505
ZGSZ,1997-01-26 12:00,ZGSZ 261200Z AUTO 04004KT 7SM 14/06 A3015 RMK SLP212 T01380058 52018 IEM_DS3505
ZGSZ,1997-01-26 13:00,ZGSZ 261300Z AUTO 11004KT 1 1/2SM 12/07 A3015 RMK T01200070 IEM_DS3505
ZGSZ,1997-01-26 14:00,ZGSZ 261400Z AUTO 04002KT 2 1/2SM 11/07 A3015 RMK T01100070 IEM_DS3505
ZGSZ,1997-01-26 15:00,ZGSZ 261500Z AUTO 08002KT 2 1/2SM 11/07 A3015 RMK T01100070 IEM_DS3505
ZGSZ,1997-01-26 16:00,ZGSZ 261600Z AUTO 00000KT 2 1/2SM 11/07 A3015 RMK T01100070 IEM_DS3505
ZGSZ,1997-01-26 18:00,ZGSZ 261800Z AUTO 02002KT 9SM 12/04 RMK SLP211 T01210044 57006 IEM_DS3505
ZGSZ,1997-01-26 21:00,ZGSZ 262100Z AUTO 04006KT 9SM 11/03 A3012 RMK SLP203 T01120029 57008 IEM_DS3505
ZGSZ,1997-01-26 22:00,ZGSZ 262200Z AUTO 36004KT 6SM 11/04 A3015 RMK T01100040 IEM_DS3505
ZGSZ,1997-01-26 23:00,ZGSZ 262300Z AUTO 36006KT 6SM 11/04 A3015 RMK T01100040 IEM_DS3505
ZGSZ,1997-01-27 00:00,ZGSZ 270000Z AUTO 04006KT 9SM 10/02 A3018 RMK SLP222 T01040021 52018 IEM_DS3505
ZGSZ,1997-01-27 01:00,ZGSZ 270100Z AUTO 35006KT 6SM 11/05 A3018 RMK T01100050 IEM_DS3505
ZGSZ,1997-01-27 02:00,ZGSZ 270200Z AUTO 02006KT 6SM 13/04 A3021 RMK T01300040 IEM_DS3505
ZGSZ,1997-01-27 03:00,ZGSZ 270300Z AUTO 34006KT 6SM 13/03 A3021 RMK SLP230 T01340027 52008 IEM_DS3505
ZGSZ,1997-01-27 04:00,ZGSZ 270400Z AUTO 34012KT 6SM 15/02 A3018 RMK T01500020 IEM_DS3505
ZGSZ,1997-01-27 05:00,ZGSZ 270500Z AUTO 35008KT 6SM 16/01 A3012 RMK T01600010 IEM_DS3505
ZGSZ,1997-01-27 06:00,ZGSZ 270600Z AUTO 36004KT 6SM 19/03 A3009 RMK SLP187 T01920026 57042 IEM_DS3505
ZGSZ,1997-01-27 07:00,ZGSZ 270700Z AUTO 29008KT 6SM 18/03 A3006 RMK T01800030 IEM_DS3505
ZGSZ,1997-01-27 08:00,ZGSZ 270800Z AUTO 29008KT 6SM 18/03 A3006 RMK T01800030 IEM_DS3505
ZGSZ,1997-01-27 09:00,ZGSZ 270900Z AUTO 34006KT 7SM 18/00 A3006 RMK SLP183 T01780005 57004 IEM_DS3505
ZGSZ,1997-01-27 10:00,ZGSZ 271000Z AUTO 32006KT 6SM 16/02 A3006 RMK T01600020 IEM_DS3505
ZGSZ,1997-01-27 11:00,ZGSZ 271100Z AUTO 36004KT 6SM 15/01 A3006 RMK T01500010 IEM_DS3505
ZGSZ,1997-01-27 12:00,ZGSZ 271200Z AUTO 34006KT 6SM 15/01 A3009 RMK SLP195 T01500008 52011 IEM_DS3505
ZGSZ,1997-01-27 13:00,ZGSZ 271300Z AUTO 36004KT 2 1/2SM 13/03 A3009 RMK T01300030 IEM_DS3505
ZGSZ,1997-01-27 14:00,ZGSZ 271400Z AUTO 34002KT 2 1/2SM 12/04 A3012 RMK T01200040 IEM_DS3505
ZGSZ,1997-01-27 15:00,ZGSZ 271500Z AUTO 07004KT 2 1/2SM 12/04 A3012 RMK T01200040 IEM_DS3505
ZGSZ,1997-01-27 18:00,ZGSZ 271800Z AUTO 02004KT 5SM 12/05 RMK SLP192 T01170049 57014 IEM_DS3505
ZGSZ,1997-01-27 21:00,ZGSZ 272100Z AUTO 04004KT 6SM 12/01 A3009 RMK SLP191 T01160014 57001 IEM_DS3505
ZGSZ,1997-01-27 22:00,ZGSZ 272200Z AUTO 34006KT 6SM 10/02 A3009 RMK T01000020 IEM_DS3505
ZGSZ,1997-01-27 23:00,ZGSZ 272300Z AUTO 35006KT 6SM 09/03 A3012 RMK T00900030 IEM_DS3505
ZGSZ,1997-01-28 00:00,ZGSZ 280000Z AUTO 07006KT 9SM 11/01 A3012 RMK SLP209 T01090010 52017 IEM_DS3505
ZGSZ,1997-01-28 01:00,ZGSZ 280100Z AUTO 00000KT 6SM 14/02 A3015 RMK T01400020 IEM_DS3505
ZGSZ,1997-01-28 02:00,ZGSZ 280200Z AUTO 22002KT 6SM 15/01 A3015 RMK T01500010 IEM_DS3505
ZGSZ,1997-01-28 03:00,ZGSZ 280300Z AUTO 36004KT 9SM 15/01 A3015 RMK SLP208 T01470010 57001 IEM_DS3505
ZGSZ,1997-01-28 04:00,ZGSZ 280400Z AUTO 24004KT 6SM 18/01 A3009 RMK T01800010 IEM_DS3505
ZGSZ,1997-01-28 05:00,ZGSZ 280500Z AUTO 26006KT 6SM 19/02 A3006 RMK T01900020 IEM_DS3505
ZGSZ,1997-01-28 06:00,ZGSZ 280600Z AUTO 04004KT 11SM 21/02 A3003 RMK SLP176 T02120015 57031 IEM_DS3505
ZGSZ,1997-01-28 07:00,ZGSZ 280700Z AUTO 26006KT 6SM 19/05 A3003 RMK T01900050 IEM_DS3505
ZGSZ,1997-01-28 08:00,ZGSZ 280800Z AUTO 28006KT 6SM 19/01 A3003 RMK T01900010 IEM_DS3505
ZGSZ,1997-01-28 09:00,ZGSZ 280900Z AUTO 25004KT 8SM 19/03 A3003 RMK SLP176 T01870034 54000 IEM_DS3505
ZGSZ,1997-01-28 10:00,ZGSZ 281000Z AUTO 00000KT 6SM 17/03 A3003 RMK T01700030 IEM_DS3505
ZGSZ,1997-01-28 11:00,ZGSZ 281100Z AUTO 07002KT 6SM 15/05 A3003 RMK T01500050 IEM_DS3505
ZGSZ,1997-01-28 12:00,ZGSZ 281200Z AUTO 11004KT 7SM 16/06 A3003 RMK SLP182 T01550057 50006 IEM_DS3505
ZGSZ,1997-01-28 13:00,ZGSZ 281300Z AUTO 08004KT 2SM 13/05 A3006 RMK T01300050 IEM_DS3505
ZGSZ,1997-01-28 14:00,ZGSZ 281400Z AUTO 10004KT 1 1/2SM 12/06 A3006 RMK T01200060 IEM_DS3505
ZGSZ,1997-01-28 15:00,ZGSZ 281500Z AUTO 11002KT 1 1/2SM 12/06 A3006 RMK T01200060 IEM_DS3505
ZGSZ,1997-01-28 16:00,ZGSZ 281600Z AUTO 12002KT 1 1/2SM 13/05 A3003 RMK T01300050 IEM_DS3505
ZGSZ,1997-01-28 18:00,ZGSZ 281800Z AUTO 04004KT 6SM 14/08 RMK SLP180 T01370085 57006 IEM_DS3505
ZGSZ,1997-01-28 21:00,ZGSZ 282100Z AUTO 07006KT 6SM 12/08 A3003 RMK SLP182 T01200075 52002 IEM_DS3505
ZGSZ,1997-01-28 22:00,ZGSZ 282200Z AUTO 09004KT 4SM 13/07 A3006 RMK T01300070 IEM_DS3505
ZGSZ,1997-01-28 23:00,ZGSZ 282300Z AUTO 11006KT 6SM 14/04 A3009 RMK T01400040 IEM_DS3505
ZGSZ,1997-01-29 00:00,ZGSZ 290000Z AUTO 04004KT 7SM 12/06 A3009 RMK SLP197 T01150062 52014 IEM_DS3505
ZGSZ,1997-01-29 01:00,ZGSZ 290100Z AUTO 11006KT 6SM 15/07 A3009 RMK T01500070 IEM_DS3505
ZGSZ,1997-01-29 02:00,ZGSZ 290200Z AUTO 11004KT 6SM 19/01 A3012 RMK T01900010 IEM_DS3505
ZGSZ,1997-01-29 03:00,ZGSZ 290300Z AUTO 09004KT 16SM 18/01 A3009 RMK SLP198 T01790006 52002 IEM_DS3505
ZGSZ,1997-01-29 04:00,ZGSZ 290400Z AUTO 19004KT 6SM 22/M02 A3006 RMK T02201020 IEM_DS3505
ZGSZ,1997-01-29 05:00,ZGSZ 290500Z AUTO 22006KT 6SM 21/05 A3003 RMK T02100050 IEM_DS3505
ZGSZ,1997-01-29 06:00,ZGSZ 290600Z AUTO 09006KT 19SM 22/03 A3000 RMK SLP163 T02200030 57035 IEM_DS3505
ZGSZ,1997-01-29 07:00,ZGSZ 290700Z AUTO 25006KT 6SM 22/06 A2997 RMK T02200060 IEM_DS3505
ZGSZ,1997-01-29 09:00,ZGSZ 290900Z AUTO 09004KT 19SM 20/07 A2997 RMK SLP154 T02030070 57009 IEM_DS3505
ZGSZ,1997-01-29 10:00,ZGSZ 291000Z AUTO 20002KT 6SM 18/12 A2997 RMK T01800120 IEM_DS3505
ZGSZ,1997-01-29 11:00,ZGSZ 291100Z AUTO 13002KT 6SM 18/12 A2997 RMK T01800120 IEM_DS3505
ZGSZ,1997-01-29 12:00,ZGSZ 291200Z AUTO 09006KT 12SM 17/08 A2997 RMK SLP162 T01730084 52008 IEM_DS3505
ZGSZ,1997-01-29 13:00,ZGSZ 291300Z AUTO 10006KT 6SM 17/10 A2997 RMK T01700100 IEM_DS3505
ZGSZ,1997-01-29 14:00,ZGSZ 291400Z AUTO 11006KT 6SM 18/09 A2997 RMK T01800090 IEM_DS3505
ZGSZ,1997-01-29 15:00,ZGSZ 291500Z AUTO 11006KT 6SM 18/08 A2997 RMK T01800080 IEM_DS3505
ZGSZ,1997-01-29 16:00,ZGSZ 291600Z AUTO 10006KT 6SM 18/07 A2997 RMK T01800070 IEM_DS3505
ZGSZ,1997-01-29 21:00,ZGSZ 292100Z AUTO 04004KT 12SM 15/10 A2994 RMK SLP142 T01540099 57008 IEM_DS3505
ZGSZ,1997-01-29 22:00,ZGSZ 292200Z AUTO 07002KT 6SM 13/11 A2994 RMK T01300110 IEM_DS3505
ZGSZ,1997-01-29 23:00,ZGSZ 292300Z AUTO 33006KT 6SM 14/12 A2994 RMK T01400120 IEM_DS3505
ZGSZ,1997-01-30 00:00,ZGSZ 300000Z AUTO 04004KT 7SM 16/09 A2997 RMK SLP156 T01550089 52014 IEM_DS3505
ZGSZ,1997-01-30 01:00,ZGSZ 300100Z AUTO 00000KT 6SM 17/10 A2997 RMK T01700100 IEM_DS3505
ZGSZ,1997-01-30 02:00,ZGSZ 300200Z AUTO 08004KT 6SM 21/13 A2997 RMK T02100130 IEM_DS3505
ZGSZ,1997-01-30 03:00,ZGSZ 300300Z AUTO 07006KT 11SM 20/10 A3000 RMK SLP160 T02010097 52004 IEM_DS3505
ZGSZ,1997-01-30 04:00,ZGSZ 300400Z AUTO 29006KT 3SM 21/14 A2997 RMK T02100140 IEM_DS3505
ZGSZ,1997-01-30 05:00,ZGSZ 300500Z AUTO 27006KT 3SM 21/13 A2991 RMK T02100130 IEM_DS3505
ZGSZ,1997-01-30 06:00,ZGSZ 300600Z AUTO 04006KT 12SM 23/13 A2991 RMK SLP132 T02280132 57027 IEM_DS3505
ZGSZ,1997-01-30 07:00,ZGSZ 300700Z AUTO 28004KT 4SM 22/14 A2988 RMK T02200140 IEM_DS3505
ZGSZ,1997-01-30 08:00,ZGSZ 300800Z AUTO 28002KT 3SM 22/14 A2988 RMK T02200140 IEM_DS3505
ZGSZ,1997-01-30 09:00,ZGSZ 300900Z AUTO 11006KT 9SM 22/14 A2988 RMK SLP128 T02150136 57004 IEM_DS3505
ZGSZ,1997-01-30 10:00,ZGSZ 301000Z AUTO 18004KT 2 1/2SM 21/15 A2988 RMK T02100150 IEM_DS3505
ZGSZ,1997-01-30 11:00,ZGSZ 301100Z AUTO 16002KT 2 1/2SM 20/16 A2991 RMK T02000160 IEM_DS3505
ZGSZ,1997-01-30 12:00,ZGSZ 301200Z AUTO 11006KT 8SM 20/13 A2991 RMK SLP142 T01970132 52013 IEM_DS3505
ZGSZ,1997-01-30 13:00,ZGSZ 301300Z AUTO 14002KT 1 1/4SM 18/15 A2994 RMK T01800150 IEM_DS3505
ZGSZ,1997-01-30 14:00,ZGSZ 301400Z AUTO 12004KT 1 1/4SM 19/15 A2994 RMK T01900150 IEM_DS3505
ZGSZ,1997-01-30 15:00,ZGSZ 301500Z AUTO 12004KT 2SM 18/15 A2994 RMK T01800150 IEM_DS3505
ZGSZ,1997-01-30 18:00,ZGSZ 301800Z AUTO 04004KT 6SM 18/15 RMK SLP150 T01750146 52002 IEM_DS3505
ZGSZ,1997-01-30 21:00,ZGSZ 302100Z AUTO 04006KT 3SM 16/14 A2994 RMK SLP144 T01630142 57006 IEM_DS3505
ZGSZ,1997-01-30 22:00,ZGSZ 302200Z AUTO 16002KT 1 1/4SM 14/14 A2994 RMK T01400140 IEM_DS3505
ZGSZ,1997-01-30 23:00,ZGSZ 302300Z AUTO 26002KT 1SM 15/15 A2997 RMK T01500150 IEM_DS3505
ZGSZ,1997-01-31 00:00,ZGSZ 310000Z AUTO 04002KT 4SM 16/14 A2997 RMK SLP161 T01600141 52016 IEM_DS3505
ZGSZ,1997-01-31 01:00,ZGSZ 310100Z AUTO 00000KT 1 1/2SM 18/17 A3000 RMK T01800170 IEM_DS3505
ZGSZ,1997-01-31 02:00,ZGSZ 310200Z AUTO 25002KT 2SM 21/18 A3000 RMK T02100180 IEM_DS3505
ZGSZ,1997-01-31 03:00,ZGSZ 310300Z AUTO 04002KT 7SM 21/16 A3000 RMK SLP164 T02110163 52004 IEM_DS3505
ZGSZ,1997-01-31 04:00,ZGSZ 310400Z AUTO 27006KT 1 1/4SM 23/18 A2997 RMK T02300180 IEM_DS3505
ZGSZ,1997-01-31 05:00,ZGSZ 310500Z AUTO 28006KT 2 1/2SM 23/18 A2994 RMK T02300180 IEM_DS3505
ZGSZ,1997-01-31 08:00,ZGSZ 310800Z AUTO 18006KT 6SM 23/18 A2991 RMK T02300180 IEM_DS3505
ZGSZ,1997-01-31 09:00,ZGSZ 310900Z AUTO 07008KT 19SM 24/16 RMK SLP139 T02420162 52001 IEM_DS3505
ZGSZ,1997-01-31 10:00,ZGSZ 311000Z AUTO 19004KT 6SM 21/19 A2991 RMK T02100190 IEM_DS3505
ZGSZ,1997-01-31 11:00,ZGSZ 311100Z AUTO 13002KT 6SM 20/19 A2991 RMK T02000190 IEM_DS3505
ZGSZ,1997-01-31 12:00,ZGSZ 311200Z AUTO 09006KT 16SM 21/16 RMK SLP143 T02120163 52004 IEM_DS3505
ZGSZ,1997-01-31 13:00,ZGSZ 311300Z AUTO 10004KT 6SM 21/17 A2994 RMK T02100170 IEM_DS3505
ZGSZ,1997-01-31 14:00,ZGSZ 311400Z AUTO 12006KT 4SM 21/18 A2997 RMK T02100180 IEM_DS3505
ZGSZ,1997-01-31 15:00,ZGSZ 311500Z AUTO 10010KT 6SM 20/18 A2997 RMK T02000180 IEM_DS3505
ZGSZ,1997-01-31 16:00,ZGSZ 311600Z AUTO 10010KT 7SM 19/17 A2997 RMK T01900170 IEM_DS3505
ZGSZ,1997-01-31 17:00,ZGSZ 311700Z AUTO 10010KT 7SM 20/17 A3000 RMK T02000170 IEM_DS3505
ZGSZ,1997-01-31 18:00,ZGSZ 311800Z AUTO 09010KT 4SM 18/15 A2997 RMK SLP160 T01790150 52005 IEM_DS3505
ZGSZ,1997-01-31 19:00,ZGSZ 311900Z AUTO 10008KT 7SM 18/16 A2997 RMK T01800160 IEM_DS3505
ZGSZ,1997-01-31 21:00,ZGSZ 312100Z AUTO 09008KT 4SM 17/14 RMK SLP159 T01700138 57001 IEM_DS3505
ZGSZ,1997-01-31 23:00,ZGSZ 312300Z AUTO 07002KT 7SM 17/15 A3000 RMK T01700150 IEM_DS3505
ZGSZ,1997-02-01 00:00,ZGSZ 010000Z AUTO 09008KT 4SM 17/13 A3000 RMK SLP172 T01730134 52013 IEM_DS3505
ZGSZ,1997-02-01 02:00,ZGSZ 010200Z AUTO 11008KT 6SM 20/16 A3003 RMK T02000160 IEM_DS3505
ZGSZ,1997-02-01 03:00,ZGSZ 010300Z AUTO 04008KT 4SM 19/13 A3003 RMK SLP177 T01890133 52005 IEM_DS3505
ZGSZ,1997-02-01 04:00,ZGSZ 010400Z AUTO 12014KT 6SM 22/16 A2997 RMK T02200160 IEM_DS3505
ZGSZ,1997-02-01 05:00,ZGSZ 010500Z AUTO 12012KT 6SM 23/17 A2994 RMK T02300170 IEM_DS3505
ZGSZ,1997-02-01 06:00,ZGSZ 010600Z AUTO 12010KT 6SM 24/17 A2991 RMK T02400170 IEM_DS3505
ZGSZ,1997-02-01 07:00,ZGSZ 010700Z AUTO 19004KT 7SM 22/18 A2991 RMK T02200180 IEM_DS3505
ZGSZ,1997-02-01 09:00,ZGSZ 010900Z AUTO 09006KT 11SM 19/14 A2991 RMK SLP136 T01930136 57005 IEM_DS3505
ZGSZ,1997-02-01 10:00,ZGSZ 011000Z AUTO 10008KT 7SM 20/16 A2991 RMK T02000160 IEM_DS3505
ZGSZ,1997-02-01 11:00,ZGSZ 011100Z AUTO 10010KT 7SM 19/16 A2991 RMK T01900160 IEM_DS3505
ZGSZ,1997-02-01 12:00,ZGSZ 011200Z AUTO 11008KT 7SM 19/16 A2994 RMK T01900160 IEM_DS3505
ZGSZ,1997-02-01 13:00,ZGSZ 011300Z AUTO 10008KT 7SM 19/16 A2994 RMK T01900160 IEM_DS3505
ZGSZ,1997-02-01 14:00,ZGSZ 011400Z AUTO 10008KT 7SM 19/16 A2994 RMK T01900160 IEM_DS3505
ZGSZ,1997-02-01 15:00,ZGSZ 011500Z AUTO 11008KT 7SM 19/16 A2994 RMK T01900160 IEM_DS3505
ZGSZ,1997-02-01 16:00,ZGSZ 011600Z AUTO 11008KT 7SM 18/16 A2991 RMK T01800160 IEM_DS3505
ZGSZ,1997-02-01 18:00,ZGSZ 011800Z AUTO 14006KT 11SM 17/15 RMK 60004 SLP131 T01730154 57021 IEM_DS3505
ZGSZ,1997-02-01 21:00,ZGSZ 012100Z AUTO 14004KT 5SM 17/16 A2988 RMK 70004 SLP120 T01720159 57011 IEM_DS3505
ZGSZ,1997-02-01 22:00,ZGSZ 012200Z AUTO 11004KT 7SM 18/17 A2985 RMK T01800170 IEM_DS3505
ZGSZ,1997-02-01 23:00,ZGSZ 012300Z AUTO 10006KT 4SM 18/17 A2988 RMK T01800170 IEM_DS3505
ZGSZ,1997-02-02 00:00,ZGSZ 020000Z AUTO 06002KT 4SM 19/18 A2991 RMK T01900180 IEM_DS3505
ZGSZ,1997-02-02 01:00,ZGSZ 020100Z AUTO 36006KT 3SM 19/18 A2991 RMK T01900180 IEM_DS3505
ZGSZ,1997-02-02 02:00,ZGSZ 020200Z AUTO 08006KT 3SM 20/18 A2991 RMK T02000180 IEM_DS3505
ZGSZ,1997-02-02 03:00,ZGSZ 020300Z AUTO 04006KT 6SM 20/17 A2988 RMK SLP135 T01950169 52004 IEM_DS3505
ZGSZ,1997-02-02 05:00,ZGSZ 020500Z AUTO 28006KT 2 1/2SM 20/18 A2988 RMK T02000180 IEM_DS3505
ZGSZ,1997-02-02 06:00,ZGSZ 020600Z AUTO 14006KT 4SM 19/17 A2985 RMK SLP115 T01920171 57020 IEM_DS3505
ZGSZ,1997-02-02 07:00,ZGSZ 020700Z AUTO 26004KT 1SM 19/18 A2983 RMK T01900180 IEM_DS3505
ZGSZ,1997-02-02 08:00,ZGSZ 020800Z AUTO 35004KT 1 1/2SM 20/19 A2983 RMK T02000190 IEM_DS3505
ZGSZ,1997-02-02 09:00,ZGSZ 020900Z AUTO 11002KT 4SM 18/17 A2983 RMK SLP112 T01850172 57003 IEM_DS3505
ZGSZ,1997-02-02 10:00,ZGSZ 021000Z AUTO 17002KT 1 1/4SM 20/19 A2985 RMK T02000190 IEM_DS3505
ZGSZ,1997-02-02 11:00,ZGSZ 021100Z AUTO 30002KT 1 1/4SM 19/19 A2985 RMK T01900190 IEM_DS3505
ZGSZ,1997-02-02 12:00,ZGSZ 021200Z AUTO 04010KT 3SM 18/18 A2988 RMK 60008 SLP126 T01820175 52014 IEM_DS3505
ZGSZ,1997-02-02 13:00,ZGSZ 021300Z AUTO 11008KT 1 1/2SM 18/18 A2988 RMK T01800180 IEM_DS3505
ZGSZ,1997-02-02 14:00,ZGSZ 021400Z AUTO 03008KT 2SM 17/16 A2991 RMK T01700160 IEM_DS3505
ZGSZ,1997-02-02 15:00,ZGSZ 021500Z AUTO 01008KT 2 1/2SM 16/16 A2991 RMK T01600160 IEM_DS3505
ZGSZ,1997-02-02 16:00,ZGSZ 021600Z AUTO 05008KT 2 1/2SM 15/15 A2991 RMK T01500150 IEM_DS3505
ZGSZ,1997-02-02 18:00,ZGSZ 021800Z AUTO 04004KT 11SM 15/13 RMK 60043 SLP136 T01460133 57007 IEM_DS3505
ZGSZ,1997-02-02 21:00,ZGSZ 022100Z AUTO 02004KT 12SM 13/12 A2994 RMK 70106 SLP144 T01290120 52008 IEM_DS3505
ZGSZ,1997-02-02 22:00,ZGSZ 022200Z AUTO 06008KT 7SM 13/13 A2991 RMK T01300130 IEM_DS3505
ZGSZ,1997-02-02 23:00,ZGSZ 022300Z AUTO 01010KT 7SM 13/12 A2994 RMK T01300120 IEM_DS3505
ZGSZ,1997-02-03 00:00,ZGSZ 030000Z AUTO 36006KT 8SM 13/11 A2997 RMK 60059 70110 SLP158 T01270110 52014 IEM_DS3505
ZGSZ,1997-02-03 01:00,ZGSZ 030100Z AUTO 02006KT 7SM 13/13 A3000 RMK T01300130 IEM_DS3505
ZGSZ,1997-02-03 02:00,ZGSZ 030200Z AUTO 03008KT 7SM 14/13 A3000 RMK T01400130 IEM_DS3505
ZGSZ,1997-02-03 03:00,ZGSZ 030300Z AUTO 36006KT 11SM 13/11 A3000 RMK SLP168 T01320113 52010 IEM_DS3505
ZGSZ,1997-02-03 04:00,ZGSZ 030400Z AUTO 01012KT 7SM 13/12 A3000 RMK T01300120 IEM_DS3505
ZGSZ,1997-02-03 05:00,ZGSZ 030500Z AUTO 01012KT 12/12 A2997 RMK T01200120 IEM_DS3505
ZGSZ,1997-02-03 06:00,ZGSZ 030600Z AUTO 36004KT 7SM 13/11 A2997 RMK 60008 SLP144 T01280109 57024 IEM_DS3505
ZGSZ,1997-02-03 07:00,ZGSZ 030700Z AUTO 02010KT 4SM 12/12 A2994 RMK T01200120 IEM_DS3505
ZGSZ,1997-02-03 08:00,ZGSZ 030800Z AUTO 01006KT 7SM 12/12 A2994 RMK T01200120 IEM_DS3505
ZGSZ,1997-02-03 09:00,ZGSZ 030900Z AUTO 04006KT 3SM 12/11 A2994 RMK SLP147 T01160106 52003 IEM_DS3505
ZGSZ,1997-02-03 10:00,ZGSZ 031000Z AUTO 06008KT 4SM 12/12 A2997 RMK T01200120 IEM_DS3505
ZGSZ,1997-02-03 11:00,ZGSZ 031100Z AUTO 08010KT 7SM 12/12 A2994 RMK T01200120 IEM_DS3505
ZGSZ,1997-02-03 12:00,ZGSZ 031200Z AUTO 09004KT 7SM 12/11 A3000 RMK 60055 SLP158 T01220114 52011 IEM_DS3505
ZGSZ,1997-02-03 13:00,ZGSZ 031300Z AUTO 36008KT 7SM 12/12 A3003 RMK T01200120 IEM_DS3505
ZGSZ,1997-02-03 14:00,ZGSZ 031400Z AUTO 02008KT 7SM 12/11 A3003 RMK T01200110 IEM_DS3505
ZGSZ,1997-02-03 15:00,ZGSZ 031500Z AUTO 02006KT 7SM 12/11 A3003 RMK T01200110 IEM_DS3505
ZGSZ,1997-02-03 16:00,ZGSZ 031600Z AUTO 02008KT 7SM 12/11 A3003 RMK T01200110 IEM_DS3505
ZGSZ,1997-02-03 18:00,ZGSZ 031800Z AUTO 07006KT 12SM 12/10 RMK 60000 SLP174 T01190099 57003 IEM_DS3505
ZGSZ,1997-02-03 21:00,ZGSZ 032100Z AUTO 04004KT 9SM 12/10 A3000 RMK 70067 SLP165 T01160096 57009 IEM_DS3505
ZGSZ,1997-02-03 22:00,ZGSZ 032200Z AUTO 35006KT 7SM 12/11 A3003 RMK T01200110 IEM_DS3505
ZGSZ,1997-02-03 23:00,ZGSZ 032300Z AUTO 36006KT 7SM 12/11 A3003 RMK T01200110 IEM_DS3505
ZGSZ,1997-02-04 00:00,ZGSZ 040000Z AUTO 04004KT 14SM 12/10 A3003 RMK 70063 SLP180 T01170095 52015 IEM_DS3505
ZGSZ,1997-02-04 01:00,ZGSZ 040100Z AUTO 05004KT 6SM 14/12 A3006 RMK T01400120 IEM_DS3505
ZGSZ,1997-02-04 02:00,ZGSZ 040200Z AUTO 05004KT 7SM 14/12 A3006 RMK T01400120 IEM_DS3505
ZGSZ,1997-02-04 03:00,ZGSZ 040300Z AUTO 04006KT 16SM 15/11 A3006 RMK SLP183 T01480108 52004 IEM_DS3505
ZGSZ,1997-02-04 04:00,ZGSZ 040400Z AUTO 34008KT 7SM 15/13 A3006 RMK T01500130 IEM_DS3505
ZGSZ,1997-02-04 05:00,ZGSZ 040500Z AUTO 35008KT 7SM 17/13 A3003 RMK T01700130 IEM_DS3505
ZGSZ,1997-02-04 06:00,ZGSZ 040600Z AUTO 04006KT 11SM 17/12 A3000 RMK SLP162 T01670122 57021 IEM_DS3505
ZGSZ,1997-02-04 07:00,ZGSZ 040700Z AUTO 35008KT 7SM 16/13 A3000 RMK T01600130 IEM_DS3505
ZGSZ,1997-02-04 08:00,ZGSZ 040800Z AUTO 36008KT 7SM 16/13 A2997 RMK T01600130 IEM_DS3505
ZGSZ,1997-02-04 09:00,ZGSZ 040900Z AUTO 04004KT 11SM 16/12 A3000 RMK SLP161 T01650119 57001 IEM_DS3505
ZGSZ,1997-02-04 10:00,ZGSZ 041000Z AUTO 36006KT 7SM 16/13 A3000 RMK T01600130 IEM_DS3505
ZGSZ,1997-02-04 11:00,ZGSZ 041100Z AUTO 02006KT 7SM 16/13 A3003 RMK T01600130 IEM_DS3505
ZGSZ,1997-02-04 12:00,ZGSZ 041200Z AUTO 36004KT 9SM 15/12 A3006 RMK SLP180 T01490120 52019 IEM_DS3505
ZGSZ,1997-02-04 13:00,ZGSZ 041300Z AUTO 34006KT 7SM 15/13 A3006 RMK T01500130 IEM_DS3505
ZGSZ,1997-02-04 14:00,ZGSZ 041400Z AUTO 01006KT 7SM 15/13 A3009 RMK T01500130 IEM_DS3505
ZGSZ,1997-02-04 15:00,ZGSZ 041500Z AUTO 35006KT 7SM 15/12 A3009 RMK T01500120 IEM_DS3505
ZGSZ,1997-02-04 16:00,ZGSZ 041600Z AUTO 36008KT 7SM 14/12 A3009 RMK T01400120 IEM_DS3505
ZGSZ,1997-02-04 17:00,ZGSZ 041700Z AUTO 36006KT 7SM 14/12 A3009 RMK T01400120 IEM_DS3505
ZGSZ,1997-02-04 18:00,ZGSZ 041800Z AUTO 04008KT 11SM 13/10 A3009 RMK SLP191 T01320105 57002 IEM_DS3505
ZGSZ,1997-02-04 19:00,ZGSZ 041900Z AUTO 01008KT 7SM 13/11 A3009 RMK T01300110 IEM_DS3505
ZGSZ,1997-02-04 20:00,ZGSZ 042000Z AUTO 06006KT 7SM 13/12 A3006 RMK T01300120 IEM_DS3505
ZGSZ,1997-02-04 21:00,ZGSZ 042100Z AUTO 36008KT 12SM 12/09 A3006 RMK SLP179 T01240094 57012 IEM_DS3505
ZGSZ,1997-02-04 22:00,ZGSZ 042200Z AUTO 01008KT 6SM 13/11 A3006 RMK T01300110 IEM_DS3505
ZGSZ,1997-02-04 23:00,ZGSZ 042300Z AUTO 01010KT 7SM 12/11 A3006 RMK T01200110 IEM_DS3505
ZGSZ,1997-02-05 00:00,ZGSZ 050000Z AUTO 02006KT 14SM 12/09 A3009 RMK SLP193 T01210089 52014 IEM_DS3505
ZGSZ,1997-02-05 01:00,ZGSZ 050100Z AUTO 36010KT 7SM 13/10 A3009 RMK T01300100 IEM_DS3505
ZGSZ,1997-02-05 02:00,ZGSZ 050200Z AUTO 36008KT 7SM 13/10 A3012 RMK T01300100 IEM_DS3505
ZGSZ,1997-02-05 03:00,ZGSZ 050300Z AUTO 36004KT 11SM 14/10 A3009 RMK SLP200 T01400097 52007 IEM_DS3505
ZGSZ,1997-02-05 04:00,ZGSZ 050400Z AUTO 35010KT 7SM 15/11 A3009 RMK T01500110 IEM_DS3505
ZGSZ,1997-02-05 05:00,ZGSZ 050500Z AUTO 35008KT 7SM 15/11 A3006 RMK T01500110 IEM_DS3505
ZGSZ,1997-02-05 06:00,ZGSZ 050600Z AUTO 32004KT 9SM 16/11 A3003 RMK SLP171 T01650107 57029 IEM_DS3505
ZGSZ,1997-02-05 07:00,ZGSZ 050700Z AUTO 34008KT 7SM 15/11 A3003 RMK T01500110 IEM_DS3505
ZGSZ,1997-02-05 08:00,ZGSZ 050800Z AUTO 34008KT 7SM 15/11 A3003 RMK T01500110 IEM_DS3505
ZGSZ,1997-02-05 09:00,ZGSZ 050900Z AUTO 36006KT 9SM 16/11 A3003 RMK SLP168 T01630107 57003 IEM_DS3505
ZGSZ,1997-02-05 10:00,ZGSZ 051000Z AUTO 01008KT 7SM 15/12 A3003 RMK T01500120 IEM_DS3505
ZGSZ,1997-02-05 11:00,ZGSZ 051100Z AUTO 01010KT 7SM 15/12 A3003 RMK T01500120 IEM_DS3505
ZGSZ,1997-02-05 12:00,ZGSZ 051200Z AUTO 36006KT 7SM 15/10 A3003 RMK SLP177 T01500105 52009 IEM_DS3505
ZGSZ,1997-02-05 13:00,ZGSZ 051300Z AUTO 01008KT 7SM 14/12 A3006 RMK T01400120 IEM_DS3505
ZGSZ,1997-02-05 14:00,ZGSZ 051400Z AUTO 35006KT 7SM 14/11 A3009 RMK T01400110 IEM_DS3505
ZGSZ,1997-02-05 15:00,ZGSZ 051500Z AUTO 36006KT 7SM 14/11 A3009 RMK T01400110 IEM_DS3505
ZGSZ,1997-02-05 16:00,ZGSZ 051600Z AUTO 02004KT 7SM 14/11 A3009 RMK T01400110 IEM_DS3505
ZGSZ,1997-02-05 17:00,ZGSZ 051700Z AUTO 03004KT 7SM 14/11 A3009 RMK T01400110 IEM_DS3505
ZGSZ,1997-02-05 18:00,ZGSZ 051800Z AUTO 36006KT 12SM 13/09 A3009 RMK SLP188 T01340093 57008 IEM_DS3505
ZGSZ,1997-02-05 21:00,ZGSZ 052100Z AUTO 07010KT 5SM 11/10 A3003 RMK 70016 SLP176 T01110099 57012 IEM_DS3505
ZGSZ,1997-02-05 22:00,ZGSZ 052200Z AUTO 03004KT 7SM 11/11 A3006 RMK T01100110 IEM_DS3505
ZGSZ,1997-02-05 23:00,ZGSZ 052300Z AUTO 34004KT 7SM 11/11 A3006 RMK T01100110 IEM_DS3505
ZGSZ,1997-02-06 00:00,ZGSZ 060000Z AUTO 04006KT 5SM 11/10 A3009 RMK 60071 70071 SLP195 T01070099 52018 IEM_DS3505
ZGSZ,1997-02-06 01:00,ZGSZ 060100Z AUTO 34006KT 4SM 11/11 A3009 RMK T01100110 IEM_DS3505
ZGSZ,1997-02-06 02:00,ZGSZ 060200Z AUTO 35008KT 7SM 11/11 A3009 RMK T01100110 IEM_DS3505
ZGSZ,1997-02-06 03:00,ZGSZ 060300Z AUTO 04006KT 9SM 12/10 A3009 RMK SLP193 T01190099 57002 IEM_DS3505
ZGSZ,1997-02-06 04:00,ZGSZ 060400Z AUTO 36010KT 7SM 12/11 A3006 RMK T01200110 IEM_DS3505
ZGSZ,1997-02-06 06:00,ZGSZ 060600Z AUTO 04006KT 7SM 13/11 A3000 RMK 60016 SLP167 T01280107 57025 IEM_DS3505
ZGSZ,1997-02-06 07:00,ZGSZ 060700Z AUTO 35006KT 7SM 12/11 A3000 RMK T01200110 IEM_DS3505
ZGSZ,1997-02-06 08:00,ZGSZ 060800Z AUTO 01010KT 7SM 12/11 A2997 RMK T01200110 IEM_DS3505
ZGSZ,1997-02-06 09:00,ZGSZ 060900Z AUTO 36006KT 6SM 12/10 A2997 RMK SLP154 T01220101 57014 IEM_DS3505
ZGSZ,1997-02-06 10:00,ZGSZ 061000Z AUTO 35004KT 7SM 12/11 A2997 RMK T01200110 IEM_DS3505
ZGSZ,1997-02-06 11:00,ZGSZ 061100Z AUTO 05006KT 2 1/2SM 12/11 A2997 RMK T01200110 IEM_DS3505
ZGSZ,1997-02-06 12:00,ZGSZ 061200Z AUTO 04004KT 4SM 11/10 A3000 RMK 60008 SLP163 T01130103 52009 IEM_DS3505
ZGSZ,1997-02-06 13:00,ZGSZ 061300Z AUTO 04004KT 7SM 11/11 A2997 RMK T01100110 IEM_DS3505
ZGSZ,1997-02-06 14:00,ZGSZ 061400Z AUTO 36004KT 2 1/2SM 11/11 A3000 RMK T01100110 IEM_DS3505
ZGSZ,1997-02-06 18:00,ZGSZ 061800Z AUTO 04006KT 6SM 10/10 RMK 60079 SLP147 T01040098 57016 IEM_DS3505
ZGSZ,1997-02-06 21:00,ZGSZ 062100Z AUTO 04008KT 6SM 10/10 A2994 RMK 70177 SLP144 T01030097 57003 IEM_DS3505
ZGSZ,1997-02-06 22:00,ZGSZ 062200Z AUTO 35010KT 7SM 10/10 A2997 RMK T01000100 IEM_DS3505
ZGSZ,1997-02-06 23:00,ZGSZ 062300Z AUTO 09006KT 7SM 11/11 A2994 RMK T01100110 IEM_DS3505
ZGSZ,1997-02-07 00:00,ZGSZ 070000Z AUTO 04006KT 16SM 10/10 A2997 RMK 60035 70138 SLP156 T01040098 52012 IEM_DS3505
ZGSZ,1997-02-07 01:00,ZGSZ 070100Z AUTO 01010KT 7SM 11/11 A3000 RMK T01100110 IEM_DS3505
ZGSZ,1997-02-07 02:00,ZGSZ 070200Z AUTO 01008KT 7SM 12/12 A3000 RMK T01200120 IEM_DS3505
ZGSZ,1997-02-07 03:00,ZGSZ 070300Z AUTO 29004KT 9SM 13/10 A3000 RMK SLP162 T01270104 52006 IEM_DS3505
ZGSZ,1997-02-07 04:00,ZGSZ 070400Z AUTO 35008KT 7SM 13/12 A3000 RMK T01300120 IEM_DS3505
ZGSZ,1997-02-07 05:00,ZGSZ 070500Z AUTO 01010KT 7SM 13/12 A2997 RMK T01300120 IEM_DS3505
ZGSZ,1997-02-07 06:00,ZGSZ 070600Z AUTO 04004KT 9SM 13/10 A2994 RMK 60008 SLP135 T01310104 57027 IEM_DS3505
ZGSZ,1997-02-07 07:00,ZGSZ 070700Z AUTO 01008KT 7SM 13/12 A2991 RMK T01300120 IEM_DS3505
ZGSZ,1997-02-07 08:00,ZGSZ 070800Z AUTO 36010KT 7SM 12/11 A2991 RMK T01200110 IEM_DS3505
ZGSZ,1997-02-07 09:00,ZGSZ 070900Z AUTO 36004KT 9SM 12/11 A2991 RMK SLP134 T01250106 57001 IEM_DS3505
ZGSZ,1997-02-07 10:00,ZGSZ 071000Z AUTO 35008KT 7SM 11/11 A2991 RMK T01100110 IEM_DS3505
ZGSZ,1997-02-07 11:00,ZGSZ 071100Z AUTO 34006KT 7SM 11/11 A2988 RMK T01100110 IEM_DS3505
ZGSZ,1997-02-07 12:00,ZGSZ 071200Z AUTO 36004KT 6SM 12/10 A2991 RMK 60001 SLP137 T01160096 52003 IEM_DS3505
ZGSZ,1997-02-07 13:00,ZGSZ 071300Z AUTO 35006KT 4SM 11/11 A2994 RMK T01100110 IEM_DS3505
ZGSZ,1997-02-07 14:00,ZGSZ 071400Z AUTO 36006KT 1 1/2SM 11/11 A2994 RMK T01100110 IEM_DS3505
ZGSZ,1997-02-07 15:00,ZGSZ 071500Z AUTO 01008KT 1 1/2SM 11/11 A2994 RMK T01100110 IEM_DS3505
ZGSZ,1997-02-07 18:00,ZGSZ 071800Z AUTO 04004KT 5SM 10/10 RMK 60004 SLP143 T01050097 57002 IEM_DS3505
ZGSZ,1997-02-07 21:00,ZGSZ 072100Z AUTO 04006KT 12SM 10/09 A2988 RMK 70028 SLP129 T01030093 57014 IEM_DS3505
ZGSZ,1997-02-07 22:00,ZGSZ 072200Z AUTO 35006KT 7SM 10/10 A2991 RMK T01000100 IEM_DS3505
ZGSZ,1997-02-07 23:00,ZGSZ 072300Z AUTO 35008KT 7SM 11/11 A2991 RMK T01100110 IEM_DS3505
ZGSZ,1997-02-08 00:00,ZGSZ 080000Z AUTO 36006KT 17SM 11/09 A2997 RMK 60000 70012 SLP148 T01060086 52019 IEM_DS3505
ZGSZ,1997-02-08 01:00,ZGSZ 080100Z AUTO 35008KT 7SM 11/11 A2997 RMK T01100110 IEM_DS3505
ZGSZ,1997-02-08 02:00,ZGSZ 080200Z AUTO 02010KT 7SM 11/11 A2997 RMK T01100110 IEM_DS3505
ZGSZ,1997-02-08 03:00,ZGSZ 080300Z AUTO 36006KT 12SM 12/10 A2994 RMK SLP151 T01240097 52003 IEM_DS3505
ZGSZ,1997-02-08 04:00,ZGSZ 080400Z AUTO 35008KT 7SM 14/11 A2994 RMK T01400110 IEM_DS3505
ZGSZ,1997-02-08 05:00,ZGSZ 080500Z AUTO 31008KT 4SM 13/11 A2994 RMK T01300110 IEM_DS3505
ZGSZ,1997-02-08 06:00,ZGSZ 080600Z AUTO 22004KT 8SM 16/12 A2991 RMK SLP127 T01610121 57023 IEM_DS3505
ZGSZ,1997-02-08 07:00,ZGSZ 080700Z AUTO 32010KT 7SM 14/12 A2988 RMK T01400120 IEM_DS3505
ZGSZ,1997-02-08 08:00,ZGSZ 080800Z AUTO 35006KT 7SM 15/12 A2988 RMK T01500120 IEM_DS3505
ZGSZ,1997-02-08 09:00,ZGSZ 080900Z AUTO 32002KT 8SM 15/11 A2988 RMK SLP121 T01520113 57006 IEM_DS3505
ZGSZ,1997-02-08 10:00,ZGSZ 081000Z AUTO 34006KT 7SM 14/12 A2988 RMK T01400120 IEM_DS3505
ZGSZ,1997-02-08 11:00,ZGSZ 081100Z AUTO 33006KT 7SM 14/12 A2991 RMK T01400120 IEM_DS3505
ZGSZ,1997-02-08 12:00,ZGSZ 081200Z AUTO 36002KT 8SM 14/11 A2991 RMK SLP139 T01430113 52018 IEM_DS3505
ZGSZ,1997-02-08 13:00,ZGSZ 081300Z AUTO 33004KT 7SM 14/12 A2994 RMK T01400120 IEM_DS3505
ZGSZ,1997-02-08 14:00,ZGSZ 081400Z AUTO 35004KT 7SM 14/12 A2994 RMK T01400120 IEM_DS3505
ZGSZ,1997-02-08 18:00,ZGSZ 081800Z AUTO 04004KT 7SM 13/11 RMK SLP149 T01340111 57002 IEM_DS3505
ZGSZ,1997-02-08 21:00,ZGSZ 082100Z AUTO 36002KT 11SM 13/10 A2994 RMK SLP141 T01270100 57008 IEM_DS3505
ZGSZ,1997-02-08 22:00,ZGSZ 082200Z AUTO 36008KT 6SM 12/11 A2994 RMK T01200110 IEM_DS3505
ZGSZ,1997-02-08 23:00,ZGSZ 082300Z AUTO 05002KT 7SM 12/12 A2994 RMK T01200120 IEM_DS3505
ZGSZ,1997-02-09 00:00,ZGSZ 090000Z AUTO 04006KT 12SM 12/10 A2997 RMK SLP153 T01240095 52012 IEM_DS3505
ZGSZ,1997-02-09 01:00,ZGSZ 090100Z AUTO 01010KT 7SM 13/11 A2997 RMK T01300110 IEM_DS3505
ZGSZ,1997-02-09 02:00,ZGSZ 090200Z AUTO 34004KT 7SM 14/11 A3000 RMK T01400110 IEM_DS3505
ZGSZ,1997-02-09 03:00,ZGSZ 090300Z AUTO 36004KT 9SM 14/10 A3003 RMK SLP168 T01430105 52015 IEM_DS3505
ZGSZ,1997-02-09 04:00,ZGSZ 090400Z AUTO 34006KT 7SM 14/11 A3000 RMK T01400110 IEM_DS3505
ZGSZ,1997-02-09 06:00,ZGSZ 090600Z AUTO 04006KT 5SM 15/12 A2994 RMK SLP146 T01520117 57022 IEM_DS3505
ZGSZ,1997-02-09 07:00,ZGSZ 090700Z AUTO 35008KT 7SM 14/12 A2994 RMK T01400120 IEM_DS3505
ZGSZ,1997-02-09 08:00,ZGSZ 090800Z AUTO 01008KT 7SM 15/12 A2991 RMK T01500120 IEM_DS3505
ZGSZ,1997-02-09 09:00,ZGSZ 090900Z AUTO 36004KT 4SM 16/12 A2994 RMK SLP140 T01550118 57006 IEM_DS3505
ZGSZ,1997-02-09 10:00,ZGSZ 091000Z AUTO 01006KT 7SM 14/12 A2994 RMK T01400120 IEM_DS3505
ZGSZ,1997-02-09 11:00,ZGSZ 091100Z AUTO 01004KT 7SM 14/12 A2994 RMK T01400120 IEM_DS3505
ZGSZ,1997-02-09 12:00,ZGSZ 091200Z AUTO 04004KT 7SM 15/11 A2997 RMK SLP148 T01470107 52008 IEM_DS3505
ZGSZ,1997-02-09 13:00,ZGSZ 091300Z AUTO 01008KT 7SM 14/12 A2997 RMK T01400120 IEM_DS3505
ZGSZ,1997-02-09 18:00,ZGSZ 091800Z AUTO 04006KT 12SM 14/11 RMK SLP152 T01390107 57004 IEM_DS3505
ZGSZ,1997-02-09 21:00,ZGSZ 092100Z AUTO 04006KT 8SM 14/11 A2997 RMK SLP153 T01370107 52001 IEM_DS3505
ZGSZ,1997-02-09 22:00,ZGSZ 092200Z AUTO 02006KT 7SM 13/12 A2997 RMK T01300120 IEM_DS3505
ZGSZ,1997-02-09 23:00,ZGSZ 092300Z AUTO 02006KT 7SM 13/12 A2997 RMK T01300120 IEM_DS3505
ZGSZ,1997-02-10 00:00,ZGSZ 100000Z AUTO 36006KT 8SM 14/10 A3000 RMK SLP165 T01350102 52012 IEM_DS3505
ZGSZ,1997-02-10 01:00,ZGSZ 100100Z AUTO 34008KT 7SM 14/11 A3000 RMK T01400110 IEM_DS3505
ZGSZ,1997-02-10 02:00,ZGSZ 100200Z AUTO 35010KT 7SM 13/11 A3003 RMK T01300110 IEM_DS3505
ZGSZ,1997-02-10 03:00,ZGSZ 100300Z AUTO 04004KT 7SM 14/10 A3006 RMK SLP179 T01400100 52014 IEM_DS3505
ZGSZ,1997-02-10 04:00,ZGSZ 100400Z AUTO 35008KT 3SM 13/12 A3003 RMK T01300120 IEM_DS3505
ZGSZ,1997-02-10 05:00,ZGSZ 100500Z AUTO 01008KT 3SM 12/12 A3003 RMK T01200120 IEM_DS3505
ZGSZ,1997-02-10 06:00,ZGSZ 100600Z AUTO 07008KT 7SM 14/10 A2997 RMK SLP159 T01390096 57020 IEM_DS3505
ZGSZ,1997-02-10 07:00,ZGSZ 100700Z AUTO 01008KT 7SM 14/12 A2997 RMK T01400120 IEM_DS3505
ZGSZ,1997-02-10 08:00,ZGSZ 100800Z AUTO 36008KT 7SM 14/12 A2997 RMK T01400120 IEM_DS3505
ZGSZ,1997-02-10 09:00,ZGSZ 100900Z AUTO 04006KT 11SM 14/10 A2997 RMK SLP155 T01430101 57004 IEM_DS3505
ZGSZ,1997-02-10 10:00,ZGSZ 101000Z AUTO 36010KT 7SM 13/12 A3000 RMK T01300120 IEM_DS3505
ZGSZ,1997-02-10 11:00,ZGSZ 101100Z AUTO 36010KT 7SM 13/12 A3000 RMK T01300120 IEM_DS3505
ZGSZ,1997-02-10 12:00,ZGSZ 101200Z AUTO 04006KT 8SM 14/09 RMK SLP167 T01370090 52012 IEM_DS3505
ZGSZ,1997-02-10 13:00,ZGSZ 101300Z AUTO 01006KT 7SM 12/11 A3003 RMK T01200110 IEM_DS3505
ZGSZ,1997-02-10 14:00,ZGSZ 101400Z AUTO 01008KT 7SM 12/11 A3003 RMK T01200110 IEM_DS3505
ZGSZ,1997-02-10 15:00,ZGSZ 101500Z AUTO 36008KT 7SM 12/11 A3009 RMK T01200110 IEM_DS3505
ZGSZ,1997-02-10 18:00,ZGSZ 101800Z AUTO 04014KT 11SM 12/07 RMK SLP191 T01250071 52003 IEM_DS3505
ZGSZ,1997-02-10 21:00,ZGSZ 102100Z AUTO 04012KT 10SM 12/07 RMK SLP182 T01210066 57008 IEM_DS3505
ZGSZ,1997-02-11 00:00,ZGSZ 110000Z AUTO 07010KT 8SM 12/06 A3015 RMK SLP210 T01210059 52027 IEM_DS3505
ZGSZ,1997-02-11 01:00,ZGSZ 110100Z AUTO 02008KT 7SM 11/09 A3015 RMK T01100090 IEM_DS3505
ZGSZ,1997-02-11 02:00,ZGSZ 110200Z AUTO 01012KT 7SM 11/09 A3018 RMK T01100090 IEM_DS3505
ZGSZ,1997-02-11 03:00,ZGSZ 110300Z AUTO 07006KT 8SM 13/07 A3015 RMK SLP219 T01290073 52009 IEM_DS3505
ZGSZ,1997-02-11 04:00,ZGSZ 110400Z AUTO 01014KT 7SM 13/08 A3015 RMK T01300080 IEM_DS3505
ZGSZ,1997-02-11 05:00,ZGSZ 110500Z AUTO 01010KT 7SM 13/09 A3012 RMK T01300090 IEM_DS3505
ZGSZ,1997-02-11 06:00,ZGSZ 110600Z AUTO 04008KT 7SM 14/07 A3006 RMK SLP189 T01420068 57029 IEM_DS3505
ZGSZ,1997-02-11 07:00,ZGSZ 110700Z AUTO 36010KT 7SM 15/08 A3006 RMK T01500080 IEM_DS3505
ZGSZ,1997-02-11 08:00,ZGSZ 110800Z AUTO 36012KT 7SM 15/09 A3006 RMK T01500090 IEM_DS3505
ZGSZ,1997-02-11 09:00,ZGSZ 110900Z AUTO 04008KT 7SM 16/08 A3006 RMK SLP184 T01570084 57005 IEM_DS3505
ZGSZ,1997-02-11 10:00,ZGSZ 111000Z AUTO 02008KT 7SM 15/09 A3009 RMK T01500090 IEM_DS3505
ZGSZ,1997-02-11 11:00,ZGSZ 111100Z AUTO 03008KT 7SM 15/09 A3009 RMK T01500090 IEM_DS3505
ZGSZ,1997-02-11 12:00,ZGSZ 111200Z AUTO 04008KT 6SM 15/08 A3012 RMK SLP202 T01470083 52017 IEM_DS3505
ZGSZ,1997-02-11 13:00,ZGSZ 111300Z AUTO 36004KT 7SM 14/09 A3012 RMK T01400090 IEM_DS3505
ZGSZ,1997-02-11 14:00,ZGSZ 111400Z AUTO 05004KT 7SM 14/09 A3012 RMK T01400090 IEM_DS3505
ZGSZ,1997-02-11 15:00,ZGSZ 111500Z AUTO 03004KT 6SM 14/09 A3015 RMK T01400090 IEM_DS3505
ZGSZ,1997-02-11 18:00,ZGSZ 111800Z AUTO 09006KT 4SM 14/09 RMK SLP202 T01370090 57009 IEM_DS3505
ZGSZ,1997-02-11 21:00,ZGSZ 112100Z AUTO 36006KT 4SM 12/08 RMK 70001 SLP204 T01240084 52002 IEM_DS3505
ZGSZ,1997-02-11 23:00,ZGSZ 112300Z AUTO 01004KT 4SM 12/10 A3015 RMK T01200100 IEM_DS3505
ZGSZ,1997-02-12 00:00,ZGSZ 120000Z AUTO 04008KT 5SM 11/08 A3015 RMK 60004 70004 SLP216 T01120083 52011 IEM_DS3505
ZGSZ,1997-02-12 02:00,ZGSZ 120200Z AUTO 08002KT 6SM 14/11 A3015 RMK T01400110 IEM_DS3505
ZGSZ,1997-02-12 03:00,ZGSZ 120300Z AUTO 36004KT 5SM 13/09 A3018 RMK SLP228 T01340088 52012 IEM_DS3505
ZGSZ,1997-02-12 04:00,ZGSZ 120400Z AUTO 35006KT 7SM 13/10 A3018 RMK T01300100 IEM_DS3505
ZGSZ,1997-02-12 05:00,ZGSZ 120500Z AUTO 02010KT 4SM 12/11 A3015 RMK T01200110 IEM_DS3505
ZGSZ,1997-02-12 06:00,ZGSZ 120600Z AUTO 04008KT 4SM 13/10 A3012 RMK 60002 SLP203 T01320097 57025 IEM_DS3505
ZGSZ,1997-02-12 07:00,ZGSZ 120700Z AUTO 01008KT 7SM 14/11 A3009 RMK T01400110 IEM_DS3505
ZGSZ,1997-02-12 08:00,ZGSZ 120800Z AUTO 01010KT 6SM 14/10 A3006 RMK T01400100 IEM_DS3505
ZGSZ,1997-02-12 09:00,ZGSZ 120900Z AUTO 04006KT 5SM 14/10 A3009 RMK SLP189 T01450099 57013 IEM_DS3505
ZGSZ,1997-02-12 10:00,ZGSZ 121000Z AUTO 01006KT 4SM 13/11 A3009 RMK T01300110 IEM_DS3505
ZGSZ,1997-02-12 11:00,ZGSZ 121100Z AUTO 36010KT 3SM 13/10 A3009 RMK T01300100 IEM_DS3505
ZGSZ,1997-02-12 12:00,ZGSZ 121200Z AUTO 04006KT 7SM 13/10 A3012 RMK SLP202 T01300097 52012 IEM_DS3505
ZGSZ,1997-02-12 13:00,ZGSZ 121300Z AUTO 36008KT 2 1/2SM 12/10 A3015 RMK T01200100 IEM_DS3505
ZGSZ,1997-02-12 14:00,ZGSZ 121400Z AUTO 02006KT 2SM 11/10 A3015 RMK T01100100 IEM_DS3505
ZGSZ,1997-02-12 15:00,ZGSZ 121500Z AUTO 03004KT 2SM 12/11 A3015 RMK T01200110 IEM_DS3505
ZGSZ,1997-02-12 18:00,ZGSZ 121800Z AUTO 04010KT 4SM 11/10 RMK 60024 SLP220 T01130104 52002 IEM_DS3505
ZGSZ,1997-02-12 21:00,ZGSZ 122100Z AUTO 04004KT 6SM 12/09 A3015 RMK 70035 SLP214 T01150091 57006 IEM_DS3505
ZGSZ,1997-02-12 22:00,ZGSZ 122200Z AUTO 06008KT 7SM 12/10 A3012 RMK T01200100 IEM_DS3505
ZGSZ,1997-02-12 23:00,ZGSZ 122300Z AUTO 05006KT 7SM 12/10 A3015 RMK T01200100 IEM_DS3505
ZGSZ,1997-02-13 00:00,ZGSZ 130000Z AUTO 09008KT 6SM 12/09 A3012 RMK 60008 70031 SLP211 T01190093 57003 IEM_DS3505
ZGSZ,1997-02-13 01:00,ZGSZ 130100Z AUTO 03006KT 7SM 13/10 A3015 RMK T01300100 IEM_DS3505
ZGSZ,1997-02-13 02:00,ZGSZ 130200Z AUTO 36006KT 7SM 13/09 A3018 RMK T01300090 IEM_DS3505
ZGSZ,1997-02-13 03:00,ZGSZ 130300Z AUTO 36004KT 5SM 13/10 A3018 RMK SLP221 T01310098 52010 IEM_DS3505
ZGSZ,1997-02-13 04:00,ZGSZ 130400Z AUTO 07004KT 7SM 14/10 A3012 RMK T01400100 IEM_DS3505
ZGSZ,1997-02-13 06:00,ZGSZ 130600Z AUTO 04006KT 4SM 14/10 A3009 RMK 60000 SLP196 T01380097 57025 IEM_DS3505
ZGSZ,1997-02-13 07:00,ZGSZ 130700Z AUTO 02008KT 7SM 14/11 A3006 RMK T01400110 IEM_DS3505
ZGSZ,1997-02-13 08:00,ZGSZ 130800Z AUTO 36006KT 7SM 14/11 A3006 RMK T01400110 IEM_DS3505
ZGSZ,1997-02-13 09:00,ZGSZ 130900Z AUTO 04004KT 3SM 13/11 A3006 RMK SLP187 T01310108 57009 IEM_DS3505
ZGSZ,1997-02-13 10:00,ZGSZ 131000Z AUTO 02008KT 7SM 12/11 A3006 RMK T01200110 IEM_DS3505
ZGSZ,1997-02-13 11:00,ZGSZ 131100Z AUTO 02006KT 7SM 12/11 A3006 RMK T01200110 IEM_DS3505
ZGSZ,1997-02-13 12:00,ZGSZ 131200Z AUTO 36004KT 8SM 13/11 A3009 RMK 60012 SLP196 T01270108 52009 IEM_DS3505
ZGSZ,1997-02-13 13:00,ZGSZ 131300Z AUTO 33006KT 2 1/2SM 12/11 A3012 RMK T01200110 IEM_DS3505
ZGSZ,1997-02-13 14:00,ZGSZ 131400Z AUTO 01008KT 2 1/2SM 12/11 A3012 RMK T01200110 IEM_DS3505
ZGSZ,1997-02-13 18:00,ZGSZ 131800Z AUTO 04006KT 7SM 12/10 RMK 60000 SLP196 T01240105 57012 IEM_DS3505
ZGSZ,1997-02-13 21:00,ZGSZ 132100Z AUTO 04006KT 5SM 12/10 A3009 RMK 70012 SLP192 T01220101 57004 IEM_DS3505
ZGSZ,1997-02-13 22:00,ZGSZ 132200Z AUTO 03008KT 4SM 12/11 A3006 RMK T01200110 IEM_DS3505
ZGSZ,1997-02-13 23:00,ZGSZ 132300Z AUTO 02006KT 4SM 12/11 A3009 RMK T01200110 IEM_DS3505
ZGSZ,1997-02-14 00:00,ZGSZ 140000Z AUTO 04006KT 6SM 12/10 A3012 RMK 70012 SLP200 T01210097 52008 IEM_DS3505
ZGSZ,1997-02-14 01:00,ZGSZ 140100Z AUTO 35004KT 4SM 12/11 A3012 RMK T01200110 IEM_DS3505
ZGSZ,1997-02-14 02:00,ZGSZ 140200Z AUTO 06006KT 5SM 12/11 A3012 RMK T01200110 IEM_DS3505
ZGSZ,1997-02-14 03:00,ZGSZ 140300Z AUTO 04004KT 6SM 13/10 A3009 RMK SLP197 T01320103 57003 IEM_DS3505
ZGSZ,1997-02-14 04:00,ZGSZ 140400Z AUTO 36006KT 5SM 13/11 A3009 RMK T01300110 IEM_DS3505
ZGSZ,1997-02-14 05:00,ZGSZ 140500Z AUTO 04004KT 7SM 14/12 A3006 RMK T01400120 IEM_DS3505
ZGSZ,1997-02-14 06:00,ZGSZ 140600Z AUTO 04004KT 9SM 15/10 A3000 RMK SLP164 T01510101 57032 IEM_DS3505
ZGSZ,1997-02-14 07:00,ZGSZ 140700Z AUTO 06002KT 4SM 15/12 A2997 RMK T01500120 IEM_DS3505
ZGSZ,1997-02-14 08:00,ZGSZ 140800Z AUTO 33004KT 7SM 15/13 A2997 RMK T01500130 IEM_DS3505
ZGSZ,1997-02-14 09:00,ZGSZ 140900Z AUTO 36002KT 7SM 14/12 A2997 RMK SLP155 T01410115 57009 IEM_DS3505
ZGSZ,1997-02-14 10:00,ZGSZ 141000Z AUTO 36008KT 4SM 13/12 A2997 RMK T01300120 IEM_DS3505
ZGSZ,1997-02-14 11:00,ZGSZ 141100Z AUTO 35004KT 3SM 13/12 A2997 RMK T01300120 IEM_DS3505
ZGSZ,1997-02-14 12:00,ZGSZ 141200Z AUTO 11006KT 6SM 14/11 A2997 RMK 60002 SLP158 T01400108 52003 IEM_DS3505
ZGSZ,1997-02-14 13:00,ZGSZ 141300Z AUTO 36006KT 2SM 13/12 A3000 RMK T01300120 IEM_DS3505
ZGSZ,1997-02-14 14:00,ZGSZ 141400Z AUTO 05004KT 2SM 13/12 A3000 RMK T01300120 IEM_DS3505
ZGSZ,1997-02-14 18:00,ZGSZ 141800Z AUTO 36004KT 4SM 14/12 RMK SLP162 T01360117 57009 IEM_DS3505
ZGSZ,1997-02-14 21:00,ZGSZ 142100Z AUTO 04006KT 2SM 12/12 A2994 RMK 70002 SLP139 T01250116 57023 IEM_DS3505
ZGSZ,1997-02-14 22:00,ZGSZ 142200Z AUTO 36006KT 2SM 12/12 A2994 RMK T01200120 IEM_DS3505
ZGSZ,1997-02-14 23:00,ZGSZ 142300Z AUTO 36008KT 2SM 12/12 A2994 RMK T01200120 IEM_DS3505
ZGSZ,1997-02-15 00:00,ZGSZ 150000Z AUTO 04004KT 2 1/2SM 12/11 A2997 RMK 70002 SLP159 T01200112 52020 IEM_DS3505
ZGSZ,1997-02-15 01:00,ZGSZ 150100Z AUTO 34008KT 2SM 12/12 A3003 RMK T01200120 IEM_DS3505
ZGSZ,1997-02-15 02:00,ZGSZ 150200Z AUTO 33010KT 7SM 12/12 A3003 RMK T01200120 IEM_DS3505
ZGSZ,1997-02-15 03:00,ZGSZ 150300Z AUTO 04004KT 4SM 12/11 A3003 RMK SLP174 T01220114 52015 IEM_DS3505
ZGSZ,1997-02-15 04:00,ZGSZ 150400Z AUTO 35006KT 7SM 13/12 A3003 RMK T01300120 IEM_DS3505
ZGSZ,1997-02-15 05:00,ZGSZ 150500Z AUTO 34006KT 7SM 13/13 A3000 RMK T01300130 IEM_DS3505
ZGSZ,1997-02-15 06:00,ZGSZ 150600Z AUTO 36004KT 2 1/2SM 13/12 A2997 RMK 60020 SLP159 T01280121 57015 IEM_DS3505
ZGSZ,1997-02-15 07:00,ZGSZ 150700Z AUTO 01006KT 7SM 13/13 A2997 RMK T01300130 IEM_DS3505
ZGSZ,1997-02-15 08:00,ZGSZ 150800Z AUTO 34008KT 7SM 13/13 A2997 RMK T01300130 IEM_DS3505
ZGSZ,1997-02-15 09:00,ZGSZ 150900Z AUTO 36002KT 4SM 14/12 A2997 RMK SLP155 T01350124 57004 IEM_DS3505
ZGSZ,1997-02-15 10:00,ZGSZ 151000Z AUTO 35006KT 2 1/2SM 13/12 A3000 RMK T01300120 IEM_DS3505
ZGSZ,1997-02-15 11:00,ZGSZ 151100Z AUTO 33006KT 2 1/2SM 12/12 A3000 RMK T01200120 IEM_DS3505
ZGSZ,1997-02-15 12:00,ZGSZ 151200Z AUTO 32004KT 9SM 13/11 A3003 RMK 60002 SLP173 T01290108 52017 IEM_DS3505
ZGSZ,1997-02-15 13:00,ZGSZ 151300Z AUTO 36008KT 2 1/2SM 13/12 A3003 RMK T01300120 IEM_DS3505
ZGSZ,1997-02-15 14:00,ZGSZ 151400Z AUTO 02008KT 2 1/2SM 13/11 A3006 RMK T01300110 IEM_DS3505
ZGSZ,1997-02-15 15:00,ZGSZ 151500Z AUTO 01010KT 3SM 12/11 A3006 RMK T01200110 IEM_DS3505
ZGSZ,1997-02-15 18:00,ZGSZ 151800Z AUTO 36006KT 16SM 12/08 RMK SLP188 T01180079 52002 IEM_DS3505
ZGSZ,1997-02-15 21:00,ZGSZ 152100Z AUTO 04008KT 19SM 11/07 A3003 RMK 70020 SLP170 T01120070 57018 IEM_DS3505
ZGSZ,1997-02-15 22:00,ZGSZ 152200Z AUTO 01008KT 6SM 11/09 A3003 RMK T01100090 IEM_DS3505
ZGSZ,1997-02-15 23:00,ZGSZ 152300Z AUTO 36008KT 7SM 10/09 A3006 RMK T01000090 IEM_DS3505
ZGSZ,1997-02-16 00:00,ZGSZ 160000Z AUTO 04010KT 16SM 11/08 A3009 RMK 60000 70020 SLP197 T01060075 52027 IEM_DS3505
ZGSZ,1997-02-16 01:00,ZGSZ 160100Z AUTO 01008KT 6SM 11/09 A3012 RMK T01100090 IEM_DS3505
ZGSZ,1997-02-16 02:00,ZGSZ 160200Z AUTO 01006KT 6SM 12/09 A3012 RMK T01200090 IEM_DS3505
ZGSZ,1997-02-16 03:00,ZGSZ 160300Z AUTO 04006KT 14SM 12/08 A3012 RMK SLP204 T01150078 52007 IEM_DS3505
ZGSZ,1997-02-16 05:00,ZGSZ 160500Z AUTO 01008KT 7SM 13/09 A3009 RMK T01300090 IEM_DS3505
ZGSZ,1997-02-16 06:00,ZGSZ 160600Z AUTO 36006KT 7SM 13/08 A3006 RMK SLP186 T01260084 57018 IEM_DS3505
ZGSZ,1997-02-16 07:00,ZGSZ 160700Z AUTO 01006KT 7SM 12/09 A3006 RMK T01200090 IEM_DS3505
ZGSZ,1997-02-16 08:00,ZGSZ 160800Z AUTO 02008KT 7SM 12/09 A3003 RMK T01200090 IEM_DS3505
ZGSZ,1997-02-16 09:00,ZGSZ 160900Z AUTO 04006KT 7SM 13/08 A3006 RMK SLP183 T01260084 57003 IEM_DS3505
ZGSZ,1997-02-16 10:00,ZGSZ 161000Z AUTO 01006KT 2 1/2SM 11/10 A3009 RMK T01100100 IEM_DS3505
ZGSZ,1997-02-16 11:00,ZGSZ 161100Z AUTO 03006KT 5SM 11/10 A3009 RMK T01100100 IEM_DS3505
ZGSZ,1997-02-16 12:00,ZGSZ 161200Z AUTO 04006KT 4SM 11/09 A3012 RMK SLP204 T01120090 52021 IEM_DS3505
ZGSZ,1997-02-16 13:00,ZGSZ 161300Z AUTO 02002KT 4SM 11/10 A3015 RMK T01100100 IEM_DS3505
ZGSZ,1997-02-16 14:00,ZGSZ 161400Z AUTO 04004KT 5SM 11/11 A3015 RMK T01100110 IEM_DS3505
ZGSZ,1997-02-16 15:00,ZGSZ 161500Z AUTO 05004KT 7SM 12/10 A3015 RMK T01200100 IEM_DS3505
ZGSZ,1997-02-16 18:00,ZGSZ 161800Z AUTO 04006KT 8SM 12/09 RMK SLP208 T01170091 57003 IEM_DS3505
ZGSZ,1997-02-16 21:00,ZGSZ 162100Z AUTO 04008KT 8SM 12/08 A3009 RMK 70001 SLP202 T01150082 57006 IEM_DS3505
ZGSZ,1997-02-16 22:00,ZGSZ 162200Z AUTO 01008KT 7SM 12/09 A3012 RMK T01200090 IEM_DS3505
ZGSZ,1997-02-16 23:00,ZGSZ 162300Z AUTO 02006KT 7SM 12/09 A3012 RMK T01200090 IEM_DS3505
ZGSZ,1997-02-17 00:00,ZGSZ 170000Z AUTO 07006KT 6SM 11/08 A3015 RMK 60000 SLP207 T01140079 52005 IEM_DS3505
ZGSZ,1997-02-17 01:00,ZGSZ 170100Z AUTO 01004KT 7SM 12/10 A3015 RMK T01200100 IEM_DS3505
ZGSZ,1997-02-17 02:00,ZGSZ 170200Z AUTO 36004KT 4SM 12/10 A3015 RMK T01200100 IEM_DS3505
ZGSZ,1997-02-17 03:00,ZGSZ 170300Z AUTO 36004KT 6SM 12/09 A3015 RMK SLP217 T01220086 52010 IEM_DS3505
ZGSZ,1997-02-17 04:00,ZGSZ 170400Z AUTO 36008KT 3SM 13/10 A3015 RMK T01300100 IEM_DS3505
ZGSZ,1997-02-17 05:00,ZGSZ 170500Z AUTO 01008KT 3SM 12/10 A3012 RMK T01200100 IEM_DS3505
ZGSZ,1997-02-17 06:00,ZGSZ 170600Z AUTO 04006KT 4SM 13/09 A3009 RMK SLP192 T01260090 57025 IEM_DS3505
ZGSZ,1997-02-17 07:00,ZGSZ 170700Z AUTO 02008KT 2 1/2SM 12/10 A3006 RMK T01200100 IEM_DS3505
ZGSZ,1997-02-17 08:00,ZGSZ 170800Z AUTO 01012KT 1 1/2SM 11/10 A3006 RMK T01100100 IEM_DS3505
ZGSZ,1997-02-17 09:00,ZGSZ 170900Z AUTO 32004KT 2 1/2SM 12/10 A3009 RMK SLP191 T01150097 57001 IEM_DS3505
ZGSZ,1997-02-17 10:00,ZGSZ 171000Z AUTO 02010KT 1 1/4SM 11/10 A3009 RMK T01100100 IEM_DS3505
ZGSZ,1997-02-17 11:00,ZGSZ 171100Z AUTO 01006KT 1 1/4SM 11/11 A3012 RMK T01100110 IEM_DS3505
ZGSZ,1997-02-17 12:00,ZGSZ 171200Z AUTO 04006KT 3SM 11/09 A3012 RMK SLP206 T01100086 52015 IEM_DS3505
ZGSZ,1997-02-17 13:00,ZGSZ 171300Z AUTO 01010KT 1 1/2SM 11/10 A3015 RMK T01100100 IEM_DS3505
ZGSZ,1997-02-17 14:00,ZGSZ 171400Z AUTO 01006KT 2SM 11/10 A3018 RMK T01100100 IEM_DS3505
ZGSZ,1997-02-17 15:00,ZGSZ 171500Z AUTO 34006KT 2SM 11/10 A3018 RMK T01100100 IEM_DS3505
ZGSZ,1997-02-17 18:00,ZGSZ 171800Z AUTO 04006KT 5SM 10/07 RMK 60001 SLP218 T01020073 57005 IEM_DS3505
ZGSZ,1997-02-17 21:00,ZGSZ 172100Z AUTO 04006KT 5SM 10/06 A3018 RMK 70002 SLP219 T00950065 52001 IEM_DS3505
ZGSZ,1997-02-17 22:00,ZGSZ 172200Z AUTO 36006KT 7SM 09/08 A3018 RMK T00900080 IEM_DS3505
ZGSZ,1997-02-17 23:00,ZGSZ 172300Z AUTO 01006KT 7SM 09/08 A3018 RMK T00900080 IEM_DS3505
ZGSZ,1997-02-18 00:00,ZGSZ 180000Z AUTO 36006KT 6SM 09/07 A3021 RMK 60004 70004 SLP233 T00940068 52014 IEM_DS3505
ZGSZ,1997-02-18 01:00,ZGSZ 180100Z AUTO 02006KT 6SM 10/09 A3024 RMK T01000090 IEM_DS3505
ZGSZ,1997-02-18 02:00,ZGSZ 180200Z AUTO 04008KT 6SM 12/08 A3024 RMK T01200080 IEM_DS3505
ZGSZ,1997-02-18 03:00,ZGSZ 180300Z AUTO 04006KT 6SM 12/06 A3024 RMK SLP245 T01190061 52012 IEM_DS3505
ZGSZ,1997-02-18 04:00,ZGSZ 180400Z AUTO 01012KT 6SM 14/06 A3021 RMK T01400060 IEM_DS3505
ZGSZ,1997-02-18 05:00,ZGSZ 180500Z AUTO 01012KT 6SM 15/06 A3018 RMK T01500060 IEM_DS3505
ZGSZ,1997-02-18 06:00,ZGSZ 180600Z AUTO 04008KT 9SM 16/08 A3015 RMK SLP216 T01550077 57029 IEM_DS3505
ZGSZ,1997-02-18 07:00,ZGSZ 180700Z AUTO 35006KT 6SM 16/08 A3015 RMK T01600080 IEM_DS3505
ZGSZ,1997-02-18 08:00,ZGSZ 180800Z AUTO 35012KT 6SM 15/07 A3015 RMK T01500070 IEM_DS3505
ZGSZ,1997-02-18 09:00,ZGSZ 180900Z AUTO 04010KT 9SM 15/06 A3015 RMK SLP212 T01460060 57004 IEM_DS3505
ZGSZ,1997-02-18 10:00,ZGSZ 181000Z AUTO 03008KT 6SM 14/06 A3015 RMK T01400060 IEM_DS3505
ZGSZ,1997-02-18 11:00,ZGSZ 181100Z AUTO 02004KT 6SM 14/06 A3018 RMK T01400060 IEM_DS3505
ZGSZ,1997-02-18 12:00,ZGSZ 181200Z AUTO 04006KT 10SM 14/05 A3018 RMK SLP231 T01350049 52019 IEM_DS3505
ZGSZ,1997-02-18 13:00,ZGSZ 181300Z AUTO 01006KT 6SM 13/06 A3021 RMK T01300060 IEM_DS3505
ZGSZ,1997-02-18 14:00,ZGSZ 181400Z AUTO 36004KT 6SM 12/06 A3024 RMK T01200060 IEM_DS3505
ZGSZ,1997-02-18 15:00,ZGSZ 181500Z AUTO 36004KT 6SM 12/06 A3024 RMK T01200060 IEM_DS3505
ZGSZ,1997-02-18 18:00,ZGSZ 181800Z AUTO 04004KT 12SM 12/04 RMK SLP242 T01180045 57004 IEM_DS3505
ZGSZ,1997-02-18 21:00,ZGSZ 182100Z AUTO 36006KT 11SM 11/04 A3021 RMK 70004 SLP239 T01140037 57003 IEM_DS3505
ZGSZ,1997-02-18 22:00,ZGSZ 182200Z AUTO 02008KT 7SM 11/03 A3024 RMK T01100030 IEM_DS3505
ZGSZ,1997-02-18 23:00,ZGSZ 182300Z AUTO 04006KT 6SM 12/03 A3024 RMK T01200030 IEM_DS3505
ZGSZ,1997-02-19 00:00,ZGSZ 190000Z AUTO 07008KT 12SM 12/02 A3027 RMK SLP253 T01180025 52014 IEM_DS3505
ZGSZ,1997-02-19 01:00,ZGSZ 190100Z AUTO 05004KT 6SM 12/04 A3027 RMK T01200040 IEM_DS3505
ZGSZ,1997-02-19 02:00,ZGSZ 190200Z AUTO 03004KT 6SM 13/05 A3030 RMK T01300050 IEM_DS3505
ZGSZ,1997-02-19 03:00,ZGSZ 190300Z AUTO 04006KT 10SM 14/04 A3027 RMK SLP258 T01430043 52005 IEM_DS3505
ZGSZ,1997-02-19 04:00,ZGSZ 190400Z AUTO 27004KT 6SM 17/06 A3024 RMK T01700060 IEM_DS3505
ZGSZ,1997-02-19 05:00,ZGSZ 190500Z AUTO 27008KT 6SM 17/07 A3021 RMK T01700070 IEM_DS3505
ZGSZ,1997-02-19 06:00,ZGSZ 190600Z AUTO 09006KT 12SM 19/M00 A3018 RMK SLP221 T01911001 57036 IEM_DS3505
ZGSZ,1997-02-19 07:00,ZGSZ 190700Z AUTO 29008KT 6SM 18/07 A3015 RMK T01800070 IEM_DS3505
ZGSZ,1997-02-19 08:00,ZGSZ 190800Z AUTO 25006KT 6SM 18/08 A3012 RMK T01800080 IEM_DS3505
ZGSZ,1997-02-19 09:00,ZGSZ 190900Z AUTO 11008KT 12SM 18/06 A3012 RMK SLP209 T01830059 57012 IEM_DS3505
ZGSZ,1997-02-19 10:00,ZGSZ 191000Z AUTO 21002KT 6SM 17/06 A3015 RMK T01700060 IEM_DS3505
ZGSZ,1997-02-19 11:00,ZGSZ 191100Z AUTO 20006KT 6SM 15/11 A3015 RMK T01500110 IEM_DS3505
ZGSZ,1997-02-19 12:00,ZGSZ 191200Z AUTO 11006KT 9SM 15/06 A3018 RMK SLP220 T01460055 52014 IEM_DS3505
ZGSZ,1997-02-19 13:00,ZGSZ 191300Z AUTO 10006KT 2 1/2SM 14/07 A3018 RMK T01400070 IEM_DS3505
ZGSZ,1997-02-19 14:00,ZGSZ 191400Z AUTO 11008KT 3SM 14/07 A3021 RMK T01400070 IEM_DS3505
ZGSZ,1997-02-19 15:00,ZGSZ 191500Z AUTO 10006KT 3SM 12/08 A3021 RMK T01200080 IEM_DS3505
ZGSZ,1997-02-19 18:00,ZGSZ 191800Z AUTO 04002KT 14SM 13/07 RMK SLP236 T01270073 52003 IEM_DS3505
ZGSZ,1997-02-19 21:00,ZGSZ 192100Z AUTO 04004KT 12SM 12/07 A3021 RMK SLP229 T01250066 57007 IEM_DS3505
ZGSZ,1997-02-19 22:00,ZGSZ 192200Z AUTO 28002KT 2 1/2SM 12/09 A3021 RMK T01200090 IEM_DS3505
ZGSZ,1997-02-19 23:00,ZGSZ 192300Z AUTO 00000KT 6SM 12/07 A3021 RMK T01200070 IEM_DS3505
ZGSZ,1997-02-20 00:00,ZGSZ 200000Z AUTO 02006KT 9SM 12/07 A3021 RMK SLP245 T01210066 52015 IEM_DS3505
ZGSZ,1997-02-20 01:00,ZGSZ 200100Z AUTO 28004KT 6SM 15/07 A3024 RMK T01500070 IEM_DS3505
ZGSZ,1997-02-20 02:00,ZGSZ 200200Z AUTO 25004KT 6SM 16/07 A3027 RMK T01600070 IEM_DS3505
ZGSZ,1997-02-20 03:00,ZGSZ 200300Z AUTO 07006KT 12SM 18/03 A3024 RMK SLP241 T01850033 57003 IEM_DS3505
ZGSZ,1997-02-20 04:00,ZGSZ 200400Z AUTO 28006KT 6SM 18/07 A3021 RMK T01800070 IEM_DS3505
ZGSZ,1997-02-20 05:00,ZGSZ 200500Z AUTO 27006KT 6SM 18/07 A3018 RMK T01800070 IEM_DS3505
ZGSZ,1997-02-20 06:00,ZGSZ 200600Z AUTO 14004KT 17SM 22/06 A3015 RMK SLP213 T02200060 57028 IEM_DS3505
ZGSZ,1997-02-20 07:00,ZGSZ 200700Z AUTO 28004KT 6SM 19/07 A3012 RMK T01900070 IEM_DS3505
ZGSZ,1997-02-20 08:00,ZGSZ 200800Z AUTO 26002KT 6SM 20/07 A3012 RMK T02000070 IEM_DS3505
ZGSZ,1997-02-20 09:00,ZGSZ 200900Z AUTO 11006KT 19SM 20/04 A3012 RMK SLP208 T01980042 57005 IEM_DS3505
ZGSZ,1997-02-20 10:00,ZGSZ 201000Z AUTO 19004KT 6SM 18/12 A3015 RMK T01800120 IEM_DS3505
ZGSZ,1997-02-20 11:00,ZGSZ 201100Z AUTO 18006KT 6SM 17/13 A3015 RMK T01700130 IEM_DS3505
ZGSZ,1997-02-20 12:00,ZGSZ 201200Z AUTO 14006KT 14SM 16/05 A3015 RMK SLP224 T01620052 52015 IEM_DS3505
ZGSZ,1997-02-20 13:00,ZGSZ 201300Z AUTO 12002KT 6SM 17/10 A3018 RMK T01700100 IEM_DS3505
ZGSZ,1997-02-20 14:00,ZGSZ 201400Z AUTO 13002KT 6SM 17/09 A3018 RMK T01700090 IEM_DS3505
ZGSZ,1997-02-20 15:00,ZGSZ 201500Z AUTO 12002KT 6SM 16/11 A3021 RMK T01600110 IEM_DS3505
ZGSZ,1997-02-20 16:00,ZGSZ 201600Z AUTO 13004KT 6SM 16/11 A3021 RMK T01600110 IEM_DS3505
ZGSZ,1997-02-20 18:00,ZGSZ 201800Z AUTO 09004KT 11SM 14/09 RMK SLP233 T01400092 57003 IEM_DS3505
ZGSZ,1997-02-20 21:00,ZGSZ 202100Z AUTO 04004KT 9SM 14/09 A3018 RMK SLP224 T01390092 57009 IEM_DS3505
ZGSZ,1997-02-20 23:00,ZGSZ 202300Z AUTO 08004KT 6SM 13/09 A3021 RMK T01300090 IEM_DS3505
ZGSZ,1997-02-21 00:00,ZGSZ 210000Z AUTO 09004KT 8SM 14/09 A3024 RMK SLP240 T01390094 52016 IEM_DS3505
ZGSZ,1997-02-21 01:00,ZGSZ 210100Z AUTO 36002KT 6SM 17/10 A3024 RMK T01700100 IEM_DS3505
ZGSZ,1997-02-21 02:00,ZGSZ 210200Z AUTO 34006KT 6SM 19/10 A3024 RMK T01900100 IEM_DS3505
ZGSZ,1997-02-21 03:00,ZGSZ 210300Z AUTO 36006KT 5SM 20/09 A3024 RMK SLP248 T02010094 52008 IEM_DS3505
ZGSZ,1997-02-21 04:00,ZGSZ 210400Z AUTO 25006KT 1 1/2SM 21/14 A3021 RMK T02100140 IEM_DS3505
ZGSZ,1997-02-21 05:00,ZGSZ 210500Z AUTO 24006KT 1 1/2SM 21/12 A3018 RMK T02100120 IEM_DS3505
ZGSZ,1997-02-21 06:00,ZGSZ 210600Z AUTO 14004KT 11SM 24/09 A3015 RMK SLP217 T02350086 57031 IEM_DS3505
ZGSZ,1997-02-21 07:00,ZGSZ 210700Z AUTO 25004KT 2SM 23/11 A3012 RMK T02300110 IEM_DS3505
ZGSZ,1997-02-21 08:00,ZGSZ 210800Z AUTO 18008KT 3SM 20/16 A3012 RMK T02000160 IEM_DS3505
ZGSZ,1997-02-21 09:00,ZGSZ 210900Z AUTO 11004KT 10SM 22/08 A3012 RMK SLP207 T02170082 57010 IEM_DS3505
ZGSZ,1997-02-21 10:00,ZGSZ 211000Z AUTO 17006KT 6SM 20/12 A3012 RMK T02000120 IEM_DS3505
ZGSZ,1997-02-21 11:00,ZGSZ 211100Z AUTO 13004KT 6SM 18/13 A3012 RMK T01800130 IEM_DS3505
ZGSZ,1997-02-21 12:00,ZGSZ 211200Z AUTO 09006KT 14SM 17/11 A3015 RMK SLP222 T01730106 52015 IEM_DS3505
ZGSZ,1997-02-21 13:00,ZGSZ 211300Z AUTO 11008KT 6SM 18/10 A3018 RMK T01800100 IEM_DS3505
ZGSZ,1997-02-21 14:00,ZGSZ 211400Z AUTO 10010KT 6SM 18/11 A3018 RMK T01800110 IEM_DS3505
ZGSZ,1997-02-21 15:00,ZGSZ 211500Z AUTO 10008KT 6SM 17/12 A3021 RMK T01700120 IEM_DS3505
ZGSZ,1997-02-21 18:00,ZGSZ 211800Z AUTO 11006KT 16SM 16/09 RMK SLP232 T01590093 57003 IEM_DS3505
ZGSZ,1997-02-21 21:00,ZGSZ 212100Z AUTO 07004KT 14SM 16/08 A3018 RMK SLP220 T01630078 57012 IEM_DS3505
ZGSZ,1997-02-21 22:00,ZGSZ 212200Z AUTO 00000KT 6SM 16/10 A3018 RMK T01600100 IEM_DS3505
ZGSZ,1997-02-21 23:00,ZGSZ 212300Z AUTO 00000KT 6SM 14/10 A3021 RMK T01400100 IEM_DS3505
ZGSZ,1997-02-22 00:00,ZGSZ 220000Z AUTO 09006KT 12SM 16/07 A3021 RMK SLP241 T01600066 52021 IEM_DS3505
ZGSZ,1997-02-22 01:00,ZGSZ 220100Z AUTO 09006KT 6SM 18/09 A3024 RMK T01800090 IEM_DS3505
ZGSZ,1997-02-22 02:00,ZGSZ 220200Z AUTO 12008KT 6SM 20/08 A3024 RMK T02000080 IEM_DS3505
ZGSZ,1997-02-22 03:00,ZGSZ 220300Z AUTO 14006KT 16SM 20/05 A3024 RMK SLP241 T02010049 54000 IEM_DS3505
ZGSZ,1997-02-22 04:00,ZGSZ 220400Z AUTO 26006KT 6SM 20/09 A3021 RMK T02000090 IEM_DS3505
ZGSZ,1997-02-22 05:00,ZGSZ 220500Z AUTO 25006KT 6SM 21/11 A3018 RMK T02100110 IEM_DS3505
ZGSZ,1997-02-22 06:00,ZGSZ 220600Z AUTO 14010KT 14SM 22/06 RMK SLP212 T02230062 57029 IEM_DS3505
ZGSZ,1997-02-22 07:00,ZGSZ 220700Z AUTO 26004KT 6SM 21/11 A3012 RMK T02100110 IEM_DS3505
ZGSZ,1997-02-22 08:00,ZGSZ 220800Z AUTO 24008KT 6SM 20/13 A3012 RMK T02000130 IEM_DS3505
ZGSZ,1997-02-22 09:00,ZGSZ 220900Z AUTO 09008KT 10SM 19/11 A3009 RMK SLP205 T01910111 57007 IEM_DS3505
ZGSZ,1997-02-22 10:00,ZGSZ 221000Z AUTO 13010KT 6SM 20/14 A3012 RMK T02000140 IEM_DS3505
ZGSZ,1997-02-22 11:00,ZGSZ 221100Z AUTO 14008KT 6SM 19/12 A3012 RMK T01900120 IEM_DS3505
ZGSZ,1997-02-22 12:00,ZGSZ 221200Z AUTO 18006KT 7SM 16/12 A3015 RMK SLP219 T01570116 52014 IEM_DS3505
ZGSZ,1997-02-22 13:00,ZGSZ 221300Z AUTO 13010KT 6SM 17/12 A3015 RMK T01700120 IEM_DS3505
ZGSZ,1997-02-22 14:00,ZGSZ 221400Z AUTO 11008KT 6SM 16/12 A3018 RMK T01600120 IEM_DS3505
ZGSZ,1997-02-22 15:00,ZGSZ 221500Z AUTO 11008KT 6SM 16/12 A3018 RMK T01600120 IEM_DS3505
ZGSZ,1997-02-22 16:00,ZGSZ 221600Z AUTO 11004KT 6SM 15/12 A3018 RMK T01500120 IEM_DS3505
ZGSZ,1997-02-22 18:00,ZGSZ 221800Z AUTO 09006KT 16SM 16/10 RMK SLP223 T01570095 57003 IEM_DS3505
ZGSZ,1997-02-22 21:00,ZGSZ 222100Z AUTO 09004KT 14SM 15/10 A3015 RMK SLP217 T01510101 57006 IEM_DS3505
ZGSZ,1997-02-22 22:00,ZGSZ 222200Z AUTO 05004KT 6SM 14/12 A3015 RMK T01400120 IEM_DS3505
ZGSZ,1997-02-22 23:00,ZGSZ 222300Z AUTO 08002KT 6SM 14/12 A3018 RMK T01400120 IEM_DS3505
ZGSZ,1997-02-23 00:00,ZGSZ 230000Z AUTO 09006KT 12SM 15/10 A3018 RMK SLP226 T01520102 52009 IEM_DS3505
ZGSZ,1997-02-23 01:00,ZGSZ 230100Z AUTO 05004KT 6SM 17/12 A3018 RMK T01700120 IEM_DS3505
ZGSZ,1997-02-23 02:00,ZGSZ 230200Z AUTO 10010KT 6SM 20/11 A3021 RMK T02000110 IEM_DS3505
ZGSZ,1997-02-23 03:00,ZGSZ 230300Z AUTO 14010KT 16SM 19/10 A3018 RMK SLP230 T01910102 52004 IEM_DS3505
ZGSZ,1997-02-23 04:00,ZGSZ 230400Z AUTO 26004KT 6SM 21/14 A3018 RMK T02100140 IEM_DS3505
ZGSZ,1997-02-23 05:00,ZGSZ 230500Z AUTO 26004KT 6SM 21/13 A3015 RMK T02100130 IEM_DS3505
ZGSZ,1997-02-23 06:00,ZGSZ 230600Z AUTO 14006KT 19SM 23/12 A3012 RMK SLP200 T02310125 57030 IEM_DS3505
ZGSZ,1997-02-23 07:00,ZGSZ 230700Z AUTO 24004KT 6SM 21/15 A3009 RMK T02100150 IEM_DS3505
ZGSZ,1997-02-23 08:00,ZGSZ 230800Z AUTO 22004KT 6SM 22/14 A3009 RMK T02200140 IEM_DS3505
ZGSZ,1997-02-23 09:00,ZGSZ 230900Z AUTO 14008KT 19SM 22/12 A3009 RMK SLP195 T02150115 57005 IEM_DS3505
ZGSZ,1997-02-23 10:00,ZGSZ 231000Z AUTO 20008KT 6SM 19/16 A3009 RMK T01900160 IEM_DS3505
ZGSZ,1997-02-23 11:00,ZGSZ 231100Z AUTO 13008KT 6SM 20/15 A3009 RMK T02000150 IEM_DS3505
ZGSZ,1997-02-23 12:00,ZGSZ 231200Z AUTO 09006KT 12SM 18/11 A3012 RMK SLP209 T01750112 52014 IEM_DS3505
ZGSZ,1997-02-23 13:00,ZGSZ 231300Z AUTO 12008KT 4SM 19/11 A3015 RMK T01900110 IEM_DS3505
ZGSZ,1997-02-23 14:00,ZGSZ 231400Z AUTO 11008KT 6SM 18/11 A3015 RMK T01800110 IEM_DS3505
ZGSZ,1997-02-23 15:00,ZGSZ 231500Z AUTO 10010KT 6SM 19/11 A3015 RMK T01900110 IEM_DS3505
ZGSZ,1997-02-23 18:00,ZGSZ 231800Z AUTO 14006KT 11SM 16/12 RMK SLP213 T01570124 57005 IEM_DS3505
ZGSZ,1997-02-23 21:00,ZGSZ 232100Z AUTO 14010KT 10SM 16/12 A3012 RMK SLP207 T01640118 57006 IEM_DS3505
ZGSZ,1997-02-23 22:00,ZGSZ 232200Z AUTO 09006KT 6SM 17/13 A3015 RMK T01700130 IEM_DS3505
ZGSZ,1997-02-23 23:00,ZGSZ 232300Z AUTO 07002KT 6SM 17/13 A3015 RMK T01700130 IEM_DS3505
ZGSZ,1997-02-24 00:00,ZGSZ 240000Z AUTO 14006KT 11SM 17/11 A3018 RMK SLP224 T01700111 52017 IEM_DS3505
ZGSZ,1997-02-24 01:00,ZGSZ 240100Z AUTO 08004KT 6SM 19/13 A3018 RMK T01900130 IEM_DS3505
ZGSZ,1997-02-24 02:00,ZGSZ 240200Z AUTO 08004KT 6SM 21/13 A3018 RMK T02100130 IEM_DS3505
ZGSZ,1997-02-24 03:00,ZGSZ 240300Z AUTO 11008KT 14SM 22/13 A3018 RMK SLP225 T02160129 52001 IEM_DS3505
ZGSZ,1997-02-24 04:00,ZGSZ 240400Z AUTO 26006KT 6SM 24/16 A3015 RMK T02400160 IEM_DS3505
ZGSZ,1997-02-24 05:00,ZGSZ 240500Z AUTO 26006KT 6SM 25/16 A3012 RMK T02500160 IEM_DS3505
ZGSZ,1997-02-24 06:00,ZGSZ 240600Z AUTO 04008KT 16SM 24/15 A3009 RMK SLP199 T02370148 57025 IEM_DS3505
ZGSZ,1997-02-24 07:00,ZGSZ 240700Z AUTO 21004KT 6SM 26/17 A3009 RMK T02600170 IEM_DS3505
ZGSZ,1997-02-24 08:00,ZGSZ 240800Z AUTO 24008KT 6SM 25/17 A3009 RMK T02500170 IEM_DS3505
ZGSZ,1997-02-24 09:00,ZGSZ 240900Z AUTO 07010KT 17SM 24/15 A3009 RMK SLP194 T02350150 57005 IEM_DS3505
ZGSZ,1997-02-24 10:00,ZGSZ 241000Z AUTO 13006KT 6SM 23/17 A3009 RMK T02300170 IEM_DS3505
ZGSZ,1997-02-24 11:00,ZGSZ 241100Z AUTO 12008KT 6SM 22/16 A3012 RMK T02200160 IEM_DS3505
ZGSZ,1997-02-24 12:00,ZGSZ 241200Z AUTO 14004KT 12SM 20/14 A3012 RMK SLP213 T02030143 52018 IEM_DS3505
ZGSZ,1997-02-24 13:00,ZGSZ 241300Z AUTO 12006KT 6SM 21/16 A3015 RMK T02100160 IEM_DS3505
ZGSZ,1997-02-24 14:00,ZGSZ 241400Z AUTO 12004KT 6SM 20/16 A3015 RMK T02000160 IEM_DS3505
ZGSZ,1997-02-24 15:00,ZGSZ 241500Z AUTO 09004KT 6SM 20/16 A3015 RMK T02000160 IEM_DS3505
ZGSZ,1997-02-24 18:00,ZGSZ 241800Z AUTO 09006KT 14SM 18/14 RMK SLP206 T01830139 57011 IEM_DS3505
ZGSZ,1997-02-24 21:00,ZGSZ 242100Z AUTO 09004KT 16SM 19/14 A3009 RMK SLP198 T01870136 57008 IEM_DS3505
ZGSZ,1997-02-24 22:00,ZGSZ 242200Z AUTO 31002KT 6SM 18/16 A3009 RMK T01800160 IEM_DS3505
ZGSZ,1997-02-24 23:00,ZGSZ 242300Z AUTO 08002KT 6SM 18/16 A3012 RMK T01800160 IEM_DS3505
ZGSZ,1997-02-25 00:00,ZGSZ 250000Z AUTO 04006KT 17SM 19/14 A3012 RMK SLP209 T01880141 52010 IEM_DS3505
ZGSZ,1997-02-25 01:00,ZGSZ 250100Z AUTO 11006KT 6SM 21/17 A3012 RMK T02100170 IEM_DS3505
ZGSZ,1997-02-25 02:00,ZGSZ 250200Z AUTO 09006KT 6SM 23/18 A3012 RMK T02300180 IEM_DS3505
ZGSZ,1997-02-25 03:00,ZGSZ 250300Z AUTO 14004KT 16SM 22/15 A3012 RMK SLP208 T02220154 54000 IEM_DS3505
ZGSZ,1997-02-25 04:00,ZGSZ 250400Z AUTO 13010KT 7SM 25/17 A3012 RMK T02500170 IEM_DS3505
ZGSZ,1997-02-25 05:00,ZGSZ 250500Z AUTO 13012KT 7SM 25/18 A3012 RMK T02500180 IEM_DS3505
ZGSZ,1997-02-25 06:00,ZGSZ 250600Z AUTO 04002KT 17SM 24/16 A3009 RMK SLP192 T02360164 57016 IEM_DS3505
ZGSZ,1997-02-25 07:00,ZGSZ 250700Z AUTO 14008KT 7SM 25/17 A3006 RMK T02500170 IEM_DS3505
ZGSZ,1997-02-25 08:00,ZGSZ 250800Z AUTO 21004KT 7SM 26/18 A3006 RMK T02600180 IEM_DS3505
ZGSZ,1997-02-25 09:00,ZGSZ 250900Z AUTO 14004KT 19SM 24/17 A3006 RMK SLP185 T02360168 57007 IEM_DS3505
ZGSZ,1997-02-25 10:00,ZGSZ 251000Z AUTO 24002KT 6SM 22/18 A3006 RMK T02200180 IEM_DS3505
ZGSZ,1997-02-25 11:00,ZGSZ 251100Z AUTO 00000KT 6SM 21/18 A3006 RMK T02100180 IEM_DS3505
ZGSZ,1997-02-25 12:00,ZGSZ 251200Z AUTO 11002KT 11SM 21/17 A3009 RMK SLP194 T02120168 52009 IEM_DS3505
ZGSZ,1997-02-25 13:00,ZGSZ 251300Z AUTO 11006KT 6SM 22/18 A3009 RMK T02200180 IEM_DS3505
ZGSZ,1997-02-25 14:00,ZGSZ 251400Z AUTO 08008KT 6SM 22/18 A3009 RMK T02200180 IEM_DS3505
ZGSZ,1997-02-25 15:00,ZGSZ 251500Z AUTO 11004KT 3SM 21/18 A3009 RMK T02100180 IEM_DS3505
ZGSZ,1997-02-25 18:00,ZGSZ 251800Z AUTO 14004KT 8SM 20/17 RMK SLP190 T02050166 57007 IEM_DS3505
ZGSZ,1997-02-25 21:00,ZGSZ 252100Z AUTO 07004KT 7SM 20/17 A3006 RMK SLP187 T01990168 57003 IEM_DS3505
ZGSZ,1997-02-25 22:00,ZGSZ 252200Z AUTO 06002KT 4SM 19/18 A3006 RMK T01900180 IEM_DS3505
ZGSZ,1997-02-25 23:00,ZGSZ 252300Z AUTO 36002KT 6SM 20/18 A3009 RMK T02000180 IEM_DS3505
ZGSZ,1997-02-26 00:00,ZGSZ 260000Z AUTO 04004KT 6SM 20/17 A3012 RMK SLP199 T02000169 52012 IEM_DS3505
ZGSZ,1997-02-26 01:00,ZGSZ 260100Z AUTO 03004KT 7SM 21/18 A3012 RMK T02100180 IEM_DS3505
ZGSZ,1997-02-26 02:00,ZGSZ 260200Z AUTO 03008KT 7SM 23/19 A3012 RMK T02300190 IEM_DS3505
ZGSZ,1997-02-26 03:00,ZGSZ 260300Z AUTO 04004KT 6SM 23/17 A3012 RMK SLP204 T02320174 52005 IEM_DS3505
ZGSZ,1997-02-26 04:00,ZGSZ 260400Z AUTO 11004KT 7SM 25/18 A3009 RMK T02500180 IEM_DS3505
ZGSZ,1997-02-26 05:00,ZGSZ 260500Z AUTO 11006KT 7SM 24/18 A3006 RMK T02400180 IEM_DS3505
ZGSZ,1997-02-26 06:00,ZGSZ 260600Z AUTO 14006KT 19SM 26/16 A3003 RMK SLP175 T02550157 57029 IEM_DS3505
ZGSZ,1997-02-26 07:00,ZGSZ 260700Z AUTO 22006KT 7SM 26/19 A3000 RMK T02600190 IEM_DS3505
ZGSZ,1997-02-26 08:00,ZGSZ 260800Z AUTO 24006KT 7SM 25/19 A3000 RMK T02500190 IEM_DS3505
ZGSZ,1997-02-26 09:00,ZGSZ 260900Z AUTO 04010KT 19SM 25/15 A3000 RMK SLP166 T02510150 57009 IEM_DS3505
ZGSZ,1997-02-26 10:00,ZGSZ 261000Z AUTO 19006KT 6SM 22/19 A3000 RMK T02200190 IEM_DS3505
ZGSZ,1997-02-26 11:00,ZGSZ 261100Z AUTO 11006KT 6SM 23/16 A3003 RMK T02300160 IEM_DS3505
ZGSZ,1997-02-26 12:00,ZGSZ 261200Z AUTO 14008KT 14SM 22/16 A3003 RMK SLP177 T02190165 52011 IEM_DS3505
ZGSZ,1997-02-26 13:00,ZGSZ 261300Z AUTO 10004KT 6SM 21/16 A3003 RMK T02100160 IEM_DS3505
ZGSZ,1997-02-26 14:00,ZGSZ 261400Z AUTO 11006KT 6SM 20/17 A3006 RMK T02000170 IEM_DS3505
ZGSZ,1997-02-26 15:00,ZGSZ 261500Z AUTO 09004KT 6SM 20/17 A3006 RMK T02000170 IEM_DS3505
ZGSZ,1997-02-26 18:00,ZGSZ 261800Z AUTO 09004KT 14SM 20/15 RMK SLP181 T01990146 57002 IEM_DS3505
ZGSZ,1997-02-26 21:00,ZGSZ 262100Z AUTO 14002KT 14SM 18/15 A3006 RMK SLP187 T01840148 52006 IEM_DS3505
ZGSZ,1997-02-27 00:00,ZGSZ 270000Z AUTO 09002KT 7SM 18/15 A3009 RMK SLP200 T01820150 52013 IEM_DS3505
ZGSZ,1997-02-27 01:00,ZGSZ 270100Z AUTO 11004KT 6SM 21/16 A3009 RMK T02100160 IEM_DS3505
ZGSZ,1997-02-27 02:00,ZGSZ 270200Z AUTO 10006KT 6SM 23/16 A3012 RMK T02300160 IEM_DS3505
ZGSZ,1997-02-27 03:00,ZGSZ 270300Z AUTO 09006KT 11SM 24/14 A3009 RMK SLP201 T02360143 52001 IEM_DS3505
ZGSZ,1997-02-27 04:00,ZGSZ 270400Z AUTO 27004KT 7SM 25/16 A3009 RMK T02500160 IEM_DS3505
ZGSZ,1997-02-27 05:00,ZGSZ 270500Z AUTO 25006KT 7SM 24/18 A3006 RMK T02400180 IEM_DS3505
ZGSZ,1997-02-27 06:00,ZGSZ 270600Z AUTO 16006KT 11SM 25/15 RMK SLP179 T02470153 57022 IEM_DS3505
ZGSZ,1997-02-27 07:00,ZGSZ 270700Z AUTO 17008KT 7SM 27/17 A3000 RMK T02700170 IEM_DS3505
ZGSZ,1997-02-27 08:00,ZGSZ 270800Z AUTO 20008KT 7SM 26/18 A3000 RMK T02600180 IEM_DS3505
ZGSZ,1997-02-27 09:00,ZGSZ 270900Z AUTO 14006KT 10SM 24/16 A3000 RMK SLP168 T02350160 57011 IEM_DS3505
ZGSZ,1997-02-27 10:00,ZGSZ 271000Z AUTO 14010KT 6SM 24/17 A3000 RMK T02400170 IEM_DS3505
ZGSZ,1997-02-27 11:00,ZGSZ 271100Z AUTO 13010KT 6SM 23/17 A3003 RMK T02300170 IEM_DS3505
ZGSZ,1997-02-27 12:00,ZGSZ 271200Z AUTO 14006KT 8SM 21/16 A3003 RMK SLP178 T02070159 52010 IEM_DS3505
ZGSZ,1997-02-27 13:00,ZGSZ 271300Z AUTO 11008KT 6SM 21/17 A3006 RMK T02100170 IEM_DS3505
ZGSZ,1997-02-27 15:00,ZGSZ 271500Z AUTO 12008KT 6SM 20/17 A3006 RMK T02000170 IEM_DS3505
ZGSZ,1997-02-27 16:00,ZGSZ 271600Z AUTO 10008KT 6SM 20/17 A3006 RMK T02000170 IEM_DS3505
ZGSZ,1997-02-27 18:00,ZGSZ 271800Z AUTO 14006KT 13SM 19/15 RMK SLP182 T01870153 57008 IEM_DS3505
ZGSZ,1997-02-27 21:00,ZGSZ 272100Z AUTO 09004KT 11SM 18/16 RMK SLP175 T01820155 57007 IEM_DS3505
ZGSZ,1997-02-27 22:00,ZGSZ 272200Z AUTO 09002KT 6SM 19/16 A3003 RMK T01900160 IEM_DS3505
ZGSZ,1997-02-27 23:00,ZGSZ 272300Z AUTO 02004KT 6SM 18/16 A3006 RMK T01800160 IEM_DS3505
ZGSZ,1997-02-28 00:00,ZGSZ 280000Z AUTO 04002KT 5SM 18/16 A3006 RMK SLP192 T01820157 52017 IEM_DS3505
ZGSZ,1997-02-28 01:00,ZGSZ 280100Z AUTO 21002KT 4SM 21/18 A3009 RMK T02100180 IEM_DS3505
ZGSZ,1997-02-28 02:00,ZGSZ 280200Z AUTO 26004KT 6SM 23/18 A3009 RMK T02300180 IEM_DS3505
ZGSZ,1997-02-28 03:00,ZGSZ 280300Z AUTO 09004KT 11SM 24/17 A3009 RMK SLP190 T02400171 57002 IEM_DS3505
ZGSZ,1997-02-28 04:00,ZGSZ 280400Z AUTO 26006KT 2SM 24/18 A3006 RMK T02400180 IEM_DS3505
ZGSZ,1997-02-28 05:00,ZGSZ 280500Z AUTO 25004KT 4SM 24/19 A3003 RMK T02400190 IEM_DS3505
ZGSZ,1997-02-28 06:00,ZGSZ 280600Z AUTO 20006KT 19SM 25/17 A3000 RMK SLP162 T02510169 57028 IEM_DS3505
ZGSZ,1997-02-28 07:00,ZGSZ 280700Z AUTO 19008KT 6SM 22/19 A2997 RMK T02200190 IEM_DS3505
ZGSZ,1997-02-28 08:00,ZGSZ 280800Z AUTO 19008KT 6SM 21/19 A2997 RMK T02100190 IEM_DS3505
ZGSZ,1997-02-28 09:00,ZGSZ 280900Z AUTO 27006KT 10SM 24/17 A2997 RMK SLP153 T02420173 57009 IEM_DS3505
ZGSZ,1997-02-28 10:00,ZGSZ 281000Z AUTO 17006KT 7SM 21/19 A2997 RMK T02100190 IEM_DS3505
ZGSZ,1997-02-28 11:00,ZGSZ 281100Z AUTO 16006KT 6SM 20/18 A2997 RMK T02000180 IEM_DS3505
ZGSZ,1997-02-28 12:00,ZGSZ 281200Z AUTO 22002KT 5SM 21/17 A2997 RMK SLP160 T02130171 52007 IEM_DS3505
ZGSZ,1997-02-28 13:00,ZGSZ 281300Z AUTO 17004KT 3SM 20/19 A3000 RMK T02000190 IEM_DS3505
ZGSZ,1997-02-28 14:00,ZGSZ 281400Z AUTO 17004KT 2 1/2SM 19/19 A3000 RMK T01900190 IEM_DS3505
ZGSZ,1997-02-28 18:00,ZGSZ 281800Z AUTO 00000KT 5SM 19/16 RMK SLP164 T01900163 57006 IEM_DS3505
ZGSZ,1997-02-28 21:00,ZGSZ 282100Z AUTO 07004KT 4SM 19/16 A2997 RMK SLP154 T01870165 57010 IEM_DS3505
ZGSZ,1997-02-28 22:00,ZGSZ 282200Z AUTO 07002KT 1 1/4SM 17/17 A2997 RMK T01700170 IEM_DS3505
ZGSZ,1997-02-28 23:00,ZGSZ 282300Z AUTO 00000KT 1 1/4SM 17/17 A3000 RMK T01700170 IEM_DS3505
ZGSZ,1997-03-01 00:00,ZGSZ 010000Z AUTO 00000KT 4SM 19/17 RMK SLP169 T01860166 52015 IEM_DS3505
ZGSZ,1997-03-01 01:00,ZGSZ 010100Z AUTO 35004KT 1 1/2SM 21/20 A3000 RMK T02100200 IEM_DS3505
ZGSZ,1997-03-01 02:00,ZGSZ 010200Z AUTO 35006KT 2SM 22/19 A3003 RMK T02200190 IEM_DS3505
ZGSZ,1997-03-01 03:00,ZGSZ 010300Z AUTO 04006KT 3SM 24/18 A3000 RMK SLP168 T02410176 57001 IEM_DS3505
ZGSZ,1997-03-01 04:00,ZGSZ 010400Z AUTO 28006KT 2SM 24/20 A2997 RMK T02400200 IEM_DS3505
ZGSZ,1997-03-01 05:00,ZGSZ 010500Z AUTO 28008KT 2 1/2SM 24/19 A2994 RMK T02400190 IEM_DS3505
ZGSZ,1997-03-01 06:00,ZGSZ 010600Z AUTO 18006KT 3SM 26/18 A2991 RMK SLP135 T02630180 57033 IEM_DS3505
ZGSZ,1997-03-01 07:00,ZGSZ 010700Z AUTO 27006KT 1 1/2SM 26/20 A2988 RMK T02600200 IEM_DS3505
ZGSZ,1997-03-01 08:00,ZGSZ 010800Z AUTO 18006KT 1 1/2SM 26/21 A2988 RMK T02600210 IEM_DS3505
ZGSZ,1997-03-01 09:00,ZGSZ 010900Z AUTO 11006KT 6SM 25/20 A2988 RMK T02500200 IEM_DS3505
ZGSZ,1997-03-01 10:00,ZGSZ 011000Z AUTO 17008KT 2SM 24/20 A2991 RMK T02400200 IEM_DS3505
ZGSZ,1997-03-01 11:00,ZGSZ 011100Z AUTO 13008KT 2SM 23/19 A2991 RMK T02300190 IEM_DS3505
ZGSZ,1997-03-01 12:00,ZGSZ 011200Z AUTO 09008KT 5SM 19/17 A2994 RMK SLP157 T01940168 52024 IEM_DS3505
ZGSZ,1997-03-01 13:00,ZGSZ 011300Z AUTO 12012KT 3SM 20/18 A3000 RMK T02000180 IEM_DS3505
ZGSZ,1997-03-01 14:00,ZGSZ 011400Z AUTO 11012KT 3SM 20/18 A3003 RMK T02000180 IEM_DS3505
ZGSZ,1997-03-01 18:00,ZGSZ 011800Z AUTO 14012KT 11SM 18/15 RMK SLP166 T01750146 57015 IEM_DS3505
ZGSZ,1997-03-01 21:00,ZGSZ 012100Z AUTO 14006KT 8SM 16/14 A3000 RMK SLP168 T01630138 52002 IEM_DS3505
ZGSZ,1997-03-01 22:00,ZGSZ 012200Z AUTO 36006KT 6SM 16/15 A3006 RMK T01600150 IEM_DS3505
ZGSZ,1997-03-01 23:00,ZGSZ 012300Z AUTO 03004KT 4SM 17/15 A3009 RMK T01700150 IEM_DS3505
ZGSZ,1997-03-02 00:00,ZGSZ 020000Z AUTO 36002KT 5SM 17/14 A3012 RMK SLP204 T01700144 52035 IEM_DS3505
ZGSZ,1997-03-02 01:00,ZGSZ 020100Z AUTO 34012KT 1SM 16/15 A3015 RMK T01600150 IEM_DS3505
ZGSZ,1997-03-02 02:00,ZGSZ 020200Z AUTO 01008KT 1 1/4SM 16/16 A3018 RMK T01600160 IEM_DS3505
ZGSZ,1997-03-02 03:00,ZGSZ 020300Z AUTO 36008KT 8SM 17/14 A3015 RMK SLP220 T01720142 52016 IEM_DS3505
ZGSZ,1997-03-02 04:00,ZGSZ 020400Z AUTO 01008KT 7SM 17/15 A3015 RMK T01700150 IEM_DS3505
ZGSZ,1997-03-02 05:00,ZGSZ 020500Z AUTO 34010KT 7SM 18/15 A3012 RMK T01800150 IEM_DS3505
ZGSZ,1997-03-02 06:00,ZGSZ 020600Z AUTO 02006KT 17SM 19/12 A3012 RMK 60000 SLP201 T01880122 57019 IEM_DS3505
ZGSZ,1997-03-02 07:00,ZGSZ 020700Z AUTO 36012KT 7SM 18/15 A3009 RMK T01800150 IEM_DS3505
ZGSZ,1997-03-02 08:00,ZGSZ 020800Z AUTO 01010KT 7SM 18/14 A3009 RMK T01800140 IEM_DS3505
ZGSZ,1997-03-02 09:00,ZGSZ 020900Z AUTO 04008KT 19SM 19/12 A3009 RMK SLP192 T01930123 57009 IEM_DS3505
ZGSZ,1997-03-02 10:00,ZGSZ 021000Z AUTO 02012KT 7SM 17/13 A3012 RMK T01700130 IEM_DS3505
ZGSZ,1997-03-02 11:00,ZGSZ 021100Z AUTO 01014KT 7SM 16/12 A3015 RMK T01600120 IEM_DS3505
ZGSZ,1997-03-02 12:00,ZGSZ 021200Z AUTO 04010KT 19SM 16/09 A3015 RMK SLP216 T01610091 52024 IEM_DS3505
ZGSZ,1997-03-02 13:00,ZGSZ 021300Z AUTO 03006KT 6SM 15/12 A3018 RMK T01500120 IEM_DS3505
ZGSZ,1997-03-02 14:00,ZGSZ 021400Z AUTO 02012KT 6SM 15/11 A3021 RMK T01500110 IEM_DS3505
ZGSZ,1997-03-02 15:00,ZGSZ 021500Z AUTO 02010KT 6SM 14/10 A3024 RMK T01400100 IEM_DS3505
ZGSZ,1997-03-02 18:00,ZGSZ 021800Z AUTO 04010KT 16SM 14/08 RMK SLP241 T01410083 58002 IEM_DS3505
ZGSZ,1997-03-02 21:00,ZGSZ 022100Z AUTO 04008KT 16SM 13/07 A3021 RMK 70000 SLP227 T01330074 57014 IEM_DS3505
ZGSZ,1997-03-02 22:00,ZGSZ 022200Z AUTO 02008KT 6SM 13/08 A3021 RMK T01300080 IEM_DS3505
ZGSZ,1997-03-02 23:00,ZGSZ 022300Z AUTO 02006KT 6SM 12/09 A3024 RMK T01200090 IEM_DS3505
ZGSZ,1997-03-03 00:00,ZGSZ 030000Z AUTO 04006KT 16SM 14/08 A3027 RMK SLP252 T01360075 52024 IEM_DS3505
ZGSZ,1997-03-03 01:00,ZGSZ 030100Z AUTO 06006KT 7SM 14/09 A3027 RMK T01400090 IEM_DS3505
ZGSZ,1997-03-03 02:00,ZGSZ 030200Z AUTO 06006KT 7SM 15/09 A3030 RMK T01500090 IEM_DS3505
ZGSZ,1997-03-03 03:00,ZGSZ 030300Z AUTO 04008KT 16SM 15/08 A3030 RMK SLP260 T01510079 52008 IEM_DS3505
ZGSZ,1997-03-03 04:00,ZGSZ 030400Z AUTO 12002KT 7SM 16/09 A3027 RMK T01600090 IEM_DS3505
ZGSZ,1997-03-03 05:00,ZGSZ 030500Z AUTO 28006KT 7SM 16/10 A3024 RMK T01600100 IEM_DS3505
ZGSZ,1997-03-03 06:00,ZGSZ 030600Z AUTO 09004KT 19SM 18/09 A3021 RMK SLP229 T01820090 57030 IEM_DS3505
ZGSZ,1997-03-03 07:00,ZGSZ 030700Z AUTO 30008KT 7SM 18/10 A3018 RMK T01800100 IEM_DS3505
ZGSZ,1997-03-03 08:00,ZGSZ 030800Z AUTO 32010KT 6SM 18/10 A3018 RMK T01800100 IEM_DS3505
ZGSZ,1997-03-03 09:00,ZGSZ 030900Z AUTO 22006KT 19SM 19/09 A3015 RMK SLP213 T01930090 57016 IEM_DS3505
ZGSZ,1997-03-03 10:00,ZGSZ 031000Z AUTO 30006KT 6SM 17/10 A3018 RMK T01700100 IEM_DS3505
ZGSZ,1997-03-03 11:00,ZGSZ 031100Z AUTO 35004KT 6SM 16/10 A3018 RMK T01600100 IEM_DS3505
ZGSZ,1997-03-03 12:00,ZGSZ 031200Z AUTO 14004KT 12SM 17/10 A3018 RMK SLP229 T01660100 52016 IEM_DS3505
ZGSZ,1997-03-03 13:00,ZGSZ 031300Z AUTO 11004KT 2 1/2SM 15/11 A3021 RMK T01500110 IEM_DS3505
ZGSZ,1997-03-03 14:00,ZGSZ 031400Z AUTO 12004KT 2 1/2SM 15/11 A3021 RMK T01500110 IEM_DS3505
ZGSZ,1997-03-03 15:00,ZGSZ 031500Z AUTO 11006KT 2 1/2SM 15/12 A3021 RMK T01500120 IEM_DS3505
ZGSZ,1997-03-03 18:00,ZGSZ 031800Z AUTO 11004KT 16SM 15/11 RMK SLP242 T01490107 57003 IEM_DS3505
ZGSZ,1997-03-03 21:00,ZGSZ 032100Z AUTO 07004KT 10SM 14/11 A3021 RMK SLP235 T01410111 57007 IEM_DS3505
ZGSZ,1997-03-03 22:00,ZGSZ 032200Z AUTO 36002KT 6SM 13/11 A3021 RMK T01300110 IEM_DS3505
ZGSZ,1997-03-03 23:00,ZGSZ 032300Z AUTO 04002KT 6SM 13/12 A3024 RMK T01300120 IEM_DS3505
ZGSZ,1997-03-04 00:00,ZGSZ 040000Z AUTO 04006KT 7SM 14/11 A3024 RMK SLP247 T01360107 52012 IEM_DS3505
ZGSZ,1997-03-04 01:00,ZGSZ 040100Z AUTO 12004KT 3SM 15/13 A3024 RMK T01500130 IEM_DS3505
ZGSZ,1997-03-04 02:00,ZGSZ 040200Z AUTO 28004KT 4SM 18/13 A3027 RMK T01800130 IEM_DS3505
ZGSZ,1997-03-04 03:00,ZGSZ 040300Z AUTO 22002KT 8SM 19/11 A3024 RMK SLP246 T01920114 57001 IEM_DS3505
ZGSZ,1997-03-04 04:00,ZGSZ 040400Z AUTO 26006KT 4SM 19/14 A3021 RMK T01900140 IEM_DS3505
ZGSZ,1997-03-04 05:00,ZGSZ 040500Z AUTO 26006KT 4SM 19/14 A3018 RMK T01900140 IEM_DS3505
ZGSZ,1997-03-04 06:00,ZGSZ 040600Z AUTO 04004KT 16SM 22/11 A3015 RMK SLP210 T02250112 57036 IEM_DS3505
ZGSZ,1997-03-04 07:00,ZGSZ 040700Z AUTO 24004KT 6SM 21/14 A3012 RMK T02100140 IEM_DS3505
ZGSZ,1997-03-04 08:00,ZGSZ 040800Z AUTO 21006KT 6SM 20/14 A3009 RMK T02000140 IEM_DS3505
ZGSZ,1997-03-04 09:00,ZGSZ 040900Z AUTO 20004KT 11SM 21/12 A3009 RMK SLP196 T02090122 57014 IEM_DS3505
ZGSZ,1997-03-04 10:00,ZGSZ 041000Z AUTO 19008KT 6SM 19/14 A3009 RMK T01900140 IEM_DS3505
ZGSZ,1997-03-04 11:00,ZGSZ 041100Z AUTO 17008KT 6SM 19/14 A3009 RMK T01900140 IEM_DS3505
ZGSZ,1997-03-04 12:00,ZGSZ 041200Z AUTO 14010KT 9SM 17/10 A3012 RMK SLP212 T01710095 52016 IEM_DS3505
ZGSZ,1997-03-04 13:00,ZGSZ 041300Z AUTO 12008KT 6SM 18/10 A3015 RMK T01800100 IEM_DS3505
ZGSZ,1997-03-04 14:00,ZGSZ 041400Z AUTO 09004KT 6SM 17/11 A3015 RMK T01700110 IEM_DS3505
ZGSZ,1997-03-04 18:00,ZGSZ 041800Z AUTO 09006KT 4SM 17/14 RMK SLP216 T01690139 57006 IEM_DS3505
ZGSZ,1997-03-04 21:00,ZGSZ 042100Z AUTO 04004KT 5SM 17/12 A3015 RMK SLP213 T01660116 57003 IEM_DS3505
ZGSZ,1997-03-04 22:00,ZGSZ 042200Z AUTO 10004KT 6SM 16/14 A3015 RMK T01600140 IEM_DS3505
ZGSZ,1997-03-04 23:00,ZGSZ 042300Z AUTO 34004KT 5SM 16/14 A3015 RMK T01600140 IEM_DS3505
ZGSZ,1997-03-05 00:00,ZGSZ 050000Z AUTO 11004KT 6SM 17/11 A3018 RMK SLP221 T01690110 52008 IEM_DS3505
ZGSZ,1997-03-05 01:00,ZGSZ 050100Z AUTO 09002KT 5SM 18/14 A3018 RMK T01800140 IEM_DS3505
ZGSZ,1997-03-05 02:00,ZGSZ 050200Z AUTO 11008KT 4SM 20/13 A3018 RMK T02000130 IEM_DS3505
ZGSZ,1997-03-05 03:00,ZGSZ 050300Z AUTO 04002KT 4SM 21/13 A3018 RMK SLP223 T02080129 52002 IEM_DS3505
ZGSZ,1997-03-05 04:00,ZGSZ 050400Z AUTO 20006KT 6SM 23/15 A3015 RMK T02300150 IEM_DS3505
ZGSZ,1997-03-05 05:00,ZGSZ 050500Z AUTO 25008KT 6SM 21/15 A3012 RMK T02100150 IEM_DS3505
ZGSZ,1997-03-05 06:00,ZGSZ 050600Z AUTO 11006KT 10SM 24/13 A3009 RMK SLP191 T02410127 57031 IEM_DS3505
ZGSZ,1997-03-05 07:00,ZGSZ 050700Z AUTO 21006KT 6SM 21/16 A3006 RMK T02100160 IEM_DS3505
ZGSZ,1997-03-05 08:00,ZGSZ 050800Z AUTO 20006KT 6SM 21/17 A3003 RMK T02100170 IEM_DS3505
ZGSZ,1997-03-05 09:00,ZGSZ 050900Z AUTO 14006KT 12SM 22/12 A3003 RMK SLP176 T02210118 57015 IEM_DS3505
ZGSZ,1997-03-05 10:00,ZGSZ 051000Z AUTO 17004KT 6SM 20/17 A3003 RMK T02000170 IEM_DS3505
ZGSZ,1997-03-05 11:00,ZGSZ 051100Z AUTO 14004KT 4SM 20/17 A3003 RMK T02000170 IEM_DS3505
ZGSZ,1997-03-05 12:00,ZGSZ 051200Z AUTO 11008KT 12SM 19/10 A3003 RMK SLP184 T01890102 52007 IEM_DS3505
ZGSZ,1997-03-05 13:00,ZGSZ 051300Z AUTO 12006KT 4SM 20/15 A3006 RMK T02000150 IEM_DS3505
ZGSZ,1997-03-05 14:00,ZGSZ 051400Z AUTO 10006KT 4SM 19/15 A3009 RMK T01900150 IEM_DS3505
ZGSZ,1997-03-05 15:00,ZGSZ 051500Z AUTO 11004KT 4SM 19/15 A3009 RMK T01900150 IEM_DS3505
ZGSZ,1997-03-05 16:00,ZGSZ 051600Z AUTO 11004KT 6SM 19/15 A3009 RMK T01900150 IEM_DS3505
ZGSZ,1997-03-05 17:00,ZGSZ 051700Z AUTO 11006KT 6SM 18/15 A3009 RMK T01800150 IEM_DS3505
ZGSZ,1997-03-05 18:00,ZGSZ 051800Z AUTO 14004KT 12SM 18/12 RMK SLP202 T01830118 52002 IEM_DS3505
ZGSZ,1997-03-05 21:00,ZGSZ 052100Z AUTO 14008KT 10SM 18/11 A3009 RMK SLP191 T01810107 57011 IEM_DS3505
ZGSZ,1997-03-05 22:00,ZGSZ 052200Z AUTO 08002KT 6SM 16/15 A3009 RMK T01600150 IEM_DS3505
ZGSZ,1997-03-05 23:00,ZGSZ 052300Z AUTO 14002KT 3SM 15/14 A3012 RMK T01500140 IEM_DS3505
ZGSZ,1997-03-06 00:00,ZGSZ 060000Z AUTO 04006KT 6SM 17/13 A3012 RMK SLP209 T01720131 52017 IEM_DS3505
ZGSZ,1997-03-06 02:00,ZGSZ 060200Z AUTO 09004KT 3SM 23/18 A3015 RMK T02300180 IEM_DS3505
ZGSZ,1997-03-06 03:00,ZGSZ 060300Z AUTO 14004KT 12SM 24/16 A3015 RMK SLP208 T02360164 54000 IEM_DS3505
ZGSZ,1997-03-06 04:00,ZGSZ 060400Z AUTO 28006KT 2 1/2SM 23/17 A3012 RMK T02300170 IEM_DS3505
ZGSZ,1997-03-06 05:00,ZGSZ 060500Z AUTO 25006KT 3SM 23/18 A3009 RMK T02300180 IEM_DS3505
ZGSZ,1997-03-06 06:00,ZGSZ 060600Z AUTO 20006KT 17SM 26/16 A3006 RMK SLP180 T02550155 57028 IEM_DS3505
ZGSZ,1997-03-06 07:00,ZGSZ 060700Z AUTO 25004KT 6SM 24/19 A3003 RMK T02400190 IEM_DS3505
ZGSZ,1997-03-06 08:00,ZGSZ 060800Z AUTO 21006KT 6SM 24/19 A3000 RMK T02400190 IEM_DS3505
ZGSZ,1997-03-06 09:00,ZGSZ 060900Z AUTO 20006KT 16SM 25/16 A3000 RMK SLP165 T02470161 57015 IEM_DS3505
ZGSZ,1997-03-06 10:00,ZGSZ 061000Z AUTO 19008KT 6SM 22/19 A3000 RMK T02200190 IEM_DS3505
ZGSZ,1997-03-06 11:00,ZGSZ 061100Z AUTO 18008KT 6SM 21/19 A3003 RMK T02100190 IEM_DS3505
ZGSZ,1997-03-06 12:00,ZGSZ 061200Z AUTO 14006KT 16SM 21/16 A3003 RMK SLP177 T02130158 52012 IEM_DS3505
ZGSZ,1997-03-06 13:00,ZGSZ 061300Z AUTO 15002KT 6SM 20/18 A3006 RMK T02000180 IEM_DS3505
ZGSZ,1997-03-06 14:00,ZGSZ 061400Z AUTO 17002KT 4SM 19/18 A3006 RMK T01900180 IEM_DS3505
ZGSZ,1997-03-06 15:00,ZGSZ 061500Z AUTO 10004KT 2SM 20/18 A3009 RMK T02000180 IEM_DS3505
ZGSZ,1997-03-06 16:00,ZGSZ 061600Z AUTO 11004KT 2 1/2SM 19/17 A3009 RMK T01900170 IEM_DS3505
ZGSZ,1997-03-06 18:00,ZGSZ 061800Z AUTO 14004KT 11SM 19/16 RMK SLP190 T01930165 57005 IEM_DS3505
ZGSZ,1997-03-06 21:00,ZGSZ 062100Z AUTO 14004KT 9SM 19/17 A3006 RMK SLP187 T01920172 57003 IEM_DS3505
ZGSZ,1997-03-06 23:00,ZGSZ 062300Z AUTO 35004KT 1 1/2SM 18/17 A3012 RMK T01800170 IEM_DS3505
ZGSZ,1997-03-07 00:00,ZGSZ 070000Z AUTO 09002KT 5SM 18/16 A3012 RMK SLP208 T01840164 52020 IEM_DS3505
ZGSZ,1997-03-07 01:00,ZGSZ 070100Z AUTO 33006KT 1 1/2SM 21/18 A3015 RMK T02100180 IEM_DS3505
ZGSZ,1997-03-07 02:00,ZGSZ 070200Z AUTO 34006KT 2SM 22/19 A3015 RMK T02200190 IEM_DS3505
ZGSZ,1997-03-07 03:00,ZGSZ 070300Z AUTO 14004KT 5SM 24/17 A3015 RMK SLP214 T02370173 52007 IEM_DS3505
ZGSZ,1997-03-07 04:00,ZGSZ 070400Z AUTO 28008KT 4SM 24/19 A3015 RMK T02400190 IEM_DS3505
ZGSZ,1997-03-07 05:00,ZGSZ 070500Z AUTO 28008KT 6SM 24/18 A3009 RMK T02400180 IEM_DS3505
ZGSZ,1997-03-07 06:00,ZGSZ 070600Z AUTO 14004KT 12SM 27/14 A3006 RMK SLP185 T02740141 57029 IEM_DS3505
ZGSZ,1997-03-07 07:00,ZGSZ 070700Z AUTO 24006KT 6SM 25/19 A3006 RMK T02500190 IEM_DS3505
ZGSZ,1997-03-07 08:00,ZGSZ 070800Z AUTO 20008KT 6SM 24/18 A3003 RMK T02400180 IEM_DS3505
ZGSZ,1997-03-07 09:00,ZGSZ 070900Z AUTO 22004KT 7SM 25/18 A3003 RMK SLP179 T02540175 57006 IEM_DS3505
ZGSZ,1997-03-07 10:00,ZGSZ 071000Z AUTO 17008KT 6SM 23/19 A3003 RMK T02300190 IEM_DS3505
ZGSZ,1997-03-07 11:00,ZGSZ 071100Z AUTO 16006KT 6SM 22/20 A3003 RMK T02200200 IEM_DS3505
ZGSZ,1997-03-07 12:00,ZGSZ 071200Z AUTO 14006KT 9SM 22/16 A3006 RMK SLP189 T02230160 52010 IEM_DS3505
ZGSZ,1997-03-07 13:00,ZGSZ 071300Z AUTO 19004KT 6SM 21/20 A3009 RMK T02100200 IEM_DS3505
ZGSZ,1997-03-07 14:00,ZGSZ 071400Z AUTO 18006KT 4SM 20/19 A3009 RMK T02000190 IEM_DS3505
ZGSZ,1997-03-07 15:00,ZGSZ 071500Z AUTO 21006KT 4SM 20/19 A3009 RMK T02000190 IEM_DS3505
ZGSZ,1997-03-07 16:00,ZGSZ 071600Z AUTO 20004KT 4SM 19/19 A3009 RMK T01900190 IEM_DS3505
ZGSZ,1997-03-07 17:00,ZGSZ 071700Z AUTO 18002KT 3SM 19/18 A3009 RMK T01900180 IEM_DS3505
ZGSZ,1997-03-07 18:00,ZGSZ 071800Z AUTO 09004KT 16SM 20/16 RMK SLP188 T02030162 57013 IEM_DS3505
ZGSZ,1997-03-07 21:00,ZGSZ 072100Z AUTO 04004KT 9SM 19/16 A3003 RMK SLP181 T01910161 57007 IEM_DS3505
ZGSZ,1997-03-07 22:00,ZGSZ 072200Z AUTO 10002KT 2 1/2SM 17/16 A3006 RMK T01700160 IEM_DS3505
ZGSZ,1997-03-07 23:00,ZGSZ 072300Z AUTO 08002KT 3SM 17/16 A3009 RMK T01700160 IEM_DS3505
ZGSZ,1997-03-08 00:00,ZGSZ 080000Z AUTO 09004KT 6SM 19/16 A3012 RMK SLP205 T01930163 52024 IEM_DS3505
ZGSZ,1997-03-08 01:00,ZGSZ 080100Z AUTO 00000KT 2SM 21/19 A3012 RMK T02100190 IEM_DS3505
ZGSZ,1997-03-08 02:00,ZGSZ 080200Z AUTO 22004KT 3SM 24/19 A3015 RMK T02400190 IEM_DS3505
ZGSZ,1997-03-08 03:00,ZGSZ 080300Z AUTO 14006KT 17SM 24/18 A3015 RMK SLP211 T02450175 52006 IEM_DS3505
ZGSZ,1997-03-08 04:00,ZGSZ 080400Z AUTO 28006KT 6SM 24/19 A3012 RMK T02400190 IEM_DS3505
ZGSZ,1997-03-08 05:00,ZGSZ 080500Z AUTO 29006KT 6SM 24/19 A3009 RMK T02400190 IEM_DS3505
ZGSZ,1997-03-08 06:00,ZGSZ 080600Z AUTO 09006KT 19SM 26/15 A3006 RMK SLP186 T02640154 57025 IEM_DS3505
ZGSZ,1997-03-08 07:00,ZGSZ 080700Z AUTO 21004KT 6SM 24/18 A3006 RMK T02400180 IEM_DS3505
ZGSZ,1997-03-08 08:00,ZGSZ 080800Z AUTO 20008KT 6SM 23/20 A3003 RMK T02300200 IEM_DS3505
ZGSZ,1997-03-08 09:00,ZGSZ 080900Z AUTO 09006KT 19SM 25/16 A3003 RMK SLP178 T02540158 57008 IEM_DS3505
ZGSZ,1997-03-08 10:00,ZGSZ 081000Z AUTO 20006KT 6SM 23/20 A3003 RMK T02300200 IEM_DS3505
ZGSZ,1997-03-08 11:00,ZGSZ 081100Z AUTO 13006KT 6SM 22/19 A3003 RMK T02200190 IEM_DS3505
ZGSZ,1997-03-08 12:00,ZGSZ 081200Z AUTO 09008KT 11SM 21/18 A3006 RMK SLP186 T02140177 52008 IEM_DS3505
ZGSZ,1997-03-08 13:00,ZGSZ 081300Z AUTO 11006KT 6SM 22/18 A3006 RMK T02200180 IEM_DS3505
ZGSZ,1997-03-08 14:00,ZGSZ 081400Z AUTO 09006KT 6SM 21/19 A3009 RMK T02100190 IEM_DS3505
ZGSZ,1997-03-08 18:00,ZGSZ 081800Z AUTO 07006KT 6SM 19/17 RMK SLP189 T01940171 57007 IEM_DS3505
ZGSZ,1997-03-08 21:00,ZGSZ 082100Z AUTO 11006KT 4SM 19/17 A3003 RMK SLP181 T01930168 57008 IEM_DS3505
ZGSZ,1997-03-08 22:00,ZGSZ 082200Z AUTO 00000KT 3SM 19/18 A3006 RMK T01900180 IEM_DS3505
ZGSZ,1997-03-08 23:00,ZGSZ 082300Z AUTO 07002KT 3SM 19/18 A3009 RMK T01900180 IEM_DS3505
ZGSZ,1997-03-09 00:00,ZGSZ 090000Z AUTO 11004KT 4SM 19/16 A3012 RMK SLP208 T01910157 52027 IEM_DS3505
ZGSZ,1997-03-09 01:00,ZGSZ 090100Z AUTO 11006KT 7SM 20/18 A3012 RMK T02000180 IEM_DS3505
ZGSZ,1997-03-09 02:00,ZGSZ 090200Z AUTO 11008KT 7SM 22/18 A3015 RMK T02200180 IEM_DS3505
ZGSZ,1997-03-09 03:00,ZGSZ 090300Z AUTO 09006KT 3SM 21/16 A3012 RMK SLP212 T02090157 52004 IEM_DS3505
ZGSZ,1997-03-09 04:00,ZGSZ 090400Z AUTO 09008KT 7SM 23/18 A3012 RMK T02300180 IEM_DS3505
ZGSZ,1997-03-09 05:00,ZGSZ 090500Z AUTO 18004KT 7SM 25/18 A3009 RMK T02500180 IEM_DS3505
ZGSZ,1997-03-09 06:00,ZGSZ 090600Z AUTO 09008KT 8SM 24/16 A3006 RMK SLP187 T02370164 57025 IEM_DS3505
ZGSZ,1997-03-09 07:00,ZGSZ 090700Z AUTO 28008KT 7SM 24/20 A3003 RMK T02400200 IEM_DS3505
ZGSZ,1997-03-09 08:00,ZGSZ 090800Z AUTO 25004KT 6SM 23/19 A3003 RMK T02300190 IEM_DS3505
ZGSZ,1997-03-09 09:00,ZGSZ 090900Z AUTO 09006KT 11SM 24/16 A3003 RMK SLP174 T02390164 57013 IEM_DS3505
ZGSZ,1997-03-09 10:00,ZGSZ 091000Z AUTO 20002KT 5SM 22/19 A3003 RMK T02200190 IEM_DS3505
ZGSZ,1997-03-09 11:00,ZGSZ 091100Z AUTO 20002KT 6SM 21/19 A3003 RMK T02100190 IEM_DS3505
ZGSZ,1997-03-09 12:00,ZGSZ 091200Z AUTO 18004KT 8SM 21/16 A3003 RMK SLP179 T02100160 52005 IEM_DS3505
ZGSZ,1997-03-09 13:00,ZGSZ 091300Z AUTO 11006KT 4SM 21/18 A3006 RMK T02100180 IEM_DS3505
ZGSZ,1997-03-09 14:00,ZGSZ 091400Z AUTO 11008KT 4SM 21/18 A3006 RMK T02100180 IEM_DS3505
ZGSZ,1997-03-09 15:00,ZGSZ 091500Z AUTO 10008KT 4SM 20/18 A3006 RMK T02000180 IEM_DS3505
ZGSZ,1997-03-09 18:00,ZGSZ 091800Z AUTO 09004KT 9SM 21/18 RMK SLP186 T02070183 57001 IEM_DS3505
ZGSZ,1997-03-09 21:00,ZGSZ 092100Z AUTO 02002KT 7SM 20/18 A3003 RMK SLP182 T02010177 57004 IEM_DS3505
ZGSZ,1997-03-09 22:00,ZGSZ 092200Z AUTO 32002KT 4SM 20/19 A3006 RMK T02000190 IEM_DS3505
ZGSZ,1997-03-09 23:00,ZGSZ 092300Z AUTO 26002KT 5SM 19/18 A3009 RMK T01900180 IEM_DS3505
ZGSZ,1997-03-10 00:00,ZGSZ 100000Z AUTO 04004KT 4SM 20/18 A3009 RMK SLP198 T02000179 52016 IEM_DS3505
ZGSZ,1997-03-10 01:00,ZGSZ 100100Z AUTO 30002KT 3SM 23/20 A3012 RMK T02300200 IEM_DS3505
ZGSZ,1997-03-10 02:00,ZGSZ 100200Z AUTO 23004KT 3SM 24/20 A3012 RMK T02400200 IEM_DS3505
ZGSZ,1997-03-10 03:00,ZGSZ 100300Z AUTO 14004KT 16SM 24/17 A3012 RMK SLP206 T02430174 52008 IEM_DS3505
ZGSZ,1997-03-10 04:00,ZGSZ 100400Z AUTO 26004KT 5SM 25/20 A3009 RMK T02500200 IEM_DS3505
ZGSZ,1997-03-10 05:00,ZGSZ 100500Z AUTO 26006KT 5SM 24/20 A3006 RMK T02400200 IEM_DS3505
ZGSZ,1997-03-10 06:00,ZGSZ 100600Z AUTO 04010KT 19SM 26/16 A3003 RMK SLP176 T02620156 57030 IEM_DS3505
ZGSZ,1997-03-10 07:00,ZGSZ 100700Z AUTO 23006KT 7SM 25/20 A3000 RMK T02500200 IEM_DS3505
ZGSZ,1997-03-10 08:00,ZGSZ 100800Z AUTO 22008KT 7SM 24/21 A3000 RMK T02400210 IEM_DS3505
ZGSZ,1997-03-10 09:00,ZGSZ 100900Z AUTO 14006KT 19SM 26/17 A3000 RMK SLP165 T02550170 57011 IEM_DS3505
ZGSZ,1997-03-10 10:00,ZGSZ 101000Z AUTO 21004KT 6SM 23/21 A3000 RMK T02300210 IEM_DS3505
ZGSZ,1997-03-10 11:00,ZGSZ 101100Z AUTO 17006KT 6SM 22/20 A3000 RMK T02200200 IEM_DS3505
ZGSZ,1997-03-10 12:00,ZGSZ 101200Z AUTO 14004KT 19SM 23/17 A3000 RMK SLP175 T02270174 52010 IEM_DS3505
ZGSZ,1997-03-10 13:00,ZGSZ 101300Z AUTO 16004KT 6SM 22/19 A3003 RMK T02200190 IEM_DS3505
ZGSZ,1997-03-10 14:00,ZGSZ 101400Z AUTO 15004KT 6SM 22/19 A3006 RMK T02200190 IEM_DS3505
ZGSZ,1997-03-10 15:00,ZGSZ 101500Z AUTO 10004KT 6SM 21/19 A3006 RMK T02100190 IEM_DS3505
ZGSZ,1997-03-10 16:00,ZGSZ 101600Z AUTO 11004KT 6SM 21/19 A3006 RMK T02100190 IEM_DS3505
ZGSZ,1997-03-10 18:00,ZGSZ 101800Z AUTO 09004KT 6SM 21/18 RMK SLP180 T02080182 57006 IEM_DS3505
ZGSZ,1997-03-10 21:00,ZGSZ 102100Z AUTO 09004KT 4SM 20/18 A3003 RMK SLP175 T02050184 57005 IEM_DS3505
ZGSZ,1997-03-10 22:00,ZGSZ 102200Z AUTO 00000KT 2 1/2SM 20/19 A3003 RMK T02000190 IEM_DS3505
ZGSZ,1997-03-10 23:00,ZGSZ 102300Z AUTO 09002KT 3SM 20/19 A3006 RMK T02000190 IEM_DS3505
ZGSZ,1997-03-11 00:00,ZGSZ 110000Z AUTO 04004KT 3SM 20/18 A3006 RMK SLP189 T02010180 52014 IEM_DS3505
ZGSZ,1997-03-11 01:00,ZGSZ 110100Z AUTO 10002KT 3SM 23/20 A3006 RMK T02300200 IEM_DS3505
ZGSZ,1997-03-11 02:00,ZGSZ 110200Z AUTO 12006KT 4SM 24/20 A3009 RMK T02400200 IEM_DS3505
ZGSZ,1997-03-11 03:00,ZGSZ 110300Z AUTO 09006KT 8SM 25/19 A3006 RMK SLP190 T02480187 52001 IEM_DS3505
ZGSZ,1997-03-11 04:00,ZGSZ 110400Z AUTO 25008KT 7SM 26/19 A3006 RMK T02600190 IEM_DS3505
ZGSZ,1997-03-11 05:00,ZGSZ 110500Z AUTO 24008KT 7SM 25/20 A3003 RMK T02500200 IEM_DS3505
ZGSZ,1997-03-11 06:00,ZGSZ 110600Z AUTO 14004KT 16SM 26/18 A3000 RMK SLP165 T02650182 57025 IEM_DS3505
ZGSZ,1997-03-11 07:00,ZGSZ 110700Z AUTO 24008KT 6SM 25/21 A2997 RMK T02500210 IEM_DS3505
ZGSZ,1997-03-11 08:00,ZGSZ 110800Z AUTO 22008KT 6SM 25/21 A2997 RMK T02500210 IEM_DS3505
ZGSZ,1997-03-11 09:00,ZGSZ 110900Z AUTO 14006KT 19SM 26/17 A2994 RMK SLP152 T02550174 57013 IEM_DS3505
ZGSZ,1997-03-11 10:00,ZGSZ 111000Z AUTO 21008KT 7SM 23/21 A2994 RMK T02300210 IEM_DS3505
ZGSZ,1997-03-11 11:00,ZGSZ 111100Z AUTO 18006KT 6SM 23/20 A2997 RMK T02300200 IEM_DS3505
ZGSZ,1997-03-11 12:00,ZGSZ 111200Z AUTO 14006KT 16SM 23/19 A2997 RMK SLP159 T02260190 52007 IEM_DS3505
ZGSZ,1997-03-11 13:00,ZGSZ 111300Z AUTO 16006KT 6SM 22/20 A2997 RMK T02200200 IEM_DS3505
ZGSZ,1997-03-11 14:00,ZGSZ 111400Z AUTO 14004KT 6SM 22/20 A3000 RMK T02200200 IEM_DS3505
ZGSZ,1997-03-11 15:00,ZGSZ 111500Z AUTO 12004KT 6SM 22/20 A3000 RMK T02200200 IEM_DS3505
ZGSZ,1997-03-11 18:00,ZGSZ 111800Z AUTO 09004KT 8SM 21/19 RMK SLP154 T02130189 57015 IEM_DS3505
ZGSZ,1997-03-11 21:00,ZGSZ 112100Z AUTO 09004KT 7SM 21/19 A2994 RMK SLP150 T02110191 57004 IEM_DS3505
ZGSZ,1997-03-11 22:00,ZGSZ 112200Z AUTO 07002KT 7SM 20/19 A2997 RMK T02000190 IEM_DS3505
ZGSZ,1997-03-11 23:00,ZGSZ 112300Z AUTO 10004KT 4SM 21/20 A2997 RMK T02100200 IEM_DS3505
ZGSZ,1997-03-12 00:00,ZGSZ 120000Z AUTO 14004KT 5SM 21/19 A2997 RMK SLP160 T02110194 52010 IEM_DS3505
ZGSZ,1997-03-12 01:00,ZGSZ 120100Z AUTO 11006KT 6SM 23/21 A3000 RMK T02300210 IEM_DS3505
ZGSZ,1997-03-12 02:00,ZGSZ 120200Z AUTO 12006KT 7SM 25/21 A3000 RMK T02500210 IEM_DS3505
ZGSZ,1997-03-12 03:00,ZGSZ 120300Z AUTO 09006KT 9SM 24/19 A3000 RMK SLP167 T02450194 52007 IEM_DS3505
ZGSZ,1997-03-12 04:00,ZGSZ 120400Z AUTO 24008KT 7SM 25/21 A2997 RMK T02500210 IEM_DS3505
ZGSZ,1997-03-12 05:00,ZGSZ 120500Z AUTO 22008KT 6SM 25/22 A2994 RMK T02500220 IEM_DS3505
ZGSZ,1997-03-12 06:00,ZGSZ 120600Z AUTO 11008KT 12SM 26/19 A2991 RMK SLP136 T02580192 57031 IEM_DS3505
ZGSZ,1997-03-12 07:00,ZGSZ 120700Z AUTO 24008KT 7SM 25/22 A2988 RMK T02500220 IEM_DS3505
ZGSZ,1997-03-12 08:00,ZGSZ 120800Z AUTO 22008KT 6SM 25/21 A2988 RMK T02500210 IEM_DS3505
ZGSZ,1997-03-12 09:00,ZGSZ 120900Z AUTO 14008KT 12SM 25/19 A2988 RMK SLP125 T02530186 57011 IEM_DS3505
ZGSZ,1997-03-12 10:00,ZGSZ 121000Z AUTO 21006KT 6SM 23/22 A2988 RMK T02300220 IEM_DS3505
ZGSZ,1997-03-12 11:00,ZGSZ 121100Z AUTO 20004KT 7SM 23/21 A2988 RMK T02300210 IEM_DS3505
ZGSZ,1997-03-12 12:00,ZGSZ 121200Z AUTO 11004KT 6SM 23/22 A2991 RMK SLP137 T02300220 52012 IEM_DS3505
ZGSZ,1997-03-12 13:00,ZGSZ 121300Z AUTO 12004KT 6SM 23/21 A2991 RMK T02300210 IEM_DS3505
ZGSZ,1997-03-12 14:00,ZGSZ 121400Z AUTO 12004KT 7SM 23/21 A2994 RMK T02300210 IEM_DS3505
ZGSZ,1997-03-12 15:00,ZGSZ 121500Z AUTO 11004KT 7SM 23/21 A2994 RMK T02300210 IEM_DS3505
ZGSZ,1997-03-12 16:00,ZGSZ 121600Z AUTO 12006KT 7SM 23/21 A2994 RMK T02300210 IEM_DS3505
ZGSZ,1997-03-12 17:00,ZGSZ 121700Z AUTO 12004KT 7SM 23/21 A2991 RMK T02300210 IEM_DS3505
ZGSZ,1997-03-12 18:00,ZGSZ 121800Z AUTO 14004KT 5SM 22/20 RMK SLP139 T02230200 57007 IEM_DS3505
ZGSZ,1997-03-12 21:00,ZGSZ 122100Z AUTO 11004KT 4SM 22/20 A2988 RMK SLP130 T02190199 57009 IEM_DS3505
ZGSZ,1997-03-12 22:00,ZGSZ 122200Z AUTO 10004KT 7SM 22/21 A2991 RMK T02200210 IEM_DS3505
ZGSZ,1997-03-12 23:00,ZGSZ 122300Z AUTO 10006KT 7SM 22/21 A2991 RMK T02200210 IEM_DS3505
ZGSZ,1997-03-13 00:00,ZGSZ 130000Z AUTO 09004KT 5SM 22/20 A2994 RMK SLP147 T02210196 52017 IEM_DS3505
ZGSZ,1997-03-13 01:00,ZGSZ 130100Z AUTO 13008KT 7SM 24/21 A2997 RMK T02400210 IEM_DS3505
ZGSZ,1997-03-13 02:00,ZGSZ 130200Z AUTO 13008KT 7SM 25/21 A2997 RMK T02500210 IEM_DS3505
ZGSZ,1997-03-13 03:00,ZGSZ 130300Z AUTO 09002KT 12SM 26/18 A2994 RMK SLP149 T02570185 52002 IEM_DS3505
ZGSZ,1997-03-13 04:00,ZGSZ 130400Z AUTO 21008KT 7SM 27/21 A2991 RMK T02700210 IEM_DS3505
ZGSZ,1997-03-13 05:00,ZGSZ 130500Z AUTO 21010KT 7SM 25/22 A2991 RMK T02500220 IEM_DS3505
ZGSZ,1997-03-13 06:00,ZGSZ 130600Z AUTO 04004KT 12SM 28/20 A2988 RMK SLP120 T02790195 57028 IEM_DS3505
ZGSZ,1997-03-13 07:00,ZGSZ 130700Z AUTO 21010KT 6SM 25/22 A2985 RMK T02500220 IEM_DS3505
ZGSZ,1997-03-13 08:00,ZGSZ 130800Z AUTO 20010KT 6SM 25/22 A2983 RMK T02500220 IEM_DS3505
ZGSZ,1997-03-13 09:00,ZGSZ 130900Z AUTO 14006KT 12SM 26/19 RMK SLP109 T02570187 57011 IEM_DS3505
ZGSZ,1997-03-13 10:00,ZGSZ 131000Z AUTO 19008KT 6SM 24/20 A2983 RMK T02400200 IEM_DS3505
ZGSZ,1997-03-13 11:00,ZGSZ 131100Z AUTO 19006KT 6SM 24/21 A2985 RMK T02400210 IEM_DS3505
ZGSZ,1997-03-13 12:00,ZGSZ 131200Z AUTO 16002KT 9SM 23/18 A2985 RMK SLP122 T02330182 52012 IEM_DS3505
ZGSZ,1997-03-13 13:00,ZGSZ 131300Z AUTO 17008KT 6SM 22/21 A2988 RMK T02200210 IEM_DS3505
ZGSZ,1997-03-13 16:00,ZGSZ 131600Z AUTO 12004KT 7SM 22/20 A2988 RMK T02200200 IEM_DS3505
ZGSZ,1997-03-13 18:00,ZGSZ 131800Z AUTO 09002KT 11SM 22/19 RMK SLP121 T02210188 57005 IEM_DS3505
ZGSZ,1997-03-13 21:00,ZGSZ 132100Z AUTO 14004KT 8SM 22/19 A2985 RMK SLP121 T02150190 57001 IEM_DS3505
ZGSZ,1997-03-13 22:00,ZGSZ 132200Z AUTO 11004KT 7SM 22/20 A2988 RMK T02200200 IEM_DS3505
ZGSZ,1997-03-13 23:00,ZGSZ 132300Z AUTO 11006KT 7SM 22/20 A2988 RMK T02200200 IEM_DS3505
ZGSZ,1997-03-14 00:00,ZGSZ 140000Z AUTO 09004KT 8SM 22/19 A2991 RMK SLP139 T02190192 52018 IEM_DS3505
ZGSZ,1997-03-14 01:00,ZGSZ 140100Z AUTO 12006KT 7SM 23/21 A2994 RMK T02300210 IEM_DS3505
ZGSZ,1997-03-14 02:00,ZGSZ 140200Z AUTO 11004KT 7SM 24/21 A2994 RMK T02400210 IEM_DS3505
ZGSZ,1997-03-14 03:00,ZGSZ 140300Z AUTO 14004KT 9SM 26/20 A2994 RMK SLP147 T02560201 52008 IEM_DS3505
ZGSZ,1997-03-14 04:00,ZGSZ 140400Z AUTO 21006KT 7SM 27/22 A2991 RMK T02700220 IEM_DS3505
ZGSZ,1997-03-14 05:00,ZGSZ 140500Z AUTO 19008KT 7SM 27/22 A2988 RMK T02700220 IEM_DS3505
ZGSZ,1997-03-14 06:00,ZGSZ 140600Z AUTO 22008KT 12SM 28/18 A2985 RMK SLP116 T02770182 57030 IEM_DS3505
ZGSZ,1997-03-14 07:00,ZGSZ 140700Z AUTO 19008KT 7SM 26/22 A2985 RMK T02600220 IEM_DS3505
ZGSZ,1997-03-14 08:00,ZGSZ 140800Z AUTO 19008KT 7SM 26/22 A2983 RMK T02600220 IEM_DS3505
ZGSZ,1997-03-14 09:00,ZGSZ 140900Z AUTO 09008KT 14SM 26/20 A2983 RMK SLP110 T02640203 57006 IEM_DS3505
ZGSZ,1997-03-14 10:00,ZGSZ 141000Z AUTO 18010KT 7SM 24/22 A2985 RMK T02400220 IEM_DS3505
ZGSZ,1997-03-14 11:00,ZGSZ 141100Z AUTO 18010KT 7SM 24/22 A2985 RMK T02400220 IEM_DS3505
ZGSZ,1997-03-14 12:00,ZGSZ 141200Z AUTO 14004KT 7SM 24/21 A2988 RMK SLP128 T02360207 52017 IEM_DS3505
ZGSZ,1997-03-14 13:00,ZGSZ 141300Z AUTO 15008KT 7SM 24/22 A2991 RMK T02400220 IEM_DS3505
ZGSZ,1997-03-14 14:00,ZGSZ 141400Z AUTO 17006KT 6SM 24/22 A2991 RMK T02400220 IEM_DS3505
ZGSZ,1997-03-14 15:00,ZGSZ 141500Z AUTO 16006KT 6SM 24/22 A2991 RMK T02400220 IEM_DS3505
ZGSZ,1997-03-14 18:00,ZGSZ 141800Z AUTO 14002KT 9SM 22/20 RMK SLP135 T02210198 57007 IEM_DS3505
ZGSZ,1997-03-14 21:00,ZGSZ 142100Z AUTO 11002KT 7SM 21/20 A2988 RMK SLP134 T02110197 57002 IEM_DS3505
ZGSZ,1997-03-14 22:00,ZGSZ 142200Z AUTO 13004KT 2 1/2SM 23/21 A2991 RMK T02300210 IEM_DS3505
ZGSZ,1997-03-14 23:00,ZGSZ 142300Z AUTO 11004KT 7SM 23/21 A2994 RMK T02300210 IEM_DS3505
ZGSZ,1997-03-15 00:00,ZGSZ 150000Z AUTO 09004KT 6SM 22/20 A2994 RMK SLP149 T02160196 52015 IEM_DS3505
ZGSZ,1997-03-15 01:00,ZGSZ 150100Z AUTO 14008KT 7SM 24/21 A2997 RMK T02400210 IEM_DS3505
ZGSZ,1997-03-15 02:00,ZGSZ 150200Z AUTO 19004KT 7SM 25/22 A2997 RMK T02500220 IEM_DS3505
ZGSZ,1997-03-15 03:00,ZGSZ 150300Z AUTO 18004KT 9SM 27/20 A2997 RMK SLP155 T02680198 52007 IEM_DS3505
ZGSZ,1997-03-15 04:00,ZGSZ 150400Z AUTO 21006KT 6SM 26/22 A2997 RMK T02600220 IEM_DS3505
ZGSZ,1997-03-15 05:00,ZGSZ 150500Z AUTO 20010KT 6SM 26/23 A2994 RMK T02600230 IEM_DS3505
ZGSZ,1997-03-15 06:00,ZGSZ 150600Z AUTO 29006KT 11SM 29/20 A2991 RMK SLP131 T02930198 57024 IEM_DS3505
ZGSZ,1997-03-15 07:00,ZGSZ 150700Z AUTO 19010KT 6SM 26/23 A2988 RMK T02600230 IEM_DS3505
ZGSZ,1997-03-15 08:00,ZGSZ 150800Z AUTO 19010KT 6SM 25/23 A2988 RMK T02500230 IEM_DS3505
ZGSZ,1997-03-15 09:00,ZGSZ 150900Z AUTO 22006KT 12SM 27/19 A2988 RMK SLP123 T02660192 57008 IEM_DS3505
ZGSZ,1997-03-15 10:00,ZGSZ 151000Z AUTO 19010KT 7SM 25/22 A2988 RMK T02500220 IEM_DS3505
ZGSZ,1997-03-15 11:00,ZGSZ 151100Z AUTO 18010KT 6SM 24/23 A2988 RMK T02400230 IEM_DS3505
ZGSZ,1997-03-15 12:00,ZGSZ 151200Z AUTO 09002KT 7SM 24/21 A2991 RMK SLP135 T02440208 52011 IEM_DS3505
ZGSZ,1997-03-15 13:00,ZGSZ 151300Z AUTO 16006KT 6SM 24/22 A2991 RMK T02400220 IEM_DS3505
ZGSZ,1997-03-15 14:00,ZGSZ 151400Z AUTO 22002KT 6SM 23/22 A2994 RMK T02300220 IEM_DS3505
ZGSZ,1997-03-15 15:00,ZGSZ 151500Z AUTO 18004KT 6SM 23/22 A2994 RMK T02300220 IEM_DS3505
ZGSZ,1997-03-15 18:00,ZGSZ 151800Z AUTO 14004KT 5SM 22/21 RMK SLP146 T02230206 57003 IEM_DS3505
ZGSZ,1997-03-15 21:00,ZGSZ 152100Z AUTO 14004KT 7SM 22/20 A2988 RMK SLP135 T02200198 57011 IEM_DS3505
ZGSZ,1997-03-15 22:00,ZGSZ 152200Z AUTO 13010KT 4SM 22/21 A2991 RMK T02200210 IEM_DS3505
ZGSZ,1997-03-15 23:00,ZGSZ 152300Z AUTO 11004KT 4SM 22/20 A2994 RMK T02200200 IEM_DS3505
ZGSZ,1997-03-16 00:00,ZGSZ 160000Z AUTO 04006KT 6SM 22/20 A3000 RMK SLP165 T02220197 52029 IEM_DS3505
ZGSZ,1997-03-16 01:00,ZGSZ 160100Z AUTO 13008KT 6SM 24/21 A3000 RMK T02400210 IEM_DS3505
ZGSZ,1997-03-16 02:00,ZGSZ 160200Z AUTO 13006KT 7SM 24/21 A3003 RMK T02400210 IEM_DS3505
ZGSZ,1997-03-16 03:00,ZGSZ 160300Z AUTO 14006KT 4SM 22/19 RMK SLP175 T02240193 52010 IEM_DS3505
ZGSZ,1997-03-16 04:00,ZGSZ 160400Z AUTO 12008KT 7SM 25/20 A3000 RMK T02500200 IEM_DS3505
ZGSZ,1997-03-16 05:00,ZGSZ 160500Z AUTO 15008KT 7SM 27/21 A3000 RMK T02700210 IEM_DS3505
ZGSZ,1997-03-16 06:00,ZGSZ 160600Z AUTO 14006KT 7SM 23/19 A2997 RMK SLP163 T02320186 57012 IEM_DS3505
ZGSZ,1997-03-16 07:00,ZGSZ 160700Z AUTO 26010KT 1 1/2SM 22/20 A3000 RMK T02200200 IEM_DS3505
ZGSZ,1997-03-16 08:00,ZGSZ 160800Z AUTO 30008KT 1 1/2SM 21/20 A3000 RMK T02100200 IEM_DS3505
ZGSZ,1997-03-16 09:00,ZGSZ 160900Z AUTO 14006KT 6SM 22/19 A3000 RMK SLP167 T02240188 52004 IEM_DS3505
ZGSZ,1997-03-16 10:00,ZGSZ 161000Z AUTO 13012KT 7SM 19/19 A2994 RMK T01900190 IEM_DS3505
ZGSZ,1997-03-16 11:00,ZGSZ 161100Z AUTO 09008KT 7SM 20/20 A2994 RMK T02000200 IEM_DS3505
ZGSZ,1997-03-16 12:00,ZGSZ 161200Z AUTO 14004KT 3SM 20/19 A2997 RMK 60039 SLP157 T01990186 57010 IEM_DS3505
ZGSZ,1997-03-16 13:00,ZGSZ 161300Z AUTO 36008KT 4SM 20/19 A3000 RMK T02000190 IEM_DS3505
ZGSZ,1997-03-16 14:00,ZGSZ 161400Z AUTO 01006KT 3SM 19/18 A3003 RMK T01900180 IEM_DS3505
ZGSZ,1997-03-16 15:00,ZGSZ 161500Z AUTO 01010KT 3SM 19/18 A3006 RMK T01900180 IEM_DS3505
ZGSZ,1997-03-16 18:00,ZGSZ 161800Z AUTO 04006KT 7SM 18/16 RMK SLP176 T01820162 57006 IEM_DS3505
ZGSZ,1997-03-16 21:00,ZGSZ 162100Z AUTO 04006KT 6SM 16/14 A3003 RMK 70039 SLP182 T01630142 52006 IEM_DS3505
ZGSZ,1997-03-16 22:00,ZGSZ 162200Z AUTO 01008KT 7SM 16/15 A3006 RMK T01600150 IEM_DS3505
ZGSZ,1997-03-16 23:00,ZGSZ 162300Z AUTO 01008KT 7SM 16/15 A3009 RMK T01600150 IEM_DS3505
ZGSZ,1997-03-17 00:00,ZGSZ 170000Z AUTO 36006KT 7SM 16/13 A3012 RMK 70039 SLP205 T01610132 52022 IEM_DS3505
ZGSZ,1997-03-17 01:00,ZGSZ 170100Z AUTO 01006KT 7SM 16/15 A3012 RMK T01600150 IEM_DS3505
ZGSZ,1997-03-17 02:00,ZGSZ 170200Z AUTO 36008KT 7SM 16/14 A3015 RMK T01600140 IEM_DS3505
ZGSZ,1997-03-17 03:00,ZGSZ 170300Z AUTO 36004KT 7SM 17/13 A3015 RMK SLP210 T01680131 52005 IEM_DS3505
ZGSZ,1997-03-17 05:00,ZGSZ 170500Z AUTO 02008KT 7SM 17/14 A3012 RMK T01700140 IEM_DS3505
ZGSZ,1997-03-17 06:00,ZGSZ 170600Z AUTO 04006KT 9SM 17/13 A3009 RMK SLP191 T01730128 57019 IEM_DS3505
ZGSZ,1997-03-17 07:00,ZGSZ 170700Z AUTO 01010KT 7SM 17/14 A3006 RMK T01700140 IEM_DS3505
ZGSZ,1997-03-17 08:00,ZGSZ 170800Z AUTO 02006KT 7SM 18/14 A3003 RMK T01800140 IEM_DS3505
ZGSZ,1997-03-17 09:00,ZGSZ 170900Z AUTO 04006KT 8SM 18/13 A3003 RMK SLP180 T01770127 57011 IEM_DS3505
ZGSZ,1997-03-17 10:00,ZGSZ 171000Z AUTO 02006KT 7SM 17/14 A3006 RMK T01700140 IEM_DS3505
ZGSZ,1997-03-17 11:00,ZGSZ 171100Z AUTO 01008KT 7SM 17/14 A3009 RMK T01700140 IEM_DS3505
ZGSZ,1997-03-17 12:00,ZGSZ 171200Z AUTO 04006KT 9SM 17/12 A3009 RMK SLP195 T01720121 52015 IEM_DS3505
ZGSZ,1997-03-17 13:00,ZGSZ 171300Z AUTO 05004KT 7SM 17/14 A3012 RMK T01700140 IEM_DS3505
ZGSZ,1997-03-17 14:00,ZGSZ 171400Z AUTO 03004KT 7SM 17/14 A3012 RMK T01700140 IEM_DS3505
ZGSZ,1997-03-17 15:00,ZGSZ 171500Z AUTO 04004KT 7SM 17/14 A3012 RMK T01700140 IEM_DS3505
ZGSZ,1997-03-17 18:00,ZGSZ 171800Z AUTO 36006KT 7SM 17/13 RMK SLP189 T01700133 57017 IEM_DS3505
ZGSZ,1997-03-17 21:00,ZGSZ 172100Z AUTO 04006KT 4SM 17/14 A3003 RMK SLP177 T01670141 57012 IEM_DS3505
ZGSZ,1997-03-17 23:00,ZGSZ 172300Z AUTO 03004KT 7SM 16/15 A3006 RMK T01600150 IEM_DS3505
ZGSZ,1997-03-18 00:00,ZGSZ 180000Z AUTO 14004KT 4SM 17/14 A3006 RMK SLP194 T01700142 52017 IEM_DS3505
ZGSZ,1997-03-18 01:00,ZGSZ 180100Z AUTO 11006KT 7SM 18/16 A3009 RMK T01800160 IEM_DS3505
ZGSZ,1997-03-18 02:00,ZGSZ 180200Z AUTO 13008KT 7SM 20/17 A3009 RMK T02000170 IEM_DS3505
ZGSZ,1997-03-18 03:00,ZGSZ 180300Z AUTO 09008KT 8SM 19/14 A3009 RMK SLP198 T01900145 52004 IEM_DS3505
ZGSZ,1997-03-18 04:00,ZGSZ 180400Z AUTO 11010KT 7SM 20/16 A3006 RMK T02000160 IEM_DS3505
ZGSZ,1997-03-18 05:00,ZGSZ 180500Z AUTO 11006KT 7SM 21/17 A3000 RMK T02100170 IEM_DS3505
ZGSZ,1997-03-18 06:00,ZGSZ 180600Z AUTO 07004KT 16SM 20/15 A2997 RMK SLP162 T01980151 57036 IEM_DS3505
ZGSZ,1997-03-18 07:00,ZGSZ 180700Z AUTO 15004KT 7SM 22/18 A2994 RMK T02200180 IEM_DS3505
ZGSZ,1997-03-18 08:00,ZGSZ 180800Z AUTO 28004KT 4SM 20/18 A2994 RMK T02000180 IEM_DS3505
ZGSZ,1997-03-18 09:00,ZGSZ 180900Z AUTO 14008KT 16SM 20/16 RMK SLP147 T02010159 57014 IEM_DS3505
ZGSZ,1997-03-18 10:00,ZGSZ 181000Z AUTO 00000KT 4SM 20/18 A2994 RMK T02000180 IEM_DS3505
ZGSZ,1997-03-18 11:00,ZGSZ 181100Z AUTO 25002KT 2SM 20/18 A2994 RMK T02000180 IEM_DS3505
ZGSZ,1997-03-18 12:00,ZGSZ 181200Z AUTO 09004KT 9SM 19/16 A2997 RMK SLP156 T01920159 52008 IEM_DS3505
ZGSZ,1997-03-18 13:00,ZGSZ 181300Z AUTO 11006KT 2SM 19/17 A2997 RMK T01900170 IEM_DS3505
ZGSZ,1997-03-18 14:00,ZGSZ 181400Z AUTO 10004KT 2 1/2SM 19/18 A2997 RMK T01900180 IEM_DS3505
ZGSZ,1997-03-18 15:00,ZGSZ 181500Z AUTO 09006KT 3SM 20/18 A2997 RMK T02000180 IEM_DS3505
ZGSZ,1997-03-18 18:00,ZGSZ 181800Z AUTO 14006KT 8SM 19/17 RMK SLP145 T01930172 57013 IEM_DS3505
ZGSZ,1997-03-18 21:00,ZGSZ 182100Z AUTO 14010KT 9SM 19/17 A2985 RMK SLP121 T01870172 57024 IEM_DS3505
ZGSZ,1997-03-18 22:00,ZGSZ 182200Z AUTO 10008KT 7SM 20/19 A2985 RMK T02000190 IEM_DS3505
ZGSZ,1997-03-19 00:00,ZGSZ 190000Z AUTO 14008KT 9SM 20/18 A2988 RMK SLP132 T01950179 52011 IEM_DS3505
ZGSZ,1997-03-19 01:00,ZGSZ 190100Z AUTO 12012KT 7SM 21/19 A2988 RMK T02100190 IEM_DS3505
ZGSZ,1997-03-19 02:00,ZGSZ 190200Z AUTO 12012KT 7SM 22/20 A2988 RMK T02200200 IEM_DS3505
ZGSZ,1997-03-19 03:00,ZGSZ 190300Z AUTO 18006KT 2 1/2SM 20/19 A2991 RMK SLP148 T01990186 52016 IEM_DS3505
ZGSZ,1997-03-19 04:00,ZGSZ 190400Z AUTO 24012KT 7SM 21/20 A2991 RMK T02100200 IEM_DS3505
ZGSZ,1997-03-19 05:00,ZGSZ 190500Z AUTO 36004KT 6SM 23/19 A2988 RMK T02300190 IEM_DS3505
ZGSZ,1997-03-19 06:00,ZGSZ 190600Z AUTO 18004KT 11SM 24/20 A2985 RMK 60059 SLP118 T02400200 57030 IEM_DS3505
ZGSZ,1997-03-19 07:00,ZGSZ 190700Z AUTO 32008KT 7SM 23/19 A2983 RMK T02300190 IEM_DS3505
ZGSZ,1997-03-19 08:00,ZGSZ 190800Z AUTO 31006KT 7SM 23/19 A2983 RMK T02300190 IEM_DS3505
ZGSZ,1997-03-19 09:00,ZGSZ 190900Z AUTO 36004KT 9SM 24/18 A2983 RMK SLP108 T02390177 57010 IEM_DS3505
ZGSZ,1997-03-19 10:00,ZGSZ 191000Z AUTO 33012KT 2 1/2SM 22/19 A2985 RMK T02200190 IEM_DS3505
ZGSZ,1997-03-19 11:00,ZGSZ 191100Z AUTO 36010KT 2 1/2SM 21/18 A2988 RMK T02100180 IEM_DS3505
ZGSZ,1997-03-19 12:00,ZGSZ 191200Z AUTO 36006KT 5SM 21/19 A2988 RMK 60020 SLP127 T02070186 52019 IEM_DS3505
ZGSZ,1997-03-19 13:00,ZGSZ 191300Z AUTO 34010KT 4SM 19/16 A2991 RMK T01900160 IEM_DS3505
ZGSZ,1997-03-19 14:00,ZGSZ 191400Z AUTO 33008KT 4SM 19/16 A2994 RMK T01900160 IEM_DS3505
ZGSZ,1997-03-19 15:00,ZGSZ 191500Z AUTO 34008KT 4SM 18/16 A2994 RMK T01800160 IEM_DS3505
ZGSZ,1997-03-19 16:00,ZGSZ 191600Z AUTO 34008KT 7SM 18/16 A2994 RMK T01800160 IEM_DS3505
ZGSZ,1997-03-19 17:00,ZGSZ 191700Z AUTO 36010KT 7SM 18/15 A2994 RMK T01800150 IEM_DS3505
ZGSZ,1997-03-19 18:00,ZGSZ 191800Z AUTO 04008KT 12SM 18/15 RMK 60000 SLP133 T01830152 57010 IEM_DS3505
ZGSZ,1997-03-19 21:00,ZGSZ 192100Z AUTO 04006KT 19SM 17/11 A2988 RMK 70079 SLP129 T01660113 57004 IEM_DS3505
ZGSZ,1997-03-19 22:00,ZGSZ 192200Z AUTO 03010KT 7SM 16/13 A2991 RMK T01600130 IEM_DS3505
ZGSZ,1997-03-19 23:00,ZGSZ 192300Z AUTO 36010KT 7SM 16/13 A2994 RMK T01600130 IEM_DS3505
ZGSZ,1997-03-20 00:00,ZGSZ 200000Z AUTO 07008KT 19SM 16/10 A2994 RMK 70079 SLP147 T01590102 52018 IEM_DS3505
ZGSZ,1997-03-20 01:00,ZGSZ 200100Z AUTO 02006KT 7SM 16/11 A2997 RMK T01600110 IEM_DS3505
ZGSZ,1997-03-20 02:00,ZGSZ 200200Z AUTO 36006KT 7SM 16/12 A2997 RMK T01600120 IEM_DS3505
ZGSZ,1997-03-20 03:00,ZGSZ 200300Z AUTO 04006KT 17SM 16/11 A2997 RMK SLP158 T01630111 52010 IEM_DS3505
ZGSZ,1997-03-20 04:00,ZGSZ 200400Z AUTO 01008KT 7SM 16/12 A2997 RMK T01600120 IEM_DS3505
ZGSZ,1997-03-20 06:00,ZGSZ 200600Z AUTO 04006KT 4SM 16/12 A2991 RMK 60000 SLP139 T01560125 57019 IEM_DS3505
ZGSZ,1997-03-20 07:00,ZGSZ 200700Z AUTO 32012KT 7SM 16/14 A2991 RMK T01600140 IEM_DS3505
ZGSZ,1997-03-20 08:00,ZGSZ 200800Z AUTO 36002KT 7SM 15/14 A2991 RMK T01500140 IEM_DS3505
ZGSZ,1997-03-20 09:00,ZGSZ 200900Z AUTO 00000KT 3SM 16/13 A2991 RMK SLP140 T01610131 52001 IEM_DS3505
ZGSZ,1997-03-20 10:00,ZGSZ 201000Z AUTO 08008KT 2SM 15/14 A2991 RMK T01500140 IEM_DS3505
ZGSZ,1997-03-20 11:00,ZGSZ 201100Z AUTO 01004KT 2 1/2SM 15/14 A2991 RMK T01500140 IEM_DS3505
ZGSZ,1997-03-20 12:00,ZGSZ 201200Z AUTO 04008KT 2 1/2SM 15/13 A2991 RMK 60004 SLP137 T01530132 57003 IEM_DS3505
ZGSZ,1997-03-20 13:00,ZGSZ 201300Z AUTO 01006KT 2SM 15/14 A2997 RMK T01500140 IEM_DS3505
ZGSZ,1997-03-20 14:00,ZGSZ 201400Z AUTO 03004KT 2 1/2SM 15/14 A2997 RMK T01500140 IEM_DS3505
ZGSZ,1997-03-20 15:00,ZGSZ 201500Z AUTO 01006KT 2 1/2SM 15/14 A2997 RMK T01500140 IEM_DS3505
ZGSZ,1997-03-20 18:00,ZGSZ 201800Z AUTO 04006KT 9SM 16/13 RMK SLP136 T01560133 57021 IEM_DS3505
ZGSZ,1997-03-20 21:00,ZGSZ 202100Z AUTO 04004KT 6SM 16/14 A2988 RMK 70012 SLP124 T01560144 57012 IEM_DS3505
ZGSZ,1997-03-20 22:00,ZGSZ 202200Z AUTO 08002KT 7SM 16/15 A2988 RMK T01600150 IEM_DS3505
ZGSZ,1997-03-20 23:00,ZGSZ 202300Z AUTO 00000KT 4SM 16/15 A2988 RMK T01600150 IEM_DS3505
ZGSZ,1997-03-21 00:00,ZGSZ 210000Z AUTO 09006KT 5SM 18/17 A2988 RMK 60012 70016 SLP130 T01800168 52006 IEM_DS3505
ZGSZ,1997-03-21 01:00,ZGSZ 210100Z AUTO 11002KT 2SM 17/16 A2988 RMK T01700160 IEM_DS3505
ZGSZ,1997-03-21 02:00,ZGSZ 210200Z AUTO 19006KT 1SM 16/16 A2991 RMK T01600160 IEM_DS3505
ZGSZ,1997-03-21 03:00,ZGSZ 210300Z AUTO 14008KT 4SM 19/18 A2991 RMK SLP131 T01860176 52001 IEM_DS3505
ZGSZ,1997-03-21 04:00,ZGSZ 210400Z AUTO 32008KT 1SM 16/16 A2991 RMK T01600160 IEM_DS3505
ZGSZ,1997-03-21 05:00,ZGSZ 210500Z AUTO 33006KT 1 1/4SM 17/17 A2985 RMK T01700170 IEM_DS3505
ZGSZ,1997-03-21 06:00,ZGSZ 210600Z AUTO 00000KT 5SM 20/19 A2985 RMK 60008 SLP111 T02020189 57019 IEM_DS3505
ZGSZ,1997-03-21 07:00,ZGSZ 210700Z AUTO 33008KT 1SM 17/17 A2983 RMK T01700170 IEM_DS3505
ZGSZ,1997-03-21 08:00,ZGSZ 210800Z AUTO 35006KT 1SM 17/17 A2980 RMK T01700170 IEM_DS3505
ZGSZ,1997-03-21 09:00,ZGSZ 210900Z AUTO 00000KT 2 1/2SM 20/18 A2980 RMK SLP098 T01960182 57013 IEM_DS3505
ZGSZ,1997-03-21 10:00,ZGSZ 211000Z AUTO 35006KT 1SM 17/17 A2980 RMK T01700170 IEM_DS3505
ZGSZ,1997-03-21 11:00,ZGSZ 211100Z AUTO 36006KT 1SM 17/17 A2983 RMK T01700170 IEM_DS3505
ZGSZ,1997-03-21 12:00,ZGSZ 211200Z AUTO 09004KT 1/2SM 19/18 A2983 RMK 60000 SLP113 T01900182 52015 IEM_DS3505
ZGSZ,1997-03-21 13:00,ZGSZ 211300Z AUTO 19002KT 1 1/4SM 17/17 A2985 RMK T01700170 IEM_DS3505
ZGSZ,1997-03-21 14:00,ZGSZ 211400Z AUTO 33004KT 1 1/4SM 18/18 A2988 RMK T01800180 IEM_DS3505
ZGSZ,1997-03-21 18:00,ZGSZ 211800Z AUTO 36004KT 1SM 18/18 RMK SLP105 T01830178 57018 IEM_DS3505
ZGSZ,1997-03-21 21:00,ZGSZ 212100Z AUTO 04004KT 1 1/4SM 18/18 RMK 70020 SLP099 T01800177 57006 IEM_DS3505
ZGSZ,1997-03-21 23:00,ZGSZ 212300Z AUTO 36002KT 1 1/2SM 17/17 A2983 RMK T01700170 IEM_DS3505
ZGSZ,1997-03-22 00:00,ZGSZ 220000Z AUTO 04004KT 1SM 18/17 A2985 RMK 60004 70012 SLP116 T01790174 52017 IEM_DS3505
ZGSZ,1997-03-22 01:00,ZGSZ 220100Z AUTO 33004KT 1SM 17/17 A2985 RMK T01700170 IEM_DS3505
ZGSZ,1997-03-22 02:00,ZGSZ 220200Z AUTO 34004KT 1SM 17/17 A2988 RMK T01700170 IEM_DS3505
ZGSZ,1997-03-22 03:00,ZGSZ 220300Z AUTO 27006KT 1SM 19/18 RMK SLP122 T01940181 52006 IEM_DS3505
ZGSZ,1997-03-22 04:00,ZGSZ 220400Z AUTO 33010KT 1/2SM RMK IEM_DS3505
ZGSZ,1997-03-22 05:00,ZGSZ 220500Z AUTO 34010KT 1/2SM RMK IEM_DS3505
ZGSZ,1997-03-22 06:00,ZGSZ 220600Z AUTO 32004KT 3/8SM 18/18 RMK 60001 SLP112 T01830175 57010 IEM_DS3505
ZGSZ,1997-03-22 07:00,ZGSZ 220700Z AUTO 34010KT 1SM 16/16 A2983 RMK T01600160 IEM_DS3505
ZGSZ,1997-03-22 08:00,ZGSZ 220800Z AUTO 33008KT 1 1/2SM 16/16 A2983 RMK T01600160 IEM_DS3505
ZGSZ,1997-03-22 09:00,ZGSZ 220900Z AUTO 04004KT 1 1/4SM 17/16 A2983 RMK SLP108 T01690157 57004 IEM_DS3505
ZGSZ,1997-03-22 10:00,ZGSZ 221000Z AUTO 36006KT 1 1/4SM 16/16 A2985 RMK T01600160 IEM_DS3505
ZGSZ,1997-03-22 11:00,ZGSZ 221100Z AUTO 34008KT 1 1/2SM 17/17 A2988 RMK T01700170 IEM_DS3505
ZGSZ,1997-03-22 12:00,ZGSZ 221200Z AUTO 36006KT 2 1/2SM 16/15 A2988 RMK 60002 SLP128 T01650150 52019 IEM_DS3505
ZGSZ,1997-03-22 13:00,ZGSZ 221300Z AUTO 35012KT 2 1/2SM 16/15 A2991 RMK T01600150 IEM_DS3505
ZGSZ,1997-03-22 14:00,ZGSZ 221400Z AUTO 01010KT 3SM 16/15 A2994 RMK T01600150 IEM_DS3505
ZGSZ,1997-03-22 18:00,ZGSZ 221800Z AUTO 04008KT 16SM 16/11 RMK SLP146 T01550106 57002 IEM_DS3505
ZGSZ,1997-03-22 21:00,ZGSZ 222100Z AUTO 04008KT 14SM 15/11 A2994 RMK 70004 SLP143 T01500111 57003 IEM_DS3505
ZGSZ,1997-03-22 22:00,ZGSZ 222200Z AUTO 01008KT 7SM 15/13 A2997 RMK T01500130 IEM_DS3505
ZGSZ,1997-03-22 23:00,ZGSZ 222300Z AUTO 02006KT 7SM 15/12 A2997 RMK T01500120 IEM_DS3505
ZGSZ,1997-03-23 00:00,ZGSZ 230000Z AUTO 04010KT 16SM 15/11 A3000 RMK 70004 SLP157 T01510110 52014 IEM_DS3505
ZGSZ,1997-03-23 01:00,ZGSZ 230100Z AUTO 01008KT 7SM 16/13 A3003 RMK T01600130 IEM_DS3505
ZGSZ,1997-03-23 02:00,ZGSZ 230200Z AUTO 01008KT 7SM 17/13 A3003 RMK T01700130 IEM_DS3505
ZGSZ,1997-03-23 03:00,ZGSZ 230300Z AUTO 36008KT 11SM 16/12 A3003 RMK SLP179 T01630119 52022 IEM_DS3505
ZGSZ,1997-03-23 04:00,ZGSZ 230400Z AUTO 36008KT 7SM 18/13 A3003 RMK T01800130 IEM_DS3505
ZGSZ,1997-03-23 05:00,ZGSZ 230500Z AUTO 01006KT 7SM 19/13 A3003 RMK T01900130 IEM_DS3505
ZGSZ,1997-03-23 06:00,ZGSZ 230600Z AUTO 09006KT 12SM 17/12 A3000 RMK SLP168 T01740122 57011 IEM_DS3505
ZGSZ,1997-03-23 07:00,ZGSZ 230700Z AUTO 03006KT 7SM 19/14 A2997 RMK T01900140 IEM_DS3505
ZGSZ,1997-03-23 08:00,ZGSZ 230800Z AUTO 10006KT 7SM 19/15 A2997 RMK T01900150 IEM_DS3505
ZGSZ,1997-03-23 09:00,ZGSZ 230900Z AUTO 04012KT 11SM 18/12 A2997 RMK SLP158 T01770123 57010 IEM_DS3505
ZGSZ,1997-03-23 10:00,ZGSZ 231000Z AUTO 09004KT 7SM 19/14 A3000 RMK T01900140 IEM_DS3505
ZGSZ,1997-03-23 11:00,ZGSZ 231100Z AUTO 10006KT 7SM 18/14 A3000 RMK T01800140 IEM_DS3505
ZGSZ,1997-03-23 12:00,ZGSZ 231200Z AUTO 04004KT 9SM 18/13 A3006 RMK SLP183 T01750134 52025 IEM_DS3505
ZGSZ,1997-03-23 13:00,ZGSZ 231300Z AUTO 08004KT 7SM 18/14 A3009 RMK T01800140 IEM_DS3505
ZGSZ,1997-03-23 14:00,ZGSZ 231400Z AUTO 08006KT 7SM 18/14 A3012 RMK T01800140 IEM_DS3505
ZGSZ,1997-03-23 18:00,ZGSZ 231800Z AUTO 04008KT 9SM 16/13 RMK SLP181 T01610127 57018 IEM_DS3505
ZGSZ,1997-03-23 21:00,ZGSZ 232100Z AUTO 11002KT 4SM 15/14 A3009 RMK 70004 SLP199 T01500138 52018 IEM_DS3505
ZGSZ,1997-03-23 22:00,ZGSZ 232200Z AUTO 09006KT 3SM 15/14 A3012 RMK T01500140 IEM_DS3505
ZGSZ,1997-03-23 23:00,ZGSZ 232300Z AUTO 03006KT 4SM 15/14 A3012 RMK T01500140 IEM_DS3505
ZGSZ,1997-03-24 00:00,ZGSZ 240000Z AUTO 09008KT 9SM 16/11 A3018 RMK 60004 70004 SLP219 T01630109 52020 IEM_DS3505
ZGSZ,1997-03-24 01:00,ZGSZ 240100Z AUTO 03006KT 7SM 16/14 A3018 RMK T01600140 IEM_DS3505
ZGSZ,1997-03-24 02:00,ZGSZ 240200Z AUTO 05006KT 7SM 17/14 A3015 RMK T01700140 IEM_DS3505
ZGSZ,1997-03-24 03:00,ZGSZ 240300Z AUTO 04008KT 11SM 18/06 A3015 RMK SLP215 T01790056 57004 IEM_DS3505
ZGSZ,1997-03-24 04:00,ZGSZ 240400Z AUTO 07004KT 6SM 20/11 A3012 RMK T02000110 IEM_DS3505
ZGSZ,1997-03-24 05:00,ZGSZ 240500Z AUTO 32002KT 7SM 19/11 A3012 RMK T01900110 IEM_DS3505
ZGSZ,1997-03-24 06:00,ZGSZ 240600Z AUTO 09006KT 14SM 18/08 A3006 RMK SLP197 T01840081 57018 IEM_DS3505
ZGSZ,1997-03-24 07:00,ZGSZ 240700Z AUTO 10008KT 6SM 21/10 A3006 RMK T02100100 IEM_DS3505
ZGSZ,1997-03-24 08:00,ZGSZ 240800Z AUTO 12010KT 6SM 19/11 A3006 RMK T01900110 IEM_DS3505
ZGSZ,1997-03-24 09:00,ZGSZ 240900Z AUTO 09008KT 10SM 18/12 A3003 RMK SLP185 T01770115 57012 IEM_DS3505
ZGSZ,1997-03-24 10:00,ZGSZ 241000Z AUTO 12006KT 7SM 19/12 A3006 RMK T01900120 IEM_DS3505
ZGSZ,1997-03-24 11:00,ZGSZ 241100Z AUTO 11012KT 7SM 18/13 A3006 RMK T01800130 IEM_DS3505
ZGSZ,1997-03-24 12:00,ZGSZ 241200Z AUTO 09004KT 9SM 18/13 A3006 RMK 60000 SLP192 T01750127 52007 IEM_DS3505
ZGSZ,1997-03-24 13:00,ZGSZ 241300Z AUTO 11008KT 4SM 18/14 A3009 RMK T01800140 IEM_DS3505
ZGSZ,1997-03-24 14:00,ZGSZ 241400Z AUTO 09006KT 4SM 18/14 A3009 RMK T01800140 IEM_DS3505
ZGSZ,1997-03-24 15:00,ZGSZ 241500Z AUTO 11008KT 4SM 18/15 A3009 RMK T01800150 IEM_DS3505
ZGSZ,1997-03-24 18:00,ZGSZ 241800Z AUTO 14008KT 14SM 17/13 RMK SLP179 T01710132 57019 IEM_DS3505
ZGSZ,1997-03-24 21:00,ZGSZ 242100Z AUTO 09006KT 11SM 17/13 A3006 RMK 70001 SLP187 T01690130 52008 IEM_DS3505
ZGSZ,1997-03-24 22:00,ZGSZ 242200Z AUTO 07004KT 7SM 17/14 A3006 RMK T01700140 IEM_DS3505
ZGSZ,1997-03-24 23:00,ZGSZ 242300Z AUTO 04004KT 7SM 17/15 A3009 RMK T01700150 IEM_DS3505
ZGSZ,1997-03-25 00:00,ZGSZ 250000Z AUTO 14008KT 8SM 18/13 A3009 RMK SLP193 T01750133 52006 IEM_DS3505
ZGSZ,1997-03-25 01:00,ZGSZ 250100Z AUTO 05002KT 7SM 18/15 A3012 RMK T01800150 IEM_DS3505
ZGSZ,1997-03-25 02:00,ZGSZ 250200Z AUTO 11008KT 7SM 20/16 A3012 RMK T02000160 IEM_DS3505
ZGSZ,1997-03-25 03:00,ZGSZ 250300Z AUTO 09006KT 12SM 21/14 A3009 RMK SLP203 T02070140 52010 IEM_DS3505
ZGSZ,1997-03-25 04:00,ZGSZ 250400Z AUTO 13010KT 7SM 22/17 A3009 RMK T02200170 IEM_DS3505
ZGSZ,1997-03-25 05:00,ZGSZ 250500Z AUTO 09002KT 7SM 22/17 A3006 RMK T02200170 IEM_DS3505
ZGSZ,1997-03-25 06:00,ZGSZ 250600Z AUTO 14004KT 12SM 21/15 A3006 RMK SLP188 T02060148 57015 IEM_DS3505
ZGSZ,1997-03-25 07:00,ZGSZ 250700Z AUTO 26004KT 7SM 20/17 A3003 RMK T02000170 IEM_DS3505
ZGSZ,1997-03-25 08:00,ZGSZ 250800Z AUTO 25002KT 7SM 20/17 A3003 RMK T02000170 IEM_DS3505
ZGSZ,1997-03-25 09:00,ZGSZ 250900Z AUTO 09006KT 8SM 20/16 A3003 RMK SLP174 T02040155 57014 IEM_DS3505
ZGSZ,1997-03-25 10:00,ZGSZ 251000Z AUTO 11004KT 7SM 21/17 A3003 RMK T02100170 IEM_DS3505
ZGSZ,1997-03-25 11:00,ZGSZ 251100Z AUTO 09006KT 7SM 21/17 A3003 RMK T02100170 IEM_DS3505
ZGSZ,1997-03-25 12:00,ZGSZ 251200Z AUTO 09006KT 7SM 19/15 A3006 RMK SLP187 T01940152 52013 IEM_DS3505
ZGSZ,1997-03-25 13:00,ZGSZ 251300Z AUTO 12004KT 7SM 20/17 A3009 RMK T02000170 IEM_DS3505
ZGSZ,1997-03-25 14:00,ZGSZ 251400Z AUTO 10004KT 4SM 20/18 A3009 RMK T02000180 IEM_DS3505
ZGSZ,1997-03-25 15:00,ZGSZ 251500Z AUTO 11006KT 4SM 20/18 A3009 RMK T02000180 IEM_DS3505
ZGSZ,1997-03-25 18:00,ZGSZ 251800Z AUTO 09004KT 8SM 19/17 RMK SLP189 T01930168 57010 IEM_DS3505
ZGSZ,1997-03-25 21:00,ZGSZ 252100Z AUTO 04004KT 6SM 19/17 A3003 RMK SLP181 T01900167 57008 IEM_DS3505
ZGSZ,1997-03-25 22:00,ZGSZ 252200Z AUTO 04004KT 7SM 20/18 A3006 RMK T02000180 IEM_DS3505
ZGSZ,1997-03-25 23:00,ZGSZ 252300Z AUTO 08002KT 7SM 20/18 A3006 RMK T02000180 IEM_DS3505
ZGSZ,1997-03-26 00:00,ZGSZ 260000Z AUTO 09004KT 5SM 19/17 A3009 RMK SLP203 T01930170 52021 IEM_DS3505
ZGSZ,1997-03-26 01:00,ZGSZ 260100Z AUTO 00000KT 7SM 21/19 A3012 RMK T02100190 IEM_DS3505
ZGSZ,1997-03-26 02:00,ZGSZ 260200Z AUTO 09004KT 7SM 23/19 A3012 RMK T02300190 IEM_DS3505
ZGSZ,1997-03-26 03:00,ZGSZ 260300Z AUTO 09004KT 9SM 23/18 RMK SLP210 T02310177 52008 IEM_DS3505
ZGSZ,1997-03-26 04:00,ZGSZ 260400Z AUTO 28004KT 1 1/4SM 22/20 A3012 RMK T02200200 IEM_DS3505
ZGSZ,1997-03-26 05:00,ZGSZ 260500Z AUTO 29006KT 3SM 24/20 A3009 RMK T02400200 IEM_DS3505
ZGSZ,1997-03-26 06:00,ZGSZ 260600Z AUTO 09004KT 19SM 26/18 A3006 RMK SLP185 T02610184 57025 IEM_DS3505
ZGSZ,1997-03-26 07:00,ZGSZ 260700Z AUTO 29006KT 6SM 25/20 A3003 RMK T02500200 IEM_DS3505
ZGSZ,1997-03-26 08:00,ZGSZ 260800Z AUTO 28006KT 6SM 25/20 A3003 RMK T02500200 IEM_DS3505
ZGSZ,1997-03-26 09:00,ZGSZ 260900Z AUTO 20004KT 19SM 26/19 A3003 RMK SLP173 T02640190 57012 IEM_DS3505
ZGSZ,1997-03-26 10:00,ZGSZ 261000Z AUTO 32006KT 2SM 24/20 A3003 RMK T02400200 IEM_DS3505
ZGSZ,1997-03-26 11:00,ZGSZ 261100Z AUTO 35006KT 1 1/4SM 24/20 A3006 RMK T02400200 IEM_DS3505
ZGSZ,1997-03-26 12:00,ZGSZ 261200Z AUTO 18002KT 9SM 23/18 A3006 RMK SLP187 T02290180 52014 IEM_DS3505
ZGSZ,1997-03-26 13:00,ZGSZ 261300Z AUTO 35006KT 1 1/2SM 23/20 A3009 RMK T02300200 IEM_DS3505
ZGSZ,1997-03-26 14:00,ZGSZ 261400Z AUTO 32002KT 1 1/2SM 23/20 A3012 RMK T02300200 IEM_DS3505
ZGSZ,1997-03-26 15:00,ZGSZ 261500Z AUTO 33004KT 1 1/2SM 22/20 A3012 RMK T02200200 IEM_DS3505
ZGSZ,1997-03-26 16:00,ZGSZ 261600Z AUTO 32002KT 1 1/4SM 22/20 A3012 RMK T02200200 IEM_DS3505
ZGSZ,1997-03-26 18:00,ZGSZ 261800Z AUTO 11004KT 10SM 20/18 RMK SLP199 T02050181 57005 IEM_DS3505
ZGSZ,1997-03-26 21:00,ZGSZ 262100Z AUTO 09006KT 10SM 19/16 A3006 RMK SLP183 T01910159 57016 IEM_DS3505
ZGSZ,1997-03-26 22:00,ZGSZ 262200Z AUTO 09008KT 4SM 20/18 A3006 RMK T02000180 IEM_DS3505
ZGSZ,1997-03-26 23:00,ZGSZ 262300Z AUTO 15002KT 7SM 20/17 A3006 RMK T02000170 IEM_DS3505
ZGSZ,1997-03-27 00:00,ZGSZ 270000Z AUTO 14012KT 9SM 19/16 A3009 RMK SLP192 T01900160 52009 IEM_DS3505
ZGSZ,1997-03-27 01:00,ZGSZ 270100Z AUTO 09006KT 6SM 22/18 A3009 RMK T02200180 IEM_DS3505
ZGSZ,1997-03-27 02:00,ZGSZ 270200Z AUTO 23004KT 6SM 23/18 A3009 RMK T02300180 IEM_DS3505
ZGSZ,1997-03-27 03:00,ZGSZ 270300Z AUTO 09006KT 9SM 22/16 A3009 RMK SLP199 T02170159 52007 IEM_DS3505
ZGSZ,1997-03-27 04:00,ZGSZ 270400Z AUTO 27006KT 7SM 23/19 A3009 RMK T02300190 IEM_DS3505
ZGSZ,1997-03-27 05:00,ZGSZ 270500Z AUTO 32006KT 6SM 25/18 A3003 RMK T02500180 IEM_DS3505
ZGSZ,1997-03-27 06:00,ZGSZ 270600Z AUTO 07006KT 11SM 22/15 A3003 RMK SLP177 T02240150 57022 IEM_DS3505
ZGSZ,1997-03-27 07:00,ZGSZ 270700Z AUTO 15008KT 7SM 24/17 A3000 RMK T02400170 IEM_DS3505
ZGSZ,1997-03-27 08:00,ZGSZ 270800Z AUTO 13010KT 7SM 24/17 A3000 RMK T02400170 IEM_DS3505
ZGSZ,1997-03-27 09:00,ZGSZ 270900Z AUTO 14006KT 8SM 21/15 A3000 RMK SLP169 T02090152 57008 IEM_DS3505
ZGSZ,1997-03-27 10:00,ZGSZ 271000Z AUTO 13008KT 7SM 23/17 A3000 RMK T02300170 IEM_DS3505
ZGSZ,1997-03-27 11:00,ZGSZ 271100Z AUTO 11006KT 7SM 22/17 A3000 RMK T02200170 IEM_DS3505
ZGSZ,1997-03-27 12:00,ZGSZ 271200Z AUTO 09006KT 5SM 20/15 A3003 RMK SLP176 T01950149 52007 IEM_DS3505
ZGSZ,1997-03-27 13:00,ZGSZ 271300Z AUTO 12008KT 7SM 21/17 A3003 RMK T02100170 IEM_DS3505
ZGSZ,1997-03-27 14:00,ZGSZ 271400Z AUTO 12008KT 7SM 21/17 A3006 RMK T02100170 IEM_DS3505
ZGSZ,1997-03-27 15:00,ZGSZ 271500Z AUTO 12006KT 7SM 20/17 A3006 RMK T02000170 IEM_DS3505
ZGSZ,1997-03-27 18:00,ZGSZ 271800Z AUTO 09006KT 6SM 19/15 RMK SLP169 T01920153 57015 IEM_DS3505
ZGSZ,1997-03-27 21:00,ZGSZ 272100Z AUTO 09004KT 5SM 19/15 A2994 RMK SLP155 T01890154 57014 IEM_DS3505
ZGSZ,1997-03-27 22:00,ZGSZ 272200Z AUTO 11010KT 7SM 20/18 A2997 RMK T02000180 IEM_DS3505
ZGSZ,1997-03-27 23:00,ZGSZ 272300Z AUTO 12006KT 7SM 20/18 A2997 RMK T02000180 IEM_DS3505
ZGSZ,1997-03-28 00:00,ZGSZ 280000Z AUTO 09008KT 8SM 19/16 A2997 RMK SLP162 T01900163 52007 IEM_DS3505
ZGSZ,1997-03-28 01:00,ZGSZ 280100Z AUTO 11006KT 7SM 21/18 A3000 RMK T02100180 IEM_DS3505
ZGSZ,1997-03-28 02:00,ZGSZ 280200Z AUTO 07004KT 7SM 21/19 A3000 RMK T02100190 IEM_DS3505
ZGSZ,1997-03-28 03:00,ZGSZ 280300Z AUTO 14006KT 7SM 20/17 A2997 RMK SLP165 T02000171 52003 IEM_DS3505
ZGSZ,1997-03-28 04:00,ZGSZ 280400Z AUTO 12010KT 6SM 23/20 A2997 RMK T02300200 IEM_DS3505
ZGSZ,1997-03-28 05:00,ZGSZ 280500Z AUTO 15002KT 7SM 23/20 A2994 RMK T02300200 IEM_DS3505
ZGSZ,1997-03-28 06:00,ZGSZ 280600Z AUTO 09004KT 7SM 22/18 A2991 RMK SLP136 T02200180 57029 IEM_DS3505
ZGSZ,1997-03-28 07:00,ZGSZ 280700Z AUTO 20006KT 4SM 22/20 A2988 RMK T02200200 IEM_DS3505
ZGSZ,1997-03-28 08:00,ZGSZ 280800Z AUTO 24004KT 4SM 21/20 RMK T02100200 IEM_DS3505
ZGSZ,1997-03-28 09:00,ZGSZ 280900Z AUTO 14006KT 5SM 20/18 A2988 RMK SLP126 T02040183 57010 IEM_DS3505
ZGSZ,1997-03-28 10:00,ZGSZ 281000Z AUTO 13004KT 1 1/2SM 21/20 A2988 RMK T02100200 IEM_DS3505
ZGSZ,1997-03-28 11:00,ZGSZ 281100Z AUTO 00000KT 2SM 21/20 A2988 RMK T02100200 IEM_DS3505
ZGSZ,1997-03-28 12:00,ZGSZ 281200Z AUTO 14004KT 4SM 20/18 A2991 RMK 60012 SLP135 T01970184 52009 IEM_DS3505
ZGSZ,1997-03-28 13:00,ZGSZ 281300Z AUTO 31006KT 1 1/2SM 20/20 A2994 RMK T02000200 IEM_DS3505
ZGSZ,1997-03-28 14:00,ZGSZ 281400Z AUTO 02002KT 1 1/2SM 20/20 A2994 RMK T02000200 IEM_DS3505
ZGSZ,1997-03-28 15:00,ZGSZ 281500Z AUTO 30002KT 1 1/4SM 21/21 A2994 RMK T02100210 IEM_DS3505
ZGSZ,1997-03-28 18:00,ZGSZ 281800Z AUTO 09004KT 6SM 20/18 RMK 60000 SLP134 T01950184 57013 IEM_DS3505
ZGSZ,1997-03-28 21:00,ZGSZ 282100Z AUTO 11002KT 2 1/2SM 20/19 A2988 RMK 70012 SLP132 T01990188 57002 IEM_DS3505
ZGSZ,1997-03-28 22:00,ZGSZ 282200Z AUTO 10002KT 1SM 20/20 A2988 RMK T02000200 IEM_DS3505
ZGSZ,1997-03-28 23:00,ZGSZ 282300Z AUTO 02002KT 1 1/4SM 20/20 A2991 RMK T02000200 IEM_DS3505
ZGSZ,1997-03-29 00:00,ZGSZ 290000Z AUTO 07004KT 2SM 20/19 A2994 RMK 60004 70016 SLP150 T01990194 52018 IEM_DS3505
ZGSZ,1997-03-29 02:00,ZGSZ 290200Z AUTO 27002KT 1SM 21/21 A3000 RMK T02100210 IEM_DS3505
ZGSZ,1997-03-29 03:00,ZGSZ 290300Z AUTO 36002KT 2SM 22/20 A2997 RMK SLP158 T02170198 52008 IEM_DS3505
ZGSZ,1997-03-29 04:00,ZGSZ 290400Z AUTO 25004KT 1SM 24/22 A2997 RMK T02400220 IEM_DS3505
ZGSZ,1997-03-29 05:00,ZGSZ 290500Z AUTO 25004KT 1SM 24/21 A2994 RMK T02400210 IEM_DS3505
ZGSZ,1997-03-29 06:00,ZGSZ 290600Z AUTO 14004KT 6SM 23/20 A2994 RMK SLP142 T02340199 57016 IEM_DS3505
ZGSZ,1997-03-29 07:00,ZGSZ 290700Z AUTO 23002KT 1SM 24/21 A2991 RMK T02400210 IEM_DS3505
ZGSZ,1997-03-29 08:00,ZGSZ 290800Z AUTO 18004KT 1 1/2SM 24/21 A2991 RMK T02400210 IEM_DS3505
ZGSZ,1997-03-29 09:00,ZGSZ 290900Z AUTO 09002KT 6SM 24/20 A2991 RMK SLP139 T02390197 57003 IEM_DS3505
ZGSZ,1997-03-29 10:00,ZGSZ 291000Z AUTO 19002KT 1 1/2SM 23/21 A2994 RMK T02300210 IEM_DS3505
ZGSZ,1997-03-29 11:00,ZGSZ 291100Z AUTO 17002KT 1 1/2SM 22/21 A2994 RMK T02200210 IEM_DS3505
ZGSZ,1997-03-29 12:00,ZGSZ 291200Z AUTO 14004KT 4SM 21/19 A2997 RMK SLP153 T02140192 52014 IEM_DS3505
ZGSZ,1997-03-29 13:00,ZGSZ 291300Z AUTO 19004KT 1 1/2SM 22/21 A3000 RMK T02200210 IEM_DS3505
ZGSZ,1997-03-29 14:00,ZGSZ 291400Z AUTO 12002KT 1 1/4SM 21/21 A3000 RMK T02100210 IEM_DS3505
ZGSZ,1997-03-29 15:00,ZGSZ 291500Z AUTO 08002KT 1 1/4SM 21/20 A3003 RMK T02100200 IEM_DS3505
ZGSZ,1997-03-29 18:00,ZGSZ 291800Z AUTO 04004KT 3SM 20/19 RMK SLP168 T01980187 57005 IEM_DS3505
ZGSZ,1997-03-29 21:00,ZGSZ 292100Z AUTO 09004KT 4SM 19/18 A3000 RMK 70004 SLP161 T01940184 57007 IEM_DS3505
ZGSZ,1997-03-29 22:00,ZGSZ 292200Z AUTO 16002KT 1 1/2SM 20/20 A3003 RMK T02000200 IEM_DS3505
ZGSZ,1997-03-29 23:00,ZGSZ 292300Z AUTO 00000KT 2SM 20/19 A3006 RMK T02000190 IEM_DS3505
ZGSZ,1997-03-30 00:00,ZGSZ 300000Z AUTO 04004KT 4SM 20/18 A3009 RMK SLP194 T01990181 52033 IEM_DS3505
ZGSZ,1997-03-30 01:00,ZGSZ 300100Z AUTO 01004KT 6SM 23/20 A3009 RMK T02300200 IEM_DS3505
ZGSZ,1997-03-30 02:00,ZGSZ 300200Z AUTO 03002KT 6SM 23/20 A3009 RMK T02300200 IEM_DS3505
ZGSZ,1997-03-30 03:00,ZGSZ 300300Z AUTO 09006KT 9SM 25/19 A3009 RMK SLP194 T02490192 54000 IEM_DS3505
ZGSZ,1997-03-30 04:00,ZGSZ 300400Z AUTO 24008KT 6SM 27/21 A3006 RMK T02700210 IEM_DS3505
ZGSZ,1997-03-30 05:00,ZGSZ 300500Z AUTO 26008KT 4SM 24/21 A3006 RMK T02400210 IEM_DS3505
ZGSZ,1997-03-30 06:00,ZGSZ 300600Z AUTO 14008KT 17SM 27/17 A3003 RMK SLP173 T02670170 57021 IEM_DS3505
ZGSZ,1997-03-30 07:00,ZGSZ 300700Z AUTO 20008KT 6SM 25/21 A3000 RMK T02500210 IEM_DS3505
ZGSZ,1997-03-30 08:00,ZGSZ 300800Z AUTO 21008KT 6SM 25/21 A3000 RMK T02500210 IEM_DS3505
ZGSZ,1997-03-30 09:00,ZGSZ 300900Z AUTO 11010KT 17SM 24/16 A3000 RMK SLP169 T02450158 57004 IEM_DS3505
ZGSZ,1997-03-30 10:00,ZGSZ 301000Z AUTO 14008KT 6SM 25/19 A3000 RMK T02500190 IEM_DS3505
ZGSZ,1997-03-30 11:00,ZGSZ 301100Z AUTO 12010KT 6SM 24/18 A3003 RMK T02400180 IEM_DS3505
ZGSZ,1997-03-30 12:00,ZGSZ 301200Z AUTO 14006KT 16SM 21/16 A3003 RMK SLP182 T02140161 52013 IEM_DS3505
ZGSZ,1997-03-30 13:00,ZGSZ 301300Z AUTO 11010KT 6SM 22/17 A3006 RMK T02200170 IEM_DS3505
ZGSZ,1997-03-30 14:00,ZGSZ 301400Z AUTO 11010KT 6SM 22/16 A3006 RMK T02200160 IEM_DS3505
ZGSZ,1997-03-30 15:00,ZGSZ 301500Z AUTO 11010KT 6SM 22/16 A3009 RMK T02200160 IEM_DS3505
ZGSZ,1997-03-30 18:00,ZGSZ 301800Z AUTO 09004KT 8SM 20/16 RMK SLP189 T01990164 57001 IEM_DS3505
ZGSZ,1997-03-30 21:00,ZGSZ 302100Z AUTO 09006KT 9SM 19/14 A3003 RMK SLP173 T01930139 57016 IEM_DS3505
ZGSZ,1997-03-30 22:00,ZGSZ 302200Z AUTO 00000KT 6SM 19/15 A3003 RMK T01900150 IEM_DS3505
ZGSZ,1997-03-30 23:00,ZGSZ 302300Z AUTO 12004KT 6SM 19/16 A3006 RMK T01900160 IEM_DS3505
ZGSZ,1997-03-31 00:00,ZGSZ 310000Z AUTO 09006KT 6SM 20/15 A3009 RMK SLP193 T01970146 52020 IEM_DS3505
ZGSZ,1997-03-31 01:00,ZGSZ 310100Z AUTO 10008KT 6SM 22/17 A3006 RMK T02200170 IEM_DS3505
ZGSZ,1997-03-31 02:00,ZGSZ 310200Z AUTO 12010KT 6SM 23/17 A3006 RMK T02300170 IEM_DS3505
ZGSZ,1997-03-31 03:00,ZGSZ 310300Z AUTO 14014KT 6SM 22/15 A3006 RMK SLP190 T02200146 57003 IEM_DS3505
ZGSZ,1997-03-31 04:00,ZGSZ 310400Z AUTO 13010KT 6SM 25/17 A3006 RMK T02500170 IEM_DS3505
ZGSZ,1997-03-31 05:00,ZGSZ 310500Z AUTO 13008KT 6SM 26/17 A3003 RMK T02600170 IEM_DS3505
ZGSZ,1997-03-31 06:00,ZGSZ 310600Z AUTO 14004KT 5SM 25/16 A3000 RMK SLP172 T02520165 57018 IEM_DS3505
ZGSZ,1997-03-31 07:00,ZGSZ 310700Z AUTO 21010KT 4SM 24/20 A3000 RMK T02400200 IEM_DS3505
ZGSZ,1997-03-31 08:00,ZGSZ 310800Z AUTO 21008KT 4SM 25/19 A2997 RMK T02500190 IEM_DS3505
ZGSZ,1997-03-31 09:00,ZGSZ 310900Z AUTO 14006KT 4SM 24/16 A2997 RMK SLP163 T02360164 57009 IEM_DS3505
ZGSZ,1997-03-31 10:00,ZGSZ 311000Z AUTO 19008KT 4SM 24/20 A2997 RMK T02400200 IEM_DS3505
ZGSZ,1997-03-31 11:00,ZGSZ 311100Z AUTO 12012KT 4SM 23/18 A3000 RMK T02300180 IEM_DS3505
ZGSZ,1997-03-31 12:00,ZGSZ 311200Z AUTO 14008KT 4SM 20/17 A3000 RMK SLP173 T02050167 52010 IEM_DS3505
ZGSZ,1997-03-31 13:00,ZGSZ 311300Z AUTO 12010KT 3SM 21/18 A3003 RMK T02100180 IEM_DS3505
ZGSZ,1997-03-31 14:00,ZGSZ 311400Z AUTO 11010KT 3SM 21/18 A3003 RMK T02100180 IEM_DS3505
ZGSZ,1997-03-31 18:00,ZGSZ 311800Z AUTO 09006KT 6SM 20/17 RMK SLP167 T01970171 57016 IEM_DS3505
ZGSZ,1997-03-31 21:00,ZGSZ 312100Z AUTO 09006KT 7SM 19/16 A2997 RMK SLP158 T01900165 57009 IEM_DS3505
ZGSZ,1997-03-31 22:00,ZGSZ 312200Z AUTO 13004KT 4SM 19/18 A2997 RMK T01900180 IEM_DS3505
ZGSZ,1997-03-31 23:00,ZGSZ 312300Z AUTO 10004KT 4SM 19/18 A3000 RMK T01900180 IEM_DS3505
ZGSZ,1997-04-01 00:00,ZGSZ 010000Z AUTO 11006KT 5SM 19/16 A3000 RMK SLP170 T01930165 52012 IEM_DS3505
ZGSZ,1997-04-01 01:00,ZGSZ 010100Z AUTO 12006KT 7SM 21/18 A3000 RMK T02100180 IEM_DS3505
ZGSZ,1997-04-01 02:00,ZGSZ 010200Z AUTO 12004KT 7SM 22/19 A3003 RMK T02200190 IEM_DS3505
ZGSZ,1997-04-01 03:00,ZGSZ 010300Z AUTO 14006KT 7SM 21/17 A3003 RMK SLP174 T02100167 52004 IEM_DS3505
ZGSZ,1997-04-01 04:00,ZGSZ 010400Z AUTO 10006KT 7SM 23/19 A2997 RMK T02300190 IEM_DS3505
ZGSZ,1997-04-01 05:00,ZGSZ 010500Z AUTO 13004KT 7SM 24/20 A2994 RMK T02400200 IEM_DS3505
ZGSZ,1997-04-01 06:00,ZGSZ 010600Z AUTO 14004KT 5SM 21/17 A2991 RMK SLP144 T02140170 57030 IEM_DS3505
ZGSZ,1997-04-01 07:00,ZGSZ 010700Z AUTO 11006KT 7SM 24/20 A2991 RMK T02400200 IEM_DS3505
ZGSZ,1997-04-01 08:00,ZGSZ 010800Z AUTO 12008KT 7SM 24/20 A2988 RMK T02400200 IEM_DS3505
ZGSZ,1997-04-01 09:00,ZGSZ 010900Z AUTO 14004KT 6SM 22/17 A2988 RMK SLP132 T02180173 57012 IEM_DS3505
ZGSZ,1997-04-01 10:00,ZGSZ 011000Z AUTO 11008KT 7SM 24/20 A2988 RMK T02400200 IEM_DS3505
ZGSZ,1997-04-01 11:00,ZGSZ 011100Z AUTO 13006KT 7SM 23/20 A2991 RMK T02300200 IEM_DS3505
ZGSZ,1997-04-01 12:00,ZGSZ 011200Z AUTO 09002KT 5SM 21/18 A2994 RMK SLP148 T02110177 52016 IEM_DS3505
ZGSZ,1997-04-01 13:00,ZGSZ 011300Z AUTO 12006KT 7SM 22/20 A2994 RMK T02200200 IEM_DS3505
ZGSZ,1997-04-01 14:00,ZGSZ 011400Z AUTO 13004KT 6SM 22/20 A2994 RMK T02200200 IEM_DS3505
ZGSZ,1997-04-01 15:00,ZGSZ 011500Z AUTO 12006KT 6SM 22/20 A2991 RMK T02200200 IEM_DS3505
ZGSZ,1997-04-01 16:00,ZGSZ 011600Z AUTO 00000KT 6SM 22/20 A2991 RMK T02200200 IEM_DS3505
ZGSZ,1997-04-01 17:00,ZGSZ 011700Z AUTO 14008KT 6SM 22/20 A2988 RMK T02200200 IEM_DS3505
ZGSZ,1997-04-01 18:00,ZGSZ 011800Z AUTO 14004KT 6SM 21/18 RMK SLP126 T02130183 57021 IEM_DS3505
ZGSZ,1997-04-01 21:00,ZGSZ 012100Z AUTO 11004KT 7SM 21/19 A2985 RMK SLP125 T02130189 57001 IEM_DS3505
ZGSZ,1997-04-01 22:00,ZGSZ 012200Z AUTO 10004KT 7SM 22/21 A2988 RMK T02200210 IEM_DS3505
ZGSZ,1997-04-01 23:00,ZGSZ 012300Z AUTO 13006KT 7SM 22/21 A2988 RMK T02200210 IEM_DS3505
ZGSZ,1997-04-02 00:00,ZGSZ 020000Z AUTO 09006KT 6SM 22/19 A2991 RMK SLP140 T02170192 52015 IEM_DS3505
ZGSZ,1997-04-02 01:00,ZGSZ 020100Z AUTO 12006KT 7SM 23/21 A2991 RMK T02300210 IEM_DS3505
ZGSZ,1997-04-02 02:00,ZGSZ 020200Z AUTO 15010KT 7SM 25/22 A2991 RMK T02500220 IEM_DS3505
ZGSZ,1997-04-02 03:00,ZGSZ 020300Z AUTO 04008KT 7SM 25/21 A2991 RMK SLP145 T02520210 52005 IEM_DS3505
ZGSZ,1997-04-02 04:00,ZGSZ 020400Z AUTO 22006KT 7SM 25/22 A2991 RMK T02500220 IEM_DS3505
ZGSZ,1997-04-02 05:00,ZGSZ 020500Z AUTO 20006KT 6SM 25/23 A2988 RMK T02500230 IEM_DS3505
ZGSZ,1997-04-02 06:00,ZGSZ 020600Z AUTO 09008KT 14SM 27/21 A2985 RMK SLP120 T02690207 57024 IEM_DS3505
ZGSZ,1997-04-02 07:00,ZGSZ 020700Z AUTO 20008KT 7SM 25/23 A2985 RMK T02500230 IEM_DS3505
ZGSZ,1997-04-02 08:00,ZGSZ 020800Z AUTO 19008KT 7SM 26/24 A2983 RMK T02600240 IEM_DS3505
ZGSZ,1997-04-02 09:00,ZGSZ 020900Z AUTO 14006KT 19SM 26/21 A2983 RMK SLP108 T02640210 57012 IEM_DS3505
ZGSZ,1997-04-02 10:00,ZGSZ 021000Z AUTO 19008KT 7SM 25/23 A2983 RMK T02500230 IEM_DS3505
ZGSZ,1997-04-02 11:00,ZGSZ 021100Z AUTO 17010KT 6SM 24/23 A2985 RMK T02400230 IEM_DS3505
ZGSZ,1997-04-02 12:00,ZGSZ 021200Z AUTO 18006KT 12SM 24/21 A2985 RMK SLP124 T02350209 52015 IEM_DS3505
ZGSZ,1997-04-02 13:00,ZGSZ 021300Z AUTO 21006KT 3SM 23/22 A2988 RMK T02300220 IEM_DS3505
ZGSZ,1997-04-02 14:00,ZGSZ 021400Z AUTO 17006KT 3SM 22/22 A2988 RMK T02200220 IEM_DS3505
ZGSZ,1997-04-02 15:00,ZGSZ 021500Z AUTO 19004KT 3SM 22/22 A2991 RMK T02200220 IEM_DS3505
ZGSZ,1997-04-02 16:00,ZGSZ 021600Z AUTO 21006KT 3SM 22/22 A2991 RMK T02200220 IEM_DS3505
ZGSZ,1997-04-02 17:00,ZGSZ 021700Z AUTO 16002KT 3SM 22/22 A2991 RMK T02200220 IEM_DS3505
ZGSZ,1997-04-02 18:00,ZGSZ 021800Z AUTO 04004KT 9SM 23/20 RMK SLP133 T02280205 57002 IEM_DS3505
ZGSZ,1997-04-02 21:00,ZGSZ 022100Z AUTO 09002KT 5SM 22/21 A2985 RMK SLP121 T02200206 57012 IEM_DS3505
ZGSZ,1997-04-02 22:00,ZGSZ 022200Z AUTO 10004KT 6SM 22/21 A2985 RMK T02200210 IEM_DS3505
ZGSZ,1997-04-02 23:00,ZGSZ 022300Z AUTO 10004KT 7SM 22/22 A2988 RMK T02200220 IEM_DS3505
ZGSZ,1997-04-03 00:00,ZGSZ 030000Z AUTO 16004KT 7SM 23/20 A2991 RMK SLP138 T02280205 52016 IEM_DS3505
ZGSZ,1997-04-03 01:00,ZGSZ 030100Z AUTO 14008KT 5SM 25/23 A2991 RMK T02500230 IEM_DS3505
ZGSZ,1997-04-03 02:00,ZGSZ 030200Z AUTO 18008KT 5SM 27/23 A2991 RMK T02700230 IEM_DS3505
ZGSZ,1997-04-03 03:00,ZGSZ 030300Z AUTO 09002KT 7SM 25/21 A2994 RMK SLP143 T02530208 52005 IEM_DS3505
ZGSZ,1997-04-03 04:00,ZGSZ 030400Z AUTO 18008KT 7SM 27/23 A2991 RMK T02700230 IEM_DS3505
ZGSZ,1997-04-03 05:00,ZGSZ 030500Z AUTO 17010KT 7SM 27/23 A2988 RMK T02700230 IEM_DS3505
ZGSZ,1997-04-03 06:00,ZGSZ 030600Z AUTO 22004KT 9SM 28/21 A2985 RMK SLP113 T02750209 57029 IEM_DS3505
ZGSZ,1997-04-03 07:00,ZGSZ 030700Z AUTO 19006KT 7SM 27/23 A2983 RMK T02700230 IEM_DS3505
ZGSZ,1997-04-03 08:00,ZGSZ 030800Z AUTO 17008KT 7SM 27/22 A2980 RMK T02700220 IEM_DS3505
ZGSZ,1997-04-03 09:00,ZGSZ 030900Z AUTO 18008KT 16SM 27/21 A2980 RMK SLP101 T02690206 57012 IEM_DS3505
ZGSZ,1997-04-03 10:00,ZGSZ 031000Z AUTO 17010KT 7SM 26/22 A2980 RMK T02600220 IEM_DS3505
ZGSZ,1997-04-03 11:00,ZGSZ 031100Z AUTO 16008KT 7SM 26/22 A2983 RMK T02600220 IEM_DS3505
ZGSZ,1997-04-03 12:00,ZGSZ 031200Z AUTO 09006KT 12SM 24/20 A2983 RMK SLP115 T02380204 52013 IEM_DS3505
ZGSZ,1997-04-03 13:00,ZGSZ 031300Z AUTO 14008KT 7SM 25/21 A2985 RMK T02500210 IEM_DS3505
ZGSZ,1997-04-03 14:00,ZGSZ 031400Z AUTO 14008KT 7SM 25/22 A2988 RMK T02500220 IEM_DS3505
ZGSZ,1997-04-03 15:00,ZGSZ 031500Z AUTO 13008KT 7SM 24/22 A2988 RMK T02400220 IEM_DS3505
ZGSZ,1997-04-03 18:00,ZGSZ 031800Z AUTO 09006KT 12SM 23/21 RMK SLP120 T02300212 57009 IEM_DS3505
ZGSZ,1997-04-03 21:00,ZGSZ 032100Z AUTO 09002KT 9SM 23/21 A2994 RMK SLP123 T02310211 52003 IEM_DS3505
ZGSZ,1997-04-03 22:00,ZGSZ 032200Z AUTO 12008KT 7SM 20/19 A2991 RMK T02000190 IEM_DS3505
ZGSZ,1997-04-03 23:00,ZGSZ 032300Z AUTO 08008KT 7SM 20/19 A2991 RMK T02000190 IEM_DS3505
ZGSZ,1997-04-04 00:00,ZGSZ 040000Z AUTO 00000KT 10SM 20/19 A2994 RMK 60091 70091 SLP151 T01970186 52027 IEM_DS3505
ZGSZ,1997-04-04 01:00,ZGSZ 040100Z AUTO 00000KT 7SM 20/19 A2997 RMK T02000190 IEM_DS3505
ZGSZ,1997-04-04 02:00,ZGSZ 040200Z AUTO 33006KT 7SM 20/20 A3000 RMK T02000200 IEM_DS3505
ZGSZ,1997-04-04 03:00,ZGSZ 040300Z AUTO 04004KT 5SM 20/19 A2997 RMK SLP161 T02020194 52010 IEM_DS3505
ZGSZ,1997-04-04 04:00,ZGSZ 040400Z AUTO 16006KT 7SM 21/21 A2994 RMK T02100210 IEM_DS3505
ZGSZ,1997-04-04 05:00,ZGSZ 040500Z AUTO 14006KT 7SM 21/21 A2991 RMK T02100210 IEM_DS3505
ZGSZ,1997-04-04 06:00,ZGSZ 040600Z AUTO 22004KT 12SM 21/19 A2985 RMK 60031 SLP122 T02120190 57039 IEM_DS3505
ZGSZ,1997-04-04 07:00,ZGSZ 040700Z AUTO 20006KT 6SM 22/21 A2985 RMK T02200210 IEM_DS3505
ZGSZ,1997-04-04 08:00,ZGSZ 040800Z AUTO 25004KT 7SM 22/20 A2985 RMK T02200200 IEM_DS3505
ZGSZ,1997-04-04 09:00,ZGSZ 040900Z AUTO 27004KT 11SM 22/18 A2985 RMK SLP114 T02240185 57008 IEM_DS3505
ZGSZ,1997-04-04 10:00,ZGSZ 041000Z AUTO 34002KT 7SM 22/21 A2985 RMK T02200210 IEM_DS3505
ZGSZ,1997-04-04 11:00,ZGSZ 041100Z AUTO 00000KT 2SM 22/21 A2988 RMK T02200210 IEM_DS3505
ZGSZ,1997-04-04 12:00,ZGSZ 041200Z AUTO 20004KT 6SM 21/20 A2991 RMK SLP134 T02130196 52020 IEM_DS3505
ZGSZ,1997-04-04 13:00,ZGSZ 041300Z AUTO 00000KT 1 1/2SM 21/21 A2991 RMK T02100210 IEM_DS3505
ZGSZ,1997-04-04 14:00,ZGSZ 041400Z AUTO 32004KT 1SM 21/21 A2994 RMK T02100210 IEM_DS3505
ZGSZ,1997-04-04 15:00,ZGSZ 041500Z AUTO 30006KT 1 1/4SM 21/20 A2994 RMK T02100200 IEM_DS3505
ZGSZ,1997-04-04 18:00,ZGSZ 041800Z AUTO 00000KT 2 1/2SM 20/20 RMK SLP135 T02040198 57013 IEM_DS3505
ZGSZ,1997-04-04 21:00,ZGSZ 042100Z AUTO 32004KT 1SM 20/19 RMK 70122 SLP133 T02020191 57002 IEM_DS3505
ZGSZ,1997-04-04 22:00,ZGSZ 042200Z AUTO 33002KT 2SM 20/19 A2994 RMK T02000190 IEM_DS3505
ZGSZ,1997-04-04 23:00,ZGSZ 042300Z AUTO 34002KT 2SM 20/19 A2994 RMK T02000190 IEM_DS3505
ZGSZ,1997-04-05 00:00,ZGSZ 050000Z AUTO 04008KT 2SM 21/18 A2997 RMK 70031 SLP156 T02070185 52023 IEM_DS3505
ZGSZ,1997-04-05 01:00,ZGSZ 050100Z AUTO 36006KT 2 1/2SM 21/19 A3000 RMK T02100190 IEM_DS3505
ZGSZ,1997-04-05 02:00,ZGSZ 050200Z AUTO 06004KT 2 1/2SM 23/20 A3000 RMK T02300200 IEM_DS3505
ZGSZ,1997-04-05 03:00,ZGSZ 050300Z AUTO 36002KT 3SM 24/18 A3000 RMK SLP165 T02400182 52009 IEM_DS3505
ZGSZ,1997-04-05 04:00,ZGSZ 050400Z AUTO 35006KT 3SM 25/20 A2997 RMK T02500200 IEM_DS3505
ZGSZ,1997-04-05 05:00,ZGSZ 050500Z AUTO 32006KT 3SM 24/20 A2997 RMK T02400200 IEM_DS3505
ZGSZ,1997-04-05 06:00,ZGSZ 050600Z AUTO 36006KT 7SM 25/19 A2991 RMK SLP140 T02490188 57025 IEM_DS3505
ZGSZ,1997-04-05 07:00,ZGSZ 050700Z AUTO 30008KT 2 1/2SM 23/20 A2991 RMK T02300200 IEM_DS3505
ZGSZ,1997-04-05 08:00,ZGSZ 050800Z AUTO 30006KT 2 1/2SM 23/20 A2988 RMK T02300200 IEM_DS3505
ZGSZ,1997-04-05 09:00,ZGSZ 050900Z AUTO 22004KT 3SM 23/19 A2988 RMK SLP132 T02270194 57008 IEM_DS3505
ZGSZ,1997-04-05 10:00,ZGSZ 051000Z AUTO 29008KT 1SM 22/20 A2988 RMK T02200200 IEM_DS3505
ZGSZ,1997-04-05 11:00,ZGSZ 051100Z AUTO 35006KT 1SM 21/20 A2988 RMK T02100200 IEM_DS3505
ZGSZ,1997-04-05 12:00,ZGSZ 051200Z AUTO 36002KT 3SM 22/20 A2991 RMK SLP136 T02230197 52004 IEM_DS3505
ZGSZ,1997-04-05 13:00,ZGSZ 051300Z AUTO 03006KT 1 1/4SM 22/20 A2994 RMK T02200200 IEM_DS3505
ZGSZ,1997-04-05 14:00,ZGSZ 051400Z AUTO 03006KT 2 1/2SM 21/19 A2997 RMK T02100190 IEM_DS3505
ZGSZ,1997-04-05 15:00,ZGSZ 051500Z AUTO 35004KT 2 1/2SM 21/19 A2997 RMK T02100190 IEM_DS3505
ZGSZ,1997-04-05 16:00,ZGSZ 051600Z AUTO 36004KT 2SM 21/19 A2997 RMK T02100190 IEM_DS3505
ZGSZ,1997-04-05 18:00,ZGSZ 051800Z AUTO 04006KT 5SM 21/18 RMK SLP142 T02100181 57013 IEM_DS3505
ZGSZ,1997-04-05 21:00,ZGSZ 052100Z AUTO 36002KT 7SM 20/17 A2991 RMK SLP139 T02030174 57003 IEM_DS3505
ZGSZ,1997-04-05 22:00,ZGSZ 052200Z AUTO 05006KT 2 1/2SM 20/19 A2991 RMK T02000190 IEM_DS3505
ZGSZ,1997-04-05 23:00,ZGSZ 052300Z AUTO 32002KT 2 1/2SM 20/19 A2991 RMK T02000190 IEM_DS3505
ZGSZ,1997-04-06 00:00,ZGSZ 060000Z AUTO 09006KT 4SM 21/18 A2994 RMK SLP149 T02080184 52010 IEM_DS3505
ZGSZ,1997-04-06 01:00,ZGSZ 060100Z AUTO 32002KT 3SM 21/20 A2997 RMK T02100200 IEM_DS3505
ZGSZ,1997-04-06 02:00,ZGSZ 060200Z AUTO 34004KT 3SM 21/19 A2997 RMK T02100190 IEM_DS3505
ZGSZ,1997-04-06 03:00,ZGSZ 060300Z AUTO 09004KT 4SM 22/20 A2997 RMK SLP158 T02240199 52009 IEM_DS3505
ZGSZ,1997-04-06 04:00,ZGSZ 060400Z AUTO 09004KT 3SM 23/21 A2994 RMK T02300210 IEM_DS3505
ZGSZ,1997-04-06 05:00,ZGSZ 060500Z AUTO 02002KT 2 1/2SM 23/21 A2994 RMK T02300210 IEM_DS3505
ZGSZ,1997-04-06 06:00,ZGSZ 060600Z AUTO 09004KT 4SM 21/20 A2991 RMK SLP135 T02100200 57023 IEM_DS3505
ZGSZ,1997-04-06 07:00,ZGSZ 060700Z AUTO 29008KT 1SM 20/20 A2991 RMK T02000200 IEM_DS3505
ZGSZ,1997-04-06 08:00,ZGSZ 060800Z AUTO 01004KT 1SM 20/20 A2988 RMK T02000200 IEM_DS3505
ZGSZ,1997-04-06 09:00,ZGSZ 060900Z AUTO 14006KT 4SM 21/20 A2985 RMK SLP121 T02110199 57014 IEM_DS3505
ZGSZ,1997-04-06 10:00,ZGSZ 061000Z AUTO 07004KT 2 1/2SM 21/21 A2985 RMK T02100210 IEM_DS3505
ZGSZ,1997-04-06 11:00,ZGSZ 061100Z AUTO 15006KT 7SM 22/21 A2985 RMK T02200210 IEM_DS3505
ZGSZ,1997-04-06 12:00,ZGSZ 061200Z AUTO 14006KT 4SM 21/19 A2988 RMK 60008 SLP128 T02060192 52007 IEM_DS3505
ZGSZ,1997-04-06 13:00,ZGSZ 061300Z AUTO 09006KT 7SM 21/21 A2988 RMK T02100210 IEM_DS3505
ZGSZ,1997-04-06 14:00,ZGSZ 061400Z AUTO 11006KT 7SM 22/20 A2991 RMK T02200200 IEM_DS3505
ZGSZ,1997-04-06 15:00,ZGSZ 061500Z AUTO 10008KT 7SM 21/20 A2991 RMK T02100200 IEM_DS3505
ZGSZ,1997-04-06 18:00,ZGSZ 061800Z AUTO 14006KT 9SM 20/18 RMK SLP134 T01990178 57009 IEM_DS3505
ZGSZ,1997-04-06 21:00,ZGSZ 062100Z AUTO 09008KT 7SM 20/18 A2985 RMK 70008 SLP120 T01990180 57014 IEM_DS3505
ZGSZ,1997-04-06 22:00,ZGSZ 062200Z AUTO 10006KT 6SM 20/20 A2985 RMK T02000200 IEM_DS3505
ZGSZ,1997-04-06 23:00,ZGSZ 062300Z AUTO 11008KT 7SM 21/20 A2988 RMK T02100200 IEM_DS3505
ZGSZ,1997-04-07 00:00,ZGSZ 070000Z AUTO 09006KT 7SM 21/20 A2991 RMK 70008 SLP143 T02100200 52023 IEM_DS3505
ZGSZ,1997-04-07 01:00,ZGSZ 070100Z AUTO 11012KT 7SM 22/20 A2991 RMK T02200200 IEM_DS3505
ZGSZ,1997-04-07 02:00,ZGSZ 070200Z AUTO 12012KT 7SM 23/21 A2991 RMK T02300210 IEM_DS3505
ZGSZ,1997-04-07 03:00,ZGSZ 070300Z AUTO 14004KT 7SM 22/19 A2994 RMK SLP147 T02190189 52004 IEM_DS3505
ZGSZ,1997-04-07 04:00,ZGSZ 070400Z AUTO 13012KT 7SM 25/22 A2991 RMK T02500220 IEM_DS3505
ZGSZ,1997-04-07 05:00,ZGSZ 070500Z AUTO 15010KT 7SM 27/23 A2988 RMK T02700230 IEM_DS3505
ZGSZ,1997-04-07 06:00,ZGSZ 070600Z AUTO 14008KT 4SM 22/19 A2988 RMK SLP127 T02220191 57020 IEM_DS3505
ZGSZ,1997-04-07 07:00,ZGSZ 070700Z AUTO 16008KT 7SM 25/22 A2985 RMK T02500220 IEM_DS3505
ZGSZ,1997-04-07 08:00,ZGSZ 070800Z AUTO 14008KT 7SM 25/22 A2983 RMK T02500220 IEM_DS3505
ZGSZ,1997-04-07 09:00,ZGSZ 070900Z AUTO 14008KT 4SM 22/19 RMK SLP113 T02220191 57014 IEM_DS3505
ZGSZ,1997-04-07 11:00,ZGSZ 071100Z AUTO 12008KT 4SM 23/21 A2985 RMK T02300210 IEM_DS3505
ZGSZ,1997-04-07 12:00,ZGSZ 071200Z AUTO 09006KT 4SM 21/19 A2988 RMK SLP123 T02130186 52010 IEM_DS3505
ZGSZ,1997-04-07 13:00,ZGSZ 071300Z AUTO 10008KT 4SM 23/21 A2988 RMK T02300210 IEM_DS3505
ZGSZ,1997-04-07 14:00,ZGSZ 071400Z AUTO 10008KT 4SM 22/21 A2988 RMK T02200210 IEM_DS3505
ZGSZ,1997-04-07 15:00,ZGSZ 071500Z AUTO 11008KT 4SM 22/21 A2988 RMK T02200210 IEM_DS3505
ZGSZ,1997-04-07 18:00,ZGSZ 071800Z AUTO 14004KT 4SM 21/19 RMK SLP122 T02100193 57012 IEM_DS3505
ZGSZ,1997-04-07 21:00,ZGSZ 072100Z AUTO 14006KT 2 1/2SM 21/20 A2983 RMK SLP110 T02140199 57012 IEM_DS3505
ZGSZ,1997-04-07 22:00,ZGSZ 072200Z AUTO 10004KT 4SM 23/22 A2985 RMK T02300220 IEM_DS3505
ZGSZ,1997-04-07 23:00,ZGSZ 072300Z AUTO 11004KT 2SM 22/22 A2988 RMK T02200220 IEM_DS3505
ZGSZ,1997-04-08 00:00,ZGSZ 080000Z AUTO 14004KT 2SM 22/20 A2988 RMK SLP133 T02170203 52023 IEM_DS3505
ZGSZ,1997-04-08 01:00,ZGSZ 080100Z AUTO 14004KT 1 1/4SM 23/22 A2991 RMK T02300220 IEM_DS3505
ZGSZ,1997-04-08 02:00,ZGSZ 080200Z AUTO 00000KT 1 1/2SM 24/23 A2991 RMK T02400230 IEM_DS3505
ZGSZ,1997-04-08 03:00,ZGSZ 080300Z AUTO 14006KT 4SM 23/21 A2991 RMK SLP139 T02330213 52006 IEM_DS3505
ZGSZ,1997-04-08 04:00,ZGSZ 080400Z AUTO 16008KT 2SM 26/24 A2988 RMK T02600240 IEM_DS3505
ZGSZ,1997-04-08 05:00,ZGSZ 080500Z AUTO 17006KT 2 1/2SM 27/24 A2988 RMK T02700240 IEM_DS3505
ZGSZ,1997-04-08 06:00,ZGSZ 080600Z AUTO 36002KT 3SM 26/21 A2985 RMK SLP118 T02630214 57020 IEM_DS3505
ZGSZ,1997-04-08 07:00,ZGSZ 080700Z AUTO 17004KT 7SM 26/24 A2983 RMK T02600240 IEM_DS3505
ZGSZ,1997-04-08 08:00,ZGSZ 080800Z AUTO 22002KT 7SM 25/23 A2985 RMK T02500230 IEM_DS3505
ZGSZ,1997-04-08 09:00,ZGSZ 080900Z AUTO 00000KT 6SM 26/22 A2983 RMK SLP110 T02640221 57008 IEM_DS3505
ZGSZ,1997-04-08 10:00,ZGSZ 081000Z AUTO 17004KT 7SM 25/23 A2985 RMK T02500230 IEM_DS3505
ZGSZ,1997-04-08 11:00,ZGSZ 081100Z AUTO 15006KT 7SM 24/23 A2985 RMK T02400230 IEM_DS3505
ZGSZ,1997-04-08 12:00,ZGSZ 081200Z AUTO 14004KT 5SM 24/ A2985 RMK SLP123 52012 IEM_DS3505
ZGSZ,1997-04-08 13:00,ZGSZ 081300Z AUTO 16006KT 4SM 24/23 A2985 RMK T02400230 IEM_DS3505
ZGSZ,1997-04-08 15:00,ZGSZ 081500Z AUTO 00000KT 4SM 24/23 A2988 RMK T02400230 IEM_DS3505
ZGSZ,1997-04-08 18:00,ZGSZ 081800Z AUTO 04006KT 2 1/2SM 23/21 RMK SLP119 T02310214 57011 IEM_DS3505
ZGSZ,1997-04-08 21:00,ZGSZ 082100Z AUTO 00000KT 4SM 23/21 A2985 RMK SLP114 T02260214 57005 IEM_DS3505
ZGSZ,1997-04-08 22:00,ZGSZ 082200Z AUTO 27002KT 1SM 22/22 A2988 RMK T02200220 IEM_DS3505
ZGSZ,1997-04-08 23:00,ZGSZ 082300Z AUTO 33002KT 1/2SM 22/22 A2988 RMK T02200220 IEM_DS3505
ZGSZ,1997-04-09 00:00,ZGSZ 090000Z AUTO 09004KT 3SM 23/22 A2988 RMK SLP134 T02300218 52019 IEM_DS3505
ZGSZ,1997-04-09 02:00,ZGSZ 090200Z AUTO 15006KT 1SM 24/24 A2991 RMK T02400240 IEM_DS3505
ZGSZ,1997-04-09 03:00,ZGSZ 090300Z AUTO 09008KT 7SM 25/22 A2994 RMK SLP139 T02480221 52005 IEM_DS3505
ZGSZ,1997-04-09 04:00,ZGSZ 090400Z AUTO 28008KT 1SM 23/23 A2994 RMK T02300230 IEM_DS3505
ZGSZ,1997-04-09 05:00,ZGSZ 090500Z AUTO 00000KT 1 1/2SM 24/24 A2991 RMK T02400240 IEM_DS3505
ZGSZ,1997-04-09 06:00,ZGSZ 090600Z AUTO 22002KT 4SM 25/23 A2991 RMK 60000 SLP130 T02520226 57008 IEM_DS3505
ZGSZ,1997-04-09 07:00,ZGSZ 090700Z AUTO 17006KT 6SM 25/24 A2988 RMK T02500240 IEM_DS3505
ZGSZ,1997-04-09 08:00,ZGSZ 090800Z AUTO 18006KT 6SM 26/23 A2985 RMK T02600230 IEM_DS3505
ZGSZ,1997-04-09 09:00,ZGSZ 090900Z AUTO 18004KT 4SM 25/23 A2985 RMK T02500230 IEM_DS3505
ZGSZ,1997-04-09 10:00,ZGSZ 091000Z AUTO 15004KT 6SM 24/23 A2983 RMK T02400230 IEM_DS3505
ZGSZ,1997-04-09 11:00,ZGSZ 091100Z AUTO 16004KT 6SM 24/22 A2985 RMK T02400220 IEM_DS3505
ZGSZ,1997-04-09 12:00,ZGSZ 091200Z AUTO 14004KT 4SM 24/22 A2988 RMK SLP127 T02360220 52008 IEM_DS3505
ZGSZ,1997-04-09 13:00,ZGSZ 091300Z AUTO 20002KT 6SM 24/23 A2988 RMK T02400230 IEM_DS3505
ZGSZ,1997-04-09 14:00,ZGSZ 091400Z AUTO 13004KT 1 1/2SM 24/23 A2991 RMK T02400230 IEM_DS3505
ZGSZ,1997-04-09 15:00,ZGSZ 091500Z AUTO 12008KT 2SM 24/23 A2991 RMK T02400230 IEM_DS3505
ZGSZ,1997-04-09 18:00,ZGSZ 091800Z AUTO 14004KT 5SM 21/20 RMK SLP141 T02130199 57001 IEM_DS3505
ZGSZ,1997-04-09 21:00,ZGSZ 092100Z AUTO 18002KT 6SM 21/20 A2994 RMK 70004 SLP150 T02130197 52009 IEM_DS3505
ZGSZ,1997-04-09 22:00,ZGSZ 092200Z AUTO 12008KT 2SM 20/20 A2994 RMK T02000200 IEM_DS3505
ZGSZ,1997-04-09 23:00,ZGSZ 092300Z AUTO 10006KT 2SM 21/21 A2994 RMK T02100210 IEM_DS3505
ZGSZ,1997-04-10 00:00,ZGSZ 100000Z AUTO 14006KT 6SM 20/19 A2997 RMK 60035 70035 SLP162 T02050194 52012 IEM_DS3505
ZGSZ,1997-04-10 01:00,ZGSZ 100100Z AUTO 07002KT 3SM 21/21 A3000 RMK T02100210 IEM_DS3505
ZGSZ,1997-04-10 02:00,ZGSZ 100200Z AUTO 09004KT 2 1/2SM 21/21 A3000 RMK T02100210 IEM_DS3505
ZGSZ,1997-04-10 03:00,ZGSZ 100300Z AUTO 09006KT 6SM 21/20 RMK SLP175 T02090197 52013 IEM_DS3505
ZGSZ,1997-04-10 06:00,ZGSZ 100600Z AUTO 36002KT 6SM 21/20 RMK 60031 SLP166 T02060197 57009 IEM_DS3505
ZGSZ,1997-04-10 09:00,ZGSZ 100900Z AUTO 14002KT 7SM 21/20 RMK SLP156 T02130199 57010 IEM_DS3505
ZGSZ,1997-04-10 10:00,ZGSZ 101000Z AUTO 06002KT 7SM 23/22 A2994 RMK T02300220 IEM_DS3505
ZGSZ,1997-04-10 11:00,ZGSZ 101100Z AUTO 00000KT 7SM 22/22 A2997 RMK T02200220 IEM_DS3505
ZGSZ,1997-04-10 12:00,ZGSZ 101200Z AUTO 14008KT 7SM 20/19 A3000 RMK 60012 SLP167 T02050189 52011 IEM_DS3505
ZGSZ,1997-04-10 13:00,ZGSZ 101300Z AUTO 14004KT 2SM 22/21 A3000 RMK T02200210 IEM_DS3505
ZGSZ,1997-04-10 14:00,ZGSZ 101400Z AUTO 13004KT 2SM 21/21 A3003 RMK T02100210 IEM_DS3505
ZGSZ,1997-04-10 15:00,ZGSZ 101500Z AUTO 12004KT 2SM 21/21 A3003 RMK T02100210 IEM_DS3505
ZGSZ,1997-04-10 18:00,ZGSZ 101800Z AUTO 04006KT 4SM 20/19 RMK SLP174 T01990186 57007 IEM_DS3505
ZGSZ,1997-04-10 21:00,ZGSZ 102100Z AUTO 07002KT 3SM 20/19 A3000 RMK 70079 SLP171 T01990186 57003 IEM_DS3505
ZGSZ,1997-04-10 22:00,ZGSZ 102200Z AUTO 10004KT 2 1/2SM 21/20 A3003 RMK T02100200 IEM_DS3505
ZGSZ,1997-04-10 23:00,ZGSZ 102300Z AUTO 11002KT 3SM 21/20 A3003 RMK T02100200 IEM_DS3505
ZGSZ,1997-04-11 00:00,ZGSZ 110000Z AUTO 04004KT 5SM 21/19 A3006 RMK 70043 SLP187 T02060189 52016 IEM_DS3505
ZGSZ,1997-04-11 02:00,ZGSZ 110200Z AUTO 01006KT 7SM 22/20 A3006 RMK T02200200 IEM_DS3505
ZGSZ,1997-04-11 03:00,ZGSZ 110300Z AUTO 04008KT 11SM 23/18 A3006 RMK SLP189 T02270176 52002 IEM_DS3505
ZGSZ,1997-04-11 04:00,ZGSZ 110400Z AUTO 05010KT 6SM 24/20 A3003 RMK T02400200 IEM_DS3505
ZGSZ,1997-04-11 05:00,ZGSZ 110500Z AUTO 04008KT 7SM 26/20 A3000 RMK T02600200 IEM_DS3505
ZGSZ,1997-04-11 06:00,ZGSZ 110600Z AUTO 07008KT 19SM 26/21 A2997 RMK SLP135 T02630206 57026 IEM_DS3505
ZGSZ,1997-04-11 07:00,ZGSZ 110700Z AUTO 36008KT 7SM 27/19 A2997 RMK T02700190 IEM_DS3505
ZGSZ,1997-04-11 08:00,ZGSZ 110800Z AUTO 34008KT 7SM 27/19 A2997 RMK T02700190 IEM_DS3505
ZGSZ,1997-04-11 09:00,ZGSZ 110900Z AUTO 04006KT 19SM 26/17 A2994 RMK SLP152 T02600174 57011 IEM_DS3505
ZGSZ,1997-04-11 10:00,ZGSZ 111000Z AUTO 01008KT 6SM 26/18 A2994 RMK T02600180 IEM_DS3505
ZGSZ,1997-04-11 11:00,ZGSZ 111100Z AUTO 05004KT 6SM 25/18 A2997 RMK T02500180 IEM_DS3505
ZGSZ,1997-04-11 12:00,ZGSZ 111200Z AUTO 14002KT 12SM 24/17 A2997 RMK SLP161 T02350172 52009 IEM_DS3505
ZGSZ,1997-04-11 13:00,ZGSZ 111300Z AUTO 00000KT 6SM 23/18 A3000 RMK T02300180 IEM_DS3505
ZGSZ,1997-04-11 14:00,ZGSZ 111400Z AUTO 20004KT 6SM 22/21 A3000 RMK T02200210 IEM_DS3505
ZGSZ,1997-04-11 15:00,ZGSZ 111500Z AUTO 14004KT 6SM 21/21 A3003 RMK T02100210 IEM_DS3505
ZGSZ,1997-04-11 18:00,ZGSZ 111800Z AUTO 09002KT 8SM 21/19 RMK SLP171 T02110191 IEM_DS3505
ZGSZ,1997-04-11 21:00,ZGSZ 112100Z AUTO 09006KT 7SM 21/19 A2997 RMK SLP161 T02090188 57010 IEM_DS3505
ZGSZ,1997-04-11 22:00,ZGSZ 112200Z AUTO 00000KT 2 1/2SM 21/20 A3000 RMK T02100200 IEM_DS3505
ZGSZ,1997-04-11 23:00,ZGSZ 112300Z AUTO 08004KT 1 1/2SM 20/20 A3000 RMK T02000200 IEM_DS3505
ZGSZ,1997-04-12 00:00,ZGSZ 120000Z AUTO 09006KT 9SM 21/17 A3000 RMK SLP167 T02110167 52006 IEM_DS3505
ZGSZ,1997-04-12 01:00,ZGSZ 120100Z AUTO 11006KT 3SM 23/20 A3000 RMK T02300200 IEM_DS3505
ZGSZ,1997-04-12 02:00,ZGSZ 120200Z AUTO 11006KT 6SM 25/20 A3000 RMK T02500200 IEM_DS3505
ZGSZ,1997-04-12 03:00,ZGSZ 120300Z AUTO 04008KT 12SM 24/16 A2997 RMK SLP164 T02440165 57003 IEM_DS3505
ZGSZ,1997-04-12 04:00,ZGSZ 120400Z AUTO 15008KT 7SM 26/19 A2997 RMK T02600190 IEM_DS3505
ZGSZ,1997-04-12 05:00,ZGSZ 120500Z AUTO 21008KT 7SM 25/20 A2994 RMK T02500200 IEM_DS3505
ZGSZ,1997-04-12 06:00,ZGSZ 120600Z AUTO 04006KT 14SM 26/16 A2991 RMK SLP140 T02600159 57024 IEM_DS3505
ZGSZ,1997-04-12 07:00,ZGSZ 120700Z AUTO 20010KT 6SM 26/20 A2988 RMK T02600200 IEM_DS3505
ZGSZ,1997-04-12 08:00,ZGSZ 120800Z AUTO 24010KT 6SM 25/20 A2988 RMK T02500200 IEM_DS3505
ZGSZ,1997-04-12 09:00,ZGSZ 120900Z AUTO 18006KT 19SM 25/15 A2985 RMK SLP123 T02470149 57017 IEM_DS3505
ZGSZ,1997-04-12 10:00,ZGSZ 121000Z AUTO 21008KT 6SM 24/20 A2988 RMK T02400200 IEM_DS3505
ZGSZ,1997-04-12 11:00,ZGSZ 121100Z AUTO 16008KT 6SM 24/18 A2988 RMK T02400180 IEM_DS3505
ZGSZ,1997-04-12 12:00,ZGSZ 121200Z AUTO 09004KT 14SM 22/16 A2991 RMK SLP134 T02240165 52011 IEM_DS3505
ZGSZ,1997-04-12 13:00,ZGSZ 121300Z AUTO 09006KT 6SM 23/18 A2991 RMK T02300180 IEM_DS3505
ZGSZ,1997-04-12 14:00,ZGSZ 121400Z AUTO 11006KT 6SM 22/18 A2991 RMK T02200180 IEM_DS3505
ZGSZ,1997-04-12 15:00,ZGSZ 121500Z AUTO 10006KT 6SM 22/19 A2991 RMK T02200190 IEM_DS3505
ZGSZ,1997-04-12 16:00,ZGSZ 121600Z AUTO 10004KT 6SM 22/19 A2991 RMK T02200190 IEM_DS3505
ZGSZ,1997-04-12 17:00,ZGSZ 121700Z AUTO 10006KT 6SM 22/19 A2991 RMK T02200190 IEM_DS3505
ZGSZ,1997-04-12 18:00,ZGSZ 121800Z AUTO 14006KT 6SM 22/19 A2988 RMK SLP134 T02150188 57006 IEM_DS3505
ZGSZ,1997-04-12 21:00,ZGSZ 122100Z AUTO 04004KT 4SM 22/19 A2985 RMK SLP124 T02150187 57010 IEM_DS3505
ZGSZ,1997-04-12 22:00,ZGSZ 122200Z AUTO 09004KT 7SM 22/20 A2988 RMK T02200200 IEM_DS3505
ZGSZ,1997-04-12 23:00,ZGSZ 122300Z AUTO 08004KT 6SM 22/20 A2988 RMK T02200200 IEM_DS3505
ZGSZ,1997-04-13 00:00,ZGSZ 130000Z AUTO 14006KT 4SM 22/19 A2991 RMK SLP140 T02210191 52016 IEM_DS3505
ZGSZ,1997-04-13 01:00,ZGSZ 130100Z AUTO 18006KT 6SM 26/21 A2991 RMK SLP120 T02640207 57027 IEM_DS3505
ZGSZ,1997-04-13 02:00,ZGSZ 130200Z AUTO 01006KT 4SM 25/22 A2994 RMK T02500220 IEM_DS3505
ZGSZ,1997-04-13 03:00,ZGSZ 130300Z AUTO 14004KT 5SM 24/20 A2991 RMK SLP148 T02380196 52008 IEM_DS3505
ZGSZ,1997-04-13 04:00,ZGSZ 130400Z AUTO 13006KT 5SM 27/22 A2991 RMK T02700220 IEM_DS3505
ZGSZ,1997-04-13 05:00,ZGSZ 130500Z AUTO 16008KT 5SM 28/23 A2988 RMK T02800230 IEM_DS3505
ZGSZ,1997-04-13 06:00,ZGSZ 130600Z AUTO 18006KT 6SM 26/21 A2985 RMK SLP120 T02640207 57027 IEM_DS3505
ZGSZ,1997-04-13 07:00,ZGSZ 130700Z AUTO 17008KT 7SM 27/23 A2983 RMK T02700230 IEM_DS3505
ZGSZ,1997-04-13 08:00,ZGSZ 130800Z AUTO 14008KT 7SM 26/23 A2983 RMK T02600230 IEM_DS3505
ZGSZ,1997-04-13 09:00,ZGSZ 130900Z AUTO 11006KT 4SM 24/20 A2983 RMK SLP106 T02370202 57015 IEM_DS3505
ZGSZ,1997-04-13 10:00,ZGSZ 131000Z AUTO 09008KT 7SM 25/22 A2983 RMK T02500220 IEM_DS3505
ZGSZ,1997-04-13 11:00,ZGSZ 131100Z AUTO 10006KT 1 1/2SM 24/22 A2985 RMK T02400220 IEM_DS3505
ZGSZ,1997-04-13 12:00,ZGSZ 131200Z AUTO 08006KT 3SM 24/21 A2988 RMK SLP130 T02370211 52024 IEM_DS3505
ZGSZ,1997-04-13 13:00,ZGSZ 131300Z AUTO 07006KT 1 1/4SM 23/22 A2985 RMK T02300220 IEM_DS3505
ZGSZ,1997-04-13 14:00,ZGSZ 131400Z AUTO 36008KT 1 1/4SM 22/22 A2991 RMK T02200220 IEM_DS3505
ZGSZ,1997-04-13 15:00,ZGSZ 131500Z AUTO 09004KT 2SM 23/23 A2991 RMK T02300230 IEM_DS3505
ZGSZ,1997-04-13 16:00,ZGSZ 131600Z AUTO 29006KT 2SM 22/22 A2991 RMK T02200220 IEM_DS3505
ZGSZ,1997-04-13 17:00,ZGSZ 131700Z AUTO 01004KT 2SM 22/22 A2988 RMK T02200220 IEM_DS3505
ZGSZ,1997-04-13 18:00,ZGSZ 131800Z AUTO 09004KT 12SM 22/22 RMK 60138 SLP125 T02220217 57019 IEM_DS3505
ZGSZ,1997-04-13 21:00,ZGSZ 132100Z AUTO 14008KT 14SM 22/21 A2985 RMK 70138 SLP121 T02230212 57005 IEM_DS3505
ZGSZ,1997-04-13 22:00,ZGSZ 132200Z AUTO 27004KT 1 1/2SM 21/21 A2988 RMK T02100210 IEM_DS3505
ZGSZ,1997-04-13 23:00,ZGSZ 132300Z AUTO 26002KT 1 1/2SM 22/22 A2991 RMK T02200220 IEM_DS3505
ZGSZ,1997-04-14 00:00,ZGSZ 140000Z AUTO 09004KT 16SM 23/21 A2991 RMK 70138 SLP138 T02310211 52017 IEM_DS3505
ZGSZ,1997-04-14 01:00,ZGSZ 140100Z AUTO 00000KT 1 1/2SM 23/23 A2994 RMK T02300230 IEM_DS3505
ZGSZ,1997-04-14 02:00,ZGSZ 140200Z AUTO 22002KT 2SM 23/23 A2994 RMK T02300230 IEM_DS3505
ZGSZ,1997-04-14 03:00,ZGSZ 140300Z AUTO 00000KT 12SM 25/22 A2994 RMK SLP143 T02460218 52005 IEM_DS3505
ZGSZ,1997-04-14 04:00,ZGSZ 140400Z AUTO 25006KT 3SM 25/24 A2991 RMK T02500240 IEM_DS3505
ZGSZ,1997-04-14 05:00,ZGSZ 140500Z AUTO 23004KT 4SM 25/24 A2988 RMK T02500240 IEM_DS3505
ZGSZ,1997-04-14 06:00,ZGSZ 140600Z AUTO 14006KT 16SM 28/23 A2985 RMK SLP118 T02780232 57024 IEM_DS3505
ZGSZ,1997-04-14 07:00,ZGSZ 140700Z AUTO 18006KT 6SM 26/24 A2983 RMK T02600240 IEM_DS3505
ZGSZ,1997-04-14 09:00,ZGSZ 140900Z AUTO 14004KT 9SM 25/22 A2983 RMK SLP108 T02500225 57010 IEM_DS3505
ZGSZ,1997-04-14 10:00,ZGSZ 141000Z AUTO 18008KT 7SM 25/24 A2983 RMK T02500240 IEM_DS3505
ZGSZ,1997-04-14 11:00,ZGSZ 141100Z AUTO 17008KT 7SM 25/24 A2985 RMK T02500240 IEM_DS3505
ZGSZ,1997-04-14 12:00,ZGSZ 141200Z AUTO 09002KT 5SM 24/22 RMK SLP120 T02400219 52011 IEM_DS3505
ZGSZ,1997-04-14 15:00,ZGSZ 141500Z AUTO 01004KT 7SM 23/22 A2991 RMK T02300220 IEM_DS3505
ZGSZ,1997-04-14 18:00,ZGSZ 141800Z AUTO 04002KT 4SM 24/21 RMK SLP117 T02350214 57015 IEM_DS3505
ZGSZ,1997-04-14 21:00,ZGSZ 142100Z AUTO 00000KT 4SM 24/22 A2985 RMK SLP117 T02350219 54000 IEM_DS3505
ZGSZ,1997-04-14 22:00,ZGSZ 142200Z AUTO 36004KT 1 1/2SM 23/23 A2985 RMK T02300230 IEM_DS3505
ZGSZ,1997-04-14 23:00,ZGSZ 142300Z AUTO 35002KT 1 1/2SM 23/23 A2988 RMK T02300230 IEM_DS3505
ZGSZ,1997-04-15 00:00,ZGSZ 150000Z AUTO 36002KT 3SM 24/22 A2991 RMK SLP136 T02360218 52018 IEM_DS3505
ZGSZ,1997-04-15 02:00,ZGSZ 150200Z AUTO 35008KT 3SM 26/23 A2991 RMK T02600230 IEM_DS3505
ZGSZ,1997-04-15 03:00,ZGSZ 150300Z AUTO 32004KT 3SM 27/22 A2991 RMK SLP134 T02730225 57001 IEM_DS3505
ZGSZ,1997-04-15 04:00,ZGSZ 150400Z AUTO 28006KT 4SM 28/24 A2988 RMK T02800240 IEM_DS3505
ZGSZ,1997-04-15 06:00,ZGSZ 150600Z AUTO 22008KT 5SM 30/22 A2983 RMK SLP106 T03000223 57028 IEM_DS3505
ZGSZ,1997-04-15 07:00,ZGSZ 150700Z AUTO 29008KT 6SM 30/23 A2983 RMK T03000230 IEM_DS3505
ZGSZ,1997-04-15 08:00,ZGSZ 150800Z AUTO 28006KT 6SM 30/23 A2980 RMK T03000230 IEM_DS3505
ZGSZ,1997-04-15 09:00,ZGSZ 150900Z AUTO 18002KT 4SM 28/22 A2980 RMK SLP097 T02840216 57009 IEM_DS3505
ZGSZ,1997-04-15 10:00,ZGSZ 151000Z AUTO 29006KT 3SM 28/23 A2983 RMK T02800230 IEM_DS3505
ZGSZ,1997-04-15 11:00,ZGSZ 151100Z AUTO 26006KT 2 1/2SM 27/24 A2985 RMK T02700240 IEM_DS3505
ZGSZ,1997-04-15 12:00,ZGSZ 151200Z AUTO 36002KT 2 1/2SM 26/23 A2985 RMK 60002 SLP123 T02640232 52026 IEM_DS3505
ZGSZ,1997-04-15 13:00,ZGSZ 151300Z AUTO 15002KT 2SM 26/24 A2988 RMK T02600240 IEM_DS3505
ZGSZ,1997-04-15 18:00,ZGSZ 151800Z AUTO 09006KT 12SM 22/21 RMK 60059 SLP132 T02230211 57012 IEM_DS3505
ZGSZ,1997-04-15 21:00,ZGSZ 152100Z AUTO 09004KT 16SM 22/21 A2988 RMK 70063 SLP129 T02220207 57003 IEM_DS3505
ZGSZ,1997-04-15 22:00,ZGSZ 152200Z AUTO 04002KT 7SM 22/21 A2991 RMK T02200210 IEM_DS3505
ZGSZ,1997-04-15 23:00,ZGSZ 152300Z AUTO 04004KT 7SM 22/22 A2994 RMK T02200220 IEM_DS3505
ZGSZ,1997-04-16 00:00,ZGSZ 160000Z AUTO 09008KT 9SM 22/19 A2997 RMK 70063 SLP156 T02240190 52026 IEM_DS3505
ZGSZ,1997-04-16 01:00,ZGSZ 160100Z AUTO 10004KT 7SM 24/22 A2997 RMK T02400220 IEM_DS3505
ZGSZ,1997-04-16 02:00,ZGSZ 160200Z AUTO 12006KT 7SM 25/22 A2997 RMK T02500220 IEM_DS3505
ZGSZ,1997-04-16 03:00,ZGSZ 160300Z AUTO 14008KT 11SM 24/19 A2997 RMK SLP156 T02390187 54000 IEM_DS3505
ZGSZ,1997-04-16 04:00,ZGSZ 160400Z AUTO 10006KT 7SM 26/22 A2994 RMK T02600220 IEM_DS3505
ZGSZ,1997-04-16 05:00,ZGSZ 160500Z AUTO 14008KT 7SM 26/21 A2991 RMK T02600210 IEM_DS3505
ZGSZ,1997-04-16 06:00,ZGSZ 160600Z AUTO 09010KT 12SM 25/18 A2988 RMK SLP134 T02510178 57022 IEM_DS3505
ZGSZ,1997-04-16 07:00,ZGSZ 160700Z AUTO 12006KT 7SM 27/21 A2988 RMK T02700210 IEM_DS3505
ZGSZ,1997-04-16 08:00,ZGSZ 160800Z AUTO 12008KT 7SM 26/21 A2988 RMK T02600210 IEM_DS3505
ZGSZ,1997-04-16 09:00,ZGSZ 160900Z AUTO 09006KT 11SM 24/17 A2988 RMK SLP131 T02370169 57003 IEM_DS3505
ZGSZ,1997-04-16 10:00,ZGSZ 161000Z AUTO 12008KT 6SM 24/20 A2988 RMK T02400200 IEM_DS3505
ZGSZ,1997-04-16 11:00,ZGSZ 161100Z AUTO 11010KT 6SM 24/19 A2991 RMK T02400190 IEM_DS3505
ZGSZ,1997-04-16 12:00,ZGSZ 161200Z AUTO 09006KT 9SM 22/17 A2991 RMK SLP144 T02230170 52013 IEM_DS3505
ZGSZ,1997-04-16 13:00,ZGSZ 161300Z AUTO 10010KT 6SM 23/18 A2994 RMK T02300180 IEM_DS3505
ZGSZ,1997-04-16 14:00,ZGSZ 161400Z AUTO 11012KT 6SM 23/18 A2994 RMK T02300180 IEM_DS3505
ZGSZ,1997-04-16 15:00,ZGSZ 161500Z AUTO 11006KT 6SM 23/18 A2997 RMK T02300180 IEM_DS3505
ZGSZ,1997-04-16 18:00,ZGSZ 161800Z AUTO 14008KT 7SM 22/18 RMK SLP148 T02170184 57006 IEM_DS3505
ZGSZ,1997-04-16 21:00,ZGSZ 162100Z AUTO 09006KT 6SM 22/18 A2991 RMK SLP142 T02170182 57006 IEM_DS3505
ZGSZ,1997-04-16 22:00,ZGSZ 162200Z AUTO 11008KT 7SM 22/20 A2991 RMK T02200200 IEM_DS3505
ZGSZ,1997-04-16 23:00,ZGSZ 162300Z AUTO 09008KT 6SM 22/20 A2991 RMK T02200200 IEM_DS3505
ZGSZ,1997-04-17 00:00,ZGSZ 170000Z AUTO 16008KT 8SM 22/17 A2994 RMK SLP151 T02170170 52009 IEM_DS3505
ZGSZ,1997-04-17 01:00,ZGSZ 170100Z AUTO 10012KT 6SM 24/20 A2997 RMK T02400200 IEM_DS3505
ZGSZ,1997-04-17 02:00,ZGSZ 170200Z AUTO 10010KT 7SM 24/19 A2997 RMK T02400190 IEM_DS3505
ZGSZ,1997-04-17 03:00,ZGSZ 170300Z AUTO 14010KT 9SM 23/17 A2997 RMK SLP157 T02300169 52006 IEM_DS3505
ZGSZ,1997-04-17 04:00,ZGSZ 170400Z AUTO 12010KT 7SM 25/20 A2994 RMK T02500200 IEM_DS3505
ZGSZ,1997-04-17 05:00,ZGSZ 170500Z AUTO 13010KT 7SM 26/21 A2991 RMK T02600210 IEM_DS3505
ZGSZ,1997-04-17 06:00,ZGSZ 170600Z AUTO 14012KT 8SM 24/18 A2988 RMK SLP138 T02450175 57019 IEM_DS3505
ZGSZ,1997-04-17 07:00,ZGSZ 170700Z AUTO 12010KT 7SM 27/22 A2988 RMK T02700220 IEM_DS3505
ZGSZ,1997-04-17 08:00,ZGSZ 170800Z AUTO 12012KT 6SM 26/21 A2988 RMK T02600210 IEM_DS3505
ZGSZ,1997-04-17 09:00,ZGSZ 170900Z AUTO 14010KT 7SM 24/19 A2988 RMK SLP131 T02370189 57007 IEM_DS3505
ZGSZ,1997-04-17 10:00,ZGSZ 171000Z AUTO 11008KT 7SM 24/21 A2988 RMK T02400210 IEM_DS3505
ZGSZ,1997-04-17 11:00,ZGSZ 171100Z AUTO 11006KT 4SM 24/21 A2991 RMK T02400210 IEM_DS3505
ZGSZ,1997-04-17 12:00,ZGSZ 171200Z AUTO 09008KT 5SM 23/19 A2991 RMK SLP144 T02260193 52013 IEM_DS3505
ZGSZ,1997-04-17 13:00,ZGSZ 171300Z AUTO 10006KT 3SM 23/21 A2991 RMK T02300210 IEM_DS3505
ZGSZ,1997-04-17 14:00,ZGSZ 171400Z AUTO 11006KT 3SM 23/21 A2991 RMK T02300210 IEM_DS3505
ZGSZ,1997-04-17 15:00,ZGSZ 171500Z AUTO 11006KT 4SM 23/21 A2991 RMK T02300210 IEM_DS3505
ZGSZ,1997-04-17 18:00,ZGSZ 171800Z AUTO 14004KT 6SM 23/20 RMK SLP134 T02260205 57012 IEM_DS3505
ZGSZ,1997-04-17 21:00,ZGSZ 172100Z AUTO 09004KT 4SM 22/20 A2988 RMK SLP127 T02220205 57007 IEM_DS3505
ZGSZ,1997-04-17 22:00,ZGSZ 172200Z AUTO 11006KT 4SM 23/22 A2988 RMK T02300220 IEM_DS3505
ZGSZ,1997-04-17 23:00,ZGSZ 172300Z AUTO 10004KT 4SM 24/23 A2991 RMK T02400230 IEM_DS3505
ZGSZ,1997-04-18 00:00,ZGSZ 180000Z AUTO 09004KT 5SM 23/21 A2994 RMK SLP148 T02340213 52021 IEM_DS3505
ZGSZ,1997-04-18 01:00,ZGSZ 180100Z AUTO 13006KT 4SM 26/24 A2994 RMK T02600240 IEM_DS3505
ZGSZ,1997-04-18 02:00,ZGSZ 180200Z AUTO 21004KT 4SM 26/24 A2994 RMK T02600240 IEM_DS3505
ZGSZ,1997-04-18 03:00,ZGSZ 180300Z AUTO 00000KT 7SM 26/22 A2994 RMK SLP152 T02630223 52004 IEM_DS3505
ZGSZ,1997-04-18 04:00,ZGSZ 180400Z AUTO 22004KT 5SM 28/25 A2994 RMK T02800250 IEM_DS3505
ZGSZ,1997-04-18 05:00,ZGSZ 180500Z AUTO 21004KT 7SM 26/24 A2994 RMK T02600240 IEM_DS3505
ZGSZ,1997-04-18 06:00,ZGSZ 180600Z AUTO 14006KT 7SM 27/23 A2991 RMK SLP133 T02700226 57018 IEM_DS3505
ZGSZ,1997-04-18 07:00,ZGSZ 180700Z AUTO 17008KT 7SM 26/25 A2988 RMK T02600250 IEM_DS3505
ZGSZ,1997-04-18 08:00,ZGSZ 180800Z AUTO 18006KT 7SM 26/24 A2988 RMK T02600240 IEM_DS3505
ZGSZ,1997-04-18 09:00,ZGSZ 180900Z AUTO 14004KT 6SM 26/23 A2988 RMK SLP121 T02580226 57012 IEM_DS3505
ZGSZ,1997-04-18 10:00,ZGSZ 181000Z AUTO 16006KT 7SM 26/24 A2988 RMK T02600240 IEM_DS3505
ZGSZ,1997-04-18 11:00,ZGSZ 181100Z AUTO 14004KT 7SM 26/24 A2991 RMK T02600240 IEM_DS3505
ZGSZ,1997-04-18 12:00,ZGSZ 181200Z AUTO 09004KT 5SM 24/22 A2991 RMK 60000 SLP144 T02440223 52022 IEM_DS3505
ZGSZ,1997-04-18 13:00,ZGSZ 181300Z AUTO 10006KT 7SM 25/23 A2994 RMK T02500230 IEM_DS3505
ZGSZ,1997-04-18 14:00,ZGSZ 181400Z AUTO 09002KT 7SM 25/24 A2997 RMK T02500240 IEM_DS3505
ZGSZ,1997-04-18 18:00,ZGSZ 181800Z AUTO 09006KT 4SM 24/22 RMK SLP145 T02360221 57015 IEM_DS3505
ZGSZ,1997-04-18 21:00,ZGSZ 182100Z AUTO 09004KT 5SM 24/22 A2991 RMK 70001 SLP138 T02360220 57007 IEM_DS3505
ZGSZ,1997-04-18 22:00,ZGSZ 182200Z AUTO 10004KT 2 1/2SM 24/23 A2994 RMK T02400230 IEM_DS3505
ZGSZ,1997-04-18 23:00,ZGSZ 182300Z AUTO 10008KT 4SM 24/23 A2994 RMK T02400230 IEM_DS3505
ZGSZ,1997-04-19 00:00,ZGSZ 190000Z AUTO 09006KT 4SM 24/22 A2994 RMK 70001 SLP154 T02400224 52015 IEM_DS3505
ZGSZ,1997-04-19 01:00,ZGSZ 190100Z AUTO 11006KT 6SM 26/24 A2997 RMK T02600240 IEM_DS3505
ZGSZ,1997-04-19 02:00,ZGSZ 190200Z AUTO 13002KT 7SM 28/25 A2997 RMK T02800250 IEM_DS3505
ZGSZ,1997-04-19 03:00,ZGSZ 190300Z AUTO 09008KT 8SM 26/22 A2997 RMK SLP159 T02570223 52006 IEM_DS3505
ZGSZ,1997-04-19 04:00,ZGSZ 190400Z AUTO 22008KT 7SM 27/24 A2997 RMK T02700240 IEM_DS3505
ZGSZ,1997-04-19 05:00,ZGSZ 190500Z AUTO 14010KT 7SM 28/24 A2997 RMK T02800240 IEM_DS3505
ZGSZ,1997-04-19 06:00,ZGSZ 190600Z AUTO 11010KT 4SM 23/21 A2994 RMK SLP149 T02320206 57011 IEM_DS3505
ZGSZ,1997-04-19 07:00,ZGSZ 190700Z AUTO 11010KT 7SM 26/23 A2991 RMK T02600230 IEM_DS3505
ZGSZ,1997-04-19 08:00,ZGSZ 190800Z AUTO 13008KT 4SM 25/23 A2991 RMK T02500230 IEM_DS3505
ZGSZ,1997-04-19 09:00,ZGSZ 190900Z AUTO 14014KT 3SM 22/20 A2991 RMK SLP138 T02250200 57011 IEM_DS3505
ZGSZ,1997-04-19 10:00,ZGSZ 191000Z AUTO 11012KT 4SM 24/22 A2988 RMK T02400220 IEM_DS3505
ZGSZ,1997-04-19 11:00,ZGSZ 191100Z AUTO 10010KT 3SM 23/22 A2991 RMK T02300220 IEM_DS3505
ZGSZ,1997-04-19 12:00,ZGSZ 191200Z AUTO 14008KT 3SM 22/20 RMK SLP149 T02190196 52011 IEM_DS3505
ZGSZ,1997-04-19 18:00,ZGSZ 191800Z AUTO 11006KT 3SM 22/20 RMK SLP143 T02160199 57019 IEM_DS3505
ZGSZ,1997-04-19 21:00,ZGSZ 192100Z AUTO 09004KT 3SM 22/19 A2991 RMK SLP140 T02160189 57003 IEM_DS3505
ZGSZ,1997-04-19 22:00,ZGSZ 192200Z AUTO 11006KT 4SM 22/21 A2991 RMK T02200210 IEM_DS3505
ZGSZ,1997-04-19 23:00,ZGSZ 192300Z AUTO 10004KT 7SM 23/21 A2994 RMK T02300210 IEM_DS3505
ZGSZ,1997-04-20 00:00,ZGSZ 200000Z AUTO 09004KT 5SM 22/19 A2994 RMK SLP151 T02190189 52011 IEM_DS3505
ZGSZ,1997-04-20 01:00,ZGSZ 200100Z AUTO 12008KT 4SM 23/21 A2997 RMK T02300210 IEM_DS3505
ZGSZ,1997-04-20 02:00,ZGSZ 200200Z AUTO 11008KT 5SM 24/22 A2997 RMK T02400220 IEM_DS3505
ZGSZ,1997-04-20 03:00,ZGSZ 200300Z AUTO 09010KT 4SM 23/20 RMK SLP156 T02330196 52005 IEM_DS3505
ZGSZ,1997-04-20 04:00,ZGSZ 200400Z AUTO 13008KT 6SM 27/23 A2994 RMK T02700230 IEM_DS3505
ZGSZ,1997-04-20 05:00,ZGSZ 200500Z AUTO 16008KT 7SM 29/23 A2991 RMK T02900230 IEM_DS3505
ZGSZ,1997-04-20 06:00,ZGSZ 200600Z AUTO 14006KT 6SM 26/21 A2988 RMK SLP140 T02570206 57016 IEM_DS3505
ZGSZ,1997-04-20 07:00,ZGSZ 200700Z AUTO 18004KT 7SM 28/23 A2988 RMK T02800230 IEM_DS3505
ZGSZ,1997-04-20 08:00,ZGSZ 200800Z AUTO 18008KT 7SM 28/23 A2988 RMK T02800230 IEM_DS3505
ZGSZ,1997-04-20 09:00,ZGSZ 200900Z AUTO 14006KT 6SM 25/21 A2985 RMK SLP126 T02490208 57014 IEM_DS3505
ZGSZ,1997-04-20 10:00,ZGSZ 201000Z AUTO 14008KT 7SM 27/23 A2985 RMK T02700230 IEM_DS3505
ZGSZ,1997-04-20 11:00,ZGSZ 201100Z AUTO 12008KT 7SM 26/23 A2988 RMK T02600230 IEM_DS3505
ZGSZ,1997-04-20 12:00,ZGSZ 201200Z AUTO 11006KT 7SM 23/21 A2988 RMK SLP136 T02330207 52010 IEM_DS3505
ZGSZ,1997-04-20 13:00,ZGSZ 201300Z AUTO 12008KT 7SM 25/22 A2988 RMK T02500220 IEM_DS3505
ZGSZ,1997-04-20 14:00,ZGSZ 201400Z AUTO 11008KT 6SM 24/22 A2991 RMK T02400220 IEM_DS3505
ZGSZ,1997-04-20 15:00,ZGSZ 201500Z AUTO 13006KT 6SM 24/22 A2991 RMK T02400220 IEM_DS3505
ZGSZ,1997-04-20 18:00,ZGSZ 201800Z AUTO 16002KT 7SM 23/21 RMK SLP127 T02290212 57017 IEM_DS3505
ZGSZ,1997-04-20 21:00,ZGSZ 202100Z AUTO 04002KT 6SM 23/21 A2988 RMK SLP126 T02290214 57001 IEM_DS3505
ZGSZ,1997-04-20 22:00,ZGSZ 202200Z AUTO 00000KT 4SM 23/22 A2988 RMK T02300220 IEM_DS3505
ZGSZ,1997-04-20 23:00,ZGSZ 202300Z AUTO 14006KT 2 1/2SM 23/23 A2988 RMK T02300230 IEM_DS3505
ZGSZ,1997-04-21 00:00,ZGSZ 210000Z AUTO 14004KT 6SM 24/22 A2991 RMK SLP135 T02370218 52008 IEM_DS3505
ZGSZ,1997-04-21 01:00,ZGSZ 210100Z AUTO 17004KT 2SM 26/24 A2991 RMK T02600240 IEM_DS3505
ZGSZ,1997-04-21 02:00,ZGSZ 210200Z AUTO 18004KT 4SM 27/24 A2991 RMK T02700240 IEM_DS3505
ZGSZ,1997-04-21 03:00,ZGSZ 210300Z AUTO 09004KT 11SM 28/23 RMK SLP136 T02770227 52002 IEM_DS3505
ZGSZ,1997-04-21 06:00,ZGSZ 210600Z AUTO 14004KT 9SM 28/22 A2985 RMK SLP118 T02750224 57018 IEM_DS3505
ZGSZ,1997-04-21 07:00,ZGSZ 210700Z AUTO 23004KT 7SM 26/25 A2985 RMK T02600250 IEM_DS3505
ZGSZ,1997-04-21 08:00,ZGSZ 210800Z AUTO 24008KT 7SM 26/25 A2985 RMK T02600250 IEM_DS3505
ZGSZ,1997-04-21 09:00,ZGSZ 210900Z AUTO 14004KT 9SM 27/22 A2985 RMK SLP113 T02660223 57005 IEM_DS3505
ZGSZ,1997-04-21 10:00,ZGSZ 211000Z AUTO 20008KT 4SM 25/24 A2985 RMK T02500240 IEM_DS3505
ZGSZ,1997-04-21 11:00,ZGSZ 211100Z AUTO 19008KT 2 1/2SM 25/24 A2988 RMK T02500240 IEM_DS3505
ZGSZ,1997-04-21 12:00,ZGSZ 211200Z AUTO 14004KT 5SM 26/22 A2985 RMK SLP126 T02560225 52013 IEM_DS3505
ZGSZ,1997-04-21 13:00,ZGSZ 211300Z AUTO 13008KT 6SM 25/24 A2983 RMK T02500240 IEM_DS3505
ZGSZ,1997-04-21 14:00,ZGSZ 211400Z AUTO 07002KT 6SM 25/24 A2988 RMK T02500240 IEM_DS3505
ZGSZ,1997-04-21 15:00,ZGSZ 211500Z AUTO 04004KT 7SM 25/24 A2988 RMK T02500240 IEM_DS3505
ZGSZ,1997-04-21 18:00,ZGSZ 211800Z AUTO 36004KT 4SM 24/22 RMK SLP125 T02390223 57004 IEM_DS3505
ZGSZ,1997-04-21 21:00,ZGSZ 212100Z AUTO 09002KT 4SM 24/22 A2988 RMK SLP124 T02370221 57001 IEM_DS3505
ZGSZ,1997-04-21 22:00,ZGSZ 212200Z AUTO 00000KT 2SM 24/23 A2988 RMK T02400230 IEM_DS3505
ZGSZ,1997-04-21 23:00,ZGSZ 212300Z AUTO 00000KT 1 1/2SM 24/23 A2988 RMK T02400230 IEM_DS3505
ZGSZ,1997-04-22 00:00,ZGSZ 220000Z AUTO 09004KT 6SM 24/21 A2994 RMK SLP142 T02420213 52018 IEM_DS3505
ZGSZ,1997-04-22 01:00,ZGSZ 220100Z AUTO 34002KT 2SM 26/24 A2994 RMK T02600240 IEM_DS3505
ZGSZ,1997-04-22 02:00,ZGSZ 220200Z AUTO 25002KT 2 1/2SM 27/24 A2994 RMK T02700240 IEM_DS3505
ZGSZ,1997-04-22 03:00,ZGSZ 220300Z AUTO 04006KT 9SM 27/22 A2994 RMK SLP149 T02720217 52007 IEM_DS3505
ZGSZ,1997-04-22 04:00,ZGSZ 220400Z AUTO 35008KT 7SM 28/23 A2994 RMK T02800230 IEM_DS3505
ZGSZ,1997-04-22 05:00,ZGSZ 220500Z AUTO 36008KT 7SM 29/23 A2991 RMK T02900230 IEM_DS3505
ZGSZ,1997-04-22 06:00,ZGSZ 220600Z AUTO 09004KT 9SM 28/21 A2991 RMK SLP135 T02780212 57014 IEM_DS3505
ZGSZ,1997-04-22 07:00,ZGSZ 220700Z AUTO 13004KT 7SM 25/24 A2991 RMK T02500240 IEM_DS3505
ZGSZ,1997-04-22 08:00,ZGSZ 220800Z AUTO 15008KT 7SM 26/24 A2991 RMK T02600240 IEM_DS3505
ZGSZ,1997-04-22 09:00,ZGSZ 220900Z AUTO 14008KT 7SM 26/21 A2988 RMK SLP136 T02590213 52001 IEM_DS3505
ZGSZ,1997-04-22 10:00,ZGSZ 221000Z AUTO 10008KT 5SM 26/23 A2991 RMK T02600230 IEM_DS3505
ZGSZ,1997-04-22 11:00,ZGSZ 221100Z AUTO 10010KT 4SM 25/23 A2991 RMK T02500230 IEM_DS3505
ZGSZ,1997-04-22 12:00,ZGSZ 221200Z AUTO 09008KT 7SM 24/22 A2994 RMK SLP151 T02400220 52014 IEM_DS3505
ZGSZ,1997-04-22 13:00,ZGSZ 221300Z AUTO 11010KT 3SM 23/22 A2997 RMK T02300220 IEM_DS3505
ZGSZ,1997-04-22 14:00,ZGSZ 221400Z AUTO 11012KT 4SM 23/22 A3000 RMK T02300220 IEM_DS3505
ZGSZ,1997-04-22 15:00,ZGSZ 221500Z AUTO 11008KT 4SM 23/21 A3000 RMK T02300210 IEM_DS3505
ZGSZ,1997-04-22 18:00,ZGSZ 221800Z AUTO 09008KT 16SM 22/18 RMK SLP159 T02210178 57014 IEM_DS3505
ZGSZ,1997-04-22 21:00,ZGSZ 222100Z AUTO 07006KT 14SM 22/18 A2997 RMK SLP163 T02170180 52003 IEM_DS3505
ZGSZ,1997-04-22 22:00,ZGSZ 222200Z AUTO 10002KT 7SM 22/19 A3000 RMK T02200190 IEM_DS3505
ZGSZ,1997-04-22 23:00,ZGSZ 222300Z AUTO 11008KT 7SM 22/20 A3000 RMK T02200200 IEM_DS3505
ZGSZ,1997-04-23 00:00,ZGSZ 230000Z AUTO 14010KT 12SM 22/16 A3000 RMK SLP175 T02190165 52012 IEM_DS3505
ZGSZ,1997-04-23 01:00,ZGSZ 230100Z AUTO 12012KT 6SM 23/19 A3003 RMK T02300190 IEM_DS3505
ZGSZ,1997-04-23 02:00,ZGSZ 230200Z AUTO 12012KT 6SM 25/19 A3006 RMK T02500190 IEM_DS3505
ZGSZ,1997-04-23 03:00,ZGSZ 230300Z AUTO 09006KT 16SM 24/16 A3006 RMK SLP187 T02410159 52012 IEM_DS3505
ZGSZ,1997-04-23 04:00,ZGSZ 230400Z AUTO 10008KT 7SM 27/19 A3003 RMK T02700190 IEM_DS3505
ZGSZ,1997-04-23 05:00,ZGSZ 230500Z AUTO 14010KT 7SM 27/18 A3000 RMK T02700180 IEM_DS3505
ZGSZ,1997-04-23 06:00,ZGSZ 230600Z AUTO 09010KT 12SM 27/16 A2997 RMK SLP166 T02660165 57021 IEM_DS3505
ZGSZ,1997-04-23 07:00,ZGSZ 230700Z AUTO 15010KT 6SM 28/19 A2994 RMK T02800190 IEM_DS3505
ZGSZ,1997-04-23 08:00,ZGSZ 230800Z AUTO 14008KT 6SM 28/17 A2994 RMK T02800170 IEM_DS3505
ZGSZ,1997-04-23 09:00,ZGSZ 230900Z AUTO 14008KT 16SM 25/17 A2994 RMK SLP158 T02490169 57008 IEM_DS3505
ZGSZ,1997-04-23 10:00,ZGSZ 231000Z AUTO 11008KT 6SM 26/18 A2997 RMK T02600180 IEM_DS3505
ZGSZ,1997-04-23 11:00,ZGSZ 231100Z AUTO 12006KT 6SM 24/18 A2997 RMK T02400180 IEM_DS3505
ZGSZ,1997-04-23 12:00,ZGSZ 231200Z AUTO 09006KT 8SM 23/17 A3003 RMK SLP173 T02260173 52015 IEM_DS3505
ZGSZ,1997-04-23 13:00,ZGSZ 231300Z AUTO 12006KT 6SM 23/19 A3003 RMK T02300190 IEM_DS3505
ZGSZ,1997-04-23 14:00,ZGSZ 231400Z AUTO 11008KT 7SM 23/19 A3006 RMK T02300190 IEM_DS3505
ZGSZ,1997-04-23 15:00,ZGSZ 231500Z AUTO 11010KT 7SM 23/19 A3003 RMK T02300190 IEM_DS3505
ZGSZ,1997-04-23 18:00,ZGSZ 231800Z AUTO 14012KT 12SM 22/15 RMK SLP167 T02160152 57018 IEM_DS3505
ZGSZ,1997-04-23 21:00,ZGSZ 232100Z AUTO 09004KT 12SM 21/12 A3000 RMK SLP172 T02120124 52005 IEM_DS3505
ZGSZ,1997-04-23 22:00,ZGSZ 232200Z AUTO 12008KT 7SM 21/15 A3003 RMK T02100150 IEM_DS3505
ZGSZ,1997-04-23 23:00,ZGSZ 232300Z AUTO 11006KT 6SM 21/14 A3003 RMK T02100140 IEM_DS3505
ZGSZ,1997-04-24 00:00,ZGSZ 240000Z AUTO 09006KT 19SM 21/10 A3003 RMK SLP185 T02110105 52013 IEM_DS3505
ZGSZ,1997-04-24 01:00,ZGSZ 240100Z AUTO 10006KT 6SM 22/11 A3006 RMK T02200110 IEM_DS3505
ZGSZ,1997-04-24 02:00,ZGSZ 240200Z AUTO 09004KT 6SM 23/10 A3009 RMK T02300100 IEM_DS3505
ZGSZ,1997-04-24 03:00,ZGSZ 240300Z AUTO 09010KT 19SM 23/06 A3006 RMK SLP194 T02340057 52009 IEM_DS3505
ZGSZ,1997-04-24 04:00,ZGSZ 240400Z AUTO 07008KT 6SM 24/07 A3006 RMK T02400070 IEM_DS3505
ZGSZ,1997-04-24 05:00,ZGSZ 240500Z AUTO 04006KT 6SM 24/09 A3006 RMK T02400090 IEM_DS3505
ZGSZ,1997-04-24 06:00,ZGSZ 240600Z AUTO 14002KT 19SM 23/06 A3003 RMK SLP178 T02290060 57016 IEM_DS3505
ZGSZ,1997-04-24 07:00,ZGSZ 240700Z AUTO 01006KT 6SM 24/12 A3003 RMK T02400120 IEM_DS3505
ZGSZ,1997-04-24 08:00,ZGSZ 240800Z AUTO 03006KT 6SM 23/15 A3000 RMK T02300150 IEM_DS3505
ZGSZ,1997-04-24 09:00,ZGSZ 240900Z AUTO 09004KT 11SM 22/11 A3000 RMK SLP172 T02250108 57006 IEM_DS3505
ZGSZ,1997-04-24 10:00,ZGSZ 241000Z AUTO 04006KT 6SM 23/17 A3003 RMK T02300170 IEM_DS3505
ZGSZ,1997-04-24 11:00,ZGSZ 241100Z AUTO 03008KT 6SM 22/18 A3003 RMK T02200180 IEM_DS3505
ZGSZ,1997-04-24 12:00,ZGSZ 241200Z AUTO 07004KT 11SM 22/16 A3006 RMK SLP185 T02160158 52013 IEM_DS3505
ZGSZ,1997-04-24 13:00,ZGSZ 241300Z AUTO 02008KT 6SM 21/18 A3006 RMK T02100180 IEM_DS3505
ZGSZ,1997-04-24 14:00,ZGSZ 241400Z AUTO 02008KT 6SM 20/17 A3009 RMK T02000170 IEM_DS3505
ZGSZ,1997-04-24 15:00,ZGSZ 241500Z AUTO 04010KT 6SM 20/17 A3009 RMK T02000170 IEM_DS3505
ZGSZ,1997-04-24 18:00,ZGSZ 241800Z AUTO 04006KT 12SM 19/14 RMK SLP185 T01890142 57010 IEM_DS3505
ZGSZ,1997-04-24 21:00,ZGSZ 242100Z AUTO 04008KT 10SM 18/14 A3003 RMK SLP179 T01820137 57006 IEM_DS3505
ZGSZ,1997-04-24 22:00,ZGSZ 242200Z AUTO 03004KT 6SM 18/14 A3006 RMK T01800140 IEM_DS3505
ZGSZ,1997-04-24 23:00,ZGSZ 242300Z AUTO 01010KT 6SM 18/15 A3006 RMK T01800150 IEM_DS3505
ZGSZ,1997-04-25 00:00,ZGSZ 250000Z AUTO 04004KT 6SM 18/14 A3009 RMK SLP198 T01820136 52019 IEM_DS3505
ZGSZ,1997-04-25 01:00,ZGSZ 250100Z AUTO 03006KT 6SM 18/15 A3009 RMK T01800150 IEM_DS3505
ZGSZ,1997-04-25 02:00,ZGSZ 250200Z AUTO 36002KT 7SM 20/16 A3009 RMK T02000160 IEM_DS3505
ZGSZ,1997-04-25 03:00,ZGSZ 250300Z AUTO 36006KT 5SM 21/14 A3009 RMK SLP195 T02060141 57003 IEM_DS3505
ZGSZ,1997-04-25 05:00,ZGSZ 250500Z AUTO 06004KT 7SM 24/16 A3006 RMK T02400160 IEM_DS3505
ZGSZ,1997-04-25 06:00,ZGSZ 250600Z AUTO 11006KT 12SM 23/14 A3003 RMK SLP178 T02270136 57017 IEM_DS3505
ZGSZ,1997-04-25 07:00,ZGSZ 250700Z AUTO 26004KT 7SM 23/16 A3003 RMK T02300160 IEM_DS3505
ZGSZ,1997-04-25 08:00,ZGSZ 250800Z AUTO 27002KT 6SM 23/16 A3000 RMK T02300160 IEM_DS3505
ZGSZ,1997-04-25 09:00,ZGSZ 250900Z AUTO 14004KT 9SM 22/14 A3000 RMK SLP164 T02210143 57014 IEM_DS3505
ZGSZ,1997-04-25 10:00,ZGSZ 251000Z AUTO 03008KT 6SM 22/16 A3000 RMK T02200160 IEM_DS3505
ZGSZ,1997-04-25 11:00,ZGSZ 251100Z AUTO 03010KT 6SM 22/16 A3003 RMK T02200160 IEM_DS3505
ZGSZ,1997-04-25 12:00,ZGSZ 251200Z AUTO 09004KT 9SM 21/15 A3003 RMK SLP184 T02100153 52020 IEM_DS3505
ZGSZ,1997-04-25 13:00,ZGSZ 251300Z AUTO 05006KT 6SM 21/16 A3006 RMK T02100160 IEM_DS3505
ZGSZ,1997-04-25 14:00,ZGSZ 251400Z AUTO 05004KT 6SM 21/16 A3009 RMK T02100160 IEM_DS3505
ZGSZ,1997-04-25 15:00,ZGSZ 251500Z AUTO 10002KT 6SM 21/17 A3009 RMK T02100170 IEM_DS3505
ZGSZ,1997-04-25 18:00,ZGSZ 251800Z AUTO 09004KT 11SM 20/16 RMK SLP178 T02000158 57015 IEM_DS3505
ZGSZ,1997-04-25 20:00,ZGSZ 252000Z AUTO 00000KT 6SM 19/17 A3000 RMK T01900170 IEM_DS3505
ZGSZ,1997-04-25 21:00,ZGSZ 252100Z AUTO 04004KT 12SM 20/15 A3000 RMK SLP165 T01970148 57013 IEM_DS3505
ZGSZ,1997-04-25 22:00,ZGSZ 252200Z AUTO 03004KT 6SM 19/17 A3003 RMK T01900170 IEM_DS3505
ZGSZ,1997-04-25 23:00,ZGSZ 252300Z AUTO 03004KT 6SM 19/16 A3003 RMK T01900160 IEM_DS3505
ZGSZ,1997-04-26 00:00,ZGSZ 260000Z AUTO 36002KT 6SM 20/15 A3006 RMK SLP188 T01990154 52023 IEM_DS3505
ZGSZ,1997-04-26 01:00,ZGSZ 260100Z AUTO 09004KT 6SM 21/17 A3006 RMK T02100170 IEM_DS3505
ZGSZ,1997-04-26 02:00,ZGSZ 260200Z AUTO 12004KT 6SM 24/17 A3006 RMK T02400170 IEM_DS3505
ZGSZ,1997-04-26 03:00,ZGSZ 260300Z AUTO 09010KT 11SM 23/11 A3006 RMK SLP189 T02320106 52001 IEM_DS3505
ZGSZ,1997-04-26 04:00,ZGSZ 260400Z AUTO 07006KT 6SM 26/15 A3003 RMK T02600150 IEM_DS3505
ZGSZ,1997-04-26 05:00,ZGSZ 260500Z AUTO 29006KT 4SM 24/18 A3003 RMK T02400180 IEM_DS3505
ZGSZ,1997-04-26 06:00,ZGSZ 260600Z AUTO 09008KT 19SM 25/ A3000 RMK SLP170 57019 IEM_DS3505
ZGSZ,1997-04-26 07:00,ZGSZ 260700Z AUTO 27002KT 5SM 24/16 A3000 RMK T02400160 IEM_DS3505
ZGSZ,1997-04-26 08:00,ZGSZ 260800Z AUTO 25004KT 6SM 24/16 A3000 RMK T02400160 IEM_DS3505
ZGSZ,1997-04-26 09:00,ZGSZ 260900Z AUTO 00000KT 17SM 24/10 A2997 RMK SLP163 T02390097 57007 IEM_DS3505
ZGSZ,1997-04-26 10:00,ZGSZ 261000Z AUTO 26002KT 6SM 24/16 A2997 RMK T02400160 IEM_DS3505
ZGSZ,1997-04-26 11:00,ZGSZ 261100Z AUTO 35002KT 4SM 23/16 A3000 RMK T02300160 IEM_DS3505
ZGSZ,1997-04-26 12:00,ZGSZ 261200Z AUTO 14006KT 11SM 23/10 A3000 RMK SLP168 T02260098 52005 IEM_DS3505
ZGSZ,1997-04-26 13:00,ZGSZ 261300Z AUTO 00000KT 2 1/2SM 22/17 A3000 RMK T02200170 IEM_DS3505
ZGSZ,1997-04-26 14:00,ZGSZ 261400Z AUTO 16004KT 2 1/2SM 22/14 A3003 RMK T02200140 IEM_DS3505
ZGSZ,1997-04-26 15:00,ZGSZ 261500Z AUTO 08002KT 2 1/2SM RMK IEM_DS3505
ZGSZ,1997-04-26 18:00,ZGSZ 261800Z AUTO 09004KT 8SM 21/15 RMK SLP166 T02130153 57015 IEM_DS3505
ZGSZ,1997-04-26 21:00,ZGSZ 262100Z AUTO 07004KT 6SM 21/16 A3000 RMK SLP165 T02090159 57001 IEM_DS3505
ZGSZ,1997-04-27 00:00,ZGSZ 270000Z AUTO 00000KT 6SM 21/16 A3003 RMK SLP177 T02140163 52012 IEM_DS3505
ZGSZ,1997-04-27 01:00,ZGSZ 270100Z AUTO 28002KT 4SM 24/16 A3003 RMK T02400160 IEM_DS3505
ZGSZ,1997-04-27 02:00,ZGSZ 270200Z AUTO 27004KT 4SM 25/18 A3003 RMK T02500180 IEM_DS3505
ZGSZ,1997-04-27 03:00,ZGSZ 270300Z AUTO 04002KT 5SM 25/15 A3000 RMK SLP172 T02520153 57005 IEM_DS3505
ZGSZ,1997-04-27 04:00,ZGSZ 270400Z AUTO 27006KT 3SM 26/19 A3000 RMK T02600190 IEM_DS3505
ZGSZ,1997-04-27 05:00,ZGSZ 270500Z AUTO 23006KT 3SM 26/19 A3000 RMK T02600190 IEM_DS3505
ZGSZ,1997-04-27 06:00,ZGSZ 270600Z AUTO 14006KT 11SM 27/15 RMK SLP158 T02680150 57014 IEM_DS3505
ZGSZ,1997-04-27 07:00,ZGSZ 270700Z AUTO 20006KT 3SM 25/20 A2997 RMK T02500200 IEM_DS3505
ZGSZ,1997-04-27 08:00,ZGSZ 270800Z AUTO 19008KT 4SM 24/18 A2994 RMK T02400180 IEM_DS3505
ZGSZ,1997-04-27 09:00,ZGSZ 270900Z AUTO 14006KT 8SM 25/15 A2994 RMK SLP146 T02520147 57012 IEM_DS3505
ZGSZ,1997-04-27 10:00,ZGSZ 271000Z AUTO 17006KT 6SM 24/19 A2994 RMK T02400190 IEM_DS3505
ZGSZ,1997-04-27 11:00,ZGSZ 271100Z AUTO 17004KT 4SM 24/19 A2994 RMK T02400190 IEM_DS3505
ZGSZ,1997-04-27 12:00,ZGSZ 271200Z AUTO 14006KT 9SM 24/12 A2994 RMK SLP154 T02360116 52008 IEM_DS3505
ZGSZ,1997-04-27 13:00,ZGSZ 271300Z AUTO 11004KT 2SM 24/16 A2997 RMK T02400160 IEM_DS3505
ZGSZ,1997-04-27 14:00,ZGSZ 271400Z AUTO 12004KT 2SM 23/17 A2997 RMK T02300170 IEM_DS3505
ZGSZ,1997-04-27 15:00,ZGSZ 271500Z AUTO 19002KT 2SM 23/17 A2997 RMK T02300170 IEM_DS3505
ZGSZ,1997-04-27 18:00,ZGSZ 271800Z AUTO 11004KT 12SM 23/14 RMK SLP141 T02260139 57017 IEM_DS3505
ZGSZ,1997-04-27 21:00,ZGSZ 272100Z AUTO 07004KT 8SM 22/16 A2991 RMK SLP138 T02150155 57004 IEM_DS3505
ZGSZ,1997-04-27 22:00,ZGSZ 272200Z AUTO 06002KT 2SM 22/19 A2991 RMK T02200190 IEM_DS3505
ZGSZ,1997-04-27 23:00,ZGSZ 272300Z AUTO 09002KT 2SM 22/19 A2994 RMK T02200190 IEM_DS3505
ZGSZ,1997-04-28 00:00,ZGSZ 280000Z AUTO 07004KT 5SM 23/16 A2997 RMK SLP156 T02270160 52018 IEM_DS3505
ZGSZ,1997-04-28 01:00,ZGSZ 280100Z AUTO 01004KT 1 1/2SM 24/19 A2997 RMK T02400190 IEM_DS3505
ZGSZ,1997-04-28 02:00,ZGSZ 280200Z AUTO 03004KT 1 1/2SM 25/20 A2997 RMK T02500200 IEM_DS3505
ZGSZ,1997-04-28 03:00,ZGSZ 280300Z AUTO 36004KT 6SM 27/16 A2994 RMK SLP150 T02740161 57005 IEM_DS3505
ZGSZ,1997-04-28 04:00,ZGSZ 280400Z AUTO 26004KT 1 1/2SM 27/19 A2994 RMK T02700190 IEM_DS3505
ZGSZ,1997-04-28 05:00,ZGSZ 280500Z AUTO 28006KT 4SM 28/19 A2991 RMK T02800190 IEM_DS3505
ZGSZ,1997-04-28 06:00,ZGSZ 280600Z AUTO 09002KT 9SM 30/18 A2991 RMK SLP127 T03050182 57023 IEM_DS3505
ZGSZ,1997-04-28 07:00,ZGSZ 280700Z AUTO 28006KT 6SM 28/22 A2988 RMK T02800220 IEM_DS3505
ZGSZ,1997-04-28 08:00,ZGSZ 280800Z AUTO 26004KT 6SM 27/21 A2985 RMK T02700210 IEM_DS3505
ZGSZ,1997-04-28 09:00,ZGSZ 280900Z AUTO 22006KT 7SM 29/18 A2985 RMK SLP116 T02900182 57011 IEM_DS3505
ZGSZ,1997-04-28 10:00,ZGSZ 281000Z AUTO 18006KT 6SM 27/22 A2985 RMK T02700220 IEM_DS3505
ZGSZ,1997-04-28 11:00,ZGSZ 281100Z AUTO 18006KT 6SM 25/22 A2985 RMK T02500220 IEM_DS3505
ZGSZ,1997-04-28 12:00,ZGSZ 281200Z AUTO 14004KT 8SM 26/19 A2988 RMK SLP127 T02570189 52011 IEM_DS3505
ZGSZ,1997-04-28 13:00,ZGSZ 281300Z AUTO 19006KT 6SM 24/23 A2988 RMK T02400230 IEM_DS3505
ZGSZ,1997-04-28 14:00,ZGSZ 281400Z AUTO 21004KT 6SM 24/23 A2991 RMK T02400230 IEM_DS3505
ZGSZ,1997-04-28 15:00,ZGSZ 281500Z AUTO 19002KT 4SM 23/23 A2991 RMK T02300230 IEM_DS3505
ZGSZ,1997-04-28 16:00,ZGSZ 281600Z AUTO 16002KT 2SM 23/23 A2991 RMK T02300230 IEM_DS3505
ZGSZ,1997-04-28 18:00,ZGSZ 281800Z AUTO 09002KT 6SM 24/21 RMK SLP123 T02380214 57013 IEM_DS3505
ZGSZ,1997-04-28 21:00,ZGSZ 282100Z AUTO 04004KT 5SM 22/22 A2988 RMK T02200220 52006 IEM_DS3505
ZGSZ,1997-04-28 22:00,ZGSZ 282200Z AUTO 00000KT 1 1/2SM 22/22 A2988 RMK T02200220 IEM_DS3505
ZGSZ,1997-04-28 23:00,ZGSZ 282300Z AUTO 03002KT 1 1/2SM 23/23 A2991 RMK T02300230 IEM_DS3505
ZGSZ,1997-04-29 01:00,ZGSZ 290100Z AUTO 10002KT 2 1/2SM 26/24 A2994 RMK T02600240 IEM_DS3505
ZGSZ,1997-04-29 02:00,ZGSZ 290200Z AUTO 27004KT 4SM 27/24 A2994 RMK T02700240 IEM_DS3505
ZGSZ,1997-04-29 03:00,ZGSZ 290300Z AUTO 20006KT 6SM 28/22 A2994 RMK SLP138 T02760222 57005 IEM_DS3505
ZGSZ,1997-04-29 04:00,ZGSZ 290400Z AUTO 20004KT 7SM 28/24 A2991 RMK T02800240 IEM_DS3505
ZGSZ,1997-04-29 05:00,ZGSZ 290500Z AUTO 19006KT 7SM 28/24 A2988 RMK T02800240 IEM_DS3505
ZGSZ,1997-04-29 06:00,ZGSZ 290600Z AUTO 18006KT 9SM 30/23 A2985 RMK SLP117 T03020227 57021 IEM_DS3505
ZGSZ,1997-04-29 07:00,ZGSZ 290700Z AUTO 19010KT 6SM 28/25 A2983 RMK T02800250 IEM_DS3505
ZGSZ,1997-04-29 08:00,ZGSZ 290800Z AUTO 19010KT 6SM 28/25 A2983 RMK T02800250 IEM_DS3505
ZGSZ,1997-04-29 09:00,ZGSZ 290900Z AUTO 22006KT 11SM 30/21 A2983 RMK SLP104 T02980212 57013 IEM_DS3505
ZGSZ,1997-04-29 10:00,ZGSZ 291000Z AUTO 17008KT 6SM 26/24 A2983 RMK T02600240 IEM_DS3505
ZGSZ,1997-04-29 11:00,ZGSZ 291100Z AUTO 17010KT 6SM 26/25 A2983 RMK T02600250 IEM_DS3505
ZGSZ,1997-04-29 12:00,ZGSZ 291200Z AUTO 27004KT 10SM 26/22 A2985 RMK SLP116 T02630219 52012 IEM_DS3505
ZGSZ,1997-04-29 13:00,ZGSZ 291300Z AUTO 18008KT 6SM 25/25 A2985 RMK T02500250 IEM_DS3505
ZGSZ,1997-04-29 14:00,ZGSZ 291400Z AUTO 17010KT 6SM 25/25 A2988 RMK T02500250 IEM_DS3505
ZGSZ,1997-04-29 15:00,ZGSZ 291500Z AUTO 17008KT 6SM 25/25 A2988 RMK T02500250 IEM_DS3505
ZGSZ,1997-04-29 17:00,ZGSZ 291700Z AUTO 17004KT 6SM 25/24 A2988 RMK T02500240 IEM_DS3505
ZGSZ,1997-04-29 18:00,ZGSZ 291800Z AUTO 27004KT 11SM 25/22 RMK SLP123 T02470225 57004 IEM_DS3505
ZGSZ,1997-04-29 21:00,ZGSZ 292100Z AUTO 18002KT 9SM 24/22 A2983 RMK SLP113 T02410222 57010 IEM_DS3505
ZGSZ,1997-04-29 22:00,ZGSZ 292200Z AUTO 20004KT 4SM 24/24 A2985 RMK T02400240 IEM_DS3505
ZGSZ,1997-04-29 23:00,ZGSZ 292300Z AUTO 16006KT 6SM 24/24 A2988 RMK T02400240 IEM_DS3505
ZGSZ,1997-04-30 00:00,ZGSZ 300000Z AUTO 00000KT 8SM 25/22 A2991 RMK SLP135 T02520222 52022 IEM_DS3505
ZGSZ,1997-04-30 01:00,ZGSZ 300100Z AUTO 17006KT 7SM 26/25 A2994 RMK T02600250 IEM_DS3505
ZGSZ,1997-04-30 02:00,ZGSZ 300200Z AUTO 19004KT 7SM 26/25 A2994 RMK T02600250 IEM_DS3505
ZGSZ,1997-04-30 03:00,ZGSZ 300300Z AUTO 22008KT 16SM 30/22 A2991 RMK SLP137 T02950220 52002 IEM_DS3505
ZGSZ,1997-04-30 04:00,ZGSZ 300400Z AUTO 19006KT 7SM 28/25 A2991 RMK T02800250 IEM_DS3505
ZGSZ,1997-04-30 05:00,ZGSZ 300500Z AUTO 19006KT 7SM 27/25 A2988 RMK T02700250 IEM_DS3505
ZGSZ,1997-04-30 06:00,ZGSZ 300600Z AUTO 22006KT 16SM 28/22 A2988 RMK SLP123 T02750225 57014 IEM_DS3505
ZGSZ,1997-04-30 07:00,ZGSZ 300700Z AUTO 17006KT 7SM 25/24 A2985 RMK T02500240 IEM_DS3505
ZGSZ,1997-04-30 08:00,ZGSZ 300800Z AUTO 17004KT 7SM 24/22 A2985 RMK T02400220 IEM_DS3505
ZGSZ,1997-04-30 09:00,ZGSZ 300900Z AUTO 00000KT 11SM 24/20 A2985 RMK SLP111 T02390202 57012 IEM_DS3505
ZGSZ,1997-04-30 10:00,ZGSZ 301000Z AUTO 17004KT 7SM 25/23 A2985 RMK T02500230 IEM_DS3505
ZGSZ,1997-04-30 12:00,ZGSZ 301200Z AUTO 00000KT 7SM 24/21 A2985 RMK 60004 SLP121 T02450210 52010 IEM_DS3505
ZGSZ,1997-04-30 13:00,ZGSZ 301300Z AUTO 13002KT 2 1/2SM 24/22 A2988 RMK T02400220 IEM_DS3505
ZGSZ,1997-04-30 14:00,ZGSZ 301400Z AUTO 12002KT 2SM 23/22 A2991 RMK T02300220 IEM_DS3505
ZGSZ,1997-04-30 15:00,ZGSZ 301500Z AUTO 35006KT 5SM 22/22 A2991 RMK T02200220 IEM_DS3505
ZGSZ,1997-04-30 16:00,ZGSZ 301600Z AUTO 12006KT 6SM 22/22 A2988 RMK T02200220 IEM_DS3505
ZGSZ,1997-04-30 18:00,ZGSZ 301800Z AUTO 04004KT 4SM 23/21 RMK 60008 SLP114 T02310214 57023 IEM_DS3505
ZGSZ,1997-04-30 21:00,ZGSZ 302100Z AUTO 04004KT 7SM 24/22 A2983 RMK 70016 SLP106 T02350216 57008 IEM_DS3505
ZGSZ,1997-04-30 22:00,ZGSZ 302200Z AUTO 00000KT 4SM 22/22 A2983 RMK T02200220 IEM_DS3505
ZGSZ,1997-04-30 23:00,ZGSZ 302300Z AUTO 01002KT 3SM 23/23 A2985 RMK T02300230 IEM_DS3505
ZGSZ,1997-05-01 00:00,ZGSZ 010000Z AUTO 00000KT 5SM 24/22 A2988 RMK 70016 SLP123 T02380217 52017 IEM_DS3505
ZGSZ,1997-05-01 01:00,ZGSZ 010100Z AUTO 00000KT 3SM 26/25 A2988 RMK T02600250 IEM_DS3505
ZGSZ,1997-05-01 03:00,ZGSZ 010300Z AUTO 22004KT 6SM 27/22 RMK SLP119 T02680224 57004 IEM_DS3505
ZGSZ,1997-05-01 04:00,ZGSZ 010400Z AUTO 21002KT 7SM 27/24 A2985 RMK T02700240 IEM_DS3505
ZGSZ,1997-05-01 05:00,ZGSZ 010500Z AUTO 19006KT 6SM 28/25 A2983 RMK T02800250 IEM_DS3505
ZGSZ,1997-05-01 06:00,ZGSZ 010600Z AUTO 22004KT 9SM 29/22 A2983 RMK SLP103 T02940221 57016 IEM_DS3505
ZGSZ,1997-05-01 07:00,ZGSZ 010700Z AUTO 18008KT 7SM 28/25 A2980 RMK T02800250 IEM_DS3505
ZGSZ,1997-05-01 08:00,ZGSZ 010800Z AUTO 18010KT 7SM 28/26 A2980 RMK T02800260 IEM_DS3505
ZGSZ,1997-05-01 09:00,ZGSZ 010900Z AUTO 27006KT 16SM 30/22 A2977 RMK SLP093 T02980225 57010 IEM_DS3505
ZGSZ,1997-05-01 10:00,ZGSZ 011000Z AUTO 17012KT 7SM 26/25 A2980 RMK T02600250 IEM_DS3505
ZGSZ,1997-05-01 11:00,ZGSZ 011100Z AUTO 16010KT 7SM 26/25 A2980 RMK T02600250 IEM_DS3505
ZGSZ,1997-05-01 12:00,ZGSZ 011200Z AUTO 18002KT 11SM 27/22 A2983 RMK SLP109 T02690223 52016 IEM_DS3505
ZGSZ,1997-05-01 13:00,ZGSZ 011300Z AUTO 16012KT 7SM 26/25 A2985 RMK T02600250 IEM_DS3505
ZGSZ,1997-05-01 14:00,ZGSZ 011400Z AUTO 16010KT 7SM 25/25 A2985 RMK T02500250 IEM_DS3505
ZGSZ,1997-05-01 15:00,ZGSZ 011500Z AUTO 16010KT 7SM 25/25 A2985 RMK T02500250 IEM_DS3505
ZGSZ,1997-05-01 16:00,ZGSZ 011600Z AUTO 16010KT 7SM 25/25 A2985 RMK T02500250 IEM_DS3505
ZGSZ,1997-05-01 18:00,ZGSZ 011800Z AUTO 00000KT 9SM 24/22 RMK SLP105 T02450220 57014 IEM_DS3505
ZGSZ,1997-05-01 21:00,ZGSZ 012100Z AUTO 00000KT 7SM 24/22 A2983 RMK SLP106 T02380216 52001 IEM_DS3505
ZGSZ,1997-05-01 22:00,ZGSZ 012200Z AUTO 16004KT 4SM 24/24 A2983 RMK T02400240 IEM_DS3505
ZGSZ,1997-05-01 23:00,ZGSZ 012300Z AUTO 14004KT 3SM 24/24 A2985 RMK T02400240 IEM_DS3505
ZGSZ,1997-05-02 00:00,ZGSZ 020000Z AUTO 00000KT 6SM 25/22 A2985 RMK SLP124 T02480220 52018 IEM_DS3505
ZGSZ,1997-05-02 01:00,ZGSZ 020100Z AUTO 19006KT 7SM 26/25 A2988 RMK T02600250 IEM_DS3505
ZGSZ,1997-05-02 02:00,ZGSZ 020200Z AUTO 18004KT 6SM 27/25 A2988 RMK T02700250 IEM_DS3505
ZGSZ,1997-05-02 03:00,ZGSZ 020300Z AUTO 27006KT 9SM 30/22 A2988 RMK SLP123 T02980225 57001 IEM_DS3505
ZGSZ,1997-05-02 04:00,ZGSZ 020400Z AUTO 19006KT 6SM 29/25 A2985 RMK T02900250 IEM_DS3505
ZGSZ,1997-05-02 05:00,ZGSZ 020500Z AUTO 20008KT 6SM 29/26 A2985 RMK T02900260 IEM_DS3505
ZGSZ,1997-05-02 06:00,ZGSZ 020600Z AUTO 27006KT 7SM 32/20 A2983 RMK SLP102 T03190203 57021 IEM_DS3505
ZGSZ,1997-05-02 07:00,ZGSZ 020700Z AUTO 17008KT 6SM 29/26 A2980 RMK T02900260 IEM_DS3505
ZGSZ,1997-05-02 08:00,ZGSZ 020800Z AUTO 18010KT 6SM 29/26 A2977 RMK T02900260 IEM_DS3505
ZGSZ,1997-05-02 09:00,ZGSZ 020900Z AUTO 22008KT 9SM 30/21 A2977 RMK SLP089 T02980211 57013 IEM_DS3505
ZGSZ,1997-05-02 10:00,ZGSZ 021000Z AUTO 17014KT 6SM 28/26 A2977 RMK T02800260 IEM_DS3505
ZGSZ,1997-05-02 11:00,ZGSZ 021100Z AUTO 17014KT 6SM 27/26 A2980 RMK T02700260 IEM_DS3505
ZGSZ,1997-05-02 12:00,ZGSZ 021200Z AUTO 22006KT 13SM 27/22 A2980 RMK T02740224 52011 IEM_DS3505
ZGSZ,1997-05-02 13:00,ZGSZ 021300Z AUTO 17010KT 6SM 27/26 A2983 RMK T02700260 IEM_DS3505
ZGSZ,1997-05-02 14:00,ZGSZ 021400Z AUTO 16010KT 6SM 27/26 A2983 RMK T02700260 IEM_DS3505
ZGSZ,1997-05-02 15:00,ZGSZ 021500Z AUTO 17010KT 6SM 26/26 A2983 RMK T02600260 IEM_DS3505
ZGSZ,1997-05-02 18:00,ZGSZ 021800Z AUTO 00000KT 12SM 26/22 RMK SLP100 T02560224 57013 IEM_DS3505
ZGSZ,1997-05-02 21:00,ZGSZ 022100Z AUTO 04004KT 11SM 25/22 A2980 RMK SLP097 T02470219 57003 IEM_DS3505
ZGSZ,1997-05-02 22:00,ZGSZ 022200Z AUTO 10004KT 2SM 25/25 A2980 RMK T02500250 IEM_DS3505
ZGSZ,1997-05-02 23:00,ZGSZ 022300Z AUTO 16004KT 1 1/2SM 25/25 A2983 RMK T02500250 IEM_DS3505
ZGSZ,1997-05-03 00:00,ZGSZ 030000Z AUTO 07004KT 9SM 26/22 RMK SLP113 T02570225 52016 IEM_DS3505
ZGSZ,1997-05-03 01:00,ZGSZ 030100Z AUTO 14004KT 7SM 27/26 A2985 RMK T02700260 IEM_DS3505
ZGSZ,1997-05-03 02:00,ZGSZ 030200Z AUTO 18004KT 7SM 28/25 A2985 RMK T02800250 IEM_DS3505
ZGSZ,1997-05-03 03:00,ZGSZ 030300Z AUTO 16004KT 11SM 29/23 A2983 RMK SLP111 T02900226 57002 IEM_DS3505
ZGSZ,1997-05-03 04:00,ZGSZ 030400Z AUTO 19006KT 7SM 29/26 A2983 RMK T02900260 IEM_DS3505
ZGSZ,1997-05-03 05:00,ZGSZ 030500Z AUTO 21008KT 7SM 27/26 A2980 RMK T02700260 IEM_DS3505
ZGSZ,1997-05-03 06:00,ZGSZ 030600Z AUTO 14004KT 12SM 28/24 A2977 RMK SLP091 T02810235 57020 IEM_DS3505
ZGSZ,1997-05-03 07:00,ZGSZ 030700Z AUTO 18008KT 7SM 27/26 A2977 RMK T02700260 IEM_DS3505
ZGSZ,1997-05-03 08:00,ZGSZ 030800Z AUTO 20008KT 7SM 27/25 A2974 RMK T02700250 IEM_DS3505
ZGSZ,1997-05-03 09:00,ZGSZ 030900Z AUTO 18002KT 10SM 28/23 A2974 RMK SLP079 T02770234 57012 IEM_DS3505
ZGSZ,1997-05-03 10:00,ZGSZ 031000Z AUTO 17008KT 7SM 27/25 A2974 RMK T02700250 IEM_DS3505
ZGSZ,1997-05-03 11:00,ZGSZ 031100Z AUTO 16008KT 7SM 27/25 A2974 RMK T02700250 IEM_DS3505
ZGSZ,1997-05-03 12:00,ZGSZ 031200Z AUTO 19010KT 11SM 26/23 A2977 RMK SLP090 T02650232 52011 IEM_DS3505
ZGSZ,1997-05-03 13:00,ZGSZ 031300Z AUTO 15010KT 7SM 27/25 A2980 RMK T02700250 IEM_DS3505
ZGSZ,1997-05-03 14:00,ZGSZ 031400Z AUTO 16006KT 7SM 27/24 A2980 RMK T02700240 IEM_DS3505
ZGSZ,1997-05-03 15:00,ZGSZ 031500Z AUTO 25016KT 4SM 23/22 A2983 RMK T02300220 IEM_DS3505
ZGSZ,1997-05-03 21:00,ZGSZ 032100Z AUTO 00000KT 5SM 24/22 A2974 RMK 70071 SLP084 T02360221 57014 IEM_DS3505
ZGSZ,1997-05-03 22:00,ZGSZ 032200Z AUTO 00000KT 7SM 23/23 A2977 RMK T02300230 IEM_DS3505
ZGSZ,1997-05-03 23:00,ZGSZ 032300Z AUTO 08006KT 7SM 24/24 A2977 RMK T02400240 IEM_DS3505
ZGSZ,1997-05-04 00:00,ZGSZ 040000Z AUTO 09006KT 10SM 23/22 A2980 RMK 60059 70110 SLP103 T02300224 52019 IEM_DS3505
ZGSZ,1997-05-04 01:00,ZGSZ 040100Z AUTO 13008KT 7SM 24/23 A2985 RMK T02400230 IEM_DS3505
ZGSZ,1997-05-04 02:00,ZGSZ 040200Z AUTO 12008KT 7SM 24/23 A2985 RMK T02400230 IEM_DS3505
ZGSZ,1997-05-04 03:00,ZGSZ 040300Z AUTO 09002KT 16SM 24/22 A2983 RMK SLP109 T02430222 52006 IEM_DS3505
ZGSZ,1997-05-04 04:00,ZGSZ 040400Z AUTO 14008KT 7SM 27/25 A2980 RMK T02700250 IEM_DS3505
ZGSZ,1997-05-04 06:00,ZGSZ 040600Z AUTO 14004KT 13SM 28/22 A2977 RMK 60012 SLP091 T02800221 57018 IEM_DS3505
ZGSZ,1997-05-04 07:00,ZGSZ 040700Z AUTO 18012KT 7SM 27/24 A2977 RMK T02700240 IEM_DS3505
ZGSZ,1997-05-04 08:00,ZGSZ 040800Z AUTO 14008KT 7SM 27/24 A2974 RMK T02700240 IEM_DS3505
ZGSZ,1997-05-04 09:00,ZGSZ 040900Z AUTO 09004KT 11SM 26/22 A2974 RMK SLP084 T02620218 57007 IEM_DS3505
ZGSZ,1997-05-04 10:00,ZGSZ 041000Z AUTO 17008KT 7SM 24/23 A2977 RMK T02400230 IEM_DS3505
ZGSZ,1997-05-04 11:00,ZGSZ 041100Z AUTO 16006KT 7SM 24/23 A2977 RMK T02400230 IEM_DS3505
ZGSZ,1997-05-04 12:00,ZGSZ 041200Z AUTO 07004KT 9SM 24/22 A2977 RMK 60024 SLP090 T02390221 52006 IEM_DS3505
ZGSZ,1997-05-04 13:00,ZGSZ 041300Z AUTO 14006KT 7SM 24/23 A2980 RMK T02400230 IEM_DS3505
ZGSZ,1997-05-04 14:00,ZGSZ 041400Z AUTO 11006KT 7SM 24/23 A2980 RMK T02400230 IEM_DS3505
ZGSZ,1997-05-04 15:00,ZGSZ 041500Z AUTO 13010KT 7SM 24/23 A2980 RMK T02400230 IEM_DS3505
ZGSZ,1997-05-04 16:00,ZGSZ 041600Z AUTO 14012KT 7SM 24/23 A2980 RMK T02400230 IEM_DS3505
ZGSZ,1997-05-04 18:00,ZGSZ 041800Z AUTO 09004KT 14SM 24/22 RMK 60028 SLP089 T02360224 57017 IEM_DS3505
ZGSZ,1997-05-04 21:00,ZGSZ 042100Z AUTO 09006KT 12SM 24/22 RMK 70102 SLP082 T02430224 57007 IEM_DS3505
ZGSZ,1997-05-04 23:00,ZGSZ 042300Z AUTO 11010KT 7SM 24/24 A2974 RMK T02400240 IEM_DS3505
ZGSZ,1997-05-05 00:00,ZGSZ 050000Z AUTO 09004KT 9SM 22/22 RMK 60307 70370 SLP099 T02250216 52017 IEM_DS3505
ZGSZ,1997-05-05 01:00,ZGSZ 050100Z AUTO 20004KT 16SM 24/20 A2980 RMK 60004 SLP084 T02430205 57015 IEM_DS3505
ZGSZ,1997-05-05 02:00,ZGSZ 050200Z AUTO 17010KT 7SM 26/24 A2980 RMK T02600240 IEM_DS3505
ZGSZ,1997-05-05 03:00,ZGSZ 050300Z AUTO 14006KT 16SM 26/22 A2980 RMK SLP099 T02580220 54000 IEM_DS3505
ZGSZ,1997-05-05 04:00,ZGSZ 050400Z AUTO 13008KT 7SM 25/24 A2980 RMK T02500240 IEM_DS3505
ZGSZ,1997-05-05 05:00,ZGSZ 050500Z AUTO 20004KT 16SM 26/21 A2977 RMK T02600212 57012 IEM_DS3505
ZGSZ,1997-05-05 06:00,ZGSZ 050600Z AUTO 20004KT 16SM 24/20 A2977 RMK 60004 SLP084 T02430205 57015 IEM_DS3505
ZGSZ,1997-05-05 07:00,ZGSZ 050700Z AUTO 20004KT 16SM 26/21 A2974 RMK SLP072 T02600212 57012 IEM_DS3505
ZGSZ,1997-05-05 08:00,ZGSZ 050800Z AUTO 18008KT 7SM 25/24 A2974 RMK T02500240 IEM_DS3505
ZGSZ,1997-05-05 09:00,ZGSZ 050900Z AUTO 20004KT 16SM 26/21 A2971 RMK SLP072 T02600212 57012 IEM_DS3505
ZGSZ,1997-05-05 11:00,ZGSZ 051100Z AUTO 17008KT 7SM 25/24 A2977 RMK T02500240 IEM_DS3505
ZGSZ,1997-05-05 12:00,ZGSZ 051200Z AUTO 04006KT 12SM 25/22 A2980 RMK 60000 SLP090 T02480220 52018 IEM_DS3505
ZGSZ,1997-05-05 13:00,ZGSZ 051300Z AUTO 15008KT 7SM 25/24 A2977 RMK T02500240 IEM_DS3505
ZGSZ,1997-05-05 14:00,ZGSZ 051400Z AUTO 15010KT 6SM 24/24 A2977 RMK T02400240 IEM_DS3505
ZGSZ,1997-05-05 15:00,ZGSZ 051500Z AUTO 13012KT 6SM 25/24 A2977 RMK T02500240 IEM_DS3505
ZGSZ,1997-05-05 18:00,ZGSZ 051800Z AUTO 14010KT 12SM 25/22 RMK SLP078 T02540222 57020 IEM_DS3505
ZGSZ,1997-05-05 21:00,ZGSZ 052100Z AUTO 09004KT 14SM 25/22 A2971 RMK 70311 SLP071 T02490221 57007 IEM_DS3505
ZGSZ,1997-05-05 22:00,ZGSZ 052200Z AUTO 12004KT 7SM 25/24 A2974 RMK T02500240 IEM_DS3505
ZGSZ,1997-05-05 23:00,ZGSZ 052300Z AUTO 17008KT 7SM 25/24 A2977 RMK T02500240 IEM_DS3505
ZGSZ,1997-05-06 00:00,ZGSZ 060000Z AUTO 22004KT 16SM 25/22 A2977 RMK 60008 70012 SLP091 T02490225 52020 IEM_DS3505
ZGSZ,1997-05-06 01:00,ZGSZ 060100Z AUTO 18010KT 7SM 25/23 A2980 RMK T02500230 IEM_DS3505
ZGSZ,1997-05-06 02:00,ZGSZ 060200Z AUTO 16010KT 6SM 24/23 A2980 RMK T02400230 IEM_DS3505
ZGSZ,1997-05-06 03:00,ZGSZ 060300Z AUTO 00000KT 12SM 24/22 A2980 RMK SLP101 T02410222 52010 IEM_DS3505
ZGSZ,1997-05-06 04:00,ZGSZ 060400Z AUTO 13006KT 6SM 26/24 A2980 RMK T02600240 IEM_DS3505
ZGSZ,1997-05-06 05:00,ZGSZ 060500Z AUTO 12006KT 6SM 26/24 A2977 RMK T02600240 IEM_DS3505
ZGSZ,1997-05-06 06:00,ZGSZ 060600Z AUTO 14004KT 16SM 28/22 A2977 RMK 60008 SLP085 T02760223 57016 IEM_DS3505
ZGSZ,1997-05-06 07:00,ZGSZ 060700Z AUTO 16008KT 7SM 29/24 A2974 RMK T02900240 IEM_DS3505
ZGSZ,1997-05-06 08:00,ZGSZ 060800Z AUTO 18008KT 7SM 28/24 A2974 RMK T02800240 IEM_DS3505
ZGSZ,1997-05-06 09:00,ZGSZ 060900Z AUTO 09006KT 19SM 28/23 A2971 RMK SLP074 T02800231 57011 IEM_DS3505
ZGSZ,1997-05-06 10:00,ZGSZ 061000Z AUTO 14010KT 7SM 28/23 A2971 RMK T02800230 IEM_DS3505
ZGSZ,1997-05-06 11:00,ZGSZ 061100Z AUTO 14008KT 7SM 27/24 A2974 RMK T02700240 IEM_DS3505
ZGSZ,1997-05-06 12:00,ZGSZ 061200Z AUTO 09004KT 12SM 25/23 A2974 RMK 60004 SLP086 T02470231 52012 IEM_DS3505
ZGSZ,1997-05-06 13:00,ZGSZ 061300Z AUTO 10006KT 7SM 26/24 A2977 RMK T02600240 IEM_DS3505
ZGSZ,1997-05-06 14:00,ZGSZ 061400Z AUTO 00000KT 7SM 26/24 A2977 RMK T02600240 IEM_DS3505
ZGSZ,1997-05-06 18:00,ZGSZ 061800Z AUTO 00000KT 12SM 24/23 RMK 60016 SLP090 T02400231 57007 IEM_DS3505
ZGSZ,1997-05-06 21:00,ZGSZ 062100Z AUTO 00000KT 11SM 24/22 A2977 RMK 70039 SLP093 T02360224 52003 IEM_DS3505
ZGSZ,1997-05-06 22:00,ZGSZ 062200Z AUTO 10006KT 4SM 24/24 A2977 RMK T02400240 IEM_DS3505
ZGSZ,1997-05-06 23:00,ZGSZ 062300Z AUTO 11006KT 7SM 25/24 A2980 RMK T02500240 IEM_DS3505
ZGSZ,1997-05-07 00:00,ZGSZ 070000Z AUTO 14008KT 16SM 24/22 A2983 RMK 60004 70031 SLP106 T02440223 52013 IEM_DS3505
ZGSZ,1997-05-07 01:00,ZGSZ 070100Z AUTO 14006KT 7SM 25/24 A2983 RMK T02500240 IEM_DS3505
ZGSZ,1997-05-07 02:00,ZGSZ 070200Z AUTO 14008KT 7SM 26/25 A2985 RMK T02600250 IEM_DS3505
ZGSZ,1997-05-07 03:00,ZGSZ 070300Z AUTO 09002KT 11SM 25/23 A2985 RMK SLP114 T02510232 52008 IEM_DS3505
ZGSZ,1997-05-07 05:00,ZGSZ 070500Z AUTO 19012KT 7SM 27/25 A2983 RMK T02700250 IEM_DS3505
ZGSZ,1997-05-07 06:00,ZGSZ 070600Z AUTO 18008KT 16SM 27/23 A2983 RMK 60012 SLP110 T02720227 57004 IEM_DS3505
ZGSZ,1997-05-07 07:00,ZGSZ 070700Z AUTO 16012KT 7SM 25/24 A2980 RMK T02500240 IEM_DS3505
ZGSZ,1997-05-07 08:00,ZGSZ 070800Z AUTO 16008KT 7SM 26/25 A2977 RMK T02600250 IEM_DS3505
ZGSZ,1997-05-07 09:00,ZGSZ 070900Z AUTO 18004KT 9SM 26/22 A2977 RMK SLP090 T02590225 57020 IEM_DS3505
ZGSZ,1997-05-07 10:00,ZGSZ 071000Z AUTO 17010KT 7SM 26/24 A2977 RMK T02600240 IEM_DS3505
ZGSZ,1997-05-07 11:00,ZGSZ 071100Z AUTO 16004KT 7SM 26/24 A2977 RMK T02600240 IEM_DS3505
ZGSZ,1997-05-07 12:00,ZGSZ 071200Z AUTO 14002KT 16SM 26/23 A2980 RMK 60020 SLP104 T02580226 52014 IEM_DS3505
ZGSZ,1997-05-07 13:00,ZGSZ 071300Z AUTO 11004KT 7SM 26/24 A2983 RMK T02600240 IEM_DS3505
ZGSZ,1997-05-07 14:00,ZGSZ 071400Z AUTO 12004KT 7SM 26/24 A2983 RMK T02600240 IEM_DS3505
ZGSZ,1997-05-07 15:00,ZGSZ 071500Z AUTO 11006KT 7SM 26/24 A2985 RMK T02600240 IEM_DS3505
ZGSZ,1997-05-07 18:00,ZGSZ 071800Z AUTO 14006KT 16SM 24/23 RMK SLP100 T02440229 57017 IEM_DS3505
ZGSZ,1997-05-07 21:00,ZGSZ 072100Z AUTO 14008KT 12SM 24/23 A2977 RMK 70031 SLP091 T02450230 57009 IEM_DS3505
ZGSZ,1997-05-07 23:00,ZGSZ 072300Z AUTO 14006KT 7SM 26/25 A2980 RMK T02600250 IEM_DS3505
ZGSZ,1997-05-08 00:00,ZGSZ 080000Z AUTO 09004KT 17SM 25/23 A2983 RMK 60000 70031 SLP115 T02480233 52024 IEM_DS3505
ZGSZ,1997-05-08 01:00,ZGSZ 080100Z AUTO 16006KT 7SM 26/26 A2985 RMK T02600260 IEM_DS3505
ZGSZ,1997-05-08 02:00,ZGSZ 080200Z AUTO 15008KT 7SM 27/27 A2985 RMK T02700270 IEM_DS3505
ZGSZ,1997-05-08 03:00,ZGSZ 080300Z AUTO 14006KT 16SM 25/22 A2985 RMK SLP122 T02460225 52007 IEM_DS3505
ZGSZ,1997-05-08 04:00,ZGSZ 080400Z AUTO 17008KT 7SM 27/26 A2985 RMK T02700260 IEM_DS3505
ZGSZ,1997-05-08 05:00,ZGSZ 080500Z AUTO 16010KT 7SM 28/27 A2983 RMK T02800270 IEM_DS3505
ZGSZ,1997-05-08 06:00,ZGSZ 080600Z AUTO 25002KT 16SM 27/24 A2980 RMK SLP101 T02740240 57021 IEM_DS3505
ZGSZ,1997-05-08 07:00,ZGSZ 080700Z AUTO 17010KT 7SM 28/27 A2977 RMK T02800270 IEM_DS3505
ZGSZ,1997-05-08 08:00,ZGSZ 080800Z AUTO 17010KT 7SM 28/27 A2977 RMK T02800270 IEM_DS3505
ZGSZ,1997-05-08 09:00,ZGSZ 080900Z AUTO 22004KT 16SM 28/24 A2977 RMK SLP088 T02830239 57013 IEM_DS3505
ZGSZ,1997-05-08 10:00,ZGSZ 081000Z AUTO 16008KT 7SM 27/27 A2977 RMK T02700270 IEM_DS3505
ZGSZ,1997-05-08 11:00,ZGSZ 081100Z AUTO 16006KT 7SM 27/26 A2980 RMK T02700260 IEM_DS3505
ZGSZ,1997-05-08 12:00,ZGSZ 081200Z AUTO 09004KT 11SM 27/24 A2980 RMK SLP100 T02670244 52012 IEM_DS3505
ZGSZ,1997-05-08 13:00,ZGSZ 081300Z AUTO 29014KT 1SM 23/23 A2983 RMK T02300230 IEM_DS3505
ZGSZ,1997-05-08 14:00,ZGSZ 081400Z AUTO 14006KT 4SM 22/22 A2985 RMK T02200220 IEM_DS3505
ZGSZ,1997-05-08 15:00,ZGSZ 081500Z AUTO 19004KT 7SM 22/22 A2983 RMK T02200220 IEM_DS3505
ZGSZ,1997-05-08 16:00,ZGSZ 081600Z AUTO 11004KT 7SM 23/23 A2980 RMK T02300230 IEM_DS3505
ZGSZ,1997-05-08 17:00,ZGSZ 081700Z AUTO 02004KT 7SM 23/23 A2980 RMK T02300230 IEM_DS3505
ZGSZ,1997-05-08 18:00,ZGSZ 081800Z AUTO 04004KT 5SM 24/23 A2980 RMK 60031 SLP091 T02350228 57021 IEM_DS3505
ZGSZ,1997-05-08 19:00,ZGSZ 081900Z AUTO 10004KT 7SM 23/23 A2977 RMK T02300230 IEM_DS3505
ZGSZ,1997-05-08 20:00,ZGSZ 082000Z AUTO 33004KT 7SM 23/23 A2974 RMK T02300230 IEM_DS3505
ZGSZ,1997-05-08 21:00,ZGSZ 082100Z AUTO 04004KT 4SM 24/23 A2977 RMK 70035 SLP086 T02370227 57005 IEM_DS3505
ZGSZ,1997-05-08 22:00,ZGSZ 082200Z AUTO 36002KT 4SM 23/23 A2977 RMK T02300230 IEM_DS3505
ZGSZ,1997-05-08 23:00,ZGSZ 082300Z AUTO 35006KT 2 1/2SM 23/23 A2980 RMK T02300230 IEM_DS3505
ZGSZ,1997-05-09 00:00,ZGSZ 090000Z AUTO 04002KT 3SM 24/ A2983 RMK 60002 70035 SLP106 52020 IEM_DS3505
ZGSZ,1997-05-09 01:00,ZGSZ 090100Z AUTO 00000KT 3SM 24/24 A2983 RMK T02400240 IEM_DS3505
ZGSZ,1997-05-09 03:00,ZGSZ 090300Z AUTO 00000KT 2 1/2SM 25/24 A2985 RMK SLP115 T02520238 52009 IEM_DS3505
ZGSZ,1997-05-09 06:00,ZGSZ 090600Z AUTO 14004KT 12SM 27/24 A2980 RMK 60000 SLP101 T02680236 57014 IEM_DS3505
ZGSZ,1997-05-09 07:00,ZGSZ 090700Z AUTO 21002KT 2 1/2SM 27/25 A2980 RMK T02700250 IEM_DS3505
ZGSZ,1997-05-09 08:00,ZGSZ 090800Z AUTO 18006KT 4SM 28/25 A2980 RMK T02800250 IEM_DS3505
ZGSZ,1997-05-09 09:00,ZGSZ 090900Z AUTO 14008KT 11SM 24/22 A2980 RMK SLP099 T02400218 57002 IEM_DS3505
ZGSZ,1997-05-09 10:00,ZGSZ 091000Z AUTO 12012KT 6SM 26/24 A2980 RMK T02600240 IEM_DS3505
ZGSZ,1997-05-09 11:00,ZGSZ 091100Z AUTO 12014KT 6SM 25/23 A2980 RMK T02500230 IEM_DS3505
ZGSZ,1997-05-09 12:00,ZGSZ 091200Z AUTO 18010KT 12SM 23/20 A2983 RMK SLP110 T02290203 52011 IEM_DS3505
ZGSZ,1997-05-09 13:00,ZGSZ 091300Z AUTO 12014KT 7SM 24/22 A2983 RMK T02400220 IEM_DS3505
ZGSZ,1997-05-09 14:00,ZGSZ 091400Z AUTO 11016KT 7SM 23/22 A2980 RMK T02300220 IEM_DS3505
ZGSZ,1997-05-09 15:00,ZGSZ 091500Z AUTO 12017KT 6SM 23/21 A2980 RMK T02300210 IEM_DS3505
ZGSZ,1997-05-09 16:00,ZGSZ 091600Z AUTO 12019KT 6SM 23/21 A2980 RMK T02300210 IEM_DS3505
ZGSZ,1997-05-09 17:00,ZGSZ 091700Z AUTO 12016KT 6SM 23/22 A2980 RMK T02300220 IEM_DS3505
ZGSZ,1997-05-09 18:00,ZGSZ 091800Z AUTO 04006KT 6SM 22/20 A2980 RMK SLP103 T02200202 57009 IEM_DS3505
ZGSZ,1997-05-09 19:00,ZGSZ 091900Z AUTO 12014KT 7SM 23/22 A2977 RMK T02300220 IEM_DS3505
ZGSZ,1997-05-09 21:00,ZGSZ 092100Z AUTO 09006KT 7SM 22/20 A2977 RMK 70000 SLP095 T02210204 57008 IEM_DS3505
ZGSZ,1997-05-09 22:00,ZGSZ 092200Z AUTO 11012KT 7SM 23/22 A2980 RMK T02300220 IEM_DS3505
ZGSZ,1997-05-09 23:00,ZGSZ 092300Z AUTO 11008KT 7SM 22/22 A2983 RMK T02200220 IEM_DS3505
ZGSZ,1997-05-10 00:00,ZGSZ 100000Z AUTO 09004KT 4SM 22/21 A2983 RMK 60047 70047 SLP117 T02150210 52021 IEM_DS3505
ZGSZ,1997-05-10 01:00,ZGSZ 100100Z AUTO 10012KT 7SM 24/23 A2983 RMK T02400230 IEM_DS3505
ZGSZ,1997-05-10 02:00,ZGSZ 100200Z AUTO 11010KT 7SM 25/23 A2983 RMK T02500230 IEM_DS3505
ZGSZ,1997-05-10 03:00,ZGSZ 100300Z AUTO 09008KT 19SM 24/22 A2983 RMK SLP111 T02430215 57005 IEM_DS3505
ZGSZ,1997-05-10 04:00,ZGSZ 100400Z AUTO 12010KT 7SM 26/24 A2983 RMK T02600240 IEM_DS3505
ZGSZ,1997-05-10 05:00,ZGSZ 100500Z AUTO 10010KT 7SM 26/23 A2980 RMK T02600230 IEM_DS3505
ZGSZ,1997-05-10 06:00,ZGSZ 100600Z AUTO 14010KT 11SM 25/22 A2977 RMK 60031 SLP093 T02490216 57018 IEM_DS3505
ZGSZ,1997-05-10 07:00,ZGSZ 100700Z AUTO 12010KT 7SM 27/24 A2977 RMK T02700240 IEM_DS3505
ZGSZ,1997-05-10 08:00,ZGSZ 100800Z AUTO 12010KT 7SM 27/24 A2974 RMK T02700240 IEM_DS3505
ZGSZ,1997-05-10 09:00,ZGSZ 100900Z AUTO 14008KT 6SM 24/22 A2974 RMK SLP082 T02430215 57011 IEM_DS3505
ZGSZ,1997-05-10 10:00,ZGSZ 101000Z AUTO 13010KT 7SM 26/24 A2974 RMK T02600240 IEM_DS3505
ZGSZ,1997-05-10 11:00,ZGSZ 101100Z AUTO 11008KT 7SM 25/23 A2974 RMK T02500230 IEM_DS3505
ZGSZ,1997-05-10 12:00,ZGSZ 101200Z AUTO 14006KT 5SM 24/22 A2974 RMK SLP084 T02350216 52001 IEM_DS3505
ZGSZ,1997-05-10 13:00,ZGSZ 101300Z AUTO 14010KT 7SM 24/23 A2974 RMK T02400230 IEM_DS3505
ZGSZ,1997-05-10 14:00,ZGSZ 101400Z AUTO 12008KT 7SM 24/23 A2977 RMK T02400230 IEM_DS3505
ZGSZ,1997-05-10 15:00,ZGSZ 101500Z AUTO 13008KT 7SM 24/23 A2977 RMK T02400230 IEM_DS3505
ZGSZ,1997-05-10 16:00,ZGSZ 101600Z AUTO 12010KT 7SM 25/23 A2977 RMK T02500230 IEM_DS3505
ZGSZ,1997-05-10 17:00,ZGSZ 101700Z AUTO 12010KT 6SM 25/23 A2977 RMK T02500230 IEM_DS3505
ZGSZ,1997-05-10 18:00,ZGSZ 101800Z AUTO 14006KT 4SM 24/22 A2977 RMK SLP089 T02370225 57004 IEM_DS3505
ZGSZ,1997-05-10 19:00,ZGSZ 101900Z AUTO 13010KT 6SM 25/24 A2974 RMK T02500240 IEM_DS3505
ZGSZ,1997-05-10 21:00,ZGSZ 102100Z AUTO 14006KT 4SM 24/23 A2974 RMK 70079 SLP086 T02410226 57003 IEM_DS3505
ZGSZ,1997-05-10 22:00,ZGSZ 102200Z AUTO 13008KT 7SM 25/24 A2977 RMK T02500240 IEM_DS3505
ZGSZ,1997-05-10 23:00,ZGSZ 102300Z AUTO 13010KT 7SM 26/25 A2977 RMK T02600250 IEM_DS3505
ZGSZ,1997-05-11 00:00,ZGSZ 110000Z AUTO 14006KT 9SM 26/23 A2977 RMK 70031 SLP095 T02560231 52009 IEM_DS3505
ZGSZ,1997-05-11 01:00,ZGSZ 110100Z AUTO 15008KT 7SM 29/26 A2980 RMK T02900260 IEM_DS3505
ZGSZ,1997-05-11 02:00,ZGSZ 110200Z AUTO 17012KT 7SM 29/26 A2980 RMK T02900260 IEM_DS3505
ZGSZ,1997-05-11 03:00,ZGSZ 110300Z AUTO 14006KT 17SM 30/24 A2980 RMK SLP097 T03020241 52002 IEM_DS3505
ZGSZ,1997-05-11 04:00,ZGSZ 110400Z AUTO 17012KT 7SM 29/26 A2980 RMK T02900260 IEM_DS3505
ZGSZ,1997-05-11 05:00,ZGSZ 110500Z AUTO 17012KT 7SM 28/26 A2977 RMK T02800260 IEM_DS3505
ZGSZ,1997-05-11 06:00,ZGSZ 110600Z AUTO 22006KT 16SM 31/23 A2974 RMK SLP079 T03140226 57018 IEM_DS3505
ZGSZ,1997-05-11 07:00,ZGSZ 110700Z AUTO 17014KT 7SM 29/26 A2974 RMK T02900260 IEM_DS3505
ZGSZ,1997-05-11 08:00,ZGSZ 110800Z AUTO 17017KT 7SM 29/26 A2971 RMK T02900260 IEM_DS3505
ZGSZ,1997-05-11 09:00,ZGSZ 110900Z AUTO 22004KT 14SM 30/23 A2968 RMK SLP067 T03020228 57012 IEM_DS3505
ZGSZ,1997-05-11 10:00,ZGSZ 111000Z AUTO 16012KT 7SM 28/26 A2971 RMK T02800260 IEM_DS3505
ZGSZ,1997-05-11 11:00,ZGSZ 111100Z AUTO 16012KT 7SM 28/26 A2971 RMK T02800260 IEM_DS3505
ZGSZ,1997-05-11 12:00,ZGSZ 111200Z AUTO 22004KT 12SM 28/23 A2971 RMK SLP076 T02790234 52009 IEM_DS3505
ZGSZ,1997-05-11 13:00,ZGSZ 111300Z AUTO 16008KT 7SM 28/26 A2974 RMK T02800260 IEM_DS3505
ZGSZ,1997-05-11 14:00,ZGSZ 111400Z AUTO 14008KT 7SM 27/26 A2974 RMK T02700260 IEM_DS3505
ZGSZ,1997-05-11 15:00,ZGSZ 111500Z AUTO 14008KT 7SM 27/26 A2977 RMK T02700260 IEM_DS3505
ZGSZ,1997-05-11 16:00,ZGSZ 111600Z AUTO 16010KT 7SM 27/26 A2977 RMK T02700260 IEM_DS3505
ZGSZ,1997-05-11 17:00,ZGSZ 111700Z AUTO 16012KT 7SM 27/26 A2977 RMK T02700260 IEM_DS3505
ZGSZ,1997-05-11 18:00,ZGSZ 111800Z AUTO 22002KT 12SM 27/24 RMK SLP078 T02720240 57011 IEM_DS3505
ZGSZ,1997-05-11 21:00,ZGSZ 112100Z AUTO 18002KT 12SM 27/24 A2974 RMK SLP078 T02710241 57001 IEM_DS3505
ZGSZ,1997-05-11 22:00,ZGSZ 112200Z AUTO 16010KT 7SM 27/26 A2974 RMK T02700260 IEM_DS3505
ZGSZ,1997-05-11 23:00,ZGSZ 112300Z AUTO 16010KT 7SM 27/26 A2977 RMK T02700260 IEM_DS3505
ZGSZ,1997-05-12 00:00,ZGSZ 120000Z AUTO 22004KT 19SM 28/24 A2977 RMK SLP094 T02820237 52016 IEM_DS3505
ZGSZ,1997-05-12 01:00,ZGSZ 120100Z AUTO 17014KT 7SM 29/27 A2980 RMK T02900270 IEM_DS3505
ZGSZ,1997-05-12 02:00,ZGSZ 120200Z AUTO 17012KT 7SM 28/27 A2980 RMK T02800270 IEM_DS3505
ZGSZ,1997-05-12 03:00,ZGSZ 120300Z AUTO 18006KT 19SM 30/24 A2980 RMK SLP096 T03040235 52002 IEM_DS3505
ZGSZ,1997-05-12 04:00,ZGSZ 120400Z AUTO 17014KT 7SM 30/27 A2977 RMK T03000270 IEM_DS3505
ZGSZ,1997-05-12 05:00,ZGSZ 120500Z AUTO 18014KT 7SM 29/27 A2977 RMK T02900270 IEM_DS3505
ZGSZ,1997-05-12 06:00,ZGSZ 120600Z AUTO 22012KT 16SM 30/23 A2974 RMK SLP087 T02970232 57009 IEM_DS3505
ZGSZ,1997-05-12 07:00,ZGSZ 120700Z AUTO 17016KT 6SM 30/27 A2974 RMK T03000270 IEM_DS3505
ZGSZ,1997-05-12 08:00,ZGSZ 120800Z AUTO 17016KT 6SM 30/27 A2971 RMK T03000270 IEM_DS3505
ZGSZ,1997-05-12 09:00,ZGSZ 120900Z AUTO 22012KT 16SM 31/24 A2971 RMK SLP075 T03060236 57011 IEM_DS3505
ZGSZ,1997-05-12 10:00,ZGSZ 121000Z AUTO 17014KT 7SM 29/26 A2971 RMK T02900260 IEM_DS3505
ZGSZ,1997-05-12 11:00,ZGSZ 121100Z AUTO 16012KT 7SM 28/26 A2974 RMK T02800260 IEM_DS3505
ZGSZ,1997-05-12 12:00,ZGSZ 121200Z AUTO 32004KT 11SM 28/24 A2974 RMK SLP085 T02830237 52009 IEM_DS3505
ZGSZ,1997-05-12 13:00,ZGSZ 121300Z AUTO 16012KT 6SM 28/26 A2977 RMK T02800260 IEM_DS3505
ZGSZ,1997-05-12 14:00,ZGSZ 121400Z AUTO 16010KT 6SM 28/26 A2977 RMK T02800260 IEM_DS3505
ZGSZ,1997-05-12 15:00,ZGSZ 121500Z AUTO 16010KT 6SM 28/26 A2980 RMK T02800260 IEM_DS3505
ZGSZ,1997-05-12 16:00,ZGSZ 121600Z AUTO 16008KT 6SM 27/26 A2980 RMK T02700260 IEM_DS3505
ZGSZ,1997-05-12 18:00,ZGSZ 121800Z AUTO 07004KT 9SM 27/24 RMK SLP094 T02740240 57008 IEM_DS3505
ZGSZ,1997-05-12 21:00,ZGSZ 122100Z AUTO 09002KT 11SM 27/24 A2980 RMK SLP096 T02710235 52002 IEM_DS3505
ZGSZ,1997-05-12 22:00,ZGSZ 122200Z AUTO 14006KT 7SM 27/25 A2980 RMK T02700250 IEM_DS3505
ZGSZ,1997-05-12 23:00,ZGSZ 122300Z AUTO 13008KT 7SM 28/26 A2983 RMK T02800260 IEM_DS3505
ZGSZ,1997-05-13 00:00,ZGSZ 130000Z AUTO 00000KT 12SM 28/24 A2983 RMK SLP112 T02780238 52016 IEM_DS3505
ZGSZ,1997-05-13 01:00,ZGSZ 130100Z AUTO 17010KT 7SM 28/26 A2985 RMK T02800260 IEM_DS3505
ZGSZ,1997-05-13 02:00,ZGSZ 130200Z AUTO 17012KT 7SM 29/26 A2985 RMK T02900260 IEM_DS3505
ZGSZ,1997-05-13 03:00,ZGSZ 130300Z AUTO 22006KT 19SM 32/22 A2985 RMK SLP115 T03180224 52003 IEM_DS3505
ZGSZ,1997-05-13 04:00,ZGSZ 130400Z AUTO 16014KT 7SM 31/27 A2983 RMK T03100270 IEM_DS3505
ZGSZ,1997-05-13 05:00,ZGSZ 130500Z AUTO 17012KT 7SM 31/27 A2983 RMK T03100270 IEM_DS3505
ZGSZ,1997-05-13 07:00,ZGSZ 130700Z AUTO 17016KT 7SM 30/27 A2980 RMK T03000270 IEM_DS3505
ZGSZ,1997-05-13 08:00,ZGSZ 130800Z AUTO 17014KT 7SM 31/27 A2977 RMK T03100270 IEM_DS3505
ZGSZ,1997-05-13 09:00,ZGSZ 130900Z AUTO 22010KT 19SM 31/23 A2977 RMK SLP085 T03100232 57017 IEM_DS3505
ZGSZ,1997-05-13 10:00,ZGSZ 131000Z AUTO 17012KT 7SM 29/27 A2977 RMK T02900270 IEM_DS3505
ZGSZ,1997-05-13 11:00,ZGSZ 131100Z AUTO 17014KT 7SM 29/26 A2977 RMK T02900260 IEM_DS3505
ZGSZ,1997-05-13 12:00,ZGSZ 131200Z AUTO 00000KT 11SM 28/24 A2977 RMK SLP094 T02850239 52009 IEM_DS3505
ZGSZ,1997-05-13 13:00,ZGSZ 131300Z AUTO 16010KT 7SM 28/26 A2980 RMK T02800260 IEM_DS3505
ZGSZ,1997-05-13 14:00,ZGSZ 131400Z AUTO 16010KT 6SM 28/26 A2983 RMK T02800260 IEM_DS3505
ZGSZ,1997-05-13 15:00,ZGSZ 131500Z AUTO 16008KT 7SM 28/26 A2983 RMK T02800260 IEM_DS3505
ZGSZ,1997-05-13 16:00,ZGSZ 131600Z AUTO 16006KT 7SM 28/26 A2983 RMK T02800260 IEM_DS3505
ZGSZ,1997-05-13 17:00,ZGSZ 131700Z AUTO 16006KT 7SM 27/26 A2983 RMK T02700260 IEM_DS3505
ZGSZ,1997-05-13 18:00,ZGSZ 131800Z AUTO 09002KT 9SM 27/24 RMK SLP099 T02740243 57010 IEM_DS3505
ZGSZ,1997-05-13 21:00,ZGSZ 132100Z AUTO 09004KT 12SM 27/24 A2980 RMK SLP099 T02710239 57001 IEM_DS3505
ZGSZ,1997-05-13 22:00,ZGSZ 132200Z AUTO 16004KT 7SM 27/26 A2980 RMK T02700260 IEM_DS3505
ZGSZ,1997-05-13 23:00,ZGSZ 132300Z AUTO 13004KT 7SM 28/26 A2983 RMK T02800260 IEM_DS3505
ZGSZ,1997-05-14 00:00,ZGSZ 140000Z AUTO 00000KT 7SM 28/24 A2983 RMK SLP116 T02800243 52017 IEM_DS3505
ZGSZ,1997-05-14 01:00,ZGSZ 140100Z AUTO 17008KT 7SM 28/26 A2985 RMK T02800260 IEM_DS3505
ZGSZ,1997-05-14 02:00,ZGSZ 140200Z AUTO 18008KT 7SM 29/26 A2985 RMK T02900260 IEM_DS3505
ZGSZ,1997-05-14 03:00,ZGSZ 140300Z AUTO 22008KT 8SM 31/22 A2985 RMK SLP122 T03080222 52006 IEM_DS3505
ZGSZ,1997-05-14 04:00,ZGSZ 140400Z AUTO 18014KT 7SM 30/27 A2985 RMK T03000270 IEM_DS3505
ZGSZ,1997-05-14 05:00,ZGSZ 140500Z AUTO 18014KT 7SM 31/26 A2983 RMK T03100260 IEM_DS3505
ZGSZ,1997-05-14 06:00,ZGSZ 140600Z AUTO 22012KT 19SM 32/22 A2983 RMK SLP104 T03180222 57018 IEM_DS3505
ZGSZ,1997-05-14 07:00,ZGSZ 140700Z AUTO 18014KT 7SM 30/27 A2980 RMK T03000270 IEM_DS3505
ZGSZ,1997-05-14 08:00,ZGSZ 140800Z AUTO 17014KT 7SM 30/27 A2977 RMK T03000270 IEM_DS3505
ZGSZ,1997-05-14 09:00,ZGSZ 140900Z AUTO 20008KT 19SM 31/22 A2974 RMK SLP084 T03120220 57019 IEM_DS3505
ZGSZ,1997-05-14 10:00,ZGSZ 141000Z AUTO 17014KT 6SM 29/27 A2974 RMK T02900270 IEM_DS3505
ZGSZ,1997-05-14 11:00,ZGSZ 141100Z AUTO 17010KT 6SM 28/26 A2977 RMK T02800260 IEM_DS3505
ZGSZ,1997-05-14 12:00,ZGSZ 141200Z AUTO 14004KT 16SM 28/23 A2977 RMK SLP095 T02840230 52010 IEM_DS3505
ZGSZ,1997-05-14 13:00,ZGSZ 141300Z AUTO 17012KT 6SM 28/26 A2980 RMK T02800260 IEM_DS3505
ZGSZ,1997-05-14 14:00,ZGSZ 141400Z AUTO 18010KT 6SM 28/26 A2983 RMK T02800260 IEM_DS3505
ZGSZ,1997-05-14 15:00,ZGSZ 141500Z AUTO 17012KT 6SM 28/26 A2983 RMK T02800260 IEM_DS3505
ZGSZ,1997-05-14 16:00,ZGSZ 141600Z AUTO 17008KT 6SM 27/26 A2983 RMK T02700260 IEM_DS3505
ZGSZ,1997-05-14 18:00,ZGSZ 141800Z AUTO 00000KT 16SM 27/24 RMK SLP102 T02700235 57007 IEM_DS3505
ZGSZ,1997-05-14 21:00,ZGSZ 142100Z AUTO 00000KT 14SM 27/24 RMK T02690237 57001 IEM_DS3505
ZGSZ,1997-05-14 22:00,ZGSZ 142200Z AUTO 17008KT 7SM 27/26 A2980 RMK T02700260 IEM_DS3505
ZGSZ,1997-05-14 23:00,ZGSZ 142300Z AUTO 17008KT 7SM 28/27 A2983 RMK T02800270 IEM_DS3505
ZGSZ,1997-05-15 00:00,ZGSZ 150000Z AUTO 18002KT 8SM 28/24 A2983 RMK SLP109 T02790239 IEM_DS3505
ZGSZ,1997-05-15 01:00,ZGSZ 150100Z AUTO 17008KT 7SM 29/27 A2983 RMK T02900270 IEM_DS3505
ZGSZ,1997-05-15 02:00,ZGSZ 150200Z AUTO 18008KT 7SM 30/28 A2983 RMK T03000280 IEM_DS3505
ZGSZ,1997-05-15 03:00,ZGSZ 150300Z AUTO 22006KT 19SM 31/23 A2983 RMK SLP105 T03090226 57004 IEM_DS3505
ZGSZ,1997-05-15 04:00,ZGSZ 150400Z AUTO 17008KT 7SM 30/27 A2980 RMK T03000270 IEM_DS3505
ZGSZ,1997-05-15 05:00,ZGSZ 150500Z AUTO 17010KT 7SM 30/27 A2977 RMK T03000270 IEM_DS3505
ZGSZ,1997-05-15 06:00,ZGSZ 150600Z AUTO 20006KT 19SM 32/23 A2977 RMK SLP086 T03250230 57018 IEM_DS3505
ZGSZ,1997-05-15 07:00,ZGSZ 150700Z AUTO 18014KT 7SM 31/27 A2974 RMK T03100270 IEM_DS3505
ZGSZ,1997-05-15 08:00,ZGSZ 150800Z AUTO 18014KT 6SM 30/27 A2971 RMK T03000270 IEM_DS3505
ZGSZ,1997-05-15 09:00,ZGSZ 150900Z AUTO 22004KT 19SM 31/24 A2971 RMK SLP067 T03120238 57019 IEM_DS3505
ZGSZ,1997-05-15 10:00,ZGSZ 151000Z AUTO 18016KT 7SM 29/27 A2971 RMK T02900270 IEM_DS3505
ZGSZ,1997-05-15 11:00,ZGSZ 151100Z AUTO 20008KT 19SM 28/24 A2974 RMK SLP082 T02840238 52014 IEM_DS3505
ZGSZ,1997-05-15 12:00,ZGSZ 151200Z AUTO 20008KT 19SM 28/24 A2974 RMK SLP082 T02840238 52014 IEM_DS3505
ZGSZ,1997-05-15 13:00,ZGSZ 151300Z AUTO 19012KT 7SM 28/27 A2977 RMK T02800270 IEM_DS3505
ZGSZ,1997-05-15 14:00,ZGSZ 151400Z AUTO 18010KT 7SM 28/27 A2980 RMK T02800270 IEM_DS3505
ZGSZ,1997-05-15 15:00,ZGSZ 151500Z AUTO 19008KT 7SM 28/27 A2980 RMK T02800270 IEM_DS3505
ZGSZ,1997-05-15 18:00,ZGSZ 151800Z AUTO 22004KT 16SM 28/24 RMK SLP082 T02750242 57015 IEM_DS3505
ZGSZ,1997-05-15 21:00,ZGSZ 152100Z AUTO 00000KT 12SM 27/24 A2974 RMK SLP077 T02730240 57005 IEM_DS3505
ZGSZ,1997-05-15 22:00,ZGSZ 152200Z AUTO 19010KT 7SM 27/27 A2974 RMK T02700270 IEM_DS3505
ZGSZ,1997-05-15 23:00,ZGSZ 152300Z AUTO 19010KT 7SM 28/27 A2977 RMK T02800270 IEM_DS3505
ZGSZ,1997-05-16 00:00,ZGSZ 160000Z AUTO 22008KT 9SM 29/24 A2977 RMK SLP096 T02860243 52018 IEM_DS3505
ZGSZ,1997-05-16 01:00,ZGSZ 160100Z AUTO 19006KT 7SM 30/28 A2980 RMK T03000280 IEM_DS3505
ZGSZ,1997-05-16 02:00,ZGSZ 160200Z AUTO 19008KT 7SM 30/27 A2980 RMK T03000270 IEM_DS3505
ZGSZ,1997-05-16 03:00,ZGSZ 160300Z AUTO 22010KT 12SM 31/24 A2980 RMK SLP096 T03140237 52001 IEM_DS3505
ZGSZ,1997-05-16 04:00,ZGSZ 160400Z AUTO 17012KT 7SM 30/28 A2977 RMK T03000280 IEM_DS3505
ZGSZ,1997-05-16 05:00,ZGSZ 160500Z AUTO 18014KT 7SM 31/28 A2974 RMK T03100280 IEM_DS3505
ZGSZ,1997-05-16 06:00,ZGSZ 160600Z AUTO 22008KT 19SM 33/22 A2971 RMK SLP073 T03270223 57023 IEM_DS3505
ZGSZ,1997-05-16 07:00,ZGSZ 160700Z AUTO 18016KT 7SM 30/28 A2971 RMK T03000280 IEM_DS3505
ZGSZ,1997-05-16 08:00,ZGSZ 160800Z AUTO 18017KT 7SM 30/27 A2968 RMK T03000270 IEM_DS3505
ZGSZ,1997-05-16 09:00,ZGSZ 160900Z AUTO 16004KT 19SM 30/24 A2968 RMK SLP058 T03030244 57015 IEM_DS3505
ZGSZ,1997-05-16 10:00,ZGSZ 161000Z AUTO 18016KT 7SM 29/28 A2968 RMK T02900280 IEM_DS3505
ZGSZ,1997-05-16 11:00,ZGSZ 161100Z AUTO 25004KT 12SM 25/24 A2971 RMK 60118 SLP081 T02510238 57016 IEM_DS3505
ZGSZ,1997-05-16 12:00,ZGSZ 161200Z AUTO 22006KT 16SM 29/24 A2974 RMK SLP080 T02920242 52021 IEM_DS3505
ZGSZ,1997-05-16 13:00,ZGSZ 161300Z AUTO 18010KT 7SM 29/28 A2974 RMK T02900280 IEM_DS3505
ZGSZ,1997-05-16 14:00,ZGSZ 161400Z AUTO 21008KT 2SM 27/26 A2977 RMK T02700260 IEM_DS3505
ZGSZ,1997-05-16 15:00,ZGSZ 161500Z AUTO 35006KT 7SM 27/26 A2977 RMK T02700260 IEM_DS3505
ZGSZ,1997-05-16 16:00,ZGSZ 161600Z AUTO 07002KT 7SM 27/25 A2977 RMK T02700250 IEM_DS3505
ZGSZ,1997-05-16 17:00,ZGSZ 161700Z AUTO 12002KT 6SM 26/25 A2977 RMK T02600250 IEM_DS3505
ZGSZ,1997-05-16 18:00,ZGSZ 161800Z AUTO 25004KT 12SM 25/24 RMK 60118 SLP081 T02510238 57016 IEM_DS3505
ZGSZ,1997-05-16 20:00,ZGSZ 162000Z AUTO 19012KT 7SM 26/26 A2974 RMK T02600260 IEM_DS3505
ZGSZ,1997-05-16 21:00,ZGSZ 162100Z AUTO 22006KT 16SM 26/24 A2974 RMK 70118 SLP084 T02580238 52003 IEM_DS3505
ZGSZ,1997-05-16 22:00,ZGSZ 162200Z AUTO 20010KT 7SM 26/25 A2977 RMK T02600250 IEM_DS3505
ZGSZ,1997-05-16 23:00,ZGSZ 162300Z AUTO 20008KT 7SM 26/26 A2977 RMK T02600260 IEM_DS3505
ZGSZ,1997-05-17 00:00,ZGSZ 170000Z AUTO 27008KT 7SM 26/24 A2980 RMK 60008 70122 SLP096 T02580245 52012 IEM_DS3505
ZGSZ,1997-05-17 01:00,ZGSZ 170100Z AUTO 21008KT 7SM 27/24 A2980 RMK T02700240 IEM_DS3505
ZGSZ,1997-05-17 02:00,ZGSZ 170200Z AUTO 34006KT 7SM 27/25 A2980 RMK T02700250 IEM_DS3505
ZGSZ,1997-05-17 03:00,ZGSZ 170300Z AUTO 22004KT 11SM 29/23 A2983 RMK SLP100 T02860234 52004 IEM_DS3505
ZGSZ,1997-05-17 04:00,ZGSZ 170400Z AUTO 30004KT 7SM 27/25 A2980 RMK T02700250 IEM_DS3505
ZGSZ,1997-05-17 05:00,ZGSZ 170500Z AUTO 25004KT 7SM 27/25 A2980 RMK T02700250 IEM_DS3505
ZGSZ,1997-05-17 06:00,ZGSZ 170600Z AUTO 27008KT 17SM 29/23 A2974 RMK SLP081 T02900228 57019 IEM_DS3505
ZGSZ,1997-05-17 07:00,ZGSZ 170700Z AUTO 26002KT 7SM 28/26 A2974 RMK T02800260 IEM_DS3505
ZGSZ,1997-05-17 08:00,ZGSZ 170800Z AUTO 20002KT 7SM 28/25 A2971 RMK T02800250 IEM_DS3505
ZGSZ,1997-05-17 09:00,ZGSZ 170900Z AUTO 27004KT 17SM 29/24 A2968 RMK SLP066 T02860236 57015 IEM_DS3505
ZGSZ,1997-05-17 10:00,ZGSZ 171000Z AUTO 00000KT 7SM 28/ RMK IEM_DS3505
ZGSZ,1997-05-17 11:00,ZGSZ 171100Z AUTO 16002KT 7SM 28/25 A2971 RMK T02800250 IEM_DS3505
ZGSZ,1997-05-17 12:00,ZGSZ 171200Z AUTO 22004KT 12SM 28/24 A2971 RMK SLP070 T02790239 52004 IEM_DS3505
ZGSZ,1997-05-17 14:00,ZGSZ 171400Z AUTO 17004KT 3SM 28/26 A2974 RMK T02800260 IEM_DS3505
ZGSZ,1997-05-17 15:00,ZGSZ 171500Z AUTO 15004KT 4SM 28/26 A2977 RMK T02800260 IEM_DS3505
ZGSZ,1997-05-17 18:00,ZGSZ 171800Z AUTO 00000KT 9SM 27/ RMK SLP077 57011 IEM_DS3505
ZGSZ,1997-05-17 21:00,ZGSZ 172100Z AUTO 22006KT 9SM 26/24 RMK 70008 SLP081 T02620239 52004 IEM_DS3505
ZGSZ,1997-05-17 23:00,ZGSZ 172300Z AUTO 18006KT 7SM 27/26 A2974 RMK T02700260 IEM_DS3505
ZGSZ,1997-05-18 00:00,ZGSZ 180000Z AUTO 18004KT 16SM 27/24 A2974 RMK 60000 70001 SLP083 T02730242 52002 IEM_DS3505
ZGSZ,1997-05-18 01:00,ZGSZ 180100Z AUTO 17002KT 7SM 29/27 A2977 RMK T02900270 IEM_DS3505
ZGSZ,1997-05-18 02:00,ZGSZ 180200Z AUTO 16002KT 7SM 30/27 A2977 RMK T03000270 IEM_DS3505
ZGSZ,1997-05-18 03:00,ZGSZ 180300Z AUTO 27008KT 19SM 31/25 A2980 RMK SLP094 T03090250 52011 IEM_DS3505
ZGSZ,1997-05-18 04:00,ZGSZ 180400Z AUTO 17008KT 7SM 29/28 A2977 RMK T02900280 IEM_DS3505
ZGSZ,1997-05-18 05:00,ZGSZ 180500Z AUTO 13006KT 7SM 28/27 A2974 RMK T02800270 IEM_DS3505
ZGSZ,1997-05-18 06:00,ZGSZ 180600Z AUTO 14004KT 12SM 28/25 A2971 RMK 60012 SLP073 T02840249 57021 IEM_DS3505
ZGSZ,1997-05-18 07:00,ZGSZ 180700Z AUTO 16016KT 6SM 31/28 A2968 RMK T03100280 IEM_DS3505
ZGSZ,1997-05-18 08:00,ZGSZ 180800Z AUTO 17014KT 6SM 31/28 A2965 RMK T03100280 IEM_DS3505
ZGSZ,1997-05-18 09:00,ZGSZ 180900Z AUTO 09004KT 16SM 31/25 A2965 RMK SLP050 T03080249 57022 IEM_DS3505
ZGSZ,1997-05-18 10:00,ZGSZ 181000Z AUTO 17016KT 7SM 29/28 A2965 RMK T02900280 IEM_DS3505
ZGSZ,1997-05-18 11:00,ZGSZ 181100Z AUTO 17016KT 7SM 29/28 A2965 RMK T02900280 IEM_DS3505
ZGSZ,1997-05-18 12:00,ZGSZ 181200Z AUTO 22006KT 11SM 29/25 A2968 RMK SLP064 T02890252 52013 IEM_DS3505
ZGSZ,1997-05-18 13:00,ZGSZ 181300Z AUTO 18012KT 7SM 28/28 A2971 RMK T02800280 IEM_DS3505
ZGSZ,1997-05-18 14:00,ZGSZ 181400Z AUTO 18012KT 7SM 28/28 A2971 RMK T02800280 IEM_DS3505
ZGSZ,1997-05-18 15:00,ZGSZ 181500Z AUTO 19014KT 7SM 28/28 A2971 RMK T02800280 IEM_DS3505
ZGSZ,1997-05-18 18:00,ZGSZ 181800Z AUTO 25006KT 12SM 28/25 RMK SLP064 T02820252 57007 IEM_DS3505
ZGSZ,1997-05-18 21:00,ZGSZ 182100Z AUTO 25008KT 11SM 28/25 RMK 70012 SLP058 T02820252 57005 IEM_DS3505
ZGSZ,1997-05-18 23:00,ZGSZ 182300Z AUTO 21008KT 7SM 28/27 A2971 RMK T02800270 IEM_DS3505
ZGSZ,1997-05-19 00:00,ZGSZ 190000Z AUTO 22006KT 16SM 28/25 A2971 RMK 70012 SLP071 T02840250 52012 IEM_DS3505
ZGSZ,1997-05-19 01:00,ZGSZ 190100Z AUTO 18006KT 7SM 29/28 A2971 RMK T02900280 IEM_DS3505
ZGSZ,1997-05-19 02:00,ZGSZ 190200Z AUTO 18006KT 7SM 29/28 A2974 RMK T02900280 IEM_DS3505
ZGSZ,1997-05-19 03:00,ZGSZ 190300Z AUTO 22008KT 12SM 31/26 A2971 RMK SLP072 T03060257 52002 IEM_DS3505
ZGSZ,1997-05-19 04:00,ZGSZ 190400Z AUTO 17008KT 7SM 31/28 A2971 RMK T03100280 IEM_DS3505
ZGSZ,1997-05-19 05:00,ZGSZ 190500Z AUTO 18006KT 7SM 31/29 A2968 RMK T03100290 IEM_DS3505
ZGSZ,1997-05-19 06:00,ZGSZ 190600Z AUTO 27008KT 9SM 33/26 A2968 RMK SLP051 T03290257 57021 IEM_DS3505
ZGSZ,1997-05-19 07:00,ZGSZ 190700Z AUTO 17008KT 7SM 31/29 A2962 RMK T03100290 IEM_DS3505
ZGSZ,1997-05-19 08:00,ZGSZ 190800Z AUTO 18012KT 7SM 30/28 A2962 RMK T03000280 IEM_DS3505
ZGSZ,1997-05-19 09:00,ZGSZ 190900Z AUTO 20010KT 12SM 31/26 A2959 RMK SLP029 T03120258 57022 IEM_DS3505
ZGSZ,1997-05-19 10:00,ZGSZ 191000Z AUTO 17010KT 6SM 30/27 A2962 RMK T03000270 IEM_DS3505
ZGSZ,1997-05-19 11:00,ZGSZ 191100Z AUTO 05012KT 7SM 29/28 A2965 RMK T02900280 IEM_DS3505
ZGSZ,1997-05-19 12:00,ZGSZ 191200Z AUTO 11002KT 6SM 25/23 A2968 RMK 60024 SLP064 T02540234 52030 IEM_DS3505
ZGSZ,1997-05-19 13:00,ZGSZ 191300Z AUTO 13006KT 4SM 26/25 A2971 RMK T02600250 IEM_DS3505
ZGSZ,1997-05-19 14:00,ZGSZ 191400Z AUTO 15006KT 5SM 26/25 A2971 RMK T02600250 IEM_DS3505
ZGSZ,1997-05-19 15:00,ZGSZ 191500Z AUTO 29006KT 1 1/2SM 25/25 A2977 RMK T02500250 IEM_DS3505
ZGSZ,1997-05-19 16:00,ZGSZ 191600Z AUTO 36010KT 2SM 25/25 A2974 RMK T02500250 IEM_DS3505
ZGSZ,1997-05-19 18:00,ZGSZ 191800Z AUTO 32006KT 4SM 25/24 RMK 60012 SLP065 T02490240 57012 IEM_DS3505
ZGSZ,1997-05-19 20:00,ZGSZ 192000Z AUTO 33008KT 7SM 25/25 A2968 RMK T02500250 IEM_DS3505
ZGSZ,1997-05-19 21:00,ZGSZ 192100Z AUTO 36004KT 6SM 25/24 A2971 RMK 70035 SLP064 T02540243 57002 IEM_DS3505
ZGSZ,1997-05-19 22:00,ZGSZ 192200Z AUTO 01006KT 6SM 25/25 A2968 RMK T02500250 IEM_DS3505
ZGSZ,1997-05-19 23:00,ZGSZ 192300Z AUTO 00000KT 6SM 26/25 A2971 RMK T02600250 IEM_DS3505
ZGSZ,1997-05-20 00:00,ZGSZ 200000Z AUTO 04002KT 4SM 26/24 A2974 RMK 60000 70035 SLP080 T02600238 52016 IEM_DS3505
ZGSZ,1997-05-20 01:00,ZGSZ 200100Z AUTO 33002KT 2SM 26/25 A2974 RMK T02600250 IEM_DS3505
ZGSZ,1997-05-20 02:00,ZGSZ 200200Z AUTO 30004KT 2 1/2SM 26/25 A2974 RMK T02600250 IEM_DS3505
ZGSZ,1997-05-20 03:00,ZGSZ 200300Z AUTO 18006KT 6SM 27/24 A2977 RMK SLP085 T02730242 52005 IEM_DS3505
ZGSZ,1997-05-20 04:00,ZGSZ 200400Z AUTO 30006KT 3SM 28/26 A2977 RMK T02800260 IEM_DS3505
ZGSZ,1997-05-20 05:00,ZGSZ 200500Z AUTO 19002KT 3SM 29/26 A2974 RMK T02900260 IEM_DS3505
ZGSZ,1997-05-20 06:00,ZGSZ 200600Z AUTO 14008KT 7SM 28/24 A2971 RMK 60004 SLP074 T02850235 57011 IEM_DS3505
ZGSZ,1997-05-20 07:00,ZGSZ 200700Z AUTO 16008KT 4SM 29/26 A2971 RMK T02900260 IEM_DS3505
ZGSZ,1997-05-20 08:00,ZGSZ 200800Z AUTO 08010KT 7SM 29/26 A2971 RMK T02900260 IEM_DS3505
ZGSZ,1997-05-20 09:00,ZGSZ 200900Z AUTO 09010KT 6SM 26/23 A2971 RMK SLP073 T02590228 57001 IEM_DS3505
ZGSZ,1997-05-20 10:00,ZGSZ 201000Z AUTO 07021KT 7SM 23/22 A2974 RMK T02300220 IEM_DS3505
ZGSZ,1997-05-20 11:00,ZGSZ 201100Z AUTO 07021KT 7SM 24/22 A2974 RMK T02400220 IEM_DS3505
ZGSZ,1997-05-20 12:00,ZGSZ 201200Z AUTO 14006KT 12SM 24/20 A2977 RMK 60016 SLP087 T02390202 IEM_DS3505
ZGSZ,1997-05-20 13:00,ZGSZ 201300Z AUTO 06006KT 7SM 25/21 A2977 RMK T02500210 IEM_DS3505
ZGSZ,1997-05-20 14:00,ZGSZ 201400Z AUTO 07002KT 6SM 25/22 A2980 RMK T02500220 IEM_DS3505
ZGSZ,1997-05-20 15:00,ZGSZ 201500Z AUTO 03002KT 5SM 25/22 A2980 RMK T02500220 IEM_DS3505
ZGSZ,1997-05-20 16:00,ZGSZ 201600Z AUTO 36002KT 4SM 25/22 A2980 RMK T02500220 IEM_DS3505
ZGSZ,1997-05-20 17:00,ZGSZ 201700Z AUTO 04004KT 4SM 24/23 A2977 RMK T02400230 IEM_DS3505
ZGSZ,1997-05-20 18:00,ZGSZ 201800Z AUTO 09006KT 7SM 25/22 RMK SLP083 T02540221 57015 IEM_DS3505
ZGSZ,1997-05-20 21:00,ZGSZ 202100Z AUTO 04006KT 4SM 25/22 A2974 RMK 70020 SLP075 T02530224 57008 IEM_DS3505
ZGSZ,1997-05-20 22:00,ZGSZ 202200Z AUTO 04006KT 4SM 25/24 A2974 RMK T02500240 IEM_DS3505
ZGSZ,1997-05-20 23:00,ZGSZ 202300Z AUTO 06008KT 4SM 25/23 A2974 RMK T02500230 IEM_DS3505
ZGSZ,1997-05-21 00:00,ZGSZ 210000Z AUTO 36004KT 3SM 26/22 A2977 RMK 70020 SLP088 T02590224 52013 IEM_DS3505
ZGSZ,1997-05-21 01:00,ZGSZ 210100Z AUTO 07006KT 3SM 24/23 A2977 RMK T02400230 IEM_DS3505
ZGSZ,1997-05-21 02:00,ZGSZ 210200Z AUTO 06008KT 3SM 28/24 A2977 RMK T02800240 IEM_DS3505
ZGSZ,1997-05-21 03:00,ZGSZ 210300Z AUTO 04008KT 2 1/2SM 27/22 A2977 RMK SLP093 T02730225 52005 IEM_DS3505
ZGSZ,1997-05-21 04:00,ZGSZ 210400Z AUTO 10008KT 4SM 29/25 A2977 RMK T02900250 IEM_DS3505
ZGSZ,1997-05-21 05:00,ZGSZ 210500Z AUTO 13008KT 4SM 28/24 A2974 RMK T02800240 IEM_DS3505
ZGSZ,1997-05-21 06:00,ZGSZ 210600Z AUTO 14008KT 5SM 26/21 A2974 RMK SLP078 T02580208 57015 IEM_DS3505
ZGSZ,1997-05-21 07:00,ZGSZ 210700Z AUTO 12010KT 5SM 27/23 A2971 RMK T02700230 IEM_DS3505
ZGSZ,1997-05-21 08:00,ZGSZ 210800Z AUTO 12014KT 7SM 26/23 A2971 RMK T02600230 IEM_DS3505
ZGSZ,1997-05-21 09:00,ZGSZ 210900Z AUTO 07002KT 6SM 24/19 A2971 RMK SLP071 T02430189 57007 IEM_DS3505
ZGSZ,1997-05-21 10:00,ZGSZ 211000Z AUTO 10010KT 7SM 25/21 A2971 RMK T02500210 IEM_DS3505
ZGSZ,1997-05-21 11:00,ZGSZ 211100Z AUTO 09008KT 7SM 25/21 A2974 RMK T02500210 IEM_DS3505
ZGSZ,1997-05-21 12:00,ZGSZ 211200Z AUTO 04006KT 7SM 24/20 A2977 RMK SLP086 T02430205 52015 IEM_DS3505
ZGSZ,1997-05-21 13:00,ZGSZ 211300Z AUTO 09006KT 7SM 25/22 A2977 RMK T02500220 IEM_DS3505
ZGSZ,1997-05-21 14:00,ZGSZ 211400Z AUTO 11010KT 7SM 25/22 A2980 RMK T02500220 IEM_DS3505
ZGSZ,1997-05-21 15:00,ZGSZ 211500Z AUTO 09008KT 7SM 25/22 A2980 RMK T02500220 IEM_DS3505
ZGSZ,1997-05-21 18:00,ZGSZ 211800Z AUTO 09006KT 8SM 23/20 RMK SLP092 T02340195 57010 IEM_DS3505
ZGSZ,1997-05-21 21:00,ZGSZ 212100Z AUTO 09008KT 8SM 23/20 RMK SLP086 T02340202 57006 IEM_DS3505
ZGSZ,1997-05-21 22:00,ZGSZ 212200Z AUTO 08004KT 7SM 24/22 A2977 RMK T02400220 IEM_DS3505
ZGSZ,1997-05-21 23:00,ZGSZ 212300Z AUTO 09006KT 7SM 24/22 A2977 RMK T02400220 IEM_DS3505
ZGSZ,1997-05-22 00:00,ZGSZ 220000Z AUTO 11006KT 10SM 24/21 A2980 RMK SLP095 T02400207 52009 IEM_DS3505
ZGSZ,1997-05-22 01:00,ZGSZ 220100Z AUTO 08004KT 7SM 25/22 A2980 RMK T02500220 IEM_DS3505
ZGSZ,1997-05-22 02:00,ZGSZ 220200Z AUTO 06004KT 7SM 25/22 A2980 RMK T02500220 IEM_DS3505
ZGSZ,1997-05-22 03:00,ZGSZ 220300Z AUTO 09008KT 4SM 23/22 RMK SLP101 T02270220 52006 IEM_DS3505
ZGSZ,1997-05-22 04:00,ZGSZ 220400Z AUTO 05006KT 7SM 26/23 A2980 RMK T02600230 IEM_DS3505
ZGSZ,1997-05-22 05:00,ZGSZ 220500Z AUTO 06006KT 7SM 25/23 A2977 RMK T02500230 IEM_DS3505
ZGSZ,1997-05-22 06:00,ZGSZ 220600Z AUTO 14004KT 7SM 24/22 A2977 RMK 60024 SLP088 T02450217 57013 IEM_DS3505
ZGSZ,1997-05-22 07:00,ZGSZ 220700Z AUTO 05006KT 7SM 25/23 A2974 RMK T02500230 IEM_DS3505
ZGSZ,1997-05-22 08:00,ZGSZ 220800Z AUTO 36006KT 2 1/2SM 24/23 A2974 RMK T02400230 IEM_DS3505
ZGSZ,1997-05-22 09:00,ZGSZ 220900Z AUTO 09004KT 6SM 24/22 A2974 RMK SLP078 T02410219 57010 IEM_DS3505
ZGSZ,1997-05-22 10:00,ZGSZ 221000Z AUTO 01006KT 1SM 23/23 A2977 RMK T02300230 IEM_DS3505
ZGSZ,1997-05-22 11:00,ZGSZ 221100Z AUTO 04010KT 1 1/4SM 22/22 A2977 RMK T02200220 IEM_DS3505
ZGSZ,1997-05-22 12:00,ZGSZ 221200Z AUTO 07008KT 2 1/2SM 22/21 RMK 60012 SLP100 T02220214 52022 IEM_DS3505
ZGSZ,1997-05-22 13:00,ZGSZ 221300Z AUTO 05008KT 7SM 22/22 A2983 RMK T02200220 IEM_DS3505
ZGSZ,1997-05-22 14:00,ZGSZ 221400Z AUTO 06006KT 7SM 22/22 A2983 RMK T02200220 IEM_DS3505
ZGSZ,1997-05-22 15:00,ZGSZ 221500Z AUTO 03004KT 7SM 22/22 A2985 RMK T02200220 IEM_DS3505
ZGSZ,1997-05-22 16:00,ZGSZ 221600Z AUTO 01002KT 7SM 22/21 A2983 RMK T02200210 IEM_DS3505
ZGSZ,1997-05-22 18:00,ZGSZ 221800Z AUTO 36004KT 8SM 22/20 RMK 60002 SLP097 T02180199 57016 IEM_DS3505
ZGSZ,1997-05-22 21:00,ZGSZ 222100Z AUTO 36004KT 4SM 21/20 A2980 RMK 70039 SLP097 T02110200 57001 IEM_DS3505
ZGSZ,1997-05-22 22:00,ZGSZ 222200Z AUTO 02008KT 4SM 21/21 A2980 RMK T02100210 IEM_DS3505
ZGSZ,1997-05-22 23:00,ZGSZ 222300Z AUTO 01008KT 7SM 21/21 A2983 RMK T02100210 IEM_DS3505
ZGSZ,1997-05-23 00:00,ZGSZ 230000Z AUTO 36006KT 8SM 21/19 A2983 RMK 60000 70039 SLP107 T02140192 52010 IEM_DS3505
ZGSZ,1997-05-23 01:00,ZGSZ 230100Z AUTO 01008KT 7SM 21/21 A2983 RMK T02100210 IEM_DS3505
ZGSZ,1997-05-23 02:00,ZGSZ 230200Z AUTO 01006KT 7SM 22/21 A2985 RMK T02200210 IEM_DS3505
ZGSZ,1997-05-23 03:00,ZGSZ 230300Z AUTO 04008KT 10SM 23/20 A2985 RMK SLP114 T02290195 52007 IEM_DS3505
ZGSZ,1997-05-23 05:00,ZGSZ 230500Z AUTO 01010KT 7SM 22/21 A2983 RMK T02200210 IEM_DS3505
ZGSZ,1997-05-23 06:00,ZGSZ 230600Z AUTO 36004KT 11SM 24/19 A2983 RMK SLP106 T02390187 57008 IEM_DS3505
ZGSZ,1997-05-23 07:00,ZGSZ 230700Z AUTO 01008KT 7SM 23/21 A2980 RMK T02300210 IEM_DS3505
ZGSZ,1997-05-23 08:00,ZGSZ 230800Z AUTO 36008KT 7SM 23/21 A2980 RMK T02300210 IEM_DS3505
ZGSZ,1997-05-23 09:00,ZGSZ 230900Z AUTO 02006KT 8SM 23/19 A2980 RMK SLP096 T02270191 57010 IEM_DS3505
ZGSZ,1997-05-23 10:00,ZGSZ 231000Z AUTO 01010KT 7SM 22/21 A2980 RMK T02200210 IEM_DS3505
ZGSZ,1997-05-23 11:00,ZGSZ 231100Z AUTO 36010KT 7SM 21/20 A2983 RMK T02100200 IEM_DS3505
ZGSZ,1997-05-23 12:00,ZGSZ 231200Z AUTO 04006KT 7SM 21/19 A2983 RMK 60004 SLP112 T02130188 52016 IEM_DS3505
ZGSZ,1997-05-23 13:00,ZGSZ 231300Z AUTO 36006KT 7SM 21/20 A2985 RMK T02100200 IEM_DS3505
ZGSZ,1997-05-23 14:00,ZGSZ 231400Z AUTO 03006KT 4SM 21/20 A2985 RMK T02100200 IEM_DS3505
ZGSZ,1997-05-23 15:00,ZGSZ 231500Z AUTO 04004KT 7SM 21/20 A2985 RMK T02100200 IEM_DS3505
ZGSZ,1997-05-23 16:00,ZGSZ 231600Z AUTO 04004KT 7SM 21/20 A2985 RMK T02100200 IEM_DS3505
ZGSZ,1997-05-23 18:00,ZGSZ 231800Z AUTO 04004KT 8SM 21/19 RMK SLP104 T02130188 57013 IEM_DS3505
ZGSZ,1997-05-23 21:00,ZGSZ 232100Z AUTO 00000KT 9SM 21/19 A2980 RMK 70004 SLP102 T02140190 57002 IEM_DS3505
ZGSZ,1997-05-23 22:00,ZGSZ 232200Z AUTO 03006KT 7SM 21/20 A2980 RMK T02100200 IEM_DS3505
ZGSZ,1997-05-23 23:00,ZGSZ 232300Z AUTO 01008KT 7SM 21/21 A2983 RMK T02100210 IEM_DS3505
ZGSZ,1997-05-24 00:00,ZGSZ 240000Z AUTO 04004KT 12SM 22/19 A2983 RMK 70004 SLP111 T02160186 52009 IEM_DS3505
ZGSZ,1997-05-24 01:00,ZGSZ 240100Z AUTO 02004KT 7SM 23/20 A2983 RMK T02300200 IEM_DS3505
ZGSZ,1997-05-24 02:00,ZGSZ 240200Z AUTO 04004KT 7SM 24/21 A2985 RMK T02400210 IEM_DS3505
ZGSZ,1997-05-24 03:00,ZGSZ 240300Z AUTO 36006KT 16SM 24/19 A2983 RMK SLP115 T02390187 52004 IEM_DS3505
ZGSZ,1997-05-24 04:00,ZGSZ 240400Z AUTO 06004KT 7SM 25/21 A2985 RMK T02500210 IEM_DS3505
ZGSZ,1997-05-24 05:00,ZGSZ 240500Z AUTO 06006KT 7SM 26/20 A2983 RMK T02600200 IEM_DS3505
ZGSZ,1997-05-24 06:00,ZGSZ 240600Z AUTO 09006KT 16SM 27/20 A2980 RMK SLP098 T02680195 57016 IEM_DS3505
ZGSZ,1997-05-24 07:00,ZGSZ 240700Z AUTO 06002KT 7SM 27/21 A2980 RMK T02700210 IEM_DS3505
ZGSZ,1997-05-24 08:00,ZGSZ 240800Z AUTO 08006KT 7SM 27/20 A2980 RMK T02700200 IEM_DS3505
ZGSZ,1997-05-24 09:00,ZGSZ 240900Z AUTO 16002KT 12SM 26/20 A2977 RMK SLP093 T02560200 57005 IEM_DS3505
ZGSZ,1997-05-24 10:00,ZGSZ 241000Z AUTO 15004KT 7SM 26/21 A2980 RMK T02600210 IEM_DS3505
ZGSZ,1997-05-24 11:00,ZGSZ 241100Z AUTO 12012KT 7SM 25/21 A2980 RMK T02500210 IEM_DS3505
ZGSZ,1997-05-24 12:00,ZGSZ 241200Z AUTO 09002KT 11SM 24/20 A2980 RMK 60000 SLP103 T02350195 52009 IEM_DS3505
ZGSZ,1997-05-24 13:00,ZGSZ 241300Z AUTO 30002KT 7SM 24/21 A2983 RMK T02400210 IEM_DS3505
ZGSZ,1997-05-24 14:00,ZGSZ 241400Z AUTO 10004KT 6SM 23/20 A2983 RMK T02300200 IEM_DS3505
ZGSZ,1997-05-24 15:00,ZGSZ 241500Z AUTO 00000KT 6SM 23/21 A2983 RMK T02300210 IEM_DS3505
ZGSZ,1997-05-24 16:00,ZGSZ 241600Z AUTO 36004KT 6SM 24/21 A2983 RMK T02400210 IEM_DS3505
ZGSZ,1997-05-24 18:00,ZGSZ 241800Z AUTO 04002KT 7SM 22/20 RMK SLP097 T02250199 57011 IEM_DS3505
ZGSZ,1997-05-24 21:00,ZGSZ 242100Z AUTO 04004KT 7SM 22/19 A2977 RMK 70001 SLP093 T02230193 57004 IEM_DS3505
ZGSZ,1997-05-24 22:00,ZGSZ 242200Z AUTO 36004KT 6SM 22/21 A2980 RMK T02200210 IEM_DS3505
ZGSZ,1997-05-24 23:00,ZGSZ 242300Z AUTO 01004KT 3SM 23/22 A2980 RMK T02300220 IEM_DS3505
ZGSZ,1997-05-25 00:00,ZGSZ 250000Z AUTO 09004KT 7SM 23/20 A2983 RMK 70001 SLP103 T02330198 52010 IEM_DS3505
ZGSZ,1997-05-25 01:00,ZGSZ 250100Z AUTO 35006KT 6SM 26/23 A2983 RMK T02600230 IEM_DS3505
ZGSZ,1997-05-25 02:00,ZGSZ 250200Z AUTO 04006KT 6SM 28/20 A2980 RMK T02800200 IEM_DS3505
ZGSZ,1997-05-25 03:00,ZGSZ 250300Z AUTO 04006KT 9SM 29/16 A2980 RMK SLP098 T02880162 57005 IEM_DS3505
ZGSZ,1997-05-25 04:00,ZGSZ 250400Z AUTO 10010KT 6SM 30/14 A2980 RMK T03000140 IEM_DS3505
ZGSZ,1997-05-25 06:00,ZGSZ 250600Z AUTO 14008KT 16SM 30/12 RMK SLP086 T03010117 57012 IEM_DS3505
ZGSZ,1997-05-25 07:00,ZGSZ 250700Z AUTO 22008KT 6SM 30/16 A2974 RMK T03000160 IEM_DS3505
ZGSZ,1997-05-25 08:00,ZGSZ 250800Z AUTO 22006KT 6SM 29/17 A2974 RMK T02900170 IEM_DS3505
ZGSZ,1997-05-25 09:00,ZGSZ 250900Z AUTO 09008KT 16SM 29/15 A2974 RMK SLP076 T02880152 57010 IEM_DS3505
ZGSZ,1997-05-25 10:00,ZGSZ 251000Z AUTO 18010KT 6SM 28/18 A2974 RMK T02800180 IEM_DS3505
ZGSZ,1997-05-25 11:00,ZGSZ 251100Z AUTO 17008KT 6SM 27/19 A2974 RMK T02700190 IEM_DS3505
ZGSZ,1997-05-25 12:00,ZGSZ 251200Z AUTO 11006KT 16SM 25/14 A2977 RMK SLP087 T02520142 52011 IEM_DS3505
ZGSZ,1997-05-25 13:00,ZGSZ 251300Z AUTO 11008KT 6SM 25/16 A2977 RMK T02500160 IEM_DS3505
ZGSZ,1997-05-25 14:00,ZGSZ 251400Z AUTO 10006KT 6SM 25/16 A2980 RMK T02500160 IEM_DS3505
ZGSZ,1997-05-25 15:00,ZGSZ 251500Z AUTO 11006KT 6SM 24/16 A2980 RMK T02400160 IEM_DS3505
ZGSZ,1997-05-25 16:00,ZGSZ 251600Z AUTO 10006KT 6SM 24/16 A2980 RMK T02400160 IEM_DS3505
ZGSZ,1997-05-25 17:00,ZGSZ 251700Z AUTO 08004KT 6SM 24/15 A2977 RMK T02400150 IEM_DS3505
ZGSZ,1997-05-25 18:00,ZGSZ 251800Z AUTO 11006KT 16SM 23/16 A2977 RMK SLP086 T02300161 57012 IEM_DS3505
ZGSZ,1997-05-25 21:00,ZGSZ 252100Z AUTO 00000KT 16SM 23/16 A2980 RMK SLP091 T02270163 52005 IEM_DS3505
ZGSZ,1997-05-25 22:00,ZGSZ 252200Z AUTO 10002KT 6SM 20/17 A2980 RMK T02000170 IEM_DS3505
ZGSZ,1997-05-25 23:00,ZGSZ 252300Z AUTO 09004KT 6SM 22/19 A2980 RMK T02200190 IEM_DS3505
ZGSZ,1997-05-26 00:00,ZGSZ 260000Z AUTO 04004KT 16SM 24/15 A2980 RMK SLP099 T02410148 52008 IEM_DS3505
ZGSZ,1997-05-26 01:00,ZGSZ 260100Z AUTO 10002KT 6SM 27/13 A2983 RMK T02700130 IEM_DS3505
ZGSZ,1997-05-26 02:00,ZGSZ 260200Z AUTO 17004KT 6SM 27/14 A2983 RMK T02700140 IEM_DS3505
ZGSZ,1997-05-26 03:00,ZGSZ 260300Z AUTO 04006KT 19SM 29/14 A2980 RMK SLP100 T02910139 52001 IEM_DS3505
ZGSZ,1997-05-26 04:00,ZGSZ 260400Z AUTO 26006KT 6SM 28/13 A2980 RMK T02800130 IEM_DS3505
ZGSZ,1997-05-26 05:00,ZGSZ 260500Z AUTO 25004KT 6SM 28/15 A2977 RMK T02800150 IEM_DS3505
ZGSZ,1997-05-26 06:00,ZGSZ 260600Z AUTO 22006KT 19SM 31/13 A2977 RMK SLP081 T03060129 57019 IEM_DS3505
ZGSZ,1997-05-26 07:00,ZGSZ 260700Z AUTO 24006KT 6SM 29/15 A2974 RMK T02900150 IEM_DS3505
ZGSZ,1997-05-26 08:00,ZGSZ 260800Z AUTO 21006KT 6SM 29/17 A2971 RMK T02900170 IEM_DS3505
ZGSZ,1997-05-26 09:00,ZGSZ 260900Z AUTO 20004KT 12SM 31/13 A2971 RMK SLP068 T03110130 57013 IEM_DS3505
ZGSZ,1997-05-26 10:00,ZGSZ 261000Z AUTO 20006KT 6SM 27/21 A2971 RMK T02700210 IEM_DS3505
ZGSZ,1997-05-26 11:00,ZGSZ 261100Z AUTO 19008KT 6SM 26/22 A2971 RMK T02600220 IEM_DS3505
ZGSZ,1997-05-26 12:00,ZGSZ 261200Z AUTO 00000KT 9SM 27/19 A2971 RMK SLP071 T02680193 52003 IEM_DS3505
ZGSZ,1997-05-26 13:00,ZGSZ 261300Z AUTO 18008KT 6SM 25/22 A2974 RMK T02500220 IEM_DS3505
ZGSZ,1997-05-26 14:00,ZGSZ 261400Z AUTO 18008KT 6SM 25/21 A2974 RMK T02500210 IEM_DS3505
ZGSZ,1997-05-26 15:00,ZGSZ 261500Z AUTO 18008KT 7SM 25/22 A2977 RMK T02500220 IEM_DS3505
ZGSZ,1997-05-26 16:00,ZGSZ 261600Z AUTO 17008KT 7SM 24/22 A2977 RMK T02400220 IEM_DS3505
ZGSZ,1997-05-26 17:00,ZGSZ 261700Z AUTO 17006KT 7SM 24/22 A2974 RMK T02400220 IEM_DS3505
ZGSZ,1997-05-26 18:00,ZGSZ 261800Z AUTO 14002KT 9SM 24/19 A2977 RMK SLP086 T02370192 57002 IEM_DS3505
ZGSZ,1997-05-26 21:00,ZGSZ 262100Z AUTO 09004KT 10SM 23/19 A2974 RMK SLP086 T02290190 54000 IEM_DS3505
ZGSZ,1997-05-26 22:00,ZGSZ 262200Z AUTO 10006KT 6SM 23/20 A2977 RMK T02300200 IEM_DS3505
ZGSZ,1997-05-26 23:00,ZGSZ 262300Z AUTO 11006KT 6SM 24/21 A2977 RMK T02400210 IEM_DS3505
ZGSZ,1997-05-27 00:00,ZGSZ 270000Z AUTO 16004KT 7SM 24/20 A2977 RMK SLP092 T02410198 52006 IEM_DS3505
ZGSZ,1997-05-27 01:00,ZGSZ 270100Z AUTO 12006KT 6SM 27/21 A2977 RMK T02700210 IEM_DS3505
ZGSZ,1997-05-27 02:00,ZGSZ 270200Z AUTO 18006KT 6SM 28/18 A2977 RMK T02800180 IEM_DS3505
ZGSZ,1997-05-27 03:00,ZGSZ 270300Z AUTO 27004KT 16SM 30/17 A2977 RMK SLP086 T02960174 57006 IEM_DS3505
ZGSZ,1997-05-27 04:00,ZGSZ 270400Z AUTO 19006KT 6SM 28/22 A2974 RMK T02800220 IEM_DS3505
ZGSZ,1997-05-27 05:00,ZGSZ 270500Z AUTO 20004KT 6SM 29/21 A2971 RMK T02900210 IEM_DS3505
ZGSZ,1997-05-27 06:00,ZGSZ 270600Z AUTO 27006KT 14SM 32/16 A2971 RMK SLP062 T03150162 57024 IEM_DS3505
ZGSZ,1997-05-27 07:00,ZGSZ 270700Z AUTO 20006KT 6SM 29/21 A2968 RMK T02900210 IEM_DS3505
ZGSZ,1997-05-27 08:00,ZGSZ 270800Z AUTO 21006KT 6SM 29/20 A2968 RMK T02900200 IEM_DS3505
ZGSZ,1997-05-27 09:00,ZGSZ 270900Z AUTO 22006KT 12SM 31/18 A2965 RMK SLP051 T03100181 57011 IEM_DS3505
ZGSZ,1997-05-27 10:00,ZGSZ 271000Z AUTO 20008KT 6SM 27/23 A2965 RMK T02700230 IEM_DS3505
ZGSZ,1997-05-27 11:00,ZGSZ 271100Z AUTO 20010KT 6SM 27/24 A2968 RMK T02700240 IEM_DS3505
ZGSZ,1997-05-27 12:00,ZGSZ 271200Z AUTO 09004KT 6SM 26/21 A2968 RMK SLP063 T02640210 52012 IEM_DS3505
ZGSZ,1997-05-27 13:00,ZGSZ 271300Z AUTO 17008KT 6SM 26/24 A2971 RMK T02600240 IEM_DS3505
ZGSZ,1997-05-27 14:00,ZGSZ 271400Z AUTO 18008KT 6SM 26/24 A2974 RMK T02600240 IEM_DS3505
ZGSZ,1997-05-27 15:00,ZGSZ 271500Z AUTO 17008KT 6SM 25/24 A2974 RMK T02500240 IEM_DS3505
ZGSZ,1997-05-27 16:00,ZGSZ 271600Z AUTO 14006KT 6SM 25/22 A2971 RMK T02500220 IEM_DS3505
ZGSZ,1997-05-27 18:00,ZGSZ 271800Z AUTO 09006KT 7SM 24/21 A2971 RMK SLP067 T02420207 57012 IEM_DS3505
ZGSZ,1997-05-27 21:00,ZGSZ 272100Z AUTO 11002KT 6SM 24/21 RMK SLP065 T02390210 IEM_DS3505
ZGSZ,1997-05-28 00:00,ZGSZ 280000Z AUTO 14002KT 8SM 25/21 A2971 RMK SLP074 T02480212 52009 IEM_DS3505
ZGSZ,1997-05-28 01:00,ZGSZ 280100Z AUTO 11004KT 4SM 27/23 A2974 RMK T02700230 IEM_DS3505
ZGSZ,1997-05-28 02:00,ZGSZ 280200Z AUTO 23004KT 4SM 27/23 A2974 RMK T02700230 IEM_DS3505
ZGSZ,1997-05-28 03:00,ZGSZ 280300Z AUTO 07004KT 7SM 29/21 A2971 RMK SLP070 T02900213 57004 IEM_DS3505
ZGSZ,1997-05-28 04:00,ZGSZ 280400Z AUTO 26004KT 6SM 28/21 A2971 RMK T02800210 IEM_DS3505
ZGSZ,1997-05-28 05:00,ZGSZ 280500Z AUTO 23006KT 6SM 28/21 A2968 RMK T02800210 IEM_DS3505
ZGSZ,1997-05-28 06:00,ZGSZ 280600Z AUTO 20008KT 7SM 32/20 A2968 RMK SLP052 T03210204 57017 IEM_DS3505
ZGSZ,1997-05-28 07:00,ZGSZ 280700Z AUTO 21008KT 6SM 29/24 A2965 RMK T02900240 IEM_DS3505
ZGSZ,1997-05-28 08:00,ZGSZ 280800Z AUTO 20008KT 6SM 28/24 A2962 RMK T02800240 IEM_DS3505
ZGSZ,1997-05-28 09:00,ZGSZ 280900Z AUTO 14004KT 7SM 29/22 A2962 RMK SLP041 T02860225 57012 IEM_DS3505
ZGSZ,1997-05-28 10:00,ZGSZ 281000Z AUTO 20010KT 6SM 28/23 A2965 RMK T02800230 IEM_DS3505
ZGSZ,1997-05-28 11:00,ZGSZ 281100Z AUTO 20010KT 6SM 27/24 A2965 RMK T02700240 IEM_DS3505
ZGSZ,1997-05-28 12:00,ZGSZ 281200Z AUTO 09006KT 9SM 26/22 A2968 RMK SLP054 T02640223 52013 IEM_DS3505
ZGSZ,1997-05-28 13:00,ZGSZ 281300Z AUTO 19010KT 6SM 26/24 A2968 RMK T02600240 IEM_DS3505
ZGSZ,1997-05-28 14:00,ZGSZ 281400Z AUTO 20008KT 6SM 26/24 A2971 RMK T02600240 IEM_DS3505
ZGSZ,1997-05-28 15:00,ZGSZ 281500Z AUTO 18006KT 6SM 26/24 A2971 RMK T02600240 IEM_DS3505
ZGSZ,1997-05-28 16:00,ZGSZ 281600Z AUTO 19006KT 6SM 25/24 A2971 RMK T02500240 IEM_DS3505
ZGSZ,1997-05-28 18:00,ZGSZ 281800Z AUTO 20006KT 7SM 25/24 A2968 RMK SLP061 T02500240 57012 IEM_DS3505
ZGSZ,1997-05-28 21:00,ZGSZ 282100Z AUTO 00000KT 6SM 24/22 A2968 RMK SLP059 T02440222 57002 IEM_DS3505
ZGSZ,1997-05-28 22:00,ZGSZ 282200Z AUTO 18006KT 3SM 25/24 A2968 RMK T02500240 IEM_DS3505
ZGSZ,1997-05-28 23:00,ZGSZ 282300Z AUTO 14004KT 2 1/2SM 25/24 A2968 RMK T02500240 IEM_DS3505
ZGSZ,1997-05-29 00:00,ZGSZ 290000Z AUTO 14004KT 4SM 26/22 A2968 RMK SLP064 T02560221 52005 IEM_DS3505
ZGSZ,1997-05-29 01:00,ZGSZ 290100Z AUTO 18004KT 1 1/2SM 27/24 A2971 RMK T02700240 IEM_DS3505
ZGSZ,1997-05-29 02:00,ZGSZ 290200Z AUTO 21004KT 1 1/2SM 27/24 A2971 RMK T02700240 IEM_DS3505
ZGSZ,1997-05-29 03:00,ZGSZ 290300Z AUTO 36002KT 5SM 26/23 A2971 RMK SLP068 T02600229 52004 IEM_DS3505
ZGSZ,1997-05-29 04:00,ZGSZ 290400Z AUTO 25004KT 7SM 28/25 A2971 RMK T02800250 IEM_DS3505
ZGSZ,1997-05-29 05:00,ZGSZ 290500Z AUTO 27004KT 7SM 28/25 A2968 RMK T02800250 IEM_DS3505
ZGSZ,1997-05-29 06:00,ZGSZ 290600Z AUTO 14006KT 4SM 28/23 A2968 RMK SLP053 T02840227 57015 IEM_DS3505
ZGSZ,1997-05-29 07:00,ZGSZ 290700Z AUTO 30008KT 7SM 30/25 A2968 RMK T03000250 IEM_DS3505
ZGSZ,1997-05-29 08:00,ZGSZ 290800Z AUTO 30012KT 7SM 29/24 A2965 RMK T02900240 IEM_DS3505
ZGSZ,1997-05-29 09:00,ZGSZ 290900Z AUTO 07006KT 2SM 26/24 A2965 RMK SLP051 T02550242 57002 IEM_DS3505
ZGSZ,1997-05-29 10:00,ZGSZ 291000Z AUTO 32008KT 3SM 29/23 A2965 RMK T02900230 IEM_DS3505
ZGSZ,1997-05-29 11:00,ZGSZ 291100Z AUTO 31006KT 2SM 27/25 A2968 RMK T02700250 IEM_DS3505
ZGSZ,1997-05-29 12:00,ZGSZ 291200Z AUTO 14004KT 2 1/2SM 25/23 A2971 RMK 60114 SLP071 T02530234 52020 IEM_DS3505
ZGSZ,1997-05-29 13:00,ZGSZ 291300Z AUTO 10002KT 2SM 27/24 A2974 RMK T02700240 IEM_DS3505
ZGSZ,1997-05-29 14:00,ZGSZ 291400Z AUTO 10006KT 2SM 26/24 A2974 RMK T02600240 IEM_DS3505
ZGSZ,1997-05-29 15:00,ZGSZ 291500Z AUTO 11002KT 2SM 26/24 A2974 RMK T02600240 IEM_DS3505
ZGSZ,1997-05-29 18:00,ZGSZ 291800Z AUTO 00000KT 3SM 25/24 RMK SLP074 T02480236 57005 IEM_DS3505
ZGSZ,1997-05-29 21:00,ZGSZ 292100Z AUTO 09004KT 4SM 25/23 A2974 RMK 70114 SLP080 T02490234 52006 IEM_DS3505
ZGSZ,1997-05-29 22:00,ZGSZ 292200Z AUTO 01004KT 3SM 25/23 A2977 RMK T02500230 IEM_DS3505
ZGSZ,1997-05-29 23:00,ZGSZ 292300Z AUTO 01006KT 5SM 25/23 A2977 RMK T02500230 IEM_DS3505
ZGSZ,1997-05-30 00:00,ZGSZ 300000Z AUTO 04006KT 6SM 25/22 A2980 RMK 60000 70114 SLP094 T02490216 52014 IEM_DS3505
ZGSZ,1997-05-30 01:00,ZGSZ 300100Z AUTO 05008KT 6SM 27/23 A2980 RMK T02700230 IEM_DS3505
ZGSZ,1997-05-30 02:00,ZGSZ 300200Z AUTO 06004KT 7SM 27/22 A2980 RMK T02700220 IEM_DS3505
ZGSZ,1997-05-30 03:00,ZGSZ 300300Z AUTO 04004KT 9SM 28/21 A2977 RMK SLP092 T02780209 57002 IEM_DS3505
ZGSZ,1997-05-30 04:00,ZGSZ 300400Z AUTO 00000KT 6SM 30/23 A2977 RMK T03000230 IEM_DS3505
ZGSZ,1997-05-30 05:00,ZGSZ 300500Z AUTO 29008KT 6SM 30/24 A2974 RMK T03000240 IEM_DS3505
ZGSZ,1997-05-30 06:00,ZGSZ 300600Z AUTO 27004KT 7SM 31/21 A2974 RMK SLP073 T03080214 57019 IEM_DS3505
ZGSZ,1997-05-30 07:00,ZGSZ 300700Z AUTO 28008KT 4SM 30/24 A2971 RMK T03000240 IEM_DS3505
ZGSZ,1997-05-30 08:00,ZGSZ 300800Z AUTO 26008KT 4SM 30/25 A2971 RMK T03000250 IEM_DS3505
ZGSZ,1997-05-30 09:00,ZGSZ 300900Z AUTO 22006KT 5SM 30/22 A2968 RMK SLP063 T02970223 57010 IEM_DS3505
ZGSZ,1997-05-30 10:00,ZGSZ 301000Z AUTO 20004KT 3SM 30/25 A2968 RMK T03000250 IEM_DS3505
ZGSZ,1997-05-30 11:00,ZGSZ 301100Z AUTO 19010KT 4SM 28/25 A2971 RMK T02800250 IEM_DS3505
ZGSZ,1997-05-30 12:00,ZGSZ 301200Z AUTO 00000KT 4SM 28/23 A2974 RMK SLP078 T02780229 52015 IEM_DS3505
ZGSZ,1997-05-30 13:00,ZGSZ 301300Z AUTO 18008KT 2SM 27/26 A2974 RMK T02700260 IEM_DS3505
ZGSZ,1997-05-30 14:00,ZGSZ 301400Z AUTO 18006KT 1 1/2SM 27/26 A2977 RMK T02700260 IEM_DS3505
ZGSZ,1997-05-30 15:00,ZGSZ 301500Z AUTO 19004KT 2SM 27/26 A2980 RMK T02700260 IEM_DS3505
ZGSZ,1997-05-30 18:00,ZGSZ 301800Z AUTO 00000KT 2 1/2SM 26/23 RMK SLP083 T02560233 57011 IEM_DS3505
ZGSZ,1997-05-30 21:00,ZGSZ 302100Z AUTO 00000KT 2 1/2SM 25/23 A2977 RMK 70000 SLP088 T02480233 52005 IEM_DS3505
ZGSZ,1997-05-30 22:00,ZGSZ 302200Z AUTO 16004KT 1 1/2SM 26/25 A2977 RMK T02600250 IEM_DS3505
ZGSZ,1997-05-30 23:00,ZGSZ 302300Z AUTO 16004KT 2SM 26/26 A2980 RMK T02600260 IEM_DS3505
ZGSZ,1997-05-31 00:00,ZGSZ 310000Z AUTO 00000KT 2SM 26/24 A2980 RMK SLP099 T02600235 52011 IEM_DS3505
ZGSZ,1997-05-31 01:00,ZGSZ 310100Z AUTO 19004KT 2 1/2SM 28/26 A2980 RMK T02800260 IEM_DS3505
ZGSZ,1997-05-31 02:00,ZGSZ 310200Z AUTO 20004KT 2 1/2SM 29/26 A2980 RMK T02900260 IEM_DS3505
ZGSZ,1997-05-31 03:00,ZGSZ 310300Z AUTO 27002KT 3SM 31/22 A2980 RMK SLP093 T03090223 57006 IEM_DS3505
ZGSZ,1997-05-31 04:00,ZGSZ 310400Z AUTO 20006KT 2 1/2SM 29/26 A2977 RMK T02900260 IEM_DS3505
ZGSZ,1997-05-31 05:00,ZGSZ 310500Z AUTO 20006KT 3SM 30/27 A2974 RMK T03000270 IEM_DS3505
ZGSZ,1997-05-31 06:00,ZGSZ 310600Z AUTO 21008KT 3SM 30/26 A2971 RMK T03000260 IEM_DS3505
ZGSZ,1997-05-31 07:00,ZGSZ 310700Z AUTO 20010KT 3SM 30/26 A2971 RMK T03000260 IEM_DS3505
ZGSZ,1997-05-31 08:00,ZGSZ 310800Z AUTO 20010KT 4SM 30/26 A2968 RMK T03000260 IEM_DS3505
ZGSZ,1997-05-31 09:00,ZGSZ 310900Z AUTO 20014KT 6SM 30/26 A2968 RMK T03000260 IEM_DS3505
ZGSZ,1997-05-31 11:00,ZGSZ 311100Z AUTO 19012KT 6SM 28/26 A2968 RMK T02800260 IEM_DS3505
ZGSZ,1997-05-31 12:00,ZGSZ 311200Z AUTO 00000KT 8SM 28/22 A2971 RMK SLP073 T02760225 52013 IEM_DS3505
ZGSZ,1997-05-31 13:00,ZGSZ 311300Z AUTO 16010KT 6SM 28/24 A2974 RMK T02800240 IEM_DS3505
ZGSZ,1997-05-31 14:00,ZGSZ 311400Z AUTO 16010KT 6SM 28/25 A2974 RMK T02800250 IEM_DS3505
ZGSZ,1997-05-31 15:00,ZGSZ 311500Z AUTO 17010KT 6SM 27/25 A2974 RMK T02700250 IEM_DS3505
ZGSZ,1997-05-31 16:00,ZGSZ 311600Z AUTO 18008KT 6SM 27/25 A2974 RMK T02700250 IEM_DS3505
ZGSZ,1997-05-31 18:00,ZGSZ 311800Z AUTO 00000KT 11SM 26/23 RMK SLP078 T02620230 57004 IEM_DS3505
ZGSZ,1997-05-31 21:00,ZGSZ 312100Z AUTO 09002KT 9SM 26/23 A2971 RMK SLP073 T02550230 57005 IEM_DS3505
ZGSZ,1997-05-31 22:00,ZGSZ 312200Z AUTO 11004KT 6SM 26/25 A2971 RMK T02600250 IEM_DS3505
ZGSZ,1997-05-31 23:00,ZGSZ 312300Z AUTO 13006KT 6SM 27/25 A2974 RMK T02700250 IEM_DS3505
ZGSZ,1997-06-01 00:00,ZGSZ 010000Z AUTO 00000KT 10SM 27/24 A2974 RMK SLP082 T02710236 52009 IEM_DS3505
ZGSZ,1997-06-01 01:00,ZGSZ 010100Z AUTO 13004KT 7SM 30/25 A2974 RMK T03000250 IEM_DS3505
ZGSZ,1997-06-01 02:00,ZGSZ 010200Z AUTO 18004KT 7SM 30/25 A2974 RMK T03000250 IEM_DS3505
ZGSZ,1997-06-01 03:00,ZGSZ 010300Z AUTO 14004KT 12SM 30/24 A2974 RMK SLP077 T02960237 57005 IEM_DS3505
ZGSZ,1997-06-01 04:00,ZGSZ 010400Z AUTO 21006KT 7SM 30/26 A2971 RMK T03000260 IEM_DS3505
ZGSZ,1997-06-01 05:00,ZGSZ 010500Z AUTO 21008KT 7SM 31/27 A2971 RMK T03100270 IEM_DS3505
ZGSZ,1997-06-01 06:00,ZGSZ 010600Z AUTO 14006KT 14SM 29/25 A2968 RMK SLP060 T02890247 57017 IEM_DS3505
ZGSZ,1997-06-01 07:00,ZGSZ 010700Z AUTO 19008KT 7SM 29/27 A2968 RMK T02900270 IEM_DS3505
ZGSZ,1997-06-01 08:00,ZGSZ 010800Z AUTO 18010KT 7SM 29/27 A2965 RMK T02900270 IEM_DS3505
ZGSZ,1997-06-01 09:00,ZGSZ 010900Z AUTO 14006KT 16SM 29/25 A2965 RMK SLP048 T02900246 57012 IEM_DS3505
ZGSZ,1997-06-01 10:00,ZGSZ 011000Z AUTO 19008KT 7SM 28/26 A2965 RMK T02800260 IEM_DS3505
ZGSZ,1997-06-01 11:00,ZGSZ 011100Z AUTO 16008KT 7SM 28/26 A2965 RMK T02800260 IEM_DS3505
ZGSZ,1997-06-01 12:00,ZGSZ 011200Z AUTO 00000KT 14SM 27/24 A2968 RMK 60001 SLP062 T02680245 52014 IEM_DS3505
ZGSZ,1997-06-01 13:00,ZGSZ 011300Z AUTO 18010KT 7SM 27/27 A2968 RMK T02700270 IEM_DS3505
ZGSZ,1997-06-01 14:00,ZGSZ 011400Z AUTO 14006KT 7SM 27/26 A2968 RMK T02700260 IEM_DS3505
ZGSZ,1997-06-01 15:00,ZGSZ 011500Z AUTO 16006KT 7SM 27/26 A2971 RMK T02700260 IEM_DS3505
ZGSZ,1997-06-01 16:00,ZGSZ 011600Z AUTO 13004KT 7SM 27/26 A2971 RMK T02700260 IEM_DS3505
ZGSZ,1997-06-01 18:00,ZGSZ 011800Z AUTO 00000KT 11SM 27/24 RMK SLP056 T02670243 57015 IEM_DS3505
ZGSZ,1997-06-01 21:00,ZGSZ 012100Z AUTO 00000KT 9SM 27/24 RMK 70001 SLP051 T02660243 57005 IEM_DS3505
ZGSZ,1997-06-01 22:00,ZGSZ 012200Z AUTO 17008KT 7SM 27/21 A2965 RMK T02700210 IEM_DS3505
ZGSZ,1997-06-01 23:00,ZGSZ 012300Z AUTO 17006KT 7SM 27/27 A2968 RMK T02700270 IEM_DS3505
ZGSZ,1997-06-02 00:00,ZGSZ 020000Z AUTO 16004KT 9SM 28/25 A2968 RMK 70001 SLP069 T02780247 52018 IEM_DS3505
ZGSZ,1997-06-02 01:00,ZGSZ 020100Z AUTO 22004KT 7SM 31/26 A2971 RMK SLP048 T03080259 57020 IEM_DS3505
ZGSZ,1997-06-02 02:00,ZGSZ 020200Z AUTO 17008KT 7SM 30/27 A2971 RMK T03000270 IEM_DS3505
ZGSZ,1997-06-02 03:00,ZGSZ 020300Z AUTO 18002KT 12SM 31/24 A2971 RMK SLP068 T03120243 54000 IEM_DS3505
ZGSZ,1997-06-02 04:00,ZGSZ 020400Z AUTO 17006KT 7SM 31/27 A2968 RMK T03100270 IEM_DS3505
ZGSZ,1997-06-02 05:00,ZGSZ 020500Z AUTO 18006KT 7SM 30/27 A2968 RMK T03000270 IEM_DS3505
ZGSZ,1997-06-02 06:00,ZGSZ 020600Z AUTO 22004KT 7SM 31/26 A2965 RMK 60004 SLP048 T03080259 57020 IEM_DS3505
ZGSZ,1997-06-02 07:00,ZGSZ 020700Z AUTO 20008KT 7SM 28/27 A2968 RMK T02800270 IEM_DS3505
ZGSZ,1997-06-02 08:00,ZGSZ 020800Z AUTO 28002KT 7SM 27/27 A2965 RMK T02700270 IEM_DS3505
ZGSZ,1997-06-02 09:00,ZGSZ 020900Z AUTO 22004KT 11SM 29/25 A2962 RMK SLP039 T02940247 57009 IEM_DS3505
ZGSZ,1997-06-02 10:00,ZGSZ 021000Z AUTO 17010KT 7SM 29/28 A2962 RMK T02900280 IEM_DS3505
ZGSZ,1997-06-02 11:00,ZGSZ 021100Z AUTO 16008KT 7SM 29/28 A2965 RMK T02900280 IEM_DS3505
ZGSZ,1997-06-02 12:00,ZGSZ 021200Z AUTO 18002KT 10SM 28/25 A2965 RMK 60001 SLP058 T02820252 52018 IEM_DS3505
ZGSZ,1997-06-02 13:00,ZGSZ 021300Z AUTO 17010KT 7SM 28/28 A2968 RMK T02800280 IEM_DS3505
ZGSZ,1997-06-02 14:00,ZGSZ 021400Z AUTO 17006KT 6SM 28/28 A2971 RMK T02800280 IEM_DS3505
ZGSZ,1997-06-02 15:00,ZGSZ 021500Z AUTO 16006KT 6SM 28/27 A2971 RMK T02800270 IEM_DS3505
ZGSZ,1997-06-02 18:00,ZGSZ 021800Z AUTO 14004KT 11SM 28/25 RMK SLP062 T02760253 57007 IEM_DS3505
ZGSZ,1997-06-02 21:00,ZGSZ 022100Z AUTO 09002KT 8SM 27/25 A2968 RMK 70008 SLP062 T02680251 57001 IEM_DS3505
ZGSZ,1997-06-02 22:00,ZGSZ 022200Z AUTO 14008KT 7SM 27/27 A2968 RMK T02700270 IEM_DS3505
ZGSZ,1997-06-02 23:00,ZGSZ 022300Z AUTO 12006KT 7SM 27/27 A2971 RMK T02700270 IEM_DS3505
ZGSZ,1997-06-03 00:00,ZGSZ 030000Z AUTO 00000KT 19SM 27/24 A2974 RMK 60004 70012 SLP075 T02740243 52013 IEM_DS3505
ZGSZ,1997-06-03 01:00,ZGSZ 030100Z AUTO 14006KT 7SM 29/27 A2974 RMK T02900270 IEM_DS3505
ZGSZ,1997-06-03 02:00,ZGSZ 030200Z AUTO 15006KT 7SM 30/28 A2974 RMK T03000280 IEM_DS3505
ZGSZ,1997-06-03 03:00,ZGSZ 030300Z AUTO 22006KT 19SM 31/25 A2974 RMK SLP076 T03080253 52002 IEM_DS3505
ZGSZ,1997-06-03 04:00,ZGSZ 030400Z AUTO 16008KT 7SM 30/28 A2971 RMK T03000280 IEM_DS3505
ZGSZ,1997-06-03 05:00,ZGSZ 030500Z AUTO 17008KT 7SM 31/29 A2971 RMK T03100290 IEM_DS3505
ZGSZ,1997-06-03 06:00,ZGSZ 030600Z AUTO 22006KT 19SM 31/25 A2971 RMK SLP066 T03110251 57010 IEM_DS3505
ZGSZ,1997-06-03 07:00,ZGSZ 030700Z AUTO 17010KT 7SM 31/29 A2968 RMK T03100290 IEM_DS3505
ZGSZ,1997-06-03 08:00,ZGSZ 030800Z AUTO 17010KT 7SM 31/28 A2968 RMK T03100280 IEM_DS3505
ZGSZ,1997-06-03 09:00,ZGSZ 030900Z AUTO 18008KT 19SM 30/25 A2965 RMK SLP052 T03050246 57014 IEM_DS3505
ZGSZ,1997-06-03 10:00,ZGSZ 031000Z AUTO 17010KT 7SM 30/28 A2968 RMK T03000280 IEM_DS3505
ZGSZ,1997-06-03 11:00,ZGSZ 031100Z AUTO 17012KT 7SM 29/28 A2968 RMK T02900280 IEM_DS3505
ZGSZ,1997-06-03 12:00,ZGSZ 031200Z AUTO 20006KT 17SM 29/25 A2971 RMK SLP069 T02940249 52016 IEM_DS3505
ZGSZ,1997-06-03 13:00,ZGSZ 031300Z AUTO 16010KT 6SM 29/28 A2974 RMK T02900280 IEM_DS3505
ZGSZ,1997-06-03 14:00,ZGSZ 031400Z AUTO 16008KT 7SM 29/28 A2977 RMK T02900280 IEM_DS3505
ZGSZ,1997-06-03 15:00,ZGSZ 031500Z AUTO 17010KT 7SM 29/28 A2977 RMK T02900280 IEM_DS3505
ZGSZ,1997-06-03 16:00,ZGSZ 031600Z AUTO 16008KT 6SM 29/28 A2974 RMK T02900280 IEM_DS3505
ZGSZ,1997-06-03 18:00,ZGSZ 031800Z AUTO 22004KT 11SM 29/26 RMK SLP081 T02860257 57004 IEM_DS3505
ZGSZ,1997-06-03 21:00,ZGSZ 032100Z AUTO 09002KT 11SM 28/24 A2971 RMK 70002 SLP073 T02750239 57008 IEM_DS3505
ZGSZ,1997-06-03 22:00,ZGSZ 032200Z AUTO 18002KT 4SM 28/28 A2974 RMK T02800280 IEM_DS3505
ZGSZ,1997-06-03 23:00,ZGSZ 032300Z AUTO 18002KT 7SM 28/28 A2974 RMK T02800280 IEM_DS3505
ZGSZ,1997-06-04 00:00,ZGSZ 040000Z AUTO 09002KT 6SM 26/25 A2977 RMK 60079 70079 SLP096 T02550246 52022 IEM_DS3505
ZGSZ,1997-06-04 01:00,ZGSZ 040100Z AUTO 14008KT 7SM 28/27 A2977 RMK T02800270 IEM_DS3505
ZGSZ,1997-06-04 02:00,ZGSZ 040200Z AUTO 13012KT 7SM 28/26 A2980 RMK T02800260 IEM_DS3505
ZGSZ,1997-06-04 03:00,ZGSZ 040300Z AUTO 16002KT 12SM 27/24 A2977 RMK SLP097 T02660245 52001 IEM_DS3505
ZGSZ,1997-06-04 04:00,ZGSZ 040400Z AUTO 17006KT 7SM 31/27 A2977 RMK T03100270 IEM_DS3505
ZGSZ,1997-06-04 05:00,ZGSZ 040500Z AUTO 17008KT 6SM 31/28 A2974 RMK T03100280 IEM_DS3505
ZGSZ,1997-06-04 06:00,ZGSZ 040600Z AUTO 27006KT 17SM 32/26 A2974 RMK 60008 SLP071 T03200262 57025 IEM_DS3505
ZGSZ,1997-06-04 07:00,ZGSZ 040700Z AUTO 19004KT 7SM 29/28 A2968 RMK T02900280 IEM_DS3505
ZGSZ,1997-06-04 08:00,ZGSZ 040800Z AUTO 17006KT 6SM 31/29 A2968 RMK T03100290 IEM_DS3505
ZGSZ,1997-06-04 09:00,ZGSZ 040900Z AUTO 36002KT 16SM 31/25 A2965 RMK SLP050 T03100251 57021 IEM_DS3505
ZGSZ,1997-06-04 10:00,ZGSZ 041000Z AUTO 16010KT 7SM 30/28 A2968 RMK T03000280 IEM_DS3505
ZGSZ,1997-06-04 11:00,ZGSZ 041100Z AUTO 17012KT 7SM 29/28 A2971 RMK T02900280 IEM_DS3505
ZGSZ,1997-06-04 12:00,ZGSZ 041200Z AUTO 18002KT 12SM 29/24 A2971 RMK SLP075 T02920244 52024 IEM_DS3505
ZGSZ,1997-06-04 13:00,ZGSZ 041300Z AUTO 17010KT 7SM 29/28 A2974 RMK T02900280 IEM_DS3505
ZGSZ,1997-06-04 14:00,ZGSZ 041400Z AUTO 17010KT 7SM 29/28 A2977 RMK T02900280 IEM_DS3505
ZGSZ,1997-06-04 15:00,ZGSZ 041500Z AUTO 17008KT 7SM 29/28 A2977 RMK T02900280 IEM_DS3505
ZGSZ,1997-06-04 16:00,ZGSZ 041600Z AUTO 33006KT 7SM 26/26 A2977 RMK T02600260 IEM_DS3505
ZGSZ,1997-06-04 17:00,ZGSZ 041700Z AUTO 33004KT 7SM 26/25 A2974 RMK T02600250 IEM_DS3505
ZGSZ,1997-06-04 18:00,ZGSZ 041800Z AUTO 04004KT 9SM 28/26 RMK 60000 SLP072 T02800259 57020 IEM_DS3505
ZGSZ,1997-06-04 21:00,ZGSZ 042100Z AUTO 00000KT 12SM 27/25 A2968 RMK 70091 SLP064 T02700253 57008 IEM_DS3505
ZGSZ,1997-06-04 22:00,ZGSZ 042200Z AUTO 16006KT 7SM 28/28 A2968 RMK T02800280 IEM_DS3505
ZGSZ,1997-06-04 23:00,ZGSZ 042300Z AUTO 17008KT 7SM 28/28 A2971 RMK T02800280 IEM_DS3505
ZGSZ,1997-06-05 00:00,ZGSZ 050000Z AUTO 16002KT 9SM 28/26 A2971 RMK 60004 70012 SLP074 T02840255 52010 IEM_DS3505
ZGSZ,1997-06-05 01:00,ZGSZ 050100Z AUTO 17010KT 7SM 29/28 A2974 RMK T02900280 IEM_DS3505
ZGSZ,1997-06-05 02:00,ZGSZ 050200Z AUTO 18010KT 7SM 30/29 A2974 RMK T03000290 IEM_DS3505
ZGSZ,1997-06-05 03:00,ZGSZ 050300Z AUTO 00000KT 9SM 31/27 A2974 RMK SLP075 T03100267 52001 IEM_DS3505
ZGSZ,1997-06-05 04:00,ZGSZ 050400Z AUTO 17012KT 7SM 29/28 A2971 RMK T02900280 IEM_DS3505
ZGSZ,1997-06-05 05:00,ZGSZ 050500Z AUTO 16012KT 7SM 31/29 A2971 RMK T03100290 IEM_DS3505
ZGSZ,1997-06-05 06:00,ZGSZ 050600Z AUTO 22002KT 16SM 31/26 A2968 RMK 60020 SLP058 T03130256 57017 IEM_DS3505
ZGSZ,1997-06-05 07:00,ZGSZ 050700Z AUTO 18012KT 7SM 29/28 A2968 RMK T02900280 IEM_DS3505
ZGSZ,1997-06-05 08:00,ZGSZ 050800Z AUTO 16010KT 7SM 29/28 A2968 RMK T02900280 IEM_DS3505
ZGSZ,1997-06-05 09:00,ZGSZ 050900Z AUTO 18002KT 7SM 29/27 A2965 RMK SLP051 T02880266 57008 IEM_DS3505
ZGSZ,1997-06-05 10:00,ZGSZ 051000Z AUTO 16010KT 7SM 29/28 A2965 RMK T02900280 IEM_DS3505
ZGSZ,1997-06-05 11:00,ZGSZ 051100Z AUTO 17012KT 7SM 29/28 A2968 RMK T02900280 IEM_DS3505
ZGSZ,1997-06-05 12:00,ZGSZ 051200Z AUTO 18004KT 9SM 29/25 A2968 RMK 60020 SLP060 T02860251 52010 IEM_DS3505
ZGSZ,1997-06-05 13:00,ZGSZ 051300Z AUTO 17010KT 7SM 29/28 A2971 RMK T02900280 IEM_DS3505
ZGSZ,1997-06-05 14:00,ZGSZ 051400Z AUTO 16010KT 7SM 29/28 A2974 RMK T02900280 IEM_DS3505
ZGSZ,1997-06-05 15:00,ZGSZ 051500Z AUTO 16008KT 6SM 29/28 A2977 RMK T02900280 IEM_DS3505
ZGSZ,1997-06-05 18:00,ZGSZ 051800Z AUTO 20004KT 6SM 28/26 RMK SLP076 T02800255 57007 IEM_DS3505
ZGSZ,1997-06-05 21:00,ZGSZ 052100Z AUTO 20004KT 5SM 28/25 A2968 RMK 70035 SLP067 T02750252 57010 IEM_DS3505
ZGSZ,1997-06-05 22:00,ZGSZ 052200Z AUTO 16010KT 6SM 28/27 A2968 RMK T02800270 IEM_DS3505
ZGSZ,1997-06-05 23:00,ZGSZ 052300Z AUTO 17012KT 7SM 29/28 A2971 RMK T02900280 IEM_DS3505
ZGSZ,1997-06-06 00:00,ZGSZ 060000Z AUTO 20002KT 12SM 29/25 A2971 RMK 70035 SLP072 T02910249 52006 IEM_DS3505
ZGSZ,1997-06-06 01:00,ZGSZ 060100Z AUTO 17012KT 7SM 30/28 A2974 RMK T03000280 IEM_DS3505
ZGSZ,1997-06-06 02:00,ZGSZ 060200Z AUTO 18014KT 7SM 30/28 A2974 RMK T03000280 IEM_DS3505
ZGSZ,1997-06-06 03:00,ZGSZ 060300Z AUTO 20008KT 17SM 31/25 A2971 RMK SLP074 T03060247 52002 IEM_DS3505
ZGSZ,1997-06-06 04:00,ZGSZ 060400Z AUTO 18014KT 7SM 31/28 A2971 RMK T03100280 IEM_DS3505
ZGSZ,1997-06-06 05:00,ZGSZ 060500Z AUTO 19014KT 7SM 31/29 A2971 RMK T03100290 IEM_DS3505
ZGSZ,1997-06-06 06:00,ZGSZ 060600Z AUTO 20006KT 11SM 31/26 A2968 RMK SLP062 T03120258 57012 IEM_DS3505
ZGSZ,1997-06-06 07:00,ZGSZ 060700Z AUTO 18016KT 7SM 31/28 A2968 RMK T03100280 IEM_DS3505
ZGSZ,1997-06-06 08:00,ZGSZ 060800Z AUTO 18017KT 7SM 31/28 A2965 RMK T03100280 IEM_DS3505
ZGSZ,1997-06-06 09:00,ZGSZ 060900Z AUTO 18004KT 12SM 31/25 A2965 RMK SLP053 T03100253 57005 IEM_DS3505
ZGSZ,1997-06-06 10:00,ZGSZ 061000Z AUTO 18016KT 6SM 30/28 A2968 RMK T03000280 IEM_DS3505
ZGSZ,1997-06-06 11:00,ZGSZ 061100Z AUTO 18012KT 6SM 30/28 A2968 RMK T03000280 IEM_DS3505
ZGSZ,1997-06-06 12:00,ZGSZ 061200Z AUTO 18004KT 11SM 29/26 A2971 RMK SLP069 T02940256 52016 IEM_DS3505
ZGSZ,1997-06-06 13:00,ZGSZ 061300Z AUTO 15012KT 7SM 29/28 A2971 RMK T02900280 IEM_DS3505
ZGSZ,1997-06-06 14:00,ZGSZ 061400Z AUTO 17014KT 7SM 29/28 A2974 RMK T02900280 IEM_DS3505
ZGSZ,1997-06-06 15:00,ZGSZ 061500Z AUTO 17014KT 7SM 29/28 A2974 RMK T02900280 IEM_DS3505
ZGSZ,1997-06-06 18:00,ZGSZ 061800Z AUTO 18004KT 16SM 29/25 RMK SLP076 T02880251 57010 IEM_DS3505
ZGSZ,1997-06-06 21:00,ZGSZ 062100Z AUTO 18006KT 14SM 29/25 A2971 RMK SLP073 T02860251 57003 IEM_DS3505
ZGSZ,1997-06-06 22:00,ZGSZ 062200Z AUTO 19016KT 7SM 29/28 A2974 RMK T02900280 IEM_DS3505
ZGSZ,1997-06-06 23:00,ZGSZ 062300Z AUTO 19014KT 7SM 29/28 A2974 RMK T02900280 IEM_DS3505
ZGSZ,1997-06-07 00:00,ZGSZ 070000Z AUTO 18010KT 14SM 30/25 A2977 RMK SLP086 T02950248 52013 IEM_DS3505
ZGSZ,1997-06-07 01:00,ZGSZ 070100Z AUTO 19016KT 7SM 30/28 A2977 RMK T03000280 IEM_DS3505
ZGSZ,1997-06-07 02:00,ZGSZ 070200Z AUTO 19017KT 7SM 31/28 A2980 RMK T03100280 IEM_DS3505
ZGSZ,1997-06-07 03:00,ZGSZ 070300Z AUTO 22008KT 14SM 30/26 A2980 RMK SLP100 T02960258 52013 IEM_DS3505
ZGSZ,1997-06-07 04:00,ZGSZ 070400Z AUTO 19017KT 7SM 31/29 A2980 RMK T03100290 IEM_DS3505
ZGSZ,1997-06-07 05:00,ZGSZ 070500Z AUTO 18017KT 7SM 31/29 A2980 RMK T03100290 IEM_DS3505
ZGSZ,1997-06-07 06:00,ZGSZ 070600Z AUTO 22010KT 7SM 31/25 A2977 RMK 60012 SLP089 T03110249 57010 IEM_DS3505
ZGSZ,1997-06-07 07:00,ZGSZ 070700Z AUTO 19017KT 7SM 31/29 A2974 RMK T03100290 IEM_DS3505
ZGSZ,1997-06-07 08:00,ZGSZ 070800Z AUTO 19019KT 7SM 31/29 A2974 RMK T03100290 IEM_DS3505
ZGSZ,1997-06-07 09:00,ZGSZ 070900Z AUTO 22010KT 11SM 30/25 A2974 RMK SLP079 T03050253 57010 IEM_DS3505
ZGSZ,1997-06-07 10:00,ZGSZ 071000Z AUTO 18016KT 7SM 30/28 A2974 RMK T03000280 IEM_DS3505
ZGSZ,1997-06-07 11:00,ZGSZ 071100Z AUTO 18014KT 7SM 29/28 A2974 RMK T02900280 IEM_DS3505
ZGSZ,1997-06-07 12:00,ZGSZ 071200Z AUTO 22006KT 9SM 29/26 A2977 RMK SLP088 T02920256 52009 IEM_DS3505
ZGSZ,1997-06-07 13:00,ZGSZ 071300Z AUTO 19016KT 7SM 29/28 A2977 RMK T02900280 IEM_DS3505
ZGSZ,1997-06-07 14:00,ZGSZ 071400Z AUTO 19014KT 7SM 29/28 A2980 RMK T02900280 IEM_DS3505
ZGSZ,1997-06-07 15:00,ZGSZ 071500Z AUTO 18016KT 7SM 29/28 A2980 RMK T02900280 IEM_DS3505
ZGSZ,1997-06-07 16:00,ZGSZ 071600Z AUTO 18014KT 7SM 29/28 A2980 RMK T02900280 IEM_DS3505
ZGSZ,1997-06-07 17:00,ZGSZ 071700Z AUTO 18014KT 7SM 29/28 A2980 RMK T02900280 IEM_DS3505
ZGSZ,1997-06-07 18:00,ZGSZ 071800Z AUTO 22004KT 11SM 29/25 RMK SLP095 T02870253 57005 IEM_DS3505
ZGSZ,1997-06-07 21:00,ZGSZ 072100Z AUTO 18006KT 11SM 29/25 A2977 RMK 70012 SLP094 T02860251 57001 IEM_DS3505
ZGSZ,1997-06-07 22:00,ZGSZ 072200Z AUTO 20012KT 7SM 29/28 A2980 RMK T02900280 IEM_DS3505
ZGSZ,1997-06-07 23:00,ZGSZ 072300Z AUTO 19014KT 7SM 29/28 A2980 RMK T02900280 IEM_DS3505
ZGSZ,1997-06-08 00:00,ZGSZ 080000Z AUTO 22006KT 12SM 30/25 A2983 RMK 70012 SLP106 T02950247 52011 IEM_DS3505
ZGSZ,1997-06-08 01:00,ZGSZ 080100Z AUTO 19014KT 7SM 30/28 A2983 RMK T03000280 IEM_DS3505
ZGSZ,1997-06-08 02:00,ZGSZ 080200Z AUTO 18016KT 7SM 30/28 A2983 RMK T03000280 IEM_DS3505
ZGSZ,1997-06-08 03:00,ZGSZ 080300Z AUTO 22010KT 19SM 31/24 A2983 RMK SLP104 T03100243 57001 IEM_DS3505
ZGSZ,1997-06-08 04:00,ZGSZ 080400Z AUTO 18016KT 7SM 31/29 A2980 RMK T03100290 IEM_DS3505
ZGSZ,1997-06-08 05:00,ZGSZ 080500Z AUTO 18016KT 6SM 31/29 A2980 RMK T03100290 IEM_DS3505
ZGSZ,1997-06-08 06:00,ZGSZ 080600Z AUTO 22012KT 19SM 32/25 A2977 RMK SLP086 T03180246 57018 IEM_DS3505
ZGSZ,1997-06-08 07:00,ZGSZ 080700Z AUTO 18017KT 6SM 32/29 A2974 RMK T03200290 IEM_DS3505
ZGSZ,1997-06-08 08:00,ZGSZ 080800Z AUTO 19017KT 7SM 31/29 A2974 RMK T03100290 IEM_DS3505
ZGSZ,1997-06-08 09:00,ZGSZ 080900Z AUTO 20012KT 19SM 31/24 A2971 RMK SLP074 T03080243 57012 IEM_DS3505
ZGSZ,1997-06-08 10:00,ZGSZ 081000Z AUTO 18017KT 7SM 30/28 A2971 RMK T03000280 IEM_DS3505
ZGSZ,1997-06-08 11:00,ZGSZ 081100Z AUTO 18016KT 7SM 29/28 A2974 RMK T02900280 IEM_DS3505
ZGSZ,1997-06-08 12:00,ZGSZ 081200Z AUTO 20006KT 12SM 29/25 A2974 RMK SLP082 T02930252 52008 IEM_DS3505
ZGSZ,1997-06-08 13:00,ZGSZ 081300Z AUTO 19016KT 7SM 29/28 A2977 RMK T02900280 IEM_DS3505
ZGSZ,1997-06-08 14:00,ZGSZ 081400Z AUTO 19012KT 7SM 29/28 A2977 RMK T02900280 IEM_DS3505
ZGSZ,1997-06-08 18:00,ZGSZ 081800Z AUTO 20008KT 12SM 29/26 RMK SLP085 T02870255 57008 IEM_DS3505
ZGSZ,1997-06-08 21:00,ZGSZ 082100Z AUTO 19012KT 7SM 29/28 A2974 RMK T02900280 IEM_DS3505
ZGSZ,1997-06-08 22:00,ZGSZ 082200Z AUTO 20010KT 7SM 29/28 A2974 RMK T02900280 IEM_DS3505
ZGSZ,1997-06-08 23:00,ZGSZ 082300Z AUTO 19010KT 7SM 29/28 A2974 RMK T02900280 IEM_DS3505
ZGSZ,1997-06-09 00:00,ZGSZ 090000Z AUTO 22010KT 9SM 29/25 A2977 RMK SLP089 T02930251 52010 IEM_DS3505
ZGSZ,1997-06-09 01:00,ZGSZ 090100Z AUTO 22012KT 7SM 30/29 A2977 RMK T03000290 IEM_DS3505
ZGSZ,1997-06-09 02:00,ZGSZ 090200Z AUTO 19010KT 7SM 31/29 A2974 RMK T03100290 IEM_DS3505
ZGSZ,1997-06-09 03:00,ZGSZ 090300Z AUTO 22012KT 12SM 31/26 A2974 RMK SLP081 T03110255 57008 IEM_DS3505
ZGSZ,1997-06-09 04:00,ZGSZ 090400Z AUTO 19014KT 6SM 32/29 A2974 RMK T03200290 IEM_DS3505
ZGSZ,1997-06-09 05:00,ZGSZ 090500Z AUTO 18012KT 6SM 32/29 A2971 RMK T03200290 IEM_DS3505
ZGSZ,1997-06-09 06:00,ZGSZ 090600Z AUTO 18010KT 16SM 32/25 A2971 RMK SLP064 T03240247 57017 IEM_DS3505
ZGSZ,1997-06-09 07:00,ZGSZ 090700Z AUTO 19017KT 6SM 31/29 A2968 RMK T03100290 IEM_DS3505
ZGSZ,1997-06-09 08:00,ZGSZ 090800Z AUTO 18017KT 6SM 31/29 A2965 RMK T03100290 IEM_DS3505
ZGSZ,1997-06-09 09:00,ZGSZ 090900Z AUTO 20012KT 16SM 32/25 A2962 RMK SLP043 T03170247 57021 IEM_DS3505
ZGSZ,1997-06-09 10:00,ZGSZ 091000Z AUTO 19017KT 6SM 30/28 A2965 RMK T03000280 IEM_DS3505
ZGSZ,1997-06-09 11:00,ZGSZ 091100Z AUTO 19014KT 6SM 30/28 A2965 RMK T03000280 IEM_DS3505
ZGSZ,1997-06-09 12:00,ZGSZ 091200Z AUTO 22008KT 12SM 30/25 A2968 RMK SLP066 T02980252 52023 IEM_DS3505
ZGSZ,1997-06-09 13:00,ZGSZ 091300Z AUTO 19014KT 7SM 29/28 A2968 RMK T02900280 IEM_DS3505
ZGSZ,1997-06-09 14:00,ZGSZ 091400Z AUTO 20014KT 7SM 29/28 A2971 RMK T02900280 IEM_DS3505
ZGSZ,1997-06-09 15:00,ZGSZ 091500Z AUTO 19010KT 7SM 29/28 A2974 RMK T02900280 IEM_DS3505
ZGSZ,1997-06-09 16:00,ZGSZ 091600Z AUTO 19010KT 7SM 29/28 A2971 RMK T02900280 IEM_DS3505
ZGSZ,1997-06-09 17:00,ZGSZ 091700Z AUTO 21008KT 7SM 29/28 A2971 RMK T02900280 IEM_DS3505
ZGSZ,1997-06-09 18:00,ZGSZ 091800Z AUTO 22004KT 12SM 29/26 RMK SLP064 T02910257 57012 IEM_DS3505
ZGSZ,1997-06-09 21:00,ZGSZ 092100Z AUTO 22004KT 11SM 29/26 A2968 RMK SLP061 T02880260 57003 IEM_DS3505
ZGSZ,1997-06-09 22:00,ZGSZ 092200Z AUTO 23008KT 7SM 29/28 A2968 RMK T02900280 IEM_DS3505
ZGSZ,1997-06-09 23:00,ZGSZ 092300Z AUTO 27004KT 7SM 29/28 A2971 RMK T02900280 IEM_DS3505
ZGSZ,1997-06-10 00:00,ZGSZ 100000Z AUTO 22006KT 12SM 30/26 A2971 RMK SLP071 T02960264 52010 IEM_DS3505
ZGSZ,1997-06-10 01:00,ZGSZ 100100Z AUTO 30002KT 7SM 30/28 A2971 RMK T03000280 IEM_DS3505
ZGSZ,1997-06-10 02:00,ZGSZ 100200Z AUTO 26002KT 7SM 30/28 A2971 RMK T03000280 IEM_DS3505
ZGSZ,1997-06-10 03:00,ZGSZ 100300Z AUTO 22004KT 12SM 31/25 A2971 RMK SLP068 T03140252 57003 IEM_DS3505
ZGSZ,1997-06-10 04:00,ZGSZ 100400Z AUTO 31004KT 3SM 31/28 A2971 RMK T03100280 IEM_DS3505
ZGSZ,1997-06-10 05:00,ZGSZ 100500Z AUTO 14008KT 7SM 29/26 A2968 RMK T02900260 IEM_DS3505
ZGSZ,1997-06-10 06:00,ZGSZ 100600Z AUTO 22010KT 9SM 27/24 A2971 RMK 60020 SLP068 T02680239 57001 IEM_DS3505
ZGSZ,1997-06-10 07:00,ZGSZ 100700Z AUTO 17006KT 7SM 26/26 A2968 RMK T02600260 IEM_DS3505
ZGSZ,1997-06-10 08:00,ZGSZ 100800Z AUTO 28014KT 7SM 27/25 A2971 RMK T02700250 IEM_DS3505
ZGSZ,1997-06-10 09:00,ZGSZ 100900Z AUTO 22008KT 7SM 26/24 A2971 RMK SLP071 T02620242 52003 IEM_DS3505
ZGSZ,1997-06-10 10:00,ZGSZ 101000Z AUTO 31010KT 7SM 25/25 A2971 RMK T02500250 IEM_DS3505
ZGSZ,1997-06-10 11:00,ZGSZ 101100Z AUTO 05002KT 7SM 25/25 A2968 RMK T02500250 IEM_DS3505
ZGSZ,1997-06-10 12:00,ZGSZ 101200Z AUTO 22004KT 9SM 25/23 A2971 RMK 60016 SLP069 T02490234 57002 IEM_DS3505
ZGSZ,1997-06-10 13:00,ZGSZ 101300Z AUTO 12004KT 1 1/2SM 25/25 A2974 RMK T02500250 IEM_DS3505
ZGSZ,1997-06-10 14:00,ZGSZ 101400Z AUTO 34004KT 2SM 25/25 A2974 RMK T02500250 IEM_DS3505
ZGSZ,1997-06-10 15:00,ZGSZ 101500Z AUTO 34006KT 2SM 25/25 A2974 RMK T02500250 IEM_DS3505
ZGSZ,1997-06-10 16:00,ZGSZ 101600Z AUTO 35004KT 2 1/2SM 25/24 A2974 RMK T02500240 IEM_DS3505
ZGSZ,1997-06-10 18:00,ZGSZ 101800Z AUTO 36002KT 4SM 25/23 RMK SLP071 T02520227 57010 IEM_DS3505
ZGSZ,1997-06-10 21:00,ZGSZ 102100Z AUTO 36002KT 4SM 25/23 A2971 RMK 70035 SLP068 T02490227 57003 IEM_DS3505
ZGSZ,1997-06-10 22:00,ZGSZ 102200Z AUTO 35006KT 1 1/4SM 25/24 A2971 RMK T02500240 IEM_DS3505
ZGSZ,1997-06-10 23:00,ZGSZ 102300Z AUTO 02004KT 2SM 25/24 A2974 RMK T02500240 IEM_DS3505
ZGSZ,1997-06-11 00:00,ZGSZ 110000Z AUTO 09004KT 4SM 25/23 A2974 RMK 70035 SLP081 T02540232 52013 IEM_DS3505
ZGSZ,1997-06-11 01:00,ZGSZ 110100Z AUTO 04002KT 2 1/2SM 25/24 A2977 RMK T02500240 IEM_DS3505
ZGSZ,1997-06-11 02:00,ZGSZ 110200Z AUTO 02002KT 2 1/2SM 26/24 A2977 RMK T02600240 IEM_DS3505
ZGSZ,1997-06-11 03:00,ZGSZ 110300Z AUTO 04002KT 7SM 27/22 A2977 RMK SLP087 T02720222 52006 IEM_DS3505
ZGSZ,1997-06-11 04:00,ZGSZ 110400Z AUTO 06004KT 3SM 28/24 A2977 RMK T02800240 IEM_DS3505
ZGSZ,1997-06-11 05:00,ZGSZ 110500Z AUTO 09002KT 5SM 28/24 A2977 RMK T02800240 IEM_DS3505
ZGSZ,1997-06-11 06:00,ZGSZ 110600Z AUTO 00000KT 7SM 28/23 A2974 RMK SLP082 T02820233 57005 IEM_DS3505
ZGSZ,1997-06-11 07:00,ZGSZ 110700Z AUTO 28004KT 3SM 29/24 A2974 RMK T02900240 IEM_DS3505
ZGSZ,1997-06-11 08:00,ZGSZ 110800Z AUTO 27004KT 4SM 29/24 A2974 RMK T02900240 IEM_DS3505
ZGSZ,1997-06-11 09:00,ZGSZ 110900Z AUTO 18006KT 6SM 29/22 A2974 RMK SLP076 T02860222 57006 IEM_DS3505
ZGSZ,1997-06-11 10:00,ZGSZ 111000Z AUTO 00000KT 6SM 30/24 A2974 RMK T03000240 IEM_DS3505
ZGSZ,1997-06-11 11:00,ZGSZ 111100Z AUTO 00000KT 6SM 29/24 A2974 RMK T02900240 IEM_DS3505
ZGSZ,1997-06-11 12:00,ZGSZ 111200Z AUTO 20004KT 4SM 28/23 A2974 RMK SLP083 T02780229 52007 IEM_DS3505
ZGSZ,1997-06-11 13:00,ZGSZ 111300Z AUTO 06004KT 7SM 27/24 A2977 RMK T02700240 IEM_DS3505
ZGSZ,1997-06-11 14:00,ZGSZ 111400Z AUTO 00000KT 6SM 27/24 A2977 RMK T02700240 IEM_DS3505
ZGSZ,1997-06-11 18:00,ZGSZ 111800Z AUTO 18002KT 4SM 26/24 RMK SLP090 T02600237 57005 IEM_DS3505
ZGSZ,1997-06-11 20:00,ZGSZ 112000Z AUTO 30006KT 1 1/2SM 27/26 A2977 RMK T02700260 IEM_DS3505
ZGSZ,1997-06-11 21:00,ZGSZ 112100Z AUTO 07002KT 3SM 26/24 A2977 RMK SLP089 T02630239 57001 IEM_DS3505
ZGSZ,1997-06-11 22:00,ZGSZ 112200Z AUTO 03004KT 1 1/4SM 26/25 A2977 RMK T02600250 IEM_DS3505
ZGSZ,1997-06-11 23:00,ZGSZ 112300Z AUTO 00000KT 1 1/4SM 27/25 A2980 RMK T02700250 IEM_DS3505
ZGSZ,1997-06-12 00:00,ZGSZ 120000Z AUTO 04002KT 2 1/2SM 27/24 A2980 RMK SLP102 T02690242 52013 IEM_DS3505
ZGSZ,1997-06-12 01:00,ZGSZ 120100Z AUTO 25002KT 2SM 29/25 A2980 RMK T02900250 IEM_DS3505
ZGSZ,1997-06-12 02:00,ZGSZ 120200Z AUTO 30004KT 2SM 30/25 A2983 RMK T03000250 IEM_DS3505
ZGSZ,1997-06-12 03:00,ZGSZ 120300Z AUTO 34002KT 4SM 29/24 A2980 RMK SLP102 T02890240 54000 IEM_DS3505
ZGSZ,1997-06-12 04:00,ZGSZ 120400Z AUTO 30006KT 3SM 31/25 A2980 RMK T03100250 IEM_DS3505
ZGSZ,1997-06-12 05:00,ZGSZ 120500Z AUTO 29006KT 3SM 31/24 A2980 RMK T03100240 IEM_DS3505
ZGSZ,1997-06-12 06:00,ZGSZ 120600Z AUTO 14006KT 4SM 29/24 A2977 RMK SLP091 T02890240 57011 IEM_DS3505
ZGSZ,1997-06-12 07:00,ZGSZ 120700Z AUTO 20010KT 1 1/4SM 29/26 A2977 RMK T02900260 IEM_DS3505
ZGSZ,1997-06-12 08:00,ZGSZ 120800Z AUTO 18008KT 2SM 29/26 A2977 RMK T02900260 IEM_DS3505
ZGSZ,1997-06-12 09:00,ZGSZ 120900Z AUTO 14004KT 4SM 28/24 RMK SLP088 T02820245 57003 IEM_DS3505
ZGSZ,1997-06-12 11:00,ZGSZ 121100Z AUTO 17010KT 7SM 29/26 A2977 RMK T02900260 IEM_DS3505
ZGSZ,1997-06-12 12:00,ZGSZ 121200Z AUTO 11006KT 6SM 27/24 RMK SLP105 T02720240 52017 IEM_DS3505
ZGSZ,1997-06-12 13:00,ZGSZ 121300Z AUTO 15008KT 7SM 28/26 A2980 RMK T02800260 IEM_DS3505
ZGSZ,1997-06-12 14:00,ZGSZ 121400Z AUTO 13006KT 4SM 28/26 A2983 RMK T02800260 IEM_DS3505
ZGSZ,1997-06-12 15:00,ZGSZ 121500Z AUTO 13006KT 2 1/2SM 27/26 A2983 RMK T02700260 IEM_DS3505
ZGSZ,1997-06-12 16:00,ZGSZ 121600Z AUTO 12008KT 2SM 27/26 A2980 RMK T02700260 IEM_DS3505
ZGSZ,1997-06-12 18:00,ZGSZ 121800Z AUTO 14004KT 6SM 26/24 RMK SLP096 T02630244 57013 IEM_DS3505
ZGSZ,1997-06-12 21:00,ZGSZ 122100Z AUTO 09006KT 6SM 26/24 A2977 RMK SLP088 T02620242 57008 IEM_DS3505
ZGSZ,1997-06-12 22:00,ZGSZ 122200Z AUTO 07004KT 1 1/2SM 26/25 A2977 RMK T02600250 IEM_DS3505
ZGSZ,1997-06-12 23:00,ZGSZ 122300Z AUTO 13006KT 5SM 25/25 A2977 RMK T02500250 IEM_DS3505
ZGSZ,1997-06-13 00:00,ZGSZ 130000Z AUTO 14002KT 7SM 25/24 A2977 RMK 60016 70016 SLP095 T02490239 52007 IEM_DS3505
ZGSZ,1997-06-13 01:00,ZGSZ 130100Z AUTO 14006KT 7SM 26/26 A2980 RMK T02600260 IEM_DS3505
ZGSZ,1997-06-13 02:00,ZGSZ 130200Z AUTO 14008KT 7SM 28/27 A2977 RMK T02800270 IEM_DS3505
ZGSZ,1997-06-13 03:00,ZGSZ 130300Z AUTO 14008KT 11SM 26/23 A2977 RMK SLP091 T02630226 57004 IEM_DS3505
ZGSZ,1997-06-13 04:00,ZGSZ 130400Z AUTO 15008KT 7SM 29/27 A2977 RMK T02900270 IEM_DS3505
ZGSZ,1997-06-13 05:00,ZGSZ 130500Z AUTO 14010KT 7SM 29/27 A2974 RMK T02900270 IEM_DS3505
ZGSZ,1997-06-13 06:00,ZGSZ 130600Z AUTO 11006KT 6SM 24/24 A2974 RMK 60043 SLP081 T02450238 57010 IEM_DS3505
ZGSZ,1997-06-13 07:00,ZGSZ 130700Z AUTO 12010KT 2 1/2SM 26/26 A2974 RMK T02600260 IEM_DS3505
ZGSZ,1997-06-13 08:00,ZGSZ 130800Z AUTO 12012KT 3SM 25/25 A2971 RMK T02500250 IEM_DS3505
ZGSZ,1997-06-13 09:00,ZGSZ 130900Z AUTO 14006KT 12SM 24/23 A2971 RMK SLP073 T02430233 57008 IEM_DS3505
ZGSZ,1997-06-13 10:00,ZGSZ 131000Z AUTO 11010KT 6SM 25/25 A2968 RMK T02500250 IEM_DS3505
ZGSZ,1997-06-13 11:00,ZGSZ 131100Z AUTO 10010KT 7SM 26/25 A2971 RMK T02600250 IEM_DS3505
ZGSZ,1997-06-13 12:00,ZGSZ 131200Z AUTO 14004KT 12SM 25/24 A2971 RMK 60020 SLP077 T02510238 52004 IEM_DS3505
ZGSZ,1997-06-13 13:00,ZGSZ 131300Z AUTO 11012KT 3SM 25/25 A2971 RMK T02500250 IEM_DS3505
ZGSZ,1997-06-13 14:00,ZGSZ 131400Z AUTO 11012KT 4SM 25/25 A2974 RMK T02500250 IEM_DS3505
ZGSZ,1997-06-13 15:00,ZGSZ 131500Z AUTO 11010KT 5SM 25/25 A2971 RMK T02500250 IEM_DS3505
ZGSZ,1997-06-13 16:00,ZGSZ 131600Z AUTO 13008KT 7SM 25/25 A2974 RMK T02500250 IEM_DS3505
ZGSZ,1997-06-13 17:00,ZGSZ 131700Z AUTO 14006KT 7SM 25/25 A2971 RMK T02500250 IEM_DS3505
ZGSZ,1997-06-13 18:00,ZGSZ 131800Z AUTO 09004KT 16SM 25/25 A2968 RMK 60043 SLP061 T02500250 57015 IEM_DS3505
ZGSZ,1997-06-13 19:00,ZGSZ 131900Z AUTO 12006KT 7SM 25/25 A2968 RMK T02500250 IEM_DS3505
ZGSZ,1997-06-13 20:00,ZGSZ 132000Z AUTO 13008KT 7SM 25/25 A2968 RMK T02500250 IEM_DS3505
ZGSZ,1997-06-13 21:00,ZGSZ 132100Z AUTO 14004KT 9SM 24/24 A2968 RMK 70142 SLP065 T02430240 52004 IEM_DS3505
ZGSZ,1997-06-13 22:00,ZGSZ 132200Z AUTO 13008KT 7SM 25/25 A2968 RMK T02500250 IEM_DS3505
ZGSZ,1997-06-13 23:00,ZGSZ 132300Z AUTO 13008KT 7SM 25/25 A2971 RMK T02500250 IEM_DS3505
ZGSZ,1997-06-14 00:00,ZGSZ 140000Z AUTO 14004KT 17SM 25/24 A2971 RMK 60024 70130 SLP070 T02510235 52005 IEM_DS3505
ZGSZ,1997-06-14 01:00,ZGSZ 140100Z AUTO 14006KT 7SM 26/25 A2971 RMK T02600250 IEM_DS3505
ZGSZ,1997-06-14 02:00,ZGSZ 140200Z AUTO 17012KT 7SM 27/25 A2974 RMK T02700250 IEM_DS3505
ZGSZ,1997-06-14 03:00,ZGSZ 140300Z AUTO 20002KT 17SM 28/24 A2971 RMK SLP071 T02800235 52001 IEM_DS3505
ZGSZ,1997-06-14 04:00,ZGSZ 140400Z AUTO 18012KT 7SM 27/25 A2971 RMK T02700250 IEM_DS3505
ZGSZ,1997-06-14 05:00,ZGSZ 140500Z AUTO 18008KT 7SM 27/26 A2971 RMK T02700260 IEM_DS3505
ZGSZ,1997-06-14 06:00,ZGSZ 140600Z AUTO 14006KT 5SM 27/25 A2971 RMK 60000 SLP072 T02670246 52001 IEM_DS3505
ZGSZ,1997-06-14 07:00,ZGSZ 140700Z AUTO 16004KT 7SM 26/26 A2971 RMK T02600260 IEM_DS3505
ZGSZ,1997-06-14 08:00,ZGSZ 140800Z AUTO 34006KT 1 1/2SM 26/25 A2971 RMK T02600250 IEM_DS3505
ZGSZ,1997-06-14 09:00,ZGSZ 140900Z AUTO 20006KT 4SM 25/24 A2971 RMK SLP070 T02540245 57002 IEM_DS3505
ZGSZ,1997-06-14 10:00,ZGSZ 141000Z AUTO 02012KT 7SM 24/24 A2971 RMK T02400240 IEM_DS3505
ZGSZ,1997-06-14 11:00,ZGSZ 141100Z AUTO 04006KT 7SM 24/24 A2971 RMK T02400240 IEM_DS3505
ZGSZ,1997-06-14 12:00,ZGSZ 141200Z AUTO 32002KT 5SM 25/23 A2974 RMK 60016 SLP084 T02470231 52014 IEM_DS3505
ZGSZ,1997-06-14 13:00,ZGSZ 141300Z AUTO 36002KT 1 1/2SM 24/24 A2977 RMK T02400240 IEM_DS3505
ZGSZ,1997-06-14 14:00,ZGSZ 141400Z AUTO 36006KT 1 1/2SM 24/24 A2980 RMK T02400240 IEM_DS3505
ZGSZ,1997-06-14 15:00,ZGSZ 141500Z AUTO 03006KT 7SM 24/24 A2980 RMK T02400240 IEM_DS3505
ZGSZ,1997-06-14 16:00,ZGSZ 141600Z AUTO 04006KT 7SM 24/24 A2980 RMK T02400240 IEM_DS3505
ZGSZ,1997-06-14 17:00,ZGSZ 141700Z AUTO 06008KT 7SM 24/23 A2977 RMK T02400230 IEM_DS3505
ZGSZ,1997-06-14 18:00,ZGSZ 141800Z AUTO 02006KT 8SM 23/22 RMK 60024 SLP092 T02320223 57005 IEM_DS3505
ZGSZ,1997-06-14 21:00,ZGSZ 142100Z AUTO 04008KT 6SM 24/22 A2977 RMK 70039 SLP092 T02360224 54000 IEM_DS3505
ZGSZ,1997-06-14 22:00,ZGSZ 142200Z AUTO 05008KT 7SM 23/23 A2977 RMK T02300230 IEM_DS3505
ZGSZ,1997-06-14 23:00,ZGSZ 142300Z AUTO 07010KT 7SM 23/23 A2980 RMK T02300230 IEM_DS3505
ZGSZ,1997-06-15 00:00,ZGSZ 150000Z AUTO 09006KT 9SM 24/22 A2983 RMK 60004 70039 SLP109 T02410222 52017 IEM_DS3505
ZGSZ,1997-06-15 01:00,ZGSZ 150100Z AUTO 08004KT 7SM 24/23 A2983 RMK T02400230 IEM_DS3505
ZGSZ,1997-06-15 02:00,ZGSZ 150200Z AUTO 06006KT 7SM 24/23 A2985 RMK T02400230 IEM_DS3505
ZGSZ,1997-06-15 03:00,ZGSZ 150300Z AUTO 04006KT 11SM 25/22 A2983 RMK SLP113 T02480224 52004 IEM_DS3505
ZGSZ,1997-06-15 04:00,ZGSZ 150400Z AUTO 07008KT 7SM 26/24 A2983 RMK T02600240 IEM_DS3505
ZGSZ,1997-06-15 05:00,ZGSZ 150500Z AUTO 07008KT 7SM 26/24 A2983 RMK T02600240 IEM_DS3505
ZGSZ,1997-06-15 06:00,ZGSZ 150600Z AUTO 14006KT 16SM 24/23 A2983 RMK SLP107 T02430228 57006 IEM_DS3505
ZGSZ,1997-06-15 07:00,ZGSZ 150700Z AUTO 09010KT 4SM 25/24 A2980 RMK T02500240 IEM_DS3505
ZGSZ,1997-06-15 08:00,ZGSZ 150800Z AUTO 08008KT 7SM 25/24 A2977 RMK T02500240 IEM_DS3505
ZGSZ,1997-06-15 09:00,ZGSZ 150900Z AUTO 09006KT 19SM 26/23 A2977 RMK SLP087 T02560227 57020 IEM_DS3505
ZGSZ,1997-06-15 10:00,ZGSZ 151000Z AUTO 09008KT 7SM 25/24 A2977 RMK T02500240 IEM_DS3505
ZGSZ,1997-06-15 11:00,ZGSZ 151100Z AUTO 08008KT 7SM 25/24 A2977 RMK T02500240 IEM_DS3505
ZGSZ,1997-06-15 12:00,ZGSZ 151200Z AUTO 09004KT 11SM 25/22 A2980 RMK 60000 SLP100 T02480224 52013 IEM_DS3505
ZGSZ,1997-06-15 13:00,ZGSZ 151300Z AUTO 09008KT 7SM 25/24 A2980 RMK T02500240 IEM_DS3505
ZGSZ,1997-06-15 14:00,ZGSZ 151400Z AUTO 09010KT 7SM 25/24 A2983 RMK T02500240 IEM_DS3505
ZGSZ,1997-06-15 15:00,ZGSZ 151500Z AUTO 09012KT 7SM 25/24 A2983 RMK T02500240 IEM_DS3505
ZGSZ,1997-06-15 16:00,ZGSZ 151600Z AUTO 09010KT 7SM 24/23 A2983 RMK T02400230 IEM_DS3505
ZGSZ,1997-06-15 18:00,ZGSZ 151800Z AUTO 09008KT 6SM 24/22 RMK 60002 SLP096 T02390220 57016 IEM_DS3505
ZGSZ,1997-06-15 21:00,ZGSZ 152100Z AUTO 09008KT 8SM 23/22 A2977 RMK 70008 SLP090 T02330220 57006 IEM_DS3505
ZGSZ,1997-06-15 22:00,ZGSZ 152200Z AUTO 09008KT 7SM 24/23 A2977 RMK T02400230 IEM_DS3505
ZGSZ,1997-06-15 23:00,ZGSZ 152300Z AUTO 09008KT 7SM 24/23 A2980 RMK T02400230 IEM_DS3505
ZGSZ,1997-06-16 00:00,ZGSZ 160000Z AUTO 11008KT 5SM 23/23 A2983 RMK 60035 70035 SLP107 T02300230 52017 IEM_DS3505
ZGSZ,1997-06-16 01:00,ZGSZ 160100Z AUTO 13006KT 3SM 23/23 A2983 RMK T02300230 IEM_DS3505
ZGSZ,1997-06-16 02:00,ZGSZ 160200Z AUTO 10008KT 5SM 23/23 A2983 RMK T02300230 IEM_DS3505
ZGSZ,1997-06-16 03:00,ZGSZ 160300Z AUTO 04006KT 4SM 24/23 A2983 RMK SLP113 T02350228 52006 IEM_DS3505
ZGSZ,1997-06-16 04:00,ZGSZ 160400Z AUTO 12006KT 7SM 24/24 A2983 RMK T02400240 IEM_DS3505
ZGSZ,1997-06-16 05:00,ZGSZ 160500Z AUTO 12010KT 7SM 26/25 A2980 RMK T02600250 IEM_DS3505
ZGSZ,1997-06-16 06:00,ZGSZ 160600Z AUTO 14006KT 11SM 25/23 A2980 RMK 60055 SLP103 T02540229 57010 IEM_DS3505
ZGSZ,1997-06-16 07:00,ZGSZ 160700Z AUTO 11012KT 7SM 26/24 A2980 RMK T02600240 IEM_DS3505
ZGSZ,1997-06-16 08:00,ZGSZ 160800Z AUTO 12012KT 7SM 26/25 A2977 RMK T02600250 IEM_DS3505
ZGSZ,1997-06-16 09:00,ZGSZ 160900Z AUTO 09008KT 9SM 25/23 A2977 RMK SLP091 T02470228 57012 IEM_DS3505
ZGSZ,1997-06-16 11:00,ZGSZ 161100Z AUTO 12012KT 2 1/2SM 24/24 A2980 RMK T02400240 IEM_DS3505
ZGSZ,1997-06-16 12:00,ZGSZ 161200Z AUTO 14008KT 8SM 23/23 A2980 RMK 60031 SLP110 T02330226 52018 IEM_DS3505
ZGSZ,1997-06-16 13:00,ZGSZ 161300Z AUTO 11014KT 7SM 24/24 A2983 RMK T02400240 IEM_DS3505
ZGSZ,1997-06-16 14:00,ZGSZ 161400Z AUTO 12016KT 7SM 24/24 A2983 RMK T02400240 IEM_DS3505
ZGSZ,1997-06-16 15:00,ZGSZ 161500Z AUTO 12012KT 6SM 24/24 A2983 RMK T02400240 IEM_DS3505
ZGSZ,1997-06-16 16:00,ZGSZ 161600Z AUTO 11014KT 7SM 24/24 A2983 RMK T02400240 IEM_DS3505
ZGSZ,1997-06-16 18:00,ZGSZ 161800Z AUTO 09008KT 9SM 24/22 RMK 60012 SLP100 T02410225 57019 IEM_DS3505
ZGSZ,1997-06-16 21:00,ZGSZ 162100Z AUTO 09004KT 10SM 24/22 A2977 RMK 70130 SLP092 T02370221 57008 IEM_DS3505
ZGSZ,1997-06-16 22:00,ZGSZ 162200Z AUTO 12006KT 7SM 24/23 A2980 RMK T02400230 IEM_DS3505
ZGSZ,1997-06-16 23:00,ZGSZ 162300Z AUTO 10006KT 7SM 24/24 A2980 RMK T02400240 IEM_DS3505
ZGSZ,1997-06-17 00:00,ZGSZ 170000Z AUTO 14006KT 4SM 23/22 A2980 RMK 60012 70110 SLP109 T02280218 52016 IEM_DS3505
ZGSZ,1997-06-17 01:00,ZGSZ 170100Z AUTO 09012KT 7SM 25/24 A2983 RMK T02500240 IEM_DS3505
ZGSZ,1997-06-17 02:00,ZGSZ 170200Z AUTO 09012KT 7SM 26/24 A2983 RMK T02600240 IEM_DS3505
ZGSZ,1997-06-17 03:00,ZGSZ 170300Z AUTO 14008KT 7SM 24/22 A2983 RMK SLP111 T02450215 52003 IEM_DS3505
ZGSZ,1997-06-17 04:00,ZGSZ 170400Z AUTO 06006KT 7SM 25/24 A2983 RMK T02500240 IEM_DS3505
ZGSZ,1997-06-17 05:00,ZGSZ 170500Z AUTO 07008KT 7SM 26/24 A2980 RMK T02600240 IEM_DS3505
ZGSZ,1997-06-17 06:00,ZGSZ 170600Z AUTO 14010KT 9SM 25/20 A2980 RMK 60008 SLP098 T02490205 57013 IEM_DS3505
ZGSZ,1997-06-17 07:00,ZGSZ 170700Z AUTO 07004KT 7SM 26/24 A2977 RMK T02600240 IEM_DS3505
ZGSZ,1997-06-17 08:00,ZGSZ 170800Z AUTO 08004KT 2SM 25/24 A2977 RMK T02500240 IEM_DS3505
ZGSZ,1997-06-17 09:00,ZGSZ 170900Z AUTO 09006KT 8SM 24/20 A2977 RMK SLP093 T02430205 57005 IEM_DS3505
ZGSZ,1997-06-17 10:00,ZGSZ 171000Z AUTO 09008KT 7SM 25/23 A2977 RMK T02500230 IEM_DS3505
ZGSZ,1997-06-17 12:00,ZGSZ 171200Z AUTO 09004KT 9SM 24/19 A2980 RMK SLP097 T02430194 52004 IEM_DS3505
ZGSZ,1997-06-17 13:00,ZGSZ 171300Z AUTO 11004KT 6SM 25/22 A2980 RMK T02500220 IEM_DS3505
ZGSZ,1997-06-17 14:00,ZGSZ 171400Z AUTO 09004KT 6SM 24/22 A2983 RMK T02400220 IEM_DS3505
ZGSZ,1997-06-17 15:00,ZGSZ 171500Z AUTO 10008KT 6SM 25/22 A2983 RMK T02500220 IEM_DS3505
ZGSZ,1997-06-17 18:00,ZGSZ 171800Z AUTO 09004KT 5SM 24/23 RMK 60001 SLP095 T02420226 57020 IEM_DS3505
ZGSZ,1997-06-17 21:00,ZGSZ 172100Z AUTO 09006KT 7SM 24/22 A2977 RMK 70024 SLP092 T02400216 57003 IEM_DS3505
ZGSZ,1997-06-17 22:00,ZGSZ 172200Z AUTO 08004KT 4SM 24/23 A2977 RMK T02400230 IEM_DS3505
ZGSZ,1997-06-17 23:00,ZGSZ 172300Z AUTO 13006KT 7SM 25/21 A2980 RMK T02500210 IEM_DS3505
ZGSZ,1997-06-18 00:00,ZGSZ 180000Z AUTO 14008KT 12SM 25/18 A2980 RMK 70012 SLP101 T02460176 52009 IEM_DS3505
ZGSZ,1997-06-18 01:00,ZGSZ 180100Z AUTO 10012KT 7SM 26/19 A2980 RMK T02600190 IEM_DS3505
ZGSZ,1997-06-18 02:00,ZGSZ 180200Z AUTO 10014KT 6SM 28/21 A2980 RMK T02800210 IEM_DS3505
ZGSZ,1997-06-18 03:00,ZGSZ 180300Z AUTO 09008KT 16SM 27/20 A2980 RMK SLP100 T02660201 57001 IEM_DS3505
ZGSZ,1997-06-18 04:00,ZGSZ 180400Z AUTO 11014KT 7SM 28/21 A2980 RMK T02800210 IEM_DS3505
ZGSZ,1997-06-18 05:00,ZGSZ 180500Z AUTO 10016KT 7SM 28/22 A2977 RMK T02800220 IEM_DS3505
ZGSZ,1997-06-18 06:00,ZGSZ 180600Z AUTO 14006KT 8SM 25/21 A2977 RMK 60002 SLP095 T02470211 57005 IEM_DS3505
ZGSZ,1997-06-18 07:00,ZGSZ 180700Z AUTO 11012KT 7SM 26/22 A2977 RMK T02600220 IEM_DS3505
ZGSZ,1997-06-18 08:00,ZGSZ 180800Z AUTO 10012KT 6SM 27/23 A2974 RMK T02700230 IEM_DS3505
ZGSZ,1997-06-18 09:00,ZGSZ 180900Z AUTO 10010KT 6SM 27/23 A2971 RMK T02700230 IEM_DS3505
ZGSZ,1997-06-18 10:00,ZGSZ 181000Z AUTO 11010KT 7SM 27/23 A2971 RMK T02700230 IEM_DS3505
ZGSZ,1997-06-18 11:00,ZGSZ 181100Z AUTO 09010KT 6SM 26/22 A2974 RMK T02600220 IEM_DS3505
ZGSZ,1997-06-18 12:00,ZGSZ 181200Z AUTO 09008KT 10SM 25/20 A2974 RMK SLP083 T02490205 52007 IEM_DS3505
ZGSZ,1997-06-18 13:00,ZGSZ 181300Z AUTO 09006KT 7SM 26/22 A2977 RMK T02600220 IEM_DS3505
ZGSZ,1997-06-18 14:00,ZGSZ 181400Z AUTO 08004KT 7SM 25/23 A2977 RMK T02500230 IEM_DS3505
ZGSZ,1997-06-18 15:00,ZGSZ 181500Z AUTO 08004KT 6SM 25/22 A2977 RMK T02500220 IEM_DS3505
ZGSZ,1997-06-18 16:00,ZGSZ 181600Z AUTO 07006KT 6SM 25/22 A2974 RMK T02500220 IEM_DS3505
ZGSZ,1997-06-18 18:00,ZGSZ 181800Z AUTO 14006KT 9SM 25/23 RMK SLP071 T02510226 57018 IEM_DS3505
ZGSZ,1997-06-18 20:00,ZGSZ 182000Z AUTO 07002KT 4SM 24/23 A2971 RMK T02400230 IEM_DS3505
ZGSZ,1997-06-18 21:00,ZGSZ 182100Z AUTO 07004KT 6SM 25/23 A2971 RMK 70002 SLP066 T02490227 57005 IEM_DS3505
ZGSZ,1997-06-18 22:00,ZGSZ 182200Z AUTO 09004KT 5SM 25/24 A2971 RMK T02500240 IEM_DS3505
ZGSZ,1997-06-18 23:00,ZGSZ 182300Z AUTO 07004KT 4SM 25/24 A2971 RMK T02500240 IEM_DS3505
ZGSZ,1997-06-19 00:00,ZGSZ 190000Z AUTO 09008KT 4SM 26/22 A2974 RMK 70002 SLP079 T02580218 52013 IEM_DS3505
ZGSZ,1997-06-19 01:00,ZGSZ 190100Z AUTO 05002KT 7SM 27/24 A2974 RMK T02700240 IEM_DS3505
ZGSZ,1997-06-19 02:00,ZGSZ 190200Z AUTO 08006KT 7SM 27/24 A2974 RMK T02700240 IEM_DS3505
ZGSZ,1997-06-19 03:00,ZGSZ 190300Z AUTO 09008KT 7SM 27/22 A2974 RMK SLP081 T02690217 52002 IEM_DS3505
ZGSZ,1997-06-19 04:00,ZGSZ 190400Z AUTO 28004KT 7SM 29/25 A2974 RMK T02900250 IEM_DS3505
ZGSZ,1997-06-19 05:00,ZGSZ 190500Z AUTO 27006KT 7SM 28/25 A2974 RMK T02800250 IEM_DS3505
ZGSZ,1997-06-19 06:00,ZGSZ 190600Z AUTO 14008KT 9SM 30/23 A2971 RMK SLP065 T02980229 57016 IEM_DS3505
ZGSZ,1997-06-19 07:00,ZGSZ 190700Z AUTO 28006KT 4SM 28/25 A2968 RMK T02800250 IEM_DS3505
ZGSZ,1997-06-19 08:00,ZGSZ 190800Z AUTO 27004KT 5SM 28/25 A2965 RMK T02800250 IEM_DS3505
ZGSZ,1997-06-19 09:00,ZGSZ 190900Z AUTO 14006KT 16SM 29/22 A2965 RMK SLP049 T02930221 57016 IEM_DS3505
ZGSZ,1997-06-19 10:00,ZGSZ 191000Z AUTO 21004KT 3SM 27/25 A2965 RMK T02700250 IEM_DS3505
ZGSZ,1997-06-19 11:00,ZGSZ 191100Z AUTO 21002KT 3SM 27/25 A2968 RMK T02700250 IEM_DS3505
ZGSZ,1997-06-19 12:00,ZGSZ 191200Z AUTO 14004KT 2 1/2SM 26/22 A2968 RMK SLP060 T02650216 52011 IEM_DS3505
ZGSZ,1997-06-19 13:00,ZGSZ 191300Z AUTO 10004KT 2SM 27/25 A2968 RMK T02700250 IEM_DS3505
ZGSZ,1997-06-19 14:00,ZGSZ 191400Z AUTO 10004KT 2SM 26/24 A2971 RMK T02600240 IEM_DS3505
ZGSZ,1997-06-19 15:00,ZGSZ 191500Z AUTO 12004KT 2 1/2SM 26/23 A2974 RMK T02600230 IEM_DS3505
ZGSZ,1997-06-19 16:00,ZGSZ 191600Z AUTO 11002KT 2SM 25/23 A2974 RMK T02500230 IEM_DS3505
ZGSZ,1997-06-19 17:00,ZGSZ 191700Z AUTO 10002KT 2SM 25/24 A2971 RMK T02500240 IEM_DS3505
ZGSZ,1997-06-19 18:00,ZGSZ 191800Z AUTO 04006KT 10SM 26/23 A2971 RMK SLP067 T02620230 57010 IEM_DS3505
ZGSZ,1997-06-19 21:00,ZGSZ 192100Z AUTO 36004KT 6SM 26/23 A2971 RMK SLP068 T02570232 52001 IEM_DS3505
ZGSZ,1997-06-19 22:00,ZGSZ 192200Z AUTO 06004KT 3SM 26/24 A2971 RMK T02600240 IEM_DS3505
ZGSZ,1997-06-20 00:00,ZGSZ 200000Z AUTO 04002KT 4SM 26/23 A2974 RMK SLP082 T02620231 52014 IEM_DS3505
ZGSZ,1997-06-20 01:00,ZGSZ 200100Z AUTO 29004KT 4SM 29/26 A2974 RMK T02900260 IEM_DS3505
ZGSZ,1997-06-20 02:00,ZGSZ 200200Z AUTO 25004KT 4SM 28/26 A2974 RMK T02800260 IEM_DS3505
ZGSZ,1997-06-20 03:00,ZGSZ 200300Z AUTO 04004KT 6SM 30/24 A2974 RMK SLP079 T02950241 57003 IEM_DS3505
ZGSZ,1997-06-20 04:00,ZGSZ 200400Z AUTO 27008KT 4SM 30/26 A2974 RMK T03000260 IEM_DS3505
ZGSZ,1997-06-20 05:00,ZGSZ 200500Z AUTO 26008KT 6SM 30/26 A2971 RMK T03000260 IEM_DS3505
ZGSZ,1997-06-20 06:00,ZGSZ 200600Z AUTO 18004KT 11SM 30/24 A2971 RMK 60000 SLP068 T03020244 57011 IEM_DS3505
ZGSZ,1997-06-20 07:00,ZGSZ 200700Z AUTO 22008KT 7SM 30/27 A2968 RMK T03000270 IEM_DS3505
ZGSZ,1997-06-20 08:00,ZGSZ 200800Z AUTO 21008KT 7SM 30/27 A2968 RMK T03000270 IEM_DS3505
ZGSZ,1997-06-20 09:00,ZGSZ 200900Z AUTO 09004KT 7SM 29/25 A2968 RMK SLP061 T02930249 57007 IEM_DS3505
ZGSZ,1997-06-20 10:00,ZGSZ 201000Z AUTO 18010KT 6SM 28/27 A2968 RMK T02800270 IEM_DS3505
ZGSZ,1997-06-20 11:00,ZGSZ 201100Z AUTO 19010KT 6SM 28/26 A2971 RMK T02800260 IEM_DS3505
ZGSZ,1997-06-20 12:00,ZGSZ 201200Z AUTO 14002KT 10SM 28/25 A2971 RMK SLP077 T02800247 52016 IEM_DS3505
ZGSZ,1997-06-20 13:00,ZGSZ 201300Z AUTO 17008KT 6SM 28/26 A2974 RMK T02800260 IEM_DS3505
ZGSZ,1997-06-20 14:00,ZGSZ 201400Z AUTO 11004KT 6SM 28/26 A2971 RMK T02800260 IEM_DS3505
ZGSZ,1997-06-20 15:00,ZGSZ 201500Z AUTO 10006KT 6SM 28/26 A2974 RMK T02800260 IEM_DS3505
ZGSZ,1997-06-20 18:00,ZGSZ 201800Z AUTO 09008KT 7SM 26/24 RMK SLP072 T02650242 57009 IEM_DS3505
ZGSZ,1997-06-20 21:00,ZGSZ 202100Z AUTO 14006KT 6SM 27/24 A2971 RMK 70000 SLP069 T02660243 57003 IEM_DS3505
ZGSZ,1997-06-20 22:00,ZGSZ 202200Z AUTO 10004KT 6SM 27/26 A2971 RMK T02700260 IEM_DS3505
ZGSZ,1997-06-20 23:00,ZGSZ 202300Z AUTO 11006KT 6SM 27/26 A2971 RMK T02700260 IEM_DS3505
ZGSZ,1997-06-21 00:00,ZGSZ 210000Z AUTO 11004KT 11SM 28/25 A2971 RMK SLP072 T02770247 52003 IEM_DS3505
ZGSZ,1997-06-21 01:00,ZGSZ 210100Z AUTO 17008KT 7SM 29/26 A2971 RMK T02900260 IEM_DS3505
ZGSZ,1997-06-21 02:00,ZGSZ 210200Z AUTO 18006KT 7SM 29/26 A2974 RMK T02900260 IEM_DS3505
ZGSZ,1997-06-21 03:00,ZGSZ 210300Z AUTO 18006KT 17SM 31/24 A2974 RMK SLP071 T03100239 54000 IEM_DS3505
ZGSZ,1997-06-21 04:00,ZGSZ 210400Z AUTO 21006KT 7SM 29/26 A2974 RMK T02900260 IEM_DS3505
ZGSZ,1997-06-21 05:00,ZGSZ 210500Z AUTO 19010KT 7SM 30/27 A2971 RMK T03000270 IEM_DS3505
ZGSZ,1997-06-21 06:00,ZGSZ 210600Z AUTO 09004KT 16SM 28/25 A2968 RMK 60008 SLP067 T02760246 57005 IEM_DS3505
ZGSZ,1997-06-21 07:00,ZGSZ 210700Z AUTO 19012KT 7SM 30/27 A2968 RMK T03000270 IEM_DS3505
ZGSZ,1997-06-21 08:00,ZGSZ 210800Z AUTO 20012KT 7SM 30/28 A2965 RMK T03000280 IEM_DS3505
ZGSZ,1997-06-21 09:00,ZGSZ 210900Z AUTO 14006KT 19SM 29/25 A2965 RMK SLP054 T02900249 57013 IEM_DS3505
ZGSZ,1997-06-21 10:00,ZGSZ 211000Z AUTO 19010KT 7SM 28/26 A2965 RMK T02800260 IEM_DS3505
ZGSZ,1997-06-21 11:00,ZGSZ 211100Z AUTO 19010KT 7SM 28/26 A2968 RMK T02800260 IEM_DS3505
ZGSZ,1997-06-21 12:00,ZGSZ 211200Z AUTO 14004KT 12SM 28/24 A2971 RMK 60000 SLP065 T02780239 52011 IEM_DS3505
ZGSZ,1997-06-21 13:00,ZGSZ 211300Z AUTO 16004KT 7SM 28/26 A2971 RMK T02800260 IEM_DS3505
ZGSZ,1997-06-21 14:00,ZGSZ 211400Z AUTO 16004KT 7SM 28/26 A2974 RMK T02800260 IEM_DS3505
ZGSZ,1997-06-21 15:00,ZGSZ 211500Z AUTO 13008KT 7SM 28/26 A2974 RMK T02800260 IEM_DS3505
ZGSZ,1997-06-21 18:00,ZGSZ 211800Z AUTO 00000KT 11SM 27/24 RMK SLP065 T02660245 57015 IEM_DS3505
ZGSZ,1997-06-21 21:00,ZGSZ 212100Z AUTO 04002KT 11SM 27/25 A2968 RMK 70008 SLP061 T02670246 57004 IEM_DS3505
ZGSZ,1997-06-21 22:00,ZGSZ 212200Z AUTO 21010KT 2SM 26/25 A2971 RMK T02600250 IEM_DS3505
ZGSZ,1997-06-21 23:00,ZGSZ 212300Z AUTO 12002KT 7SM 25/25 A2971 RMK T02500250 IEM_DS3505
ZGSZ,1997-06-22 00:00,ZGSZ 220000Z AUTO 09004KT 7SM 26/25 A2971 RMK 60047 70055 SLP069 T02620254 52008 IEM_DS3505
ZGSZ,1997-06-22 01:00,ZGSZ 220100Z AUTO 14006KT 7SM 28/27 A2971 RMK T02800270 IEM_DS3505
ZGSZ,1997-06-22 02:00,ZGSZ 220200Z AUTO 16008KT 7SM 29/27 A2971 RMK T02900270 IEM_DS3505
ZGSZ,1997-06-22 03:00,ZGSZ 220300Z AUTO 00000KT 10SM 26/25 RMK SLP068 T02580249 57001 IEM_DS3505
ZGSZ,1997-06-22 04:00,ZGSZ 220400Z AUTO 17008KT 7SM 29/26 A2968 RMK T02900260 IEM_DS3505
ZGSZ,1997-06-22 05:00,ZGSZ 220500Z AUTO 17010KT 7SM 29/27 A2968 RMK T02900270 IEM_DS3505
ZGSZ,1997-06-22 06:00,ZGSZ 220600Z AUTO 14002KT 9SM 27/25 A2965 RMK 60016 SLP056 T02700254 57012 IEM_DS3505
ZGSZ,1997-06-22 07:00,ZGSZ 220700Z AUTO 17010KT 7SM 29/28 A2965 RMK T02900280 IEM_DS3505
ZGSZ,1997-06-22 08:00,ZGSZ 220800Z AUTO 16014KT 7SM 29/27 A2962 RMK T02900270 IEM_DS3505
ZGSZ,1997-06-22 09:00,ZGSZ 220900Z AUTO 00000KT 8SM 28/25 A2962 RMK SLP038 T02780250 57018 IEM_DS3505
ZGSZ,1997-06-22 10:00,ZGSZ 221000Z AUTO 17010KT 6SM 28/27 A2962 RMK T02800270 IEM_DS3505
ZGSZ,1997-06-22 11:00,ZGSZ 221100Z AUTO 19006KT 7SM 28/27 A2962 RMK T02800270 IEM_DS3505
ZGSZ,1997-06-22 12:00,ZGSZ 221200Z AUTO 00000KT 11SM 27/25 A2965 RMK 60000 SLP049 T02700246 52011 IEM_DS3505
ZGSZ,1997-06-22 13:00,ZGSZ 221300Z AUTO 33004KT 2SM 27/26 A2965 RMK T02700260 IEM_DS3505
ZGSZ,1997-06-22 14:00,ZGSZ 221400Z AUTO 00000KT 7SM 26/26 A2968 RMK T02600260 IEM_DS3505
ZGSZ,1997-06-22 15:00,ZGSZ 221500Z AUTO 09002KT 7SM 27/26 A2968 RMK T02700260 IEM_DS3505
ZGSZ,1997-06-22 18:00,ZGSZ 221800Z AUTO 00000KT 7SM 26/25 RMK SLP052 T02630250 57007 IEM_DS3505
ZGSZ,1997-06-22 21:00,ZGSZ 222100Z AUTO 00000KT 11SM 26/25 A2962 RMK 70063 SLP043 T02630250 57009 IEM_DS3505
ZGSZ,1997-06-22 23:00,ZGSZ 222300Z AUTO 17008KT 7SM 27/27 A2962 RMK T02700270 IEM_DS3505
ZGSZ,1997-06-23 00:00,ZGSZ 230000Z AUTO 00000KT 5SM 28/25 A2965 RMK 70016 SLP049 T02750251 52006 IEM_DS3505
ZGSZ,1997-06-23 01:00,ZGSZ 230100Z AUTO 18006KT 7SM 28/28 A2965 RMK T02800280 IEM_DS3505
ZGSZ,1997-06-23 02:00,ZGSZ 230200Z AUTO 18004KT 7SM 30/28 A2965 RMK T03000280 IEM_DS3505
ZGSZ,1997-06-23 03:00,ZGSZ 230300Z AUTO 27004KT 6SM 30/26 A2965 RMK SLP050 T02950257 52002 IEM_DS3505
ZGSZ,1997-06-23 04:00,ZGSZ 230400Z AUTO 17010KT 7SM 30/27 A2962 RMK T03000270 IEM_DS3505
ZGSZ,1997-06-23 05:00,ZGSZ 230500Z AUTO 18008KT 6SM 31/28 A2962 RMK T03100280 IEM_DS3505
ZGSZ,1997-06-23 06:00,ZGSZ 230600Z AUTO 22008KT 19SM 31/25 A2959 RMK 60008 SLP028 T03140250 57022 IEM_DS3505
ZGSZ,1997-06-23 07:00,ZGSZ 230700Z AUTO 18008KT 7SM 31/28 A2959 RMK T03100280 IEM_DS3505
ZGSZ,1997-06-23 08:00,ZGSZ 230800Z AUTO 18012KT 7SM 30/27 A2956 RMK T03000270 IEM_DS3505
ZGSZ,1997-06-23 09:00,ZGSZ 230900Z AUTO 22006KT 19SM 32/24 A2956 RMK SLP019 T03150240 57009 IEM_DS3505
ZGSZ,1997-06-23 10:00,ZGSZ 231000Z AUTO 22012KT 7SM 29/27 A2956 RMK T02900270 IEM_DS3505
ZGSZ,1997-06-23 11:00,ZGSZ 231100Z AUTO 18008KT 7SM 28/27 A2959 RMK T02800270 IEM_DS3505
ZGSZ,1997-06-23 12:00,ZGSZ 231200Z AUTO 22004KT 16SM 29/25 A2959 RMK SLP032 T02900249 52013 IEM_DS3505
ZGSZ,1997-06-23 13:00,ZGSZ 231300Z AUTO 16010KT 6SM 28/28 A2959 RMK T02800280 IEM_DS3505
ZGSZ,1997-06-23 14:00,ZGSZ 231400Z AUTO 16010KT 6SM 28/27 A2962 RMK T02800270 IEM_DS3505
ZGSZ,1997-06-23 15:00,ZGSZ 231500Z AUTO 17010KT 7SM 28/27 A2962 RMK T02800270 IEM_DS3505
ZGSZ,1997-06-23 18:00,ZGSZ 231800Z AUTO 00000KT 12SM 27/25 RMK SLP030 T02720249 57010 IEM_DS3505
ZGSZ,1997-06-23 21:00,ZGSZ 232100Z AUTO 11002KT 9SM 26/24 A2956 RMK 70016 SLP017 T02650245 57013 IEM_DS3505
ZGSZ,1997-06-23 22:00,ZGSZ 232200Z AUTO 18004KT 7SM 27/27 A2956 RMK T02700270 IEM_DS3505
ZGSZ,1997-06-23 23:00,ZGSZ 232300Z AUTO 13002KT 7SM 27/27 A2959 RMK T02700270 IEM_DS3505
ZGSZ,1997-06-24 00:00,ZGSZ 240000Z AUTO 00000KT 6SM 26/25 A2956 RMK 60071 70079 SLP030 T02600252 52013 IEM_DS3505
ZGSZ,1997-06-24 01:00,ZGSZ 240100Z AUTO 21002KT 7SM 29/28 A2959 RMK T02900280 IEM_DS3505
ZGSZ,1997-06-24 02:00,ZGSZ 240200Z AUTO 19006KT 7SM 29/28 A2959 RMK T02900280 IEM_DS3505
ZGSZ,1997-06-24 03:00,ZGSZ 240300Z AUTO 00000KT 11SM 28/25 A2959 RMK SLP036 T02750250 52006 IEM_DS3505
ZGSZ,1997-06-24 04:00,ZGSZ 240400Z AUTO 17010KT 7SM 30/28 A2959 RMK T03000280 IEM_DS3505
ZGSZ,1997-06-24 05:00,ZGSZ 240500Z AUTO 17010KT 7SM 29/27 A2959 RMK T02900270 IEM_DS3505
ZGSZ,1997-06-24 06:00,ZGSZ 240600Z AUTO 20008KT 19SM 30/24 A2956 RMK SLP017 T03020236 57019 IEM_DS3505
ZGSZ,1997-06-24 07:00,ZGSZ 240700Z AUTO 17008KT 7SM 29/28 A2956 RMK T02900280 IEM_DS3505
ZGSZ,1997-06-24 08:00,ZGSZ 240800Z AUTO 22006KT 7SM 28/27 A2956 RMK T02800270 IEM_DS3505
ZGSZ,1997-06-24 09:00,ZGSZ 240900Z AUTO 22002KT 16SM 30/25 A2956 RMK SLP012 T02980252 57005 IEM_DS3505
ZGSZ,1997-06-24 10:00,ZGSZ 241000Z AUTO 00000KT 7SM 26/26 A2953 RMK T02600260 IEM_DS3505
ZGSZ,1997-06-24 11:00,ZGSZ 241100Z AUTO 00000KT 6SM 27/26 A2956 RMK T02700260 IEM_DS3505
ZGSZ,1997-06-24 12:00,ZGSZ 241200Z AUTO 18004KT 12SM 28/25 A2956 RMK SLP024 T02840252 52011 IEM_DS3505
ZGSZ,1997-06-24 18:00,ZGSZ 241800Z AUTO 00000KT 12SM 27/25 RMK SLP026 T02690248 57004 IEM_DS3505
ZGSZ,1997-06-24 21:00,ZGSZ 242100Z AUTO 04002KT 12SM 27/25 A2956 RMK 70063 SLP019 T02670247 57007 IEM_DS3505
ZGSZ,1997-06-24 23:00,ZGSZ 242300Z AUTO 11004KT 7SM 27/27 A2959 RMK T02700270 IEM_DS3505
ZGSZ,1997-06-25 00:00,ZGSZ 250000Z AUTO 04004KT 6SM 27/26 A2959 RMK 60020 70020 SLP030 T02700262 52011 IEM_DS3505
ZGSZ,1997-06-25 01:00,ZGSZ 250100Z AUTO 15006KT 7SM 29/27 A2959 RMK T02900270 IEM_DS3505
ZGSZ,1997-06-25 02:00,ZGSZ 250200Z AUTO 17006KT 7SM 30/28 A2959 RMK T03000280 IEM_DS3505
ZGSZ,1997-06-25 03:00,ZGSZ 250300Z AUTO 22004KT 9SM 29/25 A2959 RMK SLP032 T02870250 52002 IEM_DS3505
ZGSZ,1997-06-25 04:00,ZGSZ 250400Z AUTO 18006KT 7SM 31/28 A2959 RMK T03100280 IEM_DS3505
ZGSZ,1997-06-25 06:00,ZGSZ 250600Z AUTO 22002KT 16SM 33/25 A2956 RMK 60004 SLP017 T03270249 57015 IEM_DS3505
ZGSZ,1997-06-25 07:00,ZGSZ 250700Z AUTO 23006KT 7SM 29/28 A2956 RMK T02900280 IEM_DS3505
ZGSZ,1997-06-25 08:00,ZGSZ 250800Z AUTO 23002KT 7SM 29/28 A2953 RMK T02900280 IEM_DS3505
ZGSZ,1997-06-25 09:00,ZGSZ 250900Z AUTO 00000KT 12SM 30/26 A2956 RMK SLP014 T03020256 57003 IEM_DS3505
ZGSZ,1997-06-25 10:00,ZGSZ 251000Z AUTO 25004KT 7SM 29/27 A2953 RMK T02900270 IEM_DS3505
ZGSZ,1997-06-25 11:00,ZGSZ 251100Z AUTO 26002KT 7SM 28/27 A2956 RMK T02800270 IEM_DS3505
ZGSZ,1997-06-25 12:00,ZGSZ 251200Z AUTO 00000KT 9SM 29/26 A2959 RMK 60008 SLP025 T02870255 52011 IEM_DS3505
ZGSZ,1997-06-25 13:00,ZGSZ 251300Z AUTO 16004KT 6SM 28/27 A2959 RMK T02800270 IEM_DS3505
ZGSZ,1997-06-25 14:00,ZGSZ 251400Z AUTO 14002KT 7SM 28/27 A2959 RMK T02800270 IEM_DS3505
ZGSZ,1997-06-25 15:00,ZGSZ 251500Z AUTO 10004KT 7SM 28/27 A2962 RMK T02800270 IEM_DS3505
ZGSZ,1997-06-25 16:00,ZGSZ 251600Z AUTO 10006KT 3SM 27/27 A2962 RMK T02700270 IEM_DS3505
ZGSZ,1997-06-25 17:00,ZGSZ 251700Z AUTO 12006KT 4SM 27/27 A2959 RMK T02700270 IEM_DS3505
ZGSZ,1997-06-25 18:00,ZGSZ 251800Z AUTO 11002KT 6SM 27/25 RMK SLP026 T02710254 57010 IEM_DS3505
ZGSZ,1997-06-25 21:00,ZGSZ 252100Z AUTO 04004KT 5SM 27/25 RMK 70035 SLP023 T02660250 57003 IEM_DS3505
ZGSZ,1997-06-25 22:00,ZGSZ 252200Z AUTO 09002KT 4SM 27/26 A2959 RMK T02700260 IEM_DS3505
ZGSZ,1997-06-25 23:00,ZGSZ 252300Z AUTO 08002KT 4SM 28/27 A2959 RMK T02800270 IEM_DS3505
ZGSZ,1997-06-26 00:00,ZGSZ 260000Z AUTO 04002KT 2 1/2SM 28/25 A2962 RMK 70012 SLP035 T02770253 52012 IEM_DS3505
ZGSZ,1997-06-26 01:00,ZGSZ 260100Z AUTO 26004KT 7SM 27/26 A2962 RMK T02700260 IEM_DS3505
ZGSZ,1997-06-26 02:00,ZGSZ 260200Z AUTO 01004KT 4SM 28/27 A2962 RMK T02800270 IEM_DS3505
ZGSZ,1997-06-26 03:00,ZGSZ 260300Z AUTO 27002KT 5SM 29/24 A2962 RMK SLP039 T02870244 52004 IEM_DS3505
ZGSZ,1997-06-26 04:00,ZGSZ 260400Z AUTO 36008KT 7SM 27/26 A2962 RMK T02700260 IEM_DS3505
ZGSZ,1997-06-26 05:00,ZGSZ 260500Z AUTO 08002KT 3SM 27/27 A2962 RMK T02700270 IEM_DS3505
ZGSZ,1997-06-26 06:00,ZGSZ 260600Z AUTO 00000KT 12SM 25/24 A2959 RMK 60197 SLP036 T02470241 57004 IEM_DS3505
ZGSZ,1997-06-26 07:00,ZGSZ 260700Z AUTO 11004KT 4SM 29/27 A2959 RMK T02900270 IEM_DS3505
ZGSZ,1997-06-26 08:00,ZGSZ 260800Z AUTO 19004KT 4SM 29/27 A2956 RMK T02900270 IEM_DS3505
ZGSZ,1997-06-26 09:00,ZGSZ 260900Z AUTO 14004KT 14SM 28/24 A2956 RMK SLP016 T02840243 57019 IEM_DS3505
ZGSZ,1997-06-26 10:00,ZGSZ 261000Z AUTO 29004KT 6SM 28/27 A2956 RMK T02800270 IEM_DS3505
ZGSZ,1997-06-26 11:00,ZGSZ 261100Z AUTO 00000KT 6SM 28/26 A2956 RMK T02800260 IEM_DS3505
ZGSZ,1997-06-26 12:00,ZGSZ 261200Z AUTO 00000KT 10SM 28/25 A2956 RMK SLP026 T02760246 52010 IEM_DS3505
ZGSZ,1997-06-26 13:00,ZGSZ 261300Z AUTO 17002KT 6SM 27/26 A2959 RMK T02700260 IEM_DS3505
ZGSZ,1997-06-26 14:00,ZGSZ 261400Z AUTO 15002KT 6SM 27/26 A2962 RMK T02700260 IEM_DS3505
ZGSZ,1997-06-26 15:00,ZGSZ 261500Z AUTO 00000KT 6SM 27/26 A2962 RMK T02700260 IEM_DS3505
ZGSZ,1997-06-26 18:00,ZGSZ 261800Z AUTO 00000KT 8SM 26/24 RMK SLP026 T02640245 57016 IEM_DS3505
ZGSZ,1997-06-26 21:00,ZGSZ 262100Z AUTO 00000KT 7SM 26/24 RMK 70197 SLP024 T02600244 57002 IEM_DS3505
ZGSZ,1997-06-26 22:00,ZGSZ 262200Z AUTO 00000KT 3SM 26/26 A2959 RMK T02600260 IEM_DS3505
ZGSZ,1997-06-26 23:00,ZGSZ 262300Z AUTO 02002KT 4SM 26/26 A2959 RMK T02600260 IEM_DS3505
ZGSZ,1997-06-27 00:00,ZGSZ 270000Z AUTO 07004KT 4SM 27/24 A2959 RMK 70197 SLP033 T02720245 52009 IEM_DS3505
ZGSZ,1997-06-27 01:00,ZGSZ 270100Z AUTO 19004KT 4SM 29/27 A2959 RMK T02900270 IEM_DS3505
ZGSZ,1997-06-27 02:00,ZGSZ 270200Z AUTO 29004KT 7SM 30/27 A2959 RMK T03000270 IEM_DS3505
ZGSZ,1997-06-27 03:00,ZGSZ 270300Z AUTO 27002KT 6SM 31/24 A2959 RMK SLP031 T03080241 57001 IEM_DS3505
ZGSZ,1997-06-27 04:00,ZGSZ 270400Z AUTO 25004KT 7SM 31/27 A2959 RMK T03100270 IEM_DS3505
ZGSZ,1997-06-27 06:00,ZGSZ 270600Z AUTO 36002KT 11SM 29/25 RMK SLP019 T02900251 57012 IEM_DS3505
ZGSZ,1997-06-27 07:00,ZGSZ 270700Z AUTO 22008KT 7SM 29/27 A2953 RMK T02900270 IEM_DS3505
ZGSZ,1997-06-27 09:00,ZGSZ 270900Z AUTO 32002KT 12SM 28/24 RMK SLP012 T02840235 57007 IEM_DS3505
ZGSZ,1997-06-27 10:00,ZGSZ 271000Z AUTO 15002KT 6SM 30/25 A2953 RMK T03000250 IEM_DS3505
ZGSZ,1997-06-27 11:00,ZGSZ 271100Z AUTO 16006KT 7SM 29/25 A2953 RMK T02900250 IEM_DS3505
ZGSZ,1997-06-27 12:00,ZGSZ 271200Z AUTO 00000KT 11SM 28/24 A2956 RMK SLP016 T02810243 52004 IEM_DS3505
ZGSZ,1997-06-27 15:00,ZGSZ 271500Z AUTO 14006KT 6SM 28/26 A2959 RMK T02800260 IEM_DS3505
ZGSZ,1997-06-27 16:00,ZGSZ 271600Z AUTO 12004KT 6SM 28/26 A2956 RMK T02800260 IEM_DS3505
ZGSZ,1997-06-27 18:00,ZGSZ 271800Z AUTO 11004KT 5SM 27/25 RMK SLP021 T02660246 57005 IEM_DS3505
ZGSZ,1997-06-27 21:00,ZGSZ 272100Z AUTO 09004KT 9SM 26/25 A2953 RMK SLP014 T02600246 57007 IEM_DS3505
ZGSZ,1997-06-27 22:00,ZGSZ 272200Z AUTO 13006KT 7SM 27/26 A2956 RMK T02700260 IEM_DS3505
ZGSZ,1997-06-27 23:00,ZGSZ 272300Z AUTO 12006KT 7SM 28/27 A2956 RMK T02800270 IEM_DS3505
ZGSZ,1997-06-28 00:00,ZGSZ 280000Z AUTO 09004KT 5SM 27/25 A2956 RMK SLP022 T02730246 52008 IEM_DS3505
ZGSZ,1997-06-28 01:00,ZGSZ 280100Z AUTO 18008KT 7SM 28/27 A2959 RMK T02800270 IEM_DS3505
ZGSZ,1997-06-28 02:00,ZGSZ 280200Z AUTO 21004KT 7SM 31/25 A2959 RMK T03100250 IEM_DS3505
ZGSZ,1997-06-28 03:00,ZGSZ 280300Z AUTO 21004KT 7SM 31/27 A2956 RMK T03100270 IEM_DS3505
ZGSZ,1997-06-28 04:00,ZGSZ 280400Z AUTO 20014KT 7SM 29/27 A2959 RMK T02900270 IEM_DS3505
ZGSZ,1997-06-28 05:00,ZGSZ 280500Z AUTO 19012KT 7SM 29/27 A2956 RMK T02900270 IEM_DS3505
ZGSZ,1997-06-28 06:00,ZGSZ 280600Z AUTO 09006KT 19SM 28/23 A2956 RMK 60039 SLP012 T02800228 57011 IEM_DS3505
ZGSZ,1997-06-28 07:00,ZGSZ 280700Z AUTO 24002KT 7SM 29/26 A2953 RMK T02900260 IEM_DS3505
ZGSZ,1997-06-28 08:00,ZGSZ 280800Z AUTO 22004KT 7SM 28/27 A2953 RMK T02800270 IEM_DS3505
ZGSZ,1997-06-28 09:00,ZGSZ 280900Z AUTO 14002KT 17SM 28/24 A2953 RMK SLP007 T02850242 57005 IEM_DS3505
ZGSZ,1997-06-28 10:00,ZGSZ 281000Z AUTO 18004KT 7SM 29/27 A2953 RMK T02900270 IEM_DS3505
ZGSZ,1997-06-28 11:00,ZGSZ 281100Z AUTO 21004KT 7SM 28/27 A2953 RMK T02800270 IEM_DS3505
ZGSZ,1997-06-28 12:00,ZGSZ 281200Z AUTO 14006KT 14SM 28/24 A2956 RMK SLP019 T02760243 52012 IEM_DS3505
ZGSZ,1997-06-28 13:00,ZGSZ 281300Z AUTO 12008KT 7SM 29/26 A2956 RMK T02900260 IEM_DS3505
ZGSZ,1997-06-28 14:00,ZGSZ 281400Z AUTO 10004KT 6SM 28/26 A2959 RMK T02800260 IEM_DS3505
ZGSZ,1997-06-28 15:00,ZGSZ 281500Z AUTO 10006KT 6SM 28/26 A2959 RMK T02800260 IEM_DS3505
ZGSZ,1997-06-28 18:00,ZGSZ 281800Z AUTO 14004KT 12SM 27/25 RMK SLP020 T02710248 57010 IEM_DS3505
ZGSZ,1997-06-28 21:00,ZGSZ 282100Z AUTO 00000KT 12SM 27/25 A2956 RMK 70039 SLP016 T02670251 57004 IEM_DS3505
ZGSZ,1997-06-28 22:00,ZGSZ 282200Z AUTO 12006KT 7SM 27/26 A2956 RMK T02700260 IEM_DS3505
ZGSZ,1997-06-28 23:00,ZGSZ 282300Z AUTO 10006KT 6SM 28/27 A2956 RMK T02800270 IEM_DS3505
ZGSZ,1997-06-29 00:00,ZGSZ 290000Z AUTO 14004KT 5SM 28/26 A2959 RMK 70039 SLP030 T02800255 52014 IEM_DS3505
ZGSZ,1997-06-29 01:00,ZGSZ 290100Z AUTO 10006KT 7SM 31/27 A2959 RMK T03100270 IEM_DS3505
ZGSZ,1997-06-29 02:00,ZGSZ 290200Z AUTO 18006KT 7SM 32/26 A2959 RMK T03200260 IEM_DS3505
ZGSZ,1997-06-29 03:00,ZGSZ 290300Z AUTO 09004KT 16SM 31/25 A2959 RMK SLP028 T03140253 57002 IEM_DS3505
ZGSZ,1997-06-29 04:00,ZGSZ 290400Z AUTO 20010KT 7SM 31/28 A2959 RMK T03100280 IEM_DS3505
ZGSZ,1997-06-29 05:00,ZGSZ 290500Z AUTO 20008KT 7SM 31/27 A2956 RMK T03100270 IEM_DS3505
ZGSZ,1997-06-29 06:00,ZGSZ 290600Z AUTO 09004KT 16SM 28/26 A2956 RMK 60020 SLP019 T02820257 57009 IEM_DS3505
ZGSZ,1997-06-29 07:00,ZGSZ 290700Z AUTO 19010KT 7SM 30/27 A2956 RMK T03000270 IEM_DS3505
ZGSZ,1997-06-29 08:00,ZGSZ 290800Z AUTO 20012KT 7SM 29/27 A2953 RMK T02900270 IEM_DS3505
ZGSZ,1997-06-29 09:00,ZGSZ 290900Z AUTO 16002KT 16SM 29/25 A2950 RMK T02940250 57020 IEM_DS3505
ZGSZ,1997-06-29 10:00,ZGSZ 291000Z AUTO 16006KT 7SM 29/27 A2953 RMK T02900270 IEM_DS3505
ZGSZ,1997-06-29 11:00,ZGSZ 291100Z AUTO 15006KT 7SM 29/27 A2956 RMK T02900270 IEM_DS3505
ZGSZ,1997-06-29 12:00,ZGSZ 291200Z AUTO 09004KT 12SM 28/25 A2959 RMK SLP027 T02840250 52022 IEM_DS3505
ZGSZ,1997-06-29 13:00,ZGSZ 291300Z AUTO 15006KT 7SM 29/27 A2959 RMK T02900270 IEM_DS3505
ZGSZ,1997-06-29 14:00,ZGSZ 291400Z AUTO 14008KT 6SM 29/27 A2959 RMK T02900270 IEM_DS3505
ZGSZ,1997-06-29 15:00,ZGSZ 291500Z AUTO 12006KT 7SM 28/26 A2959 RMK T02800260 IEM_DS3505
ZGSZ,1997-06-29 16:00,ZGSZ 291600Z AUTO 11004KT 6SM 28/26 A2959 RMK T02800260 IEM_DS3505
ZGSZ,1997-06-29 18:00,ZGSZ 291800Z AUTO 00000KT 14SM 27/25 RMK 60008 SLP023 T02710251 57010 IEM_DS3505
ZGSZ,1997-06-29 21:00,ZGSZ 292100Z AUTO 04002KT 12SM 27/26 A2956 RMK SLP022 T02700255 57001 IEM_DS3505
ZGSZ,1997-06-29 22:00,ZGSZ 292200Z AUTO 10004KT 7SM 27/27 A2956 RMK T02700270 IEM_DS3505
ZGSZ,1997-06-29 23:00,ZGSZ 292300Z AUTO 11006KT 7SM 28/27 A2956 RMK T02800270 IEM_DS3505
ZGSZ,1997-06-30 00:00,ZGSZ 300000Z AUTO 04004KT 9SM 28/26 A2959 RMK 60004 70028 SLP033 T02760255 52011 IEM_DS3505
ZGSZ,1997-06-30 01:00,ZGSZ 300100Z AUTO 16004KT 7SM 28/27 A2959 RMK T02800270 IEM_DS3505
ZGSZ,1997-06-30 02:00,ZGSZ 300200Z AUTO 13004KT 7SM 29/27 A2962 RMK T02900270 IEM_DS3505
ZGSZ,1997-06-30 03:00,ZGSZ 300300Z AUTO 22004KT 14SM 28/26 A2959 RMK SLP037 T02800259 52003 IEM_DS3505
ZGSZ,1997-06-30 04:00,ZGSZ 300400Z AUTO 18008KT 7SM 29/27 A2959 RMK T02900270 IEM_DS3505
ZGSZ,1997-06-30 05:00,ZGSZ 300500Z AUTO 15004KT 7SM 30/28 A2959 RMK T03000280 IEM_DS3505
ZGSZ,1997-06-30 06:00,ZGSZ 300600Z AUTO 22006KT 19SM 30/24 A2956 RMK 60008 SLP023 T03020244 57013 IEM_DS3505
ZGSZ,1997-06-30 07:00,ZGSZ 300700Z AUTO 17008KT 7SM 30/28 A2956 RMK T03000280 IEM_DS3505
ZGSZ,1997-06-30 08:00,ZGSZ 300800Z AUTO 17012KT 7SM 30/28 A2956 RMK T03000280 IEM_DS3505
ZGSZ,1997-06-30 09:00,ZGSZ 300900Z AUTO 22004KT 19SM 30/25 A2953 RMK SLP018 T03040248 57005 IEM_DS3505
ZGSZ,1997-06-30 10:00,ZGSZ 301000Z AUTO 17014KT 7SM 30/28 A2956 RMK T03000280 IEM_DS3505
ZGSZ,1997-06-30 11:00,ZGSZ 301100Z AUTO 16010KT 7SM 29/28 A2959 RMK T02900280 IEM_DS3505
ZGSZ,1997-06-30 12:00,ZGSZ 301200Z AUTO 18002KT 17SM 28/25 A2959 RMK SLP037 T02840249 52019 IEM_DS3505
ZGSZ,1997-06-30 13:00,ZGSZ 301300Z AUTO 17010KT 7SM 29/28 A2962 RMK T02900280 IEM_DS3505
ZGSZ,1997-06-30 14:00,ZGSZ 301400Z AUTO 17008KT 7SM 29/28 A2962 RMK T02900280 IEM_DS3505
ZGSZ,1997-06-30 15:00,ZGSZ 301500Z AUTO 17010KT 7SM 29/28 A2962 RMK T02900280 IEM_DS3505
ZGSZ,1997-06-30 16:00,ZGSZ 301600Z AUTO 16012KT 7SM 29/28 A2962 RMK T02900280 IEM_DS3505
ZGSZ,1997-06-30 17:00,ZGSZ 301700Z AUTO 17010KT 7SM 29/28 A2962 RMK T02900280 IEM_DS3505
ZGSZ,1997-06-30 18:00,ZGSZ 301800Z AUTO 18002KT 12SM 28/26 A2959 RMK SLP032 T02820255 57010 IEM_DS3505
ZGSZ,1997-06-30 19:00,ZGSZ 301900Z AUTO 18012KT 3SM 29/28 A2959 RMK T02900280 IEM_DS3505
ZGSZ,1997-06-30 20:00,ZGSZ 302000Z AUTO 20016KT 7SM 28/28 A2959 RMK T02800280 IEM_DS3505
ZGSZ,1997-06-30 21:00,ZGSZ 302100Z AUTO 09004KT 12SM 28/25 A2962 RMK 70008 SLP035 T02790248 52003 IEM_DS3505
ZGSZ,1997-06-30 22:00,ZGSZ 302200Z AUTO 12004KT 7SM 26/25 A2959 RMK T02600250 IEM_DS3505
ZGSZ,1997-06-30 23:00,ZGSZ 302300Z AUTO 15004KT 7SM 27/27 A2962 RMK T02700270 IEM_DS3505
ZGSZ,1997-07-01 00:00,ZGSZ 010000Z AUTO 11006KT 6SM 26/24 A2965 RMK 60055 70059 SLP060 T02550245 52024 IEM_DS3505
ZGSZ,1997-07-01 01:00,ZGSZ 010100Z AUTO 11008KT 7SM 27/26 A2965 RMK T02700260 IEM_DS3505
ZGSZ,1997-07-01 02:00,ZGSZ 010200Z AUTO 12006KT 7SM 27/27 A2968 RMK T02700270 IEM_DS3505
ZGSZ,1997-07-01 03:00,ZGSZ 010300Z AUTO 04002KT 9SM 26/25 A2968 RMK SLP063 T02590249 52003 IEM_DS3505
ZGSZ,1997-07-01 04:00,ZGSZ 010400Z AUTO 15008KT 7SM 25/25 A2968 RMK T02500250 IEM_DS3505
ZGSZ,1997-07-01 05:00,ZGSZ 010500Z AUTO 18008KT 7SM 26/26 A2965 RMK T02600260 IEM_DS3505
ZGSZ,1997-07-01 06:00,ZGSZ 010600Z AUTO 00000KT 11SM 25/24 A2965 RMK 60071 SLP050 T02510238 57013 IEM_DS3505
ZGSZ,1997-07-01 07:00,ZGSZ 010700Z AUTO 14006KT 7SM 27/26 A2962 RMK T02700260 IEM_DS3505
ZGSZ,1997-07-01 08:00,ZGSZ 010800Z AUTO 15006KT 7SM 27/27 A2962 RMK T02700270 IEM_DS3505
ZGSZ,1997-07-01 09:00,ZGSZ 010900Z AUTO 16002KT 17SM 27/25 A2962 RMK SLP044 T02730250 57006 IEM_DS3505
ZGSZ,1997-07-01 10:00,ZGSZ 011000Z AUTO 14006KT 7SM 28/27 A2962 RMK T02800270 IEM_DS3505
ZGSZ,1997-07-01 11:00,ZGSZ 011100Z AUTO 14006KT 7SM 28/27 A2965 RMK T02800270 IEM_DS3505
ZGSZ,1997-07-01 12:00,ZGSZ 011200Z AUTO 14002KT 10SM 27/25 A2965 RMK 60004 SLP057 T02670253 52013 IEM_DS3505
ZGSZ,1997-07-01 13:00,ZGSZ 011300Z AUTO 12006KT 7SM 27/27 A2968 RMK T02700270 IEM_DS3505
ZGSZ,1997-07-01 14:00,ZGSZ 011400Z AUTO 11008KT 7SM 27/27 A2968 RMK T02700270 IEM_DS3505
ZGSZ,1997-07-01 18:00,ZGSZ 011800Z AUTO 14004KT 12SM 27/26 RMK 60002 SLP056 T02700255 57013 IEM_DS3505
ZGSZ,1997-07-01 21:00,ZGSZ 012100Z AUTO 18006KT 11SM 26/25 A2965 RMK 70138 SLP053 T02640254 57003 IEM_DS3505
ZGSZ,1997-07-01 22:00,ZGSZ 012200Z AUTO 19010KT 7SM 28/28 A2965 RMK T02800280 IEM_DS3505
ZGSZ,1997-07-01 23:00,ZGSZ 012300Z AUTO 19012KT 7SM 28/28 A2965 RMK T02800280 IEM_DS3505
ZGSZ,1997-07-02 00:00,ZGSZ 020000Z AUTO 14004KT 16SM 26/24 RMK 60024 70098 SLP065 T02590245 52012 IEM_DS3505
ZGSZ,1997-07-02 01:00,ZGSZ 020100Z AUTO 20014KT 7SM 27/27 A2968 RMK T02700270 IEM_DS3505
ZGSZ,1997-07-02 02:00,ZGSZ 020200Z AUTO 16006KT 7SM 27/27 A2968 RMK T02700270 IEM_DS3505
ZGSZ,1997-07-02 03:00,ZGSZ 020300Z AUTO 00000KT 7SM 27/26 A2968 RMK SLP066 T02700257 52001 IEM_DS3505
ZGSZ,1997-07-02 04:00,ZGSZ 020400Z AUTO 17012KT 7SM 29/28 A2968 RMK T02900280 IEM_DS3505
ZGSZ,1997-07-02 06:00,ZGSZ 020600Z AUTO 20010KT 19SM 30/25 RMK 60051 SLP050 T03010247 57015 IEM_DS3505
ZGSZ,1997-07-02 07:00,ZGSZ 020700Z AUTO 26002KT 4SM 24/24 A2968 RMK T02400240 IEM_DS3505
ZGSZ,1997-07-02 08:00,ZGSZ 020800Z AUTO 09006KT 7SM 25/25 A2968 RMK T02500250 IEM_DS3505
ZGSZ,1997-07-02 09:00,ZGSZ 020900Z AUTO 04002KT 8SM 25/24 A2965 RMK SLP049 T02480244 57002 IEM_DS3505
ZGSZ,1997-07-02 10:00,ZGSZ 021000Z AUTO 00000KT 7SM 26/26 A2965 RMK T02600260 IEM_DS3505
ZGSZ,1997-07-02 11:00,ZGSZ 021100Z AUTO 11006KT 7SM 26/26 A2965 RMK T02600260 IEM_DS3505
ZGSZ,1997-07-02 12:00,ZGSZ 021200Z AUTO 14002KT 6SM 25/24 A2968 RMK 60185 SLP060 T02490245 52011 IEM_DS3505
ZGSZ,1997-07-02 13:00,ZGSZ 021300Z AUTO 13006KT 7SM 26/26 A2968 RMK T02600260 IEM_DS3505
ZGSZ,1997-07-02 14:00,ZGSZ 021400Z AUTO 18008KT 2SM 25/25 A2971 RMK T02500250 IEM_DS3505
ZGSZ,1997-07-02 15:00,ZGSZ 021500Z AUTO 12006KT 2SM 25/25 A2971 RMK T02500250 IEM_DS3505
ZGSZ,1997-07-02 16:00,ZGSZ 021600Z AUTO 14006KT 2SM 26/26 A2971 RMK T02600260 IEM_DS3505
ZGSZ,1997-07-02 18:00,ZGSZ 021800Z AUTO 07006KT 16SM 25/24 RMK 60138 SLP060 T02510245 57011 IEM_DS3505
ZGSZ,1997-07-02 21:00,ZGSZ 022100Z AUTO 11004KT 2SM 26/26 A2965 RMK T02600260 IEM_DS3505
ZGSZ,1997-07-02 22:00,ZGSZ 022200Z AUTO 12006KT 4SM 26/26 A2965 RMK T02600260 IEM_DS3505
ZGSZ,1997-07-02 23:00,ZGSZ 022300Z AUTO 22014KT 7SM 26/25 A2968 RMK T02600250 IEM_DS3505
ZGSZ,1997-07-03 00:00,ZGSZ 030000Z AUTO 20004KT 6SM 24/23 A2971 RMK 60028 70402 SLP073 T02430233 52018 IEM_DS3505
ZGSZ,1997-07-03 01:00,ZGSZ 030100Z AUTO 19004KT 7SM 26/25 A2971 RMK T02600250 IEM_DS3505
ZGSZ,1997-07-03 02:00,ZGSZ 030200Z AUTO 16006KT 7SM 26/26 A2971 RMK T02600260 IEM_DS3505
ZGSZ,1997-07-03 03:00,ZGSZ 030300Z AUTO 11004KT 4SM 25/24 A2974 RMK SLP083 T02480241 52010 IEM_DS3505
ZGSZ,1997-07-03 04:00,ZGSZ 030400Z AUTO 19012KT 7SM 27/26 A2974 RMK T02700260 IEM_DS3505
ZGSZ,1997-07-03 05:00,ZGSZ 030500Z AUTO 16010KT 7SM 27/26 A2971 RMK T02700260 IEM_DS3505
ZGSZ,1997-07-03 06:00,ZGSZ 030600Z AUTO 32002KT 11SM 27/24 A2971 RMK 60028 SLP069 T02660245 57014 IEM_DS3505
ZGSZ,1997-07-03 07:00,ZGSZ 030700Z AUTO 16010KT 7SM 29/26 A2968 RMK T02900260 IEM_DS3505
ZGSZ,1997-07-03 08:00,ZGSZ 030800Z AUTO 16012KT 7SM 29/26 A2968 RMK T02900260 IEM_DS3505
ZGSZ,1997-07-03 09:00,ZGSZ 030900Z AUTO 14004KT 11SM 27/25 A2965 RMK SLP054 T02680247 57015 IEM_DS3505
ZGSZ,1997-07-03 11:00,ZGSZ 031100Z AUTO 11008KT 7SM 26/25 A2968 RMK T02600250 IEM_DS3505
ZGSZ,1997-07-03 12:00,ZGSZ 031200Z AUTO 11004KT 11SM 26/24 A2968 RMK 60020 SLP063 T02560242 52009 IEM_DS3505
ZGSZ,1997-07-03 13:00,ZGSZ 031300Z AUTO 11008KT 7SM 27/26 A2968 RMK T02700260 IEM_DS3505
ZGSZ,1997-07-03 14:00,ZGSZ 031400Z AUTO 09008KT 7SM 26/26 A2971 RMK T02600260 IEM_DS3505
ZGSZ,1997-07-03 15:00,ZGSZ 031500Z AUTO 08008KT 1 1/4SM 25/25 A2974 RMK T02500250 IEM_DS3505
ZGSZ,1997-07-03 16:00,ZGSZ 031600Z AUTO 20012KT 7SM 24/24 A2974 RMK T02400240 IEM_DS3505
ZGSZ,1997-07-03 18:00,ZGSZ 031800Z AUTO 00000KT 9SM 23/ RMK 60142 SLP064 57017 IEM_DS3505
ZGSZ,1997-07-03 21:00,ZGSZ 032100Z AUTO 07002KT 5SM 24/23 A2965 RMK 70220 SLP054 T02350232 57010 IEM_DS3505
ZGSZ,1997-07-03 23:00,ZGSZ 032300Z AUTO 13006KT 7SM 26/26 A2968 RMK T02600260 IEM_DS3505
ZGSZ,1997-07-04 00:00,ZGSZ 040000Z AUTO 25002KT 7SM 24/24 A2968 RMK 60197 70382 SLP069 T02450242 52015 IEM_DS3505
ZGSZ,1997-07-04 01:00,ZGSZ 040100Z AUTO 19008KT 1SM 26/26 A2971 RMK T02600260 IEM_DS3505
ZGSZ,1997-07-04 02:00,ZGSZ 040200Z AUTO 05006KT 3SM 24/24 RMK T02400240 IEM_DS3505
ZGSZ,1997-07-04 03:00,ZGSZ 040300Z AUTO 02002KT 8SM 25/25 A2971 RMK SLP075 T02540250 52006 IEM_DS3505
ZGSZ,1997-07-04 04:00,ZGSZ 040400Z AUTO 14008KT 4SM 27/27 A2971 RMK T02700270 IEM_DS3505
ZGSZ,1997-07-04 05:00,ZGSZ 040500Z AUTO 16014KT 7SM 28/28 A2971 RMK T02800280 IEM_DS3505
ZGSZ,1997-07-04 06:00,ZGSZ 040600Z AUTO 22004KT 6SM 28/26 A2968 RMK 60028 SLP064 T02750258 57011 IEM_DS3505
ZGSZ,1997-07-04 07:00,ZGSZ 040700Z AUTO 17012KT 7SM 28/28 A2968 RMK T02800280 IEM_DS3505
ZGSZ,1997-07-04 08:00,ZGSZ 040800Z AUTO 17010KT 7SM 28/27 A2965 RMK T02800270 IEM_DS3505
ZGSZ,1997-07-04 09:00,ZGSZ 040900Z AUTO 20006KT 11SM 28/25 A2965 RMK SLP054 T02790254 57010 IEM_DS3505
ZGSZ,1997-07-04 10:00,ZGSZ 041000Z AUTO 17012KT 7SM 28/28 A2965 RMK T02800280 IEM_DS3505
ZGSZ,1997-07-04 11:00,ZGSZ 041100Z AUTO 16010KT 7SM 28/28 A2968 RMK T02800280 IEM_DS3505
ZGSZ,1997-07-04 12:00,ZGSZ 041200Z AUTO 20002KT 7SM 28/25 A2971 RMK 60004 SLP069 T02750252 52015 IEM_DS3505
ZGSZ,1997-07-04 13:00,ZGSZ 041300Z AUTO 16010KT 7SM 28/27 A2971 RMK T02800270 IEM_DS3505
ZGSZ,1997-07-04 14:00,ZGSZ 041400Z AUTO 13004KT 4SM 28/27 A2974 RMK T02800270 IEM_DS3505
ZGSZ,1997-07-04 15:00,ZGSZ 041500Z AUTO 16008KT 7SM 28/27 A2974 RMK T02800270 IEM_DS3505
ZGSZ,1997-07-04 16:00,ZGSZ 041600Z AUTO 17012KT 6SM 28/27 A2974 RMK T02800270 IEM_DS3505
ZGSZ,1997-07-04 18:00,ZGSZ 041800Z AUTO 00000KT 11SM 28/25 RMK SLP069 T02760249 57015 IEM_DS3505
ZGSZ,1997-07-04 21:00,ZGSZ 042100Z AUTO 20004KT 11SM 28/25 A2968 RMK 70024 SLP064 T02750250 57005 IEM_DS3505
ZGSZ,1997-07-04 22:00,ZGSZ 042200Z AUTO 16010KT 7SM 28/27 A2968 RMK T02800270 IEM_DS3505
ZGSZ,1997-07-04 23:00,ZGSZ 042300Z AUTO 17010KT 7SM 28/27 A2971 RMK T02800270 IEM_DS3505
ZGSZ,1997-07-05 00:00,ZGSZ 050000Z AUTO 20008KT 12SM 28/25 A2971 RMK 60004 70035 SLP070 T02820252 52006 IEM_DS3505
ZGSZ,1997-07-05 01:00,ZGSZ 050100Z AUTO 17012KT 2SM 28/27 A2974 RMK T02800270 IEM_DS3505
ZGSZ,1997-07-05 02:00,ZGSZ 050200Z AUTO 17014KT 2 1/2SM 28/27 A2974 RMK T02800270 IEM_DS3505
ZGSZ,1997-07-05 03:00,ZGSZ 050300Z AUTO 20006KT 6SM 28/26 A2974 RMK SLP077 T02790259 52007 IEM_DS3505
ZGSZ,1997-07-05 04:00,ZGSZ 050400Z AUTO 20010KT 7SM 28/28 A2974 RMK T02800280 IEM_DS3505
ZGSZ,1997-07-05 05:00,ZGSZ 050500Z AUTO 20006KT 7SM 28/28 A2971 RMK T02800280 IEM_DS3505
ZGSZ,1997-07-05 06:00,ZGSZ 050600Z AUTO 16004KT 9SM 28/26 A2971 RMK 60020 SLP066 T02790265 57011 IEM_DS3505
ZGSZ,1997-07-05 07:00,ZGSZ 050700Z AUTO 17008KT 7SM 29/28 A2968 RMK T02900280 IEM_DS3505
ZGSZ,1997-07-05 08:00,ZGSZ 050800Z AUTO 18008KT 7SM 29/28 A2968 RMK T02900280 IEM_DS3505
ZGSZ,1997-07-05 09:00,ZGSZ 050900Z AUTO 22002KT 11SM 29/26 A2968 RMK SLP055 T02910256 57010 IEM_DS3505
ZGSZ,1997-07-05 10:00,ZGSZ 051000Z AUTO 16008KT 6SM 29/28 A2968 RMK T02900280 IEM_DS3505
ZGSZ,1997-07-05 11:00,ZGSZ 051100Z AUTO 16010KT 6SM 28/28 A2968 RMK T02800280 IEM_DS3505
ZGSZ,1997-07-05 12:00,ZGSZ 051200Z AUTO 14002KT 9SM 28/26 A2968 RMK 60000 SLP061 T02790257 52005 IEM_DS3505
ZGSZ,1997-07-05 13:00,ZGSZ 051300Z AUTO 16008KT 7SM 28/27 A2971 RMK T02800270 IEM_DS3505
ZGSZ,1997-07-05 14:00,ZGSZ 051400Z AUTO 15008KT 6SM 28/27 A2971 RMK T02800270 IEM_DS3505
ZGSZ,1997-07-05 15:00,ZGSZ 051500Z AUTO 14006KT 7SM 28/27 A2974 RMK T02800270 IEM_DS3505
ZGSZ,1997-07-05 16:00,ZGSZ 051600Z AUTO 12006KT 7SM 28/27 A2971 RMK T02800270 IEM_DS3505
ZGSZ,1997-07-05 18:00,ZGSZ 051800Z AUTO 18002KT 12SM 27/26 RMK SLP066 T02700255 57010 IEM_DS3505
ZGSZ,1997-07-05 20:00,ZGSZ 052000Z AUTO 17010KT 6SM 28/27 A2965 RMK T02800270 IEM_DS3505
ZGSZ,1997-07-05 21:00,ZGSZ 052100Z AUTO 22002KT 12SM 27/25 A2968 RMK 70020 SLP058 T02720249 57008 IEM_DS3505
ZGSZ,1997-07-05 22:00,ZGSZ 052200Z AUTO 16010KT 7SM 28/27 A2965 RMK T02800270 IEM_DS3505
ZGSZ,1997-07-05 23:00,ZGSZ 052300Z AUTO 15012KT 7SM 28/27 A2965 RMK T02800270 IEM_DS3505
ZGSZ,1997-07-06 00:00,ZGSZ 060000Z AUTO 00000KT 7SM 28/25 A2968 RMK 70020 SLP061 T02810253 52003 IEM_DS3505
ZGSZ,1997-07-06 01:00,ZGSZ 060100Z AUTO 16010KT 7SM 29/27 A2968 RMK T02900270 IEM_DS3505
ZGSZ,1997-07-06 02:00,ZGSZ 060200Z AUTO 18014KT 2SM 29/27 A2968 RMK T02900270 IEM_DS3505
ZGSZ,1997-07-06 03:00,ZGSZ 060300Z AUTO 20008KT 3SM 26/24 A2968 RMK SLP061 T02550241 54000 IEM_DS3505
ZGSZ,1997-07-06 04:00,ZGSZ 060400Z AUTO 28004KT 7SM 26/25 A2971 RMK T02600250 IEM_DS3505
ZGSZ,1997-07-06 05:00,ZGSZ 060500Z AUTO 17006KT 7SM 26/26 A2968 RMK T02600260 IEM_DS3505
ZGSZ,1997-07-06 06:00,ZGSZ 060600Z AUTO 00000KT 8SM 25/24 A2965 RMK 60102 SLP056 T02480242 57005 IEM_DS3505
ZGSZ,1997-07-06 07:00,ZGSZ 060700Z AUTO 13006KT 7SM 26/26 A2965 RMK T02600260 IEM_DS3505
ZGSZ,1997-07-06 08:00,ZGSZ 060800Z AUTO 12006KT 7SM 26/26 A2962 RMK T02600260 IEM_DS3505
ZGSZ,1997-07-06 09:00,ZGSZ 060900Z AUTO 00000KT 16SM 26/24 A2962 RMK SLP041 T02600241 57015 IEM_DS3505
ZGSZ,1997-07-06 10:00,ZGSZ 061000Z AUTO 15008KT 6SM 27/25 A2962 RMK T02700250 IEM_DS3505
ZGSZ,1997-07-06 11:00,ZGSZ 061100Z AUTO 14006KT 6SM 27/25 A2962 RMK T02700250 IEM_DS3505
ZGSZ,1997-07-06 12:00,ZGSZ 061200Z AUTO 14004KT 16SM 26/24 A2965 RMK 60002 SLP051 T02620240 52010 IEM_DS3505
ZGSZ,1997-07-06 13:00,ZGSZ 061300Z AUTO 13006KT 7SM 27/25 A2965 RMK T02700250 IEM_DS3505
ZGSZ,1997-07-06 14:00,ZGSZ 061400Z AUTO 12006KT 7SM 27/26 A2968 RMK T02700260 IEM_DS3505
ZGSZ,1997-07-06 15:00,ZGSZ 061500Z AUTO 12008KT 7SM 27/26 A2968 RMK T02700260 IEM_DS3505
ZGSZ,1997-07-06 16:00,ZGSZ 061600Z AUTO 11008KT 7SM 27/26 A2965 RMK T02700260 IEM_DS3505
ZGSZ,1997-07-06 18:00,ZGSZ 061800Z AUTO 07004KT 12SM 26/24 RMK SLP051 T02620245 57008 IEM_DS3505
ZGSZ,1997-07-06 21:00,ZGSZ 062100Z AUTO 04002KT 12SM 26/25 A2962 RMK 70106 SLP045 T02610248 57006 IEM_DS3505
ZGSZ,1997-07-06 22:00,ZGSZ 062200Z AUTO 14008KT 7SM 27/27 A2962 RMK T02700270 IEM_DS3505
ZGSZ,1997-07-06 23:00,ZGSZ 062300Z AUTO 14008KT 7SM 28/27 A2962 RMK T02800270 IEM_DS3505
ZGSZ,1997-07-07 00:00,ZGSZ 070000Z AUTO 00000KT 11SM 27/26 A2965 RMK 70106 SLP050 T02740259 52005 IEM_DS3505
ZGSZ,1997-07-07 01:00,ZGSZ 070100Z AUTO 18010KT 7SM 29/28 A2965 RMK T02900280 IEM_DS3505
ZGSZ,1997-07-07 02:00,ZGSZ 070200Z AUTO 17010KT 7SM 28/28 A2965 RMK T02800280 IEM_DS3505
ZGSZ,1997-07-07 03:00,ZGSZ 070300Z AUTO 20008KT 12SM 30/26 A2965 RMK SLP052 T02990257 52003 IEM_DS3505
ZGSZ,1997-07-07 04:00,ZGSZ 070400Z AUTO 18014KT 7SM 29/28 A2965 RMK T02900280 IEM_DS3505
ZGSZ,1997-07-07 05:00,ZGSZ 070500Z AUTO 18012KT 7SM 29/28 A2965 RMK T02900280 IEM_DS3505
ZGSZ,1997-07-07 06:00,ZGSZ 070600Z AUTO 20004KT 17SM 30/25 A2962 RMK 60000 SLP043 T03000249 57009 IEM_DS3505
ZGSZ,1997-07-07 07:00,ZGSZ 070700Z AUTO 17012KT 7SM 30/29 A2962 RMK T03000290 IEM_DS3505
ZGSZ,1997-07-07 08:00,ZGSZ 070800Z AUTO 16012KT 7SM 30/28 A2959 RMK T03000280 IEM_DS3505
ZGSZ,1997-07-07 09:00,ZGSZ 070900Z AUTO 27002KT 19SM 31/25 A2959 RMK SLP038 T03130254 57005 IEM_DS3505
ZGSZ,1997-07-07 10:00,ZGSZ 071000Z AUTO 17014KT 7SM 30/28 A2962 RMK T03000280 IEM_DS3505
ZGSZ,1997-07-07 11:00,ZGSZ 071100Z AUTO 17012KT 7SM 29/28 A2962 RMK T02900280 IEM_DS3505
ZGSZ,1997-07-07 12:00,ZGSZ 071200Z AUTO 22004KT 12SM 29/25 A2965 RMK SLP053 T02920251 52015 IEM_DS3505
ZGSZ,1997-07-07 13:00,ZGSZ 071300Z AUTO 16012KT 6SM 28/28 A2965 RMK T02800280 IEM_DS3505
ZGSZ,1997-07-07 14:00,ZGSZ 071400Z AUTO 17012KT 6SM 29/28 A2965 RMK T02900280 IEM_DS3505
ZGSZ,1997-07-07 15:00,ZGSZ 071500Z AUTO 17014KT 7SM 29/28 A2965 RMK T02900280 IEM_DS3505
ZGSZ,1997-07-07 18:00,ZGSZ 071800Z AUTO 22002KT 11SM 29/25 RMK SLP050 T02860254 57005 IEM_DS3505
ZGSZ,1997-07-07 21:00,ZGSZ 072100Z AUTO 22002KT 9SM 28/25 A2962 RMK 70000 SLP046 T02850251 57004 IEM_DS3505
ZGSZ,1997-07-07 22:00,ZGSZ 072200Z AUTO 17012KT 7SM 28/28 A2962 RMK T02800280 IEM_DS3505
ZGSZ,1997-07-07 23:00,ZGSZ 072300Z AUTO 18014KT 7SM 28/28 A2962 RMK T02800280 IEM_DS3505
ZGSZ,1997-07-08 00:00,ZGSZ 080000Z AUTO 20008KT 14SM 29/26 A2965 RMK SLP046 T02930257 54000 IEM_DS3505
ZGSZ,1997-07-08 01:00,ZGSZ 080100Z AUTO 18010KT 7SM 29/28 A2962 RMK T02900280 IEM_DS3505
ZGSZ,1997-07-08 02:00,ZGSZ 080200Z AUTO 21029KT 1/4SM RMK IEM_DS3505
ZGSZ,1997-07-08 03:00,ZGSZ 080300Z AUTO 25008KT 4SM 25/24 A2968 RMK SLP063 T02530240 52016 IEM_DS3505
ZGSZ,1997-07-08 04:00,ZGSZ 080400Z AUTO 18008KT 7SM 26/26 A2965 RMK T02600260 IEM_DS3505
ZGSZ,1997-07-08 05:00,ZGSZ 080500Z AUTO 19010KT 7SM 27/27 A2965 RMK T02700270 IEM_DS3505
ZGSZ,1997-07-08 06:00,ZGSZ 080600Z AUTO 22004KT 7SM 26/25 A2962 RMK 60091 SLP047 T02630250 57016 IEM_DS3505
ZGSZ,1997-07-08 07:00,ZGSZ 080700Z AUTO 16010KT 6SM 28/28 A2962 RMK T02800280 IEM_DS3505
ZGSZ,1997-07-08 08:00,ZGSZ 080800Z AUTO 18010KT 6SM 29/28 A2959 RMK T02900280 IEM_DS3505
ZGSZ,1997-07-08 09:00,ZGSZ 080900Z AUTO 00000KT 12SM 29/26 A2959 RMK SLP033 T02870263 57013 IEM_DS3505
ZGSZ,1997-07-08 10:00,ZGSZ 081000Z AUTO 17010KT 6SM 29/28 A2962 RMK T02900280 IEM_DS3505
ZGSZ,1997-07-08 12:00,ZGSZ 081200Z AUTO 22002KT 13SM 28/25 A2962 RMK 60000 SLP043 T02820254 52010 IEM_DS3505
ZGSZ,1997-07-08 13:00,ZGSZ 081300Z AUTO 16010KT 7SM 28/28 A2965 RMK T02800280 IEM_DS3505
ZGSZ,1997-07-08 14:00,ZGSZ 081400Z AUTO 16010KT 7SM 28/28 A2965 RMK T02800280 IEM_DS3505
ZGSZ,1997-07-08 18:00,ZGSZ 081800Z AUTO 22006KT 6SM 28/26 RMK 60004 SLP042 T02770256 57012 IEM_DS3505
ZGSZ,1997-07-08 21:00,ZGSZ 082100Z AUTO 25004KT 8SM 27/26 A2962 RMK 70138 SLP035 T02700259 57006 IEM_DS3505
ZGSZ,1997-07-08 22:00,ZGSZ 082200Z AUTO 17008KT 7SM 27/27 A2962 RMK T02700270 IEM_DS3505
ZGSZ,1997-07-08 23:00,ZGSZ 082300Z AUTO 17008KT 7SM 28/27 A2962 RMK T02800270 IEM_DS3505
ZGSZ,1997-07-09 00:00,ZGSZ 090000Z AUTO 17008KT 7SM 27/27 A2965 RMK T02700270 IEM_DS3505
ZGSZ,1997-07-09 01:00,ZGSZ 090100Z AUTO 17006KT 7SM 28/28 A2965 RMK T02800280 IEM_DS3505
ZGSZ,1997-07-09 02:00,ZGSZ 090200Z AUTO 17008KT 7SM 29/28 A2965 RMK T02900280 IEM_DS3505
ZGSZ,1997-07-09 03:00,ZGSZ 090300Z AUTO 00000KT 11SM 26/26 A2965 RMK SLP047 T02650255 54000 IEM_DS3505
ZGSZ,1997-07-09 04:00,ZGSZ 090400Z AUTO 18008KT 7SM 29/28 A2965 RMK T02900280 IEM_DS3505
ZGSZ,1997-07-09 05:00,ZGSZ 090500Z AUTO 17016KT 1SM 26/25 A2965 RMK T02600250 IEM_DS3505
ZGSZ,1997-07-09 06:00,ZGSZ 090600Z AUTO 22006KT 11SM 30/26 A2962 RMK 60035 SLP039 T02960261 57007 IEM_DS3505
ZGSZ,1997-07-09 07:00,ZGSZ 090700Z AUTO 16010KT 7SM 29/27 A2959 RMK T02900270 IEM_DS3505
ZGSZ,1997-07-09 08:00,ZGSZ 090800Z AUTO 17012KT 7SM 30/28 A2962 RMK T03000280 IEM_DS3505
ZGSZ,1997-07-09 09:00,ZGSZ 090900Z AUTO 22006KT 16SM 30/26 A2959 RMK SLP030 T02970255 57009 IEM_DS3505
ZGSZ,1997-07-09 10:00,ZGSZ 091000Z AUTO 17010KT 7SM 29/27 A2959 RMK T02900270 IEM_DS3505
ZGSZ,1997-07-09 11:00,ZGSZ 091100Z AUTO 17012KT 7SM 29/28 A2962 RMK T02900280 IEM_DS3505
ZGSZ,1997-07-09 12:00,ZGSZ 091200Z AUTO 00000KT 14SM 28/27 A2962 RMK SLP040 T02800270 52010 IEM_DS3505
ZGSZ,1997-07-09 13:00,ZGSZ 091300Z AUTO 16010KT 6SM 27/26 A2962 RMK T02700260 IEM_DS3505
ZGSZ,1997-07-09 14:00,ZGSZ 091400Z AUTO 17010KT 6SM 28/27 A2965 RMK T02800270 IEM_DS3505
ZGSZ,1997-07-09 15:00,ZGSZ 091500Z AUTO 16008KT 6SM 27/26 A2965 RMK T02700260 IEM_DS3505
ZGSZ,1997-07-09 16:00,ZGSZ 091600Z AUTO 17012KT 4SM 26/26 A2965 RMK T02600260 IEM_DS3505
ZGSZ,1997-07-09 17:00,ZGSZ 091700Z AUTO 14008KT 7SM 26/26 A2965 RMK T02600260 IEM_DS3505
ZGSZ,1997-07-09 18:00,ZGSZ 091800Z AUTO 14002KT 9SM 26/25 A2962 RMK 60039 SLP047 T02600250 57007 IEM_DS3505
ZGSZ,1997-07-09 21:00,ZGSZ 092100Z AUTO 00000KT 11SM 25/25 A2962 RMK 70098 SLP046 T02540248 57001 IEM_DS3505
ZGSZ,1997-07-09 22:00,ZGSZ 092200Z AUTO 16008KT 7SM 26/26 A2962 RMK T02600260 IEM_DS3505
ZGSZ,1997-07-09 23:00,ZGSZ 092300Z AUTO 17010KT 7SM 26/26 A2965 RMK T02600260 IEM_DS3505
ZGSZ,1997-07-10 00:00,ZGSZ 100000Z AUTO 09004KT 7SM 26/25 A2965 RMK 60059 70138 SLP055 T02560247 52009 IEM_DS3505
ZGSZ,1997-07-10 01:00,ZGSZ 100100Z AUTO 16008KT 1 1/4SM 27/26 A2968 RMK T02700260 IEM_DS3505
ZGSZ,1997-07-10 02:00,ZGSZ 100200Z AUTO 17010KT 2 1/2SM 26/26 A2968 RMK T02600260 IEM_DS3505
ZGSZ,1997-07-10 03:00,ZGSZ 100300Z AUTO 20008KT 6SM 26/24 A2968 RMK SLP062 T02560243 52007 IEM_DS3505
ZGSZ,1997-07-10 04:00,ZGSZ 100400Z AUTO 17010KT 7SM 28/27 A2968 RMK T02800270 IEM_DS3505
ZGSZ,1997-07-10 06:00,ZGSZ 100600Z AUTO 22008KT 16SM 28/25 A2965 RMK 60020 SLP056 T02840252 57006 IEM_DS3505
ZGSZ,1997-07-10 07:00,ZGSZ 100700Z AUTO 17012KT 7SM 30/27 A2965 RMK T03000270 IEM_DS3505
ZGSZ,1997-07-10 08:00,ZGSZ 100800Z AUTO 16012KT 7SM 30/27 A2965 RMK T03000270 IEM_DS3505
ZGSZ,1997-07-10 09:00,ZGSZ 100900Z AUTO 22008KT 16SM 29/25 A2965 RMK SLP047 T02930246 57009 IEM_DS3505
ZGSZ,1997-07-10 10:00,ZGSZ 101000Z AUTO 17008KT 6SM 29/27 A2965 RMK T02900270 IEM_DS3505
ZGSZ,1997-07-10 11:00,ZGSZ 101100Z AUTO 17008KT 6SM 28/27 A2965 RMK T02800270 IEM_DS3505
ZGSZ,1997-07-10 12:00,ZGSZ 101200Z AUTO 20002KT 12SM 28/25 A2968 RMK SLP059 T02800246 52012 IEM_DS3505
ZGSZ,1997-07-10 14:00,ZGSZ 101400Z AUTO 16006KT 7SM 28/27 A2974 RMK T02800270 IEM_DS3505
ZGSZ,1997-07-10 15:00,ZGSZ 101500Z AUTO 14006KT 6SM 28/27 A2974 RMK T02800270 IEM_DS3505
ZGSZ,1997-07-10 16:00,ZGSZ 101600Z AUTO 14004KT 6SM 28/27 A2971 RMK T02800270 IEM_DS3505
ZGSZ,1997-07-10 18:00,ZGSZ 101800Z AUTO 00000KT 10SM 27/25 RMK 60000 SLP072 T02740247 57007 IEM_DS3505
ZGSZ,1997-07-10 21:00,ZGSZ 102100Z AUTO 00000KT 9SM 27/25 A2971 RMK 70059 SLP072 T02660253 54000 IEM_DS3505
ZGSZ,1997-07-10 22:00,ZGSZ 102200Z AUTO 16006KT 2 1/2SM 27/27 A2971 RMK T02700270 IEM_DS3505
ZGSZ,1997-07-10 23:00,ZGSZ 102300Z AUTO 16006KT 7SM 27/27 A2974 RMK T02700270 IEM_DS3505
ZGSZ,1997-07-11 00:00,ZGSZ 110000Z AUTO 00000KT 16SM 28/25 A2974 RMK 60002 70024 SLP082 T02750252 52010 IEM_DS3505
ZGSZ,1997-07-11 01:00,ZGSZ 110100Z AUTO 17008KT 7SM 30/28 A2974 RMK T03000280 IEM_DS3505
ZGSZ,1997-07-11 02:00,ZGSZ 110200Z AUTO 17008KT 7SM 30/28 A2974 RMK T03000280 IEM_DS3505
ZGSZ,1997-07-11 03:00,ZGSZ 110300Z AUTO 14002KT 19SM 29/25 A2974 RMK SLP084 T02940250 52002 IEM_DS3505
ZGSZ,1997-07-11 04:00,ZGSZ 110400Z AUTO 17010KT 7SM 30/28 A2974 RMK T03000280 IEM_DS3505
ZGSZ,1997-07-11 05:00,ZGSZ 110500Z AUTO 17010KT 7SM 31/28 A2974 RMK T03100280 IEM_DS3505
ZGSZ,1997-07-11 06:00,ZGSZ 110600Z AUTO 22004KT 17SM 31/25 A2971 RMK SLP072 T03080247 57011 IEM_DS3505
ZGSZ,1997-07-11 07:00,ZGSZ 110700Z AUTO 17010KT 7SM 30/28 A2971 RMK T03000280 IEM_DS3505
ZGSZ,1997-07-11 08:00,ZGSZ 110800Z AUTO 17010KT 7SM 31/28 A2968 RMK T03100280 IEM_DS3505
ZGSZ,1997-07-11 09:00,ZGSZ 110900Z AUTO 22004KT 17SM 30/25 A2968 RMK SLP063 T03050249 57009 IEM_DS3505
ZGSZ,1997-07-11 10:00,ZGSZ 111000Z AUTO 17010KT 7SM 30/27 A2971 RMK T03000270 IEM_DS3505
ZGSZ,1997-07-11 11:00,ZGSZ 111100Z AUTO 16012KT 6SM 29/27 A2971 RMK T02900270 IEM_DS3505
ZGSZ,1997-07-11 12:00,ZGSZ 111200Z AUTO 00000KT 9SM 28/25 A2974 RMK SLP078 T02850247 52014 IEM_DS3505
ZGSZ,1997-07-11 13:00,ZGSZ 111300Z AUTO 15006KT 6SM 29/27 A2974 RMK T02900270 IEM_DS3505
ZGSZ,1997-07-11 14:00,ZGSZ 111400Z AUTO 16008KT 7SM 28/27 A2977 RMK T02800270 IEM_DS3505
ZGSZ,1997-07-11 15:00,ZGSZ 111500Z AUTO 14008KT 7SM 28/27 A2977 RMK T02800270 IEM_DS3505
ZGSZ,1997-07-11 18:00,ZGSZ 111800Z AUTO 04004KT 12SM 28/25 RMK SLP087 T02760249 57006 IEM_DS3505
ZGSZ,1997-07-11 20:00,ZGSZ 112000Z AUTO 14004KT 7SM 28/27 A2977 RMK T02800270 IEM_DS3505
ZGSZ,1997-07-11 21:00,ZGSZ 112100Z AUTO 00000KT 16SM 27/25 A2977 RMK SLP085 T02700252 57003 IEM_DS3505
ZGSZ,1997-07-11 22:00,ZGSZ 112200Z AUTO 11004KT 7SM 27/27 A2974 RMK T02700270 IEM_DS3505
ZGSZ,1997-07-11 23:00,ZGSZ 112300Z AUTO 12004KT 7SM 28/27 A2977 RMK T02800270 IEM_DS3505
ZGSZ,1997-07-12 00:00,ZGSZ 120000Z AUTO 11004KT 16SM 28/25 A2977 RMK SLP090 T02820252 52005 IEM_DS3505
ZGSZ,1997-07-12 01:00,ZGSZ 120100Z AUTO 17006KT 7SM 30/27 A2977 RMK T03000270 IEM_DS3505
ZGSZ,1997-07-12 02:00,ZGSZ 120200Z AUTO 20004KT 7SM 31/27 A2977 RMK T03100270 IEM_DS3505
ZGSZ,1997-07-12 03:00,ZGSZ 120300Z AUTO 22002KT 16SM 32/24 A2977 RMK SLP092 T03170243 52003 IEM_DS3505
ZGSZ,1997-07-12 04:00,ZGSZ 120400Z AUTO 19008KT 7SM 31/27 A2977 RMK T03100270 IEM_DS3505
ZGSZ,1997-07-12 05:00,ZGSZ 120500Z AUTO 20006KT 7SM 31/28 A2977 RMK T03100280 IEM_DS3505
ZGSZ,1997-07-12 06:00,ZGSZ 120600Z AUTO 18008KT 16SM 32/24 A2974 RMK SLP079 T03180237 57013 IEM_DS3505
ZGSZ,1997-07-12 07:00,ZGSZ 120700Z AUTO 18010KT 7SM 31/27 A2974 RMK T03100270 IEM_DS3505
ZGSZ,1997-07-12 08:00,ZGSZ 120800Z AUTO 19008KT 7SM 31/28 A2971 RMK T03100280 IEM_DS3505
ZGSZ,1997-07-12 09:00,ZGSZ 120900Z AUTO 20006KT 19SM 32/24 A2971 RMK SLP070 T03160241 57009 IEM_DS3505
ZGSZ,1997-07-12 10:00,ZGSZ 121000Z AUTO 20008KT 6SM 30/28 A2971 RMK T03000280 IEM_DS3505
ZGSZ,1997-07-12 11:00,ZGSZ 121100Z AUTO 20008KT 6SM 29/28 A2974 RMK T02900280 IEM_DS3505
ZGSZ,1997-07-12 12:00,ZGSZ 121200Z AUTO 14004KT 17SM 29/25 A2977 RMK SLP087 T02920250 52016 IEM_DS3505
ZGSZ,1997-07-12 13:00,ZGSZ 121300Z AUTO 14006KT 6SM 29/27 A2980 RMK T02900270 IEM_DS3505
ZGSZ,1997-07-12 14:00,ZGSZ 121400Z AUTO 10006KT 6SM 29/27 A2980 RMK T02900270 IEM_DS3505
ZGSZ,1997-07-12 15:00,ZGSZ 121500Z AUTO 10006KT 6SM 29/27 A2980 RMK T02900270 IEM_DS3505
ZGSZ,1997-07-12 18:00,ZGSZ 121800Z AUTO 09004KT 16SM 28/25 RMK SLP091 T02830253 57009 IEM_DS3505
ZGSZ,1997-07-12 21:00,ZGSZ 122100Z AUTO 09006KT 16SM 27/25 A2977 RMK 70002 SLP084 T02740250 57007 IEM_DS3505
ZGSZ,1997-07-12 22:00,ZGSZ 122200Z AUTO 09004KT 6SM 28/26 A2977 RMK T02800260 IEM_DS3505
ZGSZ,1997-07-12 23:00,ZGSZ 122300Z AUTO 08004KT 6SM 28/27 A2977 RMK T02800270 IEM_DS3505
ZGSZ,1997-07-13 00:00,ZGSZ 130000Z AUTO 14004KT 19SM 29/25 A2977 RMK 60002 70002 SLP094 T02870249 52009 IEM_DS3505
ZGSZ,1997-07-13 01:00,ZGSZ 130100Z AUTO 12008KT 7SM 31/27 A2980 RMK T03100270 IEM_DS3505
ZGSZ,1997-07-13 02:00,ZGSZ 130200Z AUTO 13008KT 7SM 32/27 A2980 RMK T03200270 IEM_DS3505
ZGSZ,1997-07-13 03:00,ZGSZ 130300Z AUTO 11012KT 19SM 31/24 A2980 RMK SLP100 T03130236 52007 IEM_DS3505
ZGSZ,1997-07-13 04:00,ZGSZ 130400Z AUTO 16012KT 7SM 33/26 A2980 RMK T03300260 IEM_DS3505
ZGSZ,1997-07-13 05:00,ZGSZ 130500Z AUTO 17008KT 7SM 33/26 A2977 RMK T03300260 IEM_DS3505
ZGSZ,1997-07-13 06:00,ZGSZ 130600Z AUTO 14008KT 19SM 32/24 A2977 RMK SLP087 T03200237 57013 IEM_DS3505
ZGSZ,1997-07-13 07:00,ZGSZ 130700Z AUTO 20008KT 7SM 33/26 A2974 RMK T03300260 IEM_DS3505
ZGSZ,1997-07-13 08:00,ZGSZ 130800Z AUTO 18010KT 7SM 33/26 A2974 RMK T03300260 IEM_DS3505
ZGSZ,1997-07-13 09:00,ZGSZ 130900Z AUTO 11006KT 19SM 31/25 A2974 RMK SLP077 T03140249 57010 IEM_DS3505
ZGSZ,1997-07-13 10:00,ZGSZ 131000Z AUTO 12010KT 7SM 32/26 A2974 RMK T03200260 IEM_DS3505
ZGSZ,1997-07-13 11:00,ZGSZ 131100Z AUTO 11010KT 6SM 31/26 A2974 RMK T03100260 IEM_DS3505
ZGSZ,1997-07-13 12:00,ZGSZ 131200Z AUTO 11004KT 19SM 29/25 A2977 RMK SLP094 T02920253 52016 IEM_DS3505
ZGSZ,1997-07-13 13:00,ZGSZ 131300Z AUTO 11008KT 6SM 29/27 A2977 RMK T02900270 IEM_DS3505
ZGSZ,1997-07-13 14:00,ZGSZ 131400Z AUTO 11010KT 6SM 29/27 A2980 RMK T02900270 IEM_DS3505
ZGSZ,1997-07-13 15:00,ZGSZ 131500Z AUTO 11006KT 6SM 29/27 A2980 RMK T02900270 IEM_DS3505
ZGSZ,1997-07-13 18:00,ZGSZ 131800Z AUTO 07004KT 16SM 27/25 RMK 60004 SLP091 T02730252 57012 IEM_DS3505
ZGSZ,1997-07-13 21:00,ZGSZ 132100Z AUTO 11006KT 16SM 28/24 A2977 RMK 70008 SLP086 T02780242 57005 IEM_DS3505
ZGSZ,1997-07-13 22:00,ZGSZ 132200Z AUTO 09004KT 6SM 28/26 A2977 RMK T02800260 IEM_DS3505
ZGSZ,1997-07-13 23:00,ZGSZ 132300Z AUTO 11004KT 6SM 28/26 A2977 RMK T02800260 IEM_DS3505
ZGSZ,1997-07-14 00:00,ZGSZ 140000Z AUTO 09004KT 16SM 28/25 RMK 60000 70008 SLP095 T02810247 52008 IEM_DS3505
ZGSZ,1997-07-14 01:00,ZGSZ 140100Z AUTO 13010KT 7SM 30/26 A2980 RMK T03000260 IEM_DS3505
ZGSZ,1997-07-14 02:00,ZGSZ 140200Z AUTO 14010KT 7SM 31/27 A2980 RMK T03100270 IEM_DS3505
ZGSZ,1997-07-14 03:00,ZGSZ 140300Z AUTO 16008KT 19SM 30/25 A2980 RMK SLP099 T03050247 52005 IEM_DS3505
ZGSZ,1997-07-14 04:00,ZGSZ 140400Z AUTO 15014KT 7SM 33/27 A2980 RMK T03300270 IEM_DS3505
ZGSZ,1997-07-14 05:00,ZGSZ 140500Z AUTO 17014KT 7SM 32/27 A2977 RMK T03200270 IEM_DS3505
ZGSZ,1997-07-14 06:00,ZGSZ 140600Z AUTO 11008KT 19SM 32/24 A2974 RMK 60000 SLP085 T03180243 57014 IEM_DS3505
ZGSZ,1997-07-14 07:00,ZGSZ 140700Z AUTO 19012KT 7SM 32/28 A2971 RMK T03200280 IEM_DS3505
ZGSZ,1997-07-14 08:00,ZGSZ 140800Z AUTO 17014KT 7SM 32/27 A2971 RMK T03200270 IEM_DS3505
ZGSZ,1997-07-14 09:00,ZGSZ 140900Z AUTO 14004KT 19SM 30/25 A2971 RMK SLP073 T02960252 57013 IEM_DS3505
ZGSZ,1997-07-14 10:00,ZGSZ 141000Z AUTO 11008KT 7SM 30/27 A2971 RMK T03000270 IEM_DS3505
ZGSZ,1997-07-14 11:00,ZGSZ 141100Z AUTO 11008KT 7SM 30/26 A2974 RMK T03000260 IEM_DS3505
ZGSZ,1997-07-14 12:00,ZGSZ 141200Z AUTO 09002KT 16SM 28/26 A2974 RMK 60004 SLP083 T02800258 52010 IEM_DS3505
ZGSZ,1997-07-14 13:00,ZGSZ 141300Z AUTO 15010KT 1 1/4SM 28/26 A2977 RMK T02800260 IEM_DS3505
ZGSZ,1997-07-14 14:00,ZGSZ 141400Z AUTO 14006KT 7SM 27/26 A2977 RMK T02700260 IEM_DS3505
ZGSZ,1997-07-14 15:00,ZGSZ 141500Z AUTO 10006KT 7SM 27/26 A2980 RMK T02700260 IEM_DS3505
ZGSZ,1997-07-14 18:00,ZGSZ 141800Z AUTO 11004KT 19SM 28/25 RMK 60016 SLP077 T02780250 57018 IEM_DS3505
ZGSZ,1997-07-14 21:00,ZGSZ 142100Z AUTO 09004KT 17SM 28/25 A2971 RMK 70024 SLP064 T02750252 57013 IEM_DS3505
ZGSZ,1997-07-14 22:00,ZGSZ 142200Z AUTO 09004KT 6SM 27/26 A2971 RMK T02700260 IEM_DS3505
ZGSZ,1997-07-14 23:00,ZGSZ 142300Z AUTO 10004KT 7SM 28/27 A2971 RMK T02800270 IEM_DS3505
ZGSZ,1997-07-15 00:00,ZGSZ 150000Z AUTO 22004KT 5SM 27/26 A2971 RMK 60012 70031 SLP077 T02700255 52012 IEM_DS3505
ZGSZ,1997-07-15 01:00,ZGSZ 150100Z AUTO 10010KT 7SM 29/26 A2974 RMK T02900260 IEM_DS3505
ZGSZ,1997-07-15 02:00,ZGSZ 150200Z AUTO 11004KT 7SM 29/26 A2974 RMK T02900260 IEM_DS3505
ZGSZ,1997-07-15 03:00,ZGSZ 150300Z AUTO 14010KT 4SM 30/25 A2974 RMK SLP085 T02980249 52008 IEM_DS3505
ZGSZ,1997-07-15 04:00,ZGSZ 150400Z AUTO 13012KT 7SM 28/26 A2974 RMK T02800260 IEM_DS3505
ZGSZ,1997-07-15 05:00,ZGSZ 150500Z AUTO 13006KT 7SM 29/27 A2971 RMK T02900270 IEM_DS3505
ZGSZ,1997-07-15 06:00,ZGSZ 150600Z AUTO 16006KT 19SM 30/24 A2968 RMK 60028 SLP061 T02970242 57023 IEM_DS3505
ZGSZ,1997-07-15 07:00,ZGSZ 150700Z AUTO 21010KT 7SM 29/27 A2968 RMK T02900270 IEM_DS3505
ZGSZ,1997-07-15 08:00,ZGSZ 150800Z AUTO 12008KT 7SM 30/26 A2965 RMK T03000260 IEM_DS3505
ZGSZ,1997-07-15 09:00,ZGSZ 150900Z AUTO 14006KT 19SM 30/24 A2965 RMK SLP049 T02960245 57012 IEM_DS3505
ZGSZ,1997-07-15 10:00,ZGSZ 151000Z AUTO 10006KT 6SM 30/26 A2965 RMK T03000260 IEM_DS3505
ZGSZ,1997-07-15 11:00,ZGSZ 151100Z AUTO 12012KT 7SM 26/24 A2968 RMK T02600240 IEM_DS3505
ZGSZ,1997-07-15 12:00,ZGSZ 151200Z AUTO 07008KT 16SM 27/25 A2968 RMK 60008 SLP063 T02680247 52013 IEM_DS3505
ZGSZ,1997-07-15 13:00,ZGSZ 151300Z AUTO 09008KT 6SM 27/26 A2971 RMK T02700260 IEM_DS3505
ZGSZ,1997-07-15 14:00,ZGSZ 151400Z AUTO 11008KT 7SM 27/26 A2974 RMK T02700260 IEM_DS3505
ZGSZ,1997-07-15 15:00,ZGSZ 151500Z AUTO 12008KT 7SM 26/26 A2974 RMK T02600260 IEM_DS3505
ZGSZ,1997-07-15 16:00,ZGSZ 151600Z AUTO 08004KT 7SM 27/26 A2971 RMK T02700260 IEM_DS3505
ZGSZ,1997-07-15 18:00,ZGSZ 151800Z AUTO 07006KT 9SM 27/25 RMK 60008 SLP058 T02670246 57023 IEM_DS3505
ZGSZ,1997-07-15 21:00,ZGSZ 152100Z AUTO 04006KT 12SM 27/24 A2965 RMK 70055 SLP045 T02710245 57012 IEM_DS3505
ZGSZ,1997-07-15 22:00,ZGSZ 152200Z AUTO 05004KT 7SM 26/26 A2965 RMK T02600260 IEM_DS3505
ZGSZ,1997-07-15 23:00,ZGSZ 152300Z AUTO 05004KT 7SM 27/26 A2965 RMK T02700260 IEM_DS3505
ZGSZ,1997-07-16 00:00,ZGSZ 160000Z AUTO 18004KT 16SM 28/25 A2965 RMK 60008 70047 SLP058 T02760252 52012 IEM_DS3505
ZGSZ,1997-07-16 01:00,ZGSZ 160100Z AUTO 08008KT 7SM 28/26 A2968 RMK T02800260 IEM_DS3505
ZGSZ,1997-07-16 02:00,ZGSZ 160200Z AUTO 06006KT 7SM 29/27 A2968 RMK T02900270 IEM_DS3505
ZGSZ,1997-07-16 03:00,ZGSZ 160300Z AUTO 07008KT 16SM 29/25 A2968 RMK SLP060 T02920248 52002 IEM_DS3505
ZGSZ,1997-07-16 04:00,ZGSZ 160400Z AUTO 10008KT 7SM 27/26 A2968 RMK T02700260 IEM_DS3505
ZGSZ,1997-07-16 05:00,ZGSZ 160500Z AUTO 13012KT 7SM 29/28 A2965 RMK T02900280 IEM_DS3505
ZGSZ,1997-07-16 06:00,ZGSZ 160600Z AUTO 16004KT 7SM 26/25 A2968 RMK 60094 SLP054 T02650248 57006 IEM_DS3505
ZGSZ,1997-07-16 07:00,ZGSZ 160700Z AUTO 10008KT 7SM 28/26 A2962 RMK T02800260 IEM_DS3505
ZGSZ,1997-07-16 08:00,ZGSZ 160800Z AUTO 10008KT 7SM 29/27 A2962 RMK T02900270 IEM_DS3505
ZGSZ,1997-07-16 09:00,ZGSZ 160900Z AUTO 18004KT 12SM 28/25 A2962 RMK SLP039 T02760251 57015 IEM_DS3505
ZGSZ,1997-07-16 10:00,ZGSZ 161000Z AUTO 11008KT 7SM 28/26 A2962 RMK T02800260 IEM_DS3505
ZGSZ,1997-07-16 11:00,ZGSZ 161100Z AUTO 09004KT 7SM 28/26 A2962 RMK T02800260 IEM_DS3505
ZGSZ,1997-07-16 12:00,ZGSZ 161200Z AUTO 11002KT 8SM 27/24 RMK 60004 SLP054 T02700241 52015 IEM_DS3505
ZGSZ,1997-07-16 13:00,ZGSZ 161300Z AUTO 09006KT 7SM 27/26 A2968 RMK T02700260 IEM_DS3505
ZGSZ,1997-07-16 14:00,ZGSZ 161400Z AUTO 07008KT 6SM 27/25 A2968 RMK T02700250 IEM_DS3505
ZGSZ,1997-07-16 15:00,ZGSZ 161500Z AUTO 08006KT 7SM 27/25 A2968 RMK T02700250 IEM_DS3505
ZGSZ,1997-07-16 18:00,ZGSZ 161800Z AUTO 09002KT 8SM 26/25 RMK 60008 SLP055 T02580247 57013 IEM_DS3505
ZGSZ,1997-07-16 21:00,ZGSZ 162100Z AUTO 00000KT 9SM 26/24 A2962 RMK 70110 SLP045 T02620245 57010 IEM_DS3505
ZGSZ,1997-07-16 22:00,ZGSZ 162200Z AUTO 07008KT 2 1/2SM 26/25 A2965 RMK T02600250 IEM_DS3505
ZGSZ,1997-07-16 23:00,ZGSZ 162300Z AUTO 06004KT 7SM 26/26 A2965 RMK T02600260 IEM_DS3505
ZGSZ,1997-07-17 00:00,ZGSZ 170000Z AUTO 09004KT 3SM 26/25 A2968 RMK 60055 70165 SLP058 T02550248 52013 IEM_DS3505
ZGSZ,1997-07-17 01:00,ZGSZ 170100Z AUTO 11008KT 7SM 26/26 A2968 RMK T02600260 IEM_DS3505
ZGSZ,1997-07-17 02:00,ZGSZ 170200Z AUTO 10006KT 7SM 26/26 A2968 RMK T02600260 IEM_DS3505
ZGSZ,1997-07-17 03:00,ZGSZ 170300Z AUTO 14004KT 8SM 26/25 A2971 RMK SLP066 T02600246 52008 IEM_DS3505
ZGSZ,1997-07-17 04:00,ZGSZ 170400Z AUTO 15008KT 7SM 26/26 A2968 RMK T02600260 IEM_DS3505
ZGSZ,1997-07-17 05:00,ZGSZ 170500Z AUTO 15008KT 7SM 28/27 A2968 RMK T02800270 IEM_DS3505
ZGSZ,1997-07-17 06:00,ZGSZ 170600Z AUTO 20004KT 12SM 27/25 A2968 RMK 60055 SLP059 T02720246 57007 IEM_DS3505
ZGSZ,1997-07-17 07:00,ZGSZ 170700Z AUTO 14008KT 7SM 27/26 A2965 RMK T02700260 IEM_DS3505
ZGSZ,1997-07-17 08:00,ZGSZ 170800Z AUTO 15012KT 7SM 27/26 A2965 RMK T02700260 IEM_DS3505
ZGSZ,1997-07-17 09:00,ZGSZ 170900Z AUTO 11004KT 11SM 27/25 A2965 RMK SLP052 T02660249 57007 IEM_DS3505
ZGSZ,1997-07-17 10:00,ZGSZ 171000Z AUTO 17016KT 7SM 27/26 A2965 RMK T02700260 IEM_DS3505
ZGSZ,1997-07-17 11:00,ZGSZ 171100Z AUTO 16014KT 7SM 27/27 A2968 RMK T02700270 IEM_DS3505
ZGSZ,1997-07-17 12:00,ZGSZ 171200Z AUTO 22004KT 14SM 27/24 A2971 RMK 60004 SLP075 T02690242 52023 IEM_DS3505
ZGSZ,1997-07-17 13:00,ZGSZ 171300Z AUTO 16012KT 7SM 27/26 A2974 RMK T02700260 IEM_DS3505
ZGSZ,1997-07-17 14:00,ZGSZ 171400Z AUTO 13006KT 6SM 27/26 A2977 RMK T02700260 IEM_DS3505
ZGSZ,1997-07-17 15:00,ZGSZ 171500Z AUTO 13004KT 7SM 27/26 A2977 RMK T02700260 IEM_DS3505
ZGSZ,1997-07-17 16:00,ZGSZ 171600Z AUTO 10006KT 6SM 26/26 A2977 RMK T02600260 IEM_DS3505
ZGSZ,1997-07-17 18:00,ZGSZ 171800Z AUTO 07004KT 12SM 26/24 RMK 60024 SLP087 T02620245 57008 IEM_DS3505
ZGSZ,1997-07-17 21:00,ZGSZ 172100Z AUTO 07004KT 12SM 26/25 A2974 RMK 70138 SLP079 T02610247 57008 IEM_DS3505
ZGSZ,1997-07-17 22:00,ZGSZ 172200Z AUTO 11006KT 7SM 26/26 A2974 RMK T02600260 IEM_DS3505
ZGSZ,1997-07-17 23:00,ZGSZ 172300Z AUTO 09006KT 7SM 28/26 A2974 RMK T02800260 IEM_DS3505
ZGSZ,1997-07-18 00:00,ZGSZ 180000Z AUTO 02002KT 4SM 27/25 A2977 RMK 60004 70087 SLP099 T02660253 52020 IEM_DS3505
ZGSZ,1997-07-18 01:00,ZGSZ 180100Z AUTO 18004KT 7SM 26/26 A2980 RMK T02600260 IEM_DS3505
ZGSZ,1997-07-18 02:00,ZGSZ 180200Z AUTO 11008KT 7SM 26/26 A2980 RMK T02600260 IEM_DS3505
ZGSZ,1997-07-18 03:00,ZGSZ 180300Z AUTO 07004KT 10SM 26/25 A2980 RMK SLP098 T02570247 57001 IEM_DS3505
ZGSZ,1997-07-18 04:00,ZGSZ 180400Z AUTO 19019KT 7SM 26/26 A2980 RMK T02600260 IEM_DS3505
ZGSZ,1997-07-18 05:00,ZGSZ 180500Z AUTO 17010KT 7SM 26/26 A2977 RMK T02600260 IEM_DS3505
ZGSZ,1997-07-18 06:00,ZGSZ 180600Z AUTO 22006KT 17SM 26/24 A2977 RMK 60059 SLP089 T02640244 57009 IEM_DS3505
ZGSZ,1997-07-18 07:00,ZGSZ 180700Z AUTO 17010KT 7SM 27/26 A2977 RMK T02700260 IEM_DS3505
ZGSZ,1997-07-18 09:00,ZGSZ 180900Z AUTO 14004KT 12SM 28/25 A2974 RMK SLP081 T02780250 57008 IEM_DS3505
ZGSZ,1997-07-18 10:00,ZGSZ 181000Z AUTO 15006KT 7SM 27/26 A2977 RMK T02700260 IEM_DS3505
ZGSZ,1997-07-18 11:00,ZGSZ 181100Z AUTO 12004KT 7SM 27/27 A2977 RMK T02700270 IEM_DS3505
ZGSZ,1997-07-18 12:00,ZGSZ 181200Z AUTO 18002KT 13SM 27/25 A2977 RMK 60000 SLP093 T02690246 52012 IEM_DS3505
ZGSZ,1997-07-18 13:00,ZGSZ 181300Z AUTO 12006KT 7SM 27/26 A2980 RMK T02700260 IEM_DS3505
ZGSZ,1997-07-18 14:00,ZGSZ 181400Z AUTO 11004KT 7SM 27/26 A2983 RMK T02700260 IEM_DS3505
ZGSZ,1997-07-18 15:00,ZGSZ 181500Z AUTO 11006KT 7SM 27/26 A2983 RMK T02700260 IEM_DS3505
ZGSZ,1997-07-18 16:00,ZGSZ 181600Z AUTO 10004KT 7SM 27/26 A2983 RMK T02700260 IEM_DS3505
ZGSZ,1997-07-18 18:00,ZGSZ 181800Z AUTO 09004KT 12SM 27/25 RMK 60002 SLP095 T02680251 57018 IEM_DS3505
ZGSZ,1997-07-18 21:00,ZGSZ 182100Z AUTO 14004KT 11SM 26/25 A2977 RMK 70067 SLP090 T02620248 57005 IEM_DS3505
ZGSZ,1997-07-18 22:00,ZGSZ 182200Z AUTO 13004KT 7SM 26/25 A2977 RMK T02600250 IEM_DS3505
ZGSZ,1997-07-18 23:00,ZGSZ 182300Z AUTO 13004KT 4SM 25/25 A2980 RMK T02500250 IEM_DS3505
ZGSZ,1997-07-19 00:00,ZGSZ 190000Z AUTO 02006KT 2SM 25/24 A2980 RMK 60110 70173 SLP102 T02480244 52012 IEM_DS3505
ZGSZ,1997-07-19 01:00,ZGSZ 190100Z AUTO 11010KT 7SM 26/25 A2980 RMK T02600250 IEM_DS3505
ZGSZ,1997-07-19 02:00,ZGSZ 190200Z AUTO 09004KT 4SM 25/25 A2980 RMK T02500250 IEM_DS3505
ZGSZ,1997-07-19 03:00,ZGSZ 190300Z AUTO 11004KT 8SM 25/24 A2983 RMK SLP105 T02520240 52003 IEM_DS3505
ZGSZ,1997-07-19 04:00,ZGSZ 190400Z AUTO 12002KT 3SM 25/25 A2983 RMK T02500250 IEM_DS3505
ZGSZ,1997-07-19 05:00,ZGSZ 190500Z AUTO 00000KT 7SM 25/25 A2980 RMK T02500250 IEM_DS3505
ZGSZ,1997-07-19 06:00,ZGSZ 190600Z AUTO 14004KT 8SM 25/24 A2977 RMK 60142 SLP091 T02530241 57014 IEM_DS3505
ZGSZ,1997-07-19 07:00,ZGSZ 190700Z AUTO 14006KT 7SM 26/26 A2977 RMK T02600260 IEM_DS3505
ZGSZ,1997-07-19 08:00,ZGSZ 190800Z AUTO 14010KT 7SM 27/26 A2977 RMK T02700260 IEM_DS3505
ZGSZ,1997-07-19 09:00,ZGSZ 190900Z AUTO 09004KT 9SM 26/24 A2974 RMK SLP083 T02560245 57008 IEM_DS3505
ZGSZ,1997-07-19 10:00,ZGSZ 191000Z AUTO 10006KT 7SM 27/26 A2974 RMK T02700260 IEM_DS3505
ZGSZ,1997-07-19 11:00,ZGSZ 191100Z AUTO 11004KT 6SM 27/26 A2974 RMK T02700260 IEM_DS3505
ZGSZ,1997-07-19 12:00,ZGSZ 191200Z AUTO 09004KT 16SM 26/24 A2974 RMK SLP082 T02550238 57001 IEM_DS3505
ZGSZ,1997-07-19 13:00,ZGSZ 191300Z AUTO 09002KT 6SM 26/25 A2977 RMK T02600250 IEM_DS3505
ZGSZ,1997-07-19 14:00,ZGSZ 191400Z AUTO 08004KT 7SM 26/25 A2980 RMK T02600250 IEM_DS3505
ZGSZ,1997-07-19 15:00,ZGSZ 191500Z AUTO 11006KT 6SM 26/25 A2980 RMK T02600250 IEM_DS3505
ZGSZ,1997-07-19 16:00,ZGSZ 191600Z AUTO 10008KT 7SM 26/25 A2980 RMK T02600250 IEM_DS3505
ZGSZ,1997-07-19 18:00,ZGSZ 191800Z AUTO 04004KT 10SM 25/24 RMK 60000 SLP091 T02540240 57015 IEM_DS3505
ZGSZ,1997-07-19 21:00,ZGSZ 192100Z AUTO 07002KT 8SM 25/24 A2974 RMK 70260 SLP084 T02480239 57007 IEM_DS3505
ZGSZ,1997-07-19 22:00,ZGSZ 192200Z AUTO 09002KT 6SM 26/25 A2974 RMK T02600250 IEM_DS3505
ZGSZ,1997-07-19 23:00,ZGSZ 192300Z AUTO 08004KT 7SM 26/26 A2974 RMK T02600260 IEM_DS3505
ZGSZ,1997-07-20 00:00,ZGSZ 200000Z AUTO 02002KT 8SM 26/24 A2977 RMK 70150 SLP088 T02590240 52004 IEM_DS3505
ZGSZ,1997-07-20 01:00,ZGSZ 200100Z AUTO 08006KT 6SM 28/26 A2977 RMK T02800260 IEM_DS3505
ZGSZ,1997-07-20 02:00,ZGSZ 200200Z AUTO 11006KT 7SM 29/27 A2980 RMK T02900270 IEM_DS3505
ZGSZ,1997-07-20 03:00,ZGSZ 200300Z AUTO 09002KT 17SM 29/25 A2980 RMK SLP096 T02940252 52008 IEM_DS3505
ZGSZ,1997-07-20 04:00,ZGSZ 200400Z AUTO 14006KT 7SM 32/27 A2977 RMK T03200270 IEM_DS3505
ZGSZ,1997-07-20 05:00,ZGSZ 200500Z AUTO 17008KT 7SM 32/27 A2977 RMK T03200270 IEM_DS3505
ZGSZ,1997-07-20 06:00,ZGSZ 200600Z AUTO 14006KT 19SM 30/25 A2974 RMK SLP080 T03040248 57016 IEM_DS3505
ZGSZ,1997-07-20 07:00,ZGSZ 200700Z AUTO 20006KT 7SM 31/28 A2971 RMK T03100280 IEM_DS3505
ZGSZ,1997-07-20 08:00,ZGSZ 200800Z AUTO 13010KT 7SM 31/27 A2971 RMK T03100270 IEM_DS3505
ZGSZ,1997-07-20 09:00,ZGSZ 200900Z AUTO 14008KT 19SM 28/24 A2971 RMK SLP074 T02830239 57006 IEM_DS3505
ZGSZ,1997-07-20 10:00,ZGSZ 201000Z AUTO 11010KT 7SM 29/26 A2971 RMK T02900260 IEM_DS3505
ZGSZ,1997-07-20 11:00,ZGSZ 201100Z AUTO 11006KT 6SM 28/25 A2974 RMK T02800250 IEM_DS3505
ZGSZ,1997-07-20 12:00,ZGSZ 201200Z AUTO 14010KT 16SM 27/24 A2974 RMK SLP086 T02670237 52012 IEM_DS3505
ZGSZ,1997-07-20 13:00,ZGSZ 201300Z AUTO 11008KT 6SM 27/25 A2977 RMK T02700250 IEM_DS3505
ZGSZ,1997-07-20 15:00,ZGSZ 201500Z AUTO 11004KT 6SM 27/25 A2980 RMK T02700250 IEM_DS3505
ZGSZ,1997-07-20 18:00,ZGSZ 201800Z AUTO 09002KT 16SM 26/24 RMK SLP086 T02650244 57017 IEM_DS3505
ZGSZ,1997-07-20 21:00,ZGSZ 202100Z AUTO 04004KT 11SM 26/24 A2974 RMK SLP084 T02590242 57002 IEM_DS3505
ZGSZ,1997-07-20 22:00,ZGSZ 202200Z AUTO 08004KT 6SM 26/25 A2974 RMK T02600250 IEM_DS3505
ZGSZ,1997-07-20 23:00,ZGSZ 202300Z AUTO 06002KT 6SM 26/25 A2977 RMK T02600250 IEM_DS3505
ZGSZ,1997-07-21 00:00,ZGSZ 210000Z AUTO 07004KT 6SM 27/25 A2977 RMK SLP091 T02700246 52007 IEM_DS3505
ZGSZ,1997-07-21 01:00,ZGSZ 210100Z AUTO 10008KT 7SM 29/27 A2980 RMK T02900270 IEM_DS3505
ZGSZ,1997-07-21 02:00,ZGSZ 210200Z AUTO 13008KT 7SM 30/27 A2980 RMK T03000270 IEM_DS3505
ZGSZ,1997-07-21 03:00,ZGSZ 210300Z AUTO 07010KT 16SM 32/24 A2980 RMK SLP100 T03150243 52009 IEM_DS3505
ZGSZ,1997-07-21 04:00,ZGSZ 210400Z AUTO 20008KT 7SM 29/27 A2980 RMK T02900270 IEM_DS3505
ZGSZ,1997-07-21 05:00,ZGSZ 210500Z AUTO 22012KT 7SM 29/27 A2977 RMK T02900270 IEM_DS3505
ZGSZ,1997-07-21 06:00,ZGSZ 210600Z AUTO 09006KT 19SM 32/25 A2974 RMK SLP086 T03160247 57014 IEM_DS3505
ZGSZ,1997-07-21 07:00,ZGSZ 210700Z AUTO 21010KT 7SM 29/27 A2974 RMK T02900270 IEM_DS3505
ZGSZ,1997-07-21 08:00,ZGSZ 210800Z AUTO 16010KT 7SM 30/27 A2974 RMK T03000270 IEM_DS3505
ZGSZ,1997-07-21 09:00,ZGSZ 210900Z AUTO 14004KT 19SM 31/24 A2971 RMK SLP074 T03100240 57012 IEM_DS3505
ZGSZ,1997-07-21 10:00,ZGSZ 211000Z AUTO 18010KT 7SM 30/27 A2971 RMK T03000270 IEM_DS3505
ZGSZ,1997-07-21 11:00,ZGSZ 211100Z AUTO 13004KT 7SM 30/26 A2974 RMK T03000260 IEM_DS3505
ZGSZ,1997-07-21 12:00,ZGSZ 211200Z AUTO 14006KT 17SM 28/25 A2977 RMK SLP091 T02840246 52017 IEM_DS3505
ZGSZ,1997-07-21 13:00,ZGSZ 211300Z AUTO 11006KT 6SM 28/26 A2977 RMK T02800260 IEM_DS3505
ZGSZ,1997-07-21 14:00,ZGSZ 211400Z AUTO 11006KT 6SM 28/26 A2980 RMK T02800260 IEM_DS3505
ZGSZ,1997-07-21 15:00,ZGSZ 211500Z AUTO 09004KT 6SM 27/26 A2983 RMK T02700260 IEM_DS3505
ZGSZ,1997-07-21 16:00,ZGSZ 211600Z AUTO 04002KT 6SM 27/26 A2983 RMK T02700260 IEM_DS3505
ZGSZ,1997-07-21 18:00,ZGSZ 211800Z AUTO 04004KT 16SM 27/25 RMK SLP101 T02730249 57003 IEM_DS3505
ZGSZ,1997-07-21 21:00,ZGSZ 212100Z AUTO 00000KT 12SM 27/25 A2980 RMK SLP095 T02690246 57006 IEM_DS3505
ZGSZ,1997-07-21 22:00,ZGSZ 212200Z AUTO 09002KT 6SM 26/25 A2980 RMK T02600250 IEM_DS3505
ZGSZ,1997-07-21 23:00,ZGSZ 212300Z AUTO 04004KT 6SM 27/26 A2980 RMK T02700260 IEM_DS3505
ZGSZ,1997-07-22 00:00,ZGSZ 220000Z AUTO 00000KT 6SM 27/25 A2980 RMK SLP103 T02720248 52008 IEM_DS3505
ZGSZ,1997-07-22 01:00,ZGSZ 220100Z AUTO 05002KT 7SM 29/27 A2983 RMK T02900270 IEM_DS3505
ZGSZ,1997-07-22 02:00,ZGSZ 220200Z AUTO 05004KT 7SM 30/26 A2983 RMK T03000260 IEM_DS3505
ZGSZ,1997-07-22 03:00,ZGSZ 220300Z AUTO 14006KT 16SM 31/23 A2983 RMK SLP107 T03070227 52004 IEM_DS3505
ZGSZ,1997-07-22 04:00,ZGSZ 220400Z AUTO 28008KT 7SM 31/27 A2980 RMK T03100270 IEM_DS3505
ZGSZ,1997-07-22 06:00,ZGSZ 220600Z AUTO 11004KT 19SM 33/23 A2977 RMK SLP092 T03290227 57014 IEM_DS3505
ZGSZ,1997-07-22 07:00,ZGSZ 220700Z AUTO 23006KT 6SM 31/26 A2977 RMK T03100260 IEM_DS3505
ZGSZ,1997-07-22 08:00,ZGSZ 220800Z AUTO 21006KT 6SM 30/28 A2974 RMK T03000280 IEM_DS3505
ZGSZ,1997-07-22 09:00,ZGSZ 220900Z AUTO 16006KT 19SM 33/22 RMK SLP076 T03270223 57016 IEM_DS3505
ZGSZ,1997-07-22 10:00,ZGSZ 221000Z AUTO 19008KT 7SM 29/26 A2974 RMK T02900260 IEM_DS3505
ZGSZ,1997-07-22 11:00,ZGSZ 221100Z AUTO 20006KT 6SM 28/26 A2974 RMK T02800260 IEM_DS3505
ZGSZ,1997-07-22 12:00,ZGSZ 221200Z AUTO 14004KT 19SM 29/23 A2974 RMK SLP081 T02900234 52004 IEM_DS3505
ZGSZ,1997-07-22 13:00,ZGSZ 221300Z AUTO 21006KT 6SM 27/26 A2977 RMK T02700260 IEM_DS3505
ZGSZ,1997-07-22 14:00,ZGSZ 221400Z AUTO 21004KT 6SM 27/26 A2977 RMK T02700260 IEM_DS3505
ZGSZ,1997-07-22 18:00,ZGSZ 221800Z AUTO 04002KT 9SM 27/24 RMK SLP090 T02670238 57007 IEM_DS3505
ZGSZ,1997-07-22 21:00,ZGSZ 222100Z AUTO 00000KT 9SM 26/23 A2977 RMK SLP086 T02600231 57004 IEM_DS3505
ZGSZ,1997-07-22 22:00,ZGSZ 222200Z AUTO 02002KT 6SM 25/25 A2977 RMK T02500250 IEM_DS3505
ZGSZ,1997-07-22 23:00,ZGSZ 222300Z AUTO 10002KT 3SM 26/26 A2980 RMK T02600260 IEM_DS3505
ZGSZ,1997-07-23 00:00,ZGSZ 230000Z AUTO 06002KT 3SM 27/26 A2980 RMK T02700260 IEM_DS3505
ZGSZ,1997-07-23 01:00,ZGSZ 230100Z AUTO 02002KT 2SM 29/27 A2980 RMK T02900270 IEM_DS3505
ZGSZ,1997-07-23 02:00,ZGSZ 230200Z AUTO 27002KT 3SM 29/26 A2980 RMK T02900260 IEM_DS3505
ZGSZ,1997-07-23 03:00,ZGSZ 230300Z AUTO 25004KT 6SM 31/23 A2980 RMK SLP094 T03110232 54000 IEM_DS3505
ZGSZ,1997-07-23 04:00,ZGSZ 230400Z AUTO 26004KT 6SM 30/26 A2977 RMK T03000260 IEM_DS3505
ZGSZ,1997-07-23 05:00,ZGSZ 230500Z AUTO 26004KT 6SM 30/24 A2977 RMK T03000240 IEM_DS3505
ZGSZ,1997-07-23 06:00,ZGSZ 230600Z AUTO 22006KT 7SM 34/23 A2974 RMK SLP076 T03390234 57017 IEM_DS3505
ZGSZ,1997-07-23 07:00,ZGSZ 230700Z AUTO 22006KT 6SM 31/24 A2974 RMK T03100240 IEM_DS3505
ZGSZ,1997-07-23 08:00,ZGSZ 230800Z AUTO 21004KT 6SM 32/24 A2971 RMK T03200240 IEM_DS3505
ZGSZ,1997-07-23 09:00,ZGSZ 230900Z AUTO 32004KT 6SM 33/24 A2971 RMK SLP068 T03300238 57008 IEM_DS3505
ZGSZ,1997-07-23 10:00,ZGSZ 231000Z AUTO 19004KT 6SM 30/24 A2971 RMK T03000240 IEM_DS3505
ZGSZ,1997-07-23 11:00,ZGSZ 231100Z AUTO 22004KT 6SM 29/26 A2971 RMK T02900260 IEM_DS3505
ZGSZ,1997-07-23 12:00,ZGSZ 231200Z AUTO 25004KT 8SM 30/24 A2974 RMK SLP079 T02950236 52010 IEM_DS3505
ZGSZ,1997-07-23 13:00,ZGSZ 231300Z AUTO 17004KT 6SM 28/26 A2974 RMK T02800260 IEM_DS3505
ZGSZ,1997-07-23 14:00,ZGSZ 231400Z AUTO 16004KT 6SM 28/27 A2977 RMK T02800270 IEM_DS3505
ZGSZ,1997-07-23 15:00,ZGSZ 231500Z AUTO 16006KT 6SM 28/27 A2977 RMK T02800270 IEM_DS3505
ZGSZ,1997-07-23 16:00,ZGSZ 231600Z AUTO 15006KT 6SM 28/26 A2977 RMK T02800260 IEM_DS3505
ZGSZ,1997-07-23 17:00,ZGSZ 231700Z AUTO 14004KT 6SM 28/25 A2977 RMK T02800250 IEM_DS3505
ZGSZ,1997-07-23 18:00,ZGSZ 231800Z AUTO 09002KT 9SM 28/24 RMK SLP085 T02820241 57006 IEM_DS3505
ZGSZ,1997-07-23 21:00,ZGSZ 232100Z AUTO 00000KT 8SM 27/24 A2974 RMK SLP079 T02730237 57006 IEM_DS3505
ZGSZ,1997-07-23 23:00,ZGSZ 232300Z AUTO 26002KT 7SM 28/27 A2977 RMK T02800270 IEM_DS3505
ZGSZ,1997-07-24 00:00,ZGSZ 240000Z AUTO 00000KT 6SM 28/24 A2977 RMK SLP085 T02780239 52005 IEM_DS3505
ZGSZ,1997-07-24 01:00,ZGSZ 240100Z AUTO 25002KT 7SM 29/27 A2977 RMK T02900270 IEM_DS3505
ZGSZ,1997-07-24 02:00,ZGSZ 240200Z AUTO 27004KT 7SM 30/27 A2977 RMK T03000270 IEM_DS3505
ZGSZ,1997-07-24 03:00,ZGSZ 240300Z AUTO 20006KT 7SM 30/24 A2977 RMK SLP085 T03020245 52001 IEM_DS3505
ZGSZ,1997-07-24 04:00,ZGSZ 240400Z AUTO 24004KT 6SM 30/27 A2977 RMK T03000270 IEM_DS3505
ZGSZ,1997-07-24 05:00,ZGSZ 240500Z AUTO 22006KT 4SM 30/27 A2974 RMK T03000270 IEM_DS3505
ZGSZ,1997-07-24 06:00,ZGSZ 240600Z AUTO 25008KT 7SM 33/24 A2971 RMK SLP072 T03310237 57013 IEM_DS3505
ZGSZ,1997-07-24 07:00,ZGSZ 240700Z AUTO 20008KT 6SM 31/27 A2971 RMK T03100270 IEM_DS3505
ZGSZ,1997-07-24 08:00,ZGSZ 240800Z AUTO 18008KT 6SM 30/27 A2968 RMK T03000270 IEM_DS3505
ZGSZ,1997-07-24 09:00,ZGSZ 240900Z AUTO 04004KT 7SM 30/23 A2968 RMK SLP063 T02980229 57009 IEM_DS3505
ZGSZ,1997-07-24 10:00,ZGSZ 241000Z AUTO 21002KT 6SM 31/26 A2971 RMK T03100260 IEM_DS3505
ZGSZ,1997-07-24 11:00,ZGSZ 241100Z AUTO 10002KT 4SM 30/26 A2971 RMK T03000260 IEM_DS3505
ZGSZ,1997-07-24 12:00,ZGSZ 241200Z AUTO 04006KT 4SM 29/25 A2971 RMK SLP076 T02870247 52012 IEM_DS3505
ZGSZ,1997-07-24 13:00,ZGSZ 241300Z AUTO 16006KT 6SM 29/27 A2971 RMK T02900270 IEM_DS3505
ZGSZ,1997-07-24 14:00,ZGSZ 241400Z AUTO 10004KT 4SM 28/26 A2974 RMK T02800260 IEM_DS3505
ZGSZ,1997-07-24 15:00,ZGSZ 241500Z AUTO 10004KT 2SM 28/26 A2974 RMK T02800260 IEM_DS3505
ZGSZ,1997-07-24 16:00,ZGSZ 241600Z AUTO 10002KT 2SM 28/25 A2977 RMK T02800250 IEM_DS3505
ZGSZ,1997-07-24 17:00,ZGSZ 241700Z AUTO 00000KT 3SM 28/25 A2974 RMK T02800250 IEM_DS3505
ZGSZ,1997-07-24 18:00,ZGSZ 241800Z AUTO 00000KT 6SM 28/24 RMK SLP076 T02760243 57009 IEM_DS3505
ZGSZ,1997-07-24 21:00,ZGSZ 242100Z AUTO 00000KT 5SM 28/24 A2971 RMK SLP073 T02750245 57004 IEM_DS3505
ZGSZ,1997-07-24 22:00,ZGSZ 242200Z AUTO 14004KT 7SM 27/26 A2974 RMK T02700260 IEM_DS3505
ZGSZ,1997-07-24 23:00,ZGSZ 242300Z AUTO 16004KT 7SM 28/26 A2974 RMK T02800260 IEM_DS3505
ZGSZ,1997-07-25 00:00,ZGSZ 250000Z AUTO 32004KT 4SM 28/25 A2974 RMK SLP083 T02840247 52010 IEM_DS3505
ZGSZ,1997-07-25 01:00,ZGSZ 250100Z AUTO 25002KT 7SM 29/27 A2977 RMK T02900270 IEM_DS3505
ZGSZ,1997-07-25 02:00,ZGSZ 250200Z AUTO 29004KT 2 1/2SM 29/27 A2977 RMK T02900270 IEM_DS3505
ZGSZ,1997-07-25 03:00,ZGSZ 250300Z AUTO 27008KT 3SM 30/25 A2977 RMK SLP084 T02950250 52001 IEM_DS3505
ZGSZ,1997-07-25 04:00,ZGSZ 250400Z AUTO 30002KT 2SM 30/26 A2974 RMK T03000260 IEM_DS3505
ZGSZ,1997-07-25 05:00,ZGSZ 250500Z AUTO 22002KT 1 1/2SM 31/27 A2971 RMK T03100270 IEM_DS3505
ZGSZ,1997-07-25 06:00,ZGSZ 250600Z AUTO 22002KT 3SM 26/25 A2971 RMK 60138 SLP075 T02590248 57009 IEM_DS3505
ZGSZ,1997-07-25 07:00,ZGSZ 250700Z AUTO 17008KT 3SM 31/28 A2968 RMK T03100280 IEM_DS3505
ZGSZ,1997-07-25 08:00,ZGSZ 250800Z AUTO 32010KT 4SM 28/25 A2971 RMK T02800250 IEM_DS3505
ZGSZ,1997-07-25 09:00,ZGSZ 250900Z AUTO 00000KT 5SM 30/25 A2968 RMK SLP057 T02980246 57017 IEM_DS3505
ZGSZ,1997-07-25 10:00,ZGSZ 251000Z AUTO 11004KT 2 1/2SM 28/26 A2968 RMK T02800260 IEM_DS3505
ZGSZ,1997-07-25 11:00,ZGSZ 251100Z AUTO 09002KT 2SM 29/26 A2968 RMK T02900260 IEM_DS3505
ZGSZ,1997-07-25 12:00,ZGSZ 251200Z AUTO 11004KT 4SM 28/25 A2971 RMK 60020 SLP074 T02840249 52016 IEM_DS3505
ZGSZ,1997-07-25 13:00,ZGSZ 251300Z AUTO 17006KT 2 1/2SM 29/27 A2974 RMK T02900270 IEM_DS3505
ZGSZ,1997-07-25 14:00,ZGSZ 251400Z AUTO 18004KT 3SM 29/28 A2974 RMK T02900280 IEM_DS3505
ZGSZ,1997-07-25 15:00,ZGSZ 251500Z AUTO 31006KT 4SM 28/26 A2977 RMK T02800260 IEM_DS3505
ZGSZ,1997-07-25 16:00,ZGSZ 251600Z AUTO 09002KT 4SM 28/26 A2974 RMK T02800260 IEM_DS3505
ZGSZ,1997-07-25 17:00,ZGSZ 251700Z AUTO 15002KT 4SM 28/27 A2974 RMK T02800270 IEM_DS3505
ZGSZ,1997-07-25 18:00,ZGSZ 251800Z AUTO 07004KT 3SM 28/25 RMK SLP075 T02750252 57011 IEM_DS3505
ZGSZ,1997-07-25 20:00,ZGSZ 252000Z AUTO 19004KT 2 1/2SM 28/27 A2971 RMK T02800270 IEM_DS3505
ZGSZ,1997-07-25 21:00,ZGSZ 252100Z AUTO 00000KT 3SM 27/25 A2971 RMK 70157 SLP071 T02700252 57004 IEM_DS3505
ZGSZ,1997-07-25 22:00,ZGSZ 252200Z AUTO 00000KT 1 1/2SM 27/27 A2971 RMK T02700270 IEM_DS3505
ZGSZ,1997-07-25 23:00,ZGSZ 252300Z AUTO 00000KT 1 1/2SM 28/28 A2971 RMK T02800280 IEM_DS3505
ZGSZ,1997-07-26 00:00,ZGSZ 260000Z AUTO 22002KT 2 1/2SM 28/ A2974 RMK 70157 SLP079 52008 IEM_DS3505
ZGSZ,1997-07-26 01:00,ZGSZ 260100Z AUTO 32002KT 2 1/2SM 29/27 A2974 RMK T02900270 IEM_DS3505
ZGSZ,1997-07-26 02:00,ZGSZ 260200Z AUTO 30006KT 3SM 31/28 A2974 RMK T03100280 IEM_DS3505
ZGSZ,1997-07-26 03:00,ZGSZ 260300Z AUTO 04004KT 4SM 30/26 A2974 RMK SLP081 T03000258 52003 IEM_DS3505
ZGSZ,1997-07-26 04:00,ZGSZ 260400Z AUTO 27004KT 4SM 31/27 A2974 RMK T03100270 IEM_DS3505
ZGSZ,1997-07-26 05:00,ZGSZ 260500Z AUTO 24002KT 2 1/2SM 32/28 A2971 RMK T03200280 IEM_DS3505
ZGSZ,1997-07-26 06:00,ZGSZ 260600Z AUTO 20006KT 4SM 32/22 A2971 RMK 60000 SLP064 T03230225 57017 IEM_DS3505
ZGSZ,1997-07-26 07:00,ZGSZ 260700Z AUTO 21006KT 2 1/2SM 32/28 A2968 RMK T03200280 IEM_DS3505
ZGSZ,1997-07-26 08:00,ZGSZ 260800Z AUTO 20010KT 4SM 32/29 A2968 RMK T03200290 IEM_DS3505
ZGSZ,1997-07-26 09:00,ZGSZ 260900Z AUTO 27006KT 4SM 32/26 A2968 RMK SLP055 T03200255 57009 IEM_DS3505
ZGSZ,1997-07-26 10:00,ZGSZ 261000Z AUTO 18008KT 6SM 30/28 A2968 RMK T03000280 IEM_DS3505
ZGSZ,1997-07-26 12:00,ZGSZ 261200Z AUTO 04004KT 3SM 29/24 A2974 RMK SLP077 T02920242 52021 IEM_DS3505
ZGSZ,1997-07-26 13:00,ZGSZ 261300Z AUTO 17008KT 7SM 29/28 A2974 RMK T02900280 IEM_DS3505
ZGSZ,1997-07-26 15:00,ZGSZ 261500Z AUTO 17008KT 6SM 29/27 A2977 RMK T02900270 IEM_DS3505
ZGSZ,1997-07-26 18:00,ZGSZ 261800Z AUTO 00000KT 3SM 28/25 RMK SLP079 T02760251 57008 IEM_DS3505
ZGSZ,1997-07-26 21:00,ZGSZ 262100Z AUTO 00000KT 2 1/2SM 27/25 A2971 RMK 70000 T02710251 57004 IEM_DS3505
ZGSZ,1997-07-26 22:00,ZGSZ 262200Z AUTO 21004KT 7SM 28/27 A2974 RMK T02800270 IEM_DS3505
ZGSZ,1997-07-26 23:00,ZGSZ 262300Z AUTO 26002KT 7SM 28/28 A2974 RMK T02800280 IEM_DS3505
ZGSZ,1997-07-27 00:00,ZGSZ 270000Z AUTO 00000KT 2 1/2SM 28/26 A2974 RMK SLP082 T02810256 52006 IEM_DS3505
ZGSZ,1997-07-27 01:00,ZGSZ 270100Z AUTO 27002KT 7SM 30/28 A2977 RMK T03000280 IEM_DS3505
ZGSZ,1997-07-27 02:00,ZGSZ 270200Z AUTO 30004KT 7SM 30/27 A2977 RMK T03000270 IEM_DS3505
ZGSZ,1997-07-27 03:00,ZGSZ 270300Z AUTO 20006KT 7SM 31/25 A2977 RMK SLP083 T03130254 52002 IEM_DS3505
ZGSZ,1997-07-27 04:00,ZGSZ 270400Z AUTO 25004KT 6SM 32/27 A2974 RMK T03200270 IEM_DS3505
ZGSZ,1997-07-27 05:00,ZGSZ 270500Z AUTO 24004KT 6SM 32/26 A2974 RMK T03200260 IEM_DS3505
ZGSZ,1997-07-27 06:00,ZGSZ 270600Z AUTO 22006KT 8SM 33/24 A2971 RMK SLP067 T03340236 57016 IEM_DS3505
ZGSZ,1997-07-27 07:00,ZGSZ 270700Z AUTO 20006KT 6SM 33/25 A2968 RMK T03300250 IEM_DS3505
ZGSZ,1997-07-27 08:00,ZGSZ 270800Z AUTO 20010KT 6SM 32/28 A2965 RMK T03200280 IEM_DS3505
ZGSZ,1997-07-27 09:00,ZGSZ 270900Z AUTO 18004KT 7SM 33/24 A2968 RMK SLP056 T03340242 57011 IEM_DS3505
ZGSZ,1997-07-27 10:00,ZGSZ 271000Z AUTO 19010KT 6SM 31/27 A2968 RMK T03100270 IEM_DS3505
ZGSZ,1997-07-27 11:00,ZGSZ 271100Z AUTO 20010KT 6SM 30/27 A2968 RMK T03000270 IEM_DS3505
ZGSZ,1997-07-27 12:00,ZGSZ 271200Z AUTO 25004KT 8SM 30/24 A2971 RMK SLP073 T03000245 52017 IEM_DS3505
ZGSZ,1997-07-27 13:00,ZGSZ 271300Z AUTO 17008KT 6SM 29/28 A2974 RMK T02900280 IEM_DS3505
ZGSZ,1997-07-27 14:00,ZGSZ 271400Z AUTO 19008KT 6SM 29/28 A2974 RMK T02900280 IEM_DS3505
ZGSZ,1997-07-27 15:00,ZGSZ 271500Z AUTO 18006KT 6SM 29/28 A2977 RMK T02900280 IEM_DS3505
ZGSZ,1997-07-27 18:00,ZGSZ 271800Z AUTO 18002KT 7SM 28/24 RMK SLP077 T02810244 57009 IEM_DS3505
ZGSZ,1997-07-27 21:00,ZGSZ 272100Z AUTO 00000KT 7SM 28/24 A2974 RMK SLP077 T02750244 54000 IEM_DS3505
ZGSZ,1997-07-27 22:00,ZGSZ 272200Z AUTO 17006KT 6SM 28/27 A2974 RMK T02800270 IEM_DS3505
ZGSZ,1997-07-27 23:00,ZGSZ 272300Z AUTO 18004KT 6SM 28/27 A2974 RMK T02800270 IEM_DS3505
ZGSZ,1997-07-28 00:00,ZGSZ 280000Z AUTO 22002KT 6SM 28/25 A2977 RMK SLP089 T02830251 52011 IEM_DS3505
ZGSZ,1997-07-28 01:00,ZGSZ 280100Z AUTO 21002KT 7SM 30/27 A2977 RMK T03000270 IEM_DS3505
ZGSZ,1997-07-28 02:00,ZGSZ 280200Z AUTO 21002KT 7SM 30/27 A2977 RMK T03000270 IEM_DS3505
ZGSZ,1997-07-28 03:00,ZGSZ 280300Z AUTO 29006KT 8SM 32/24 A2977 RMK SLP093 T03160238 52005 IEM_DS3505
ZGSZ,1997-07-28 04:00,ZGSZ 280400Z AUTO 25004KT 6SM 32/24 A2977 RMK T03200240 IEM_DS3505
ZGSZ,1997-07-28 05:00,ZGSZ 280500Z AUTO 25004KT 6SM 32/23 A2974 RMK T03200230 IEM_DS3505
ZGSZ,1997-07-28 06:00,ZGSZ 280600Z AUTO 22010KT 8SM 34/24 A2974 RMK SLP072 T03370243 57020 IEM_DS3505
ZGSZ,1997-07-28 07:00,ZGSZ 280700Z AUTO 21008KT 6SM 33/24 A2971 RMK T03300240 IEM_DS3505
ZGSZ,1997-07-28 08:00,ZGSZ 280800Z AUTO 19012KT 6SM 32/25 A2968 RMK T03200250 IEM_DS3505
ZGSZ,1997-07-28 09:00,ZGSZ 280900Z AUTO 22006KT 9SM 32/24 A2968 RMK SLP059 T03210235 57013 IEM_DS3505
ZGSZ,1997-07-28 10:00,ZGSZ 281000Z AUTO 21010KT 7SM 31/27 A2968 RMK T03100270 IEM_DS3505
ZGSZ,1997-07-28 11:00,ZGSZ 281100Z AUTO 19010KT 6SM 30/27 A2971 RMK T03000270 IEM_DS3505
ZGSZ,1997-07-28 12:00,ZGSZ 281200Z AUTO 00000KT 11SM 30/24 A2971 RMK SLP073 T03000236 52014 IEM_DS3505
ZGSZ,1997-07-28 13:00,ZGSZ 281300Z AUTO 18010KT 6SM 30/27 A2974 RMK T03000270 IEM_DS3505
ZGSZ,1997-07-28 14:00,ZGSZ 281400Z AUTO 17008KT 6SM 30/27 A2977 RMK T03000270 IEM_DS3505
ZGSZ,1997-07-28 15:00,ZGSZ 281500Z AUTO 16008KT 6SM 29/27 A2977 RMK T02900270 IEM_DS3505
ZGSZ,1997-07-28 16:00,ZGSZ 281600Z AUTO 14006KT 6SM 29/26 A2977 RMK T02900260 IEM_DS3505
ZGSZ,1997-07-28 17:00,ZGSZ 281700Z AUTO 13002KT 6SM 29/26 A2974 RMK T02900260 IEM_DS3505
ZGSZ,1997-07-28 18:00,ZGSZ 281800Z AUTO 04004KT 10SM 28/24 RMK SLP066 T02840240 57022 IEM_DS3505
ZGSZ,1997-07-28 21:00,ZGSZ 282100Z AUTO 04002KT 9SM 28/24 A2971 RMK SLP070 T02780244 52004 IEM_DS3505
ZGSZ,1997-07-28 22:00,ZGSZ 282200Z AUTO 11004KT 6SM 27/26 A2971 RMK T02700260 IEM_DS3505
ZGSZ,1997-07-28 23:00,ZGSZ 282300Z AUTO 09004KT 6SM 28/26 A2971 RMK T02800260 IEM_DS3505
ZGSZ,1997-07-29 00:00,ZGSZ 290000Z AUTO 36004KT 6SM 28/25 A2974 RMK SLP078 T02820252 52008 IEM_DS3505
ZGSZ,1997-07-29 01:00,ZGSZ 290100Z AUTO 14002KT 6SM 30/27 A2974 RMK T03000270 IEM_DS3505
ZGSZ,1997-07-29 02:00,ZGSZ 290200Z AUTO 21002KT 7SM 31/27 A2974 RMK T03100270 IEM_DS3505
ZGSZ,1997-07-29 03:00,ZGSZ 290300Z AUTO 07004KT 8SM 29/25 A2974 RMK SLP084 T02860248 52005 IEM_DS3505
ZGSZ,1997-07-29 04:00,ZGSZ 290400Z AUTO 25006KT 7SM 31/27 A2974 RMK T03100270 IEM_DS3505
ZGSZ,1997-07-29 05:00,ZGSZ 290500Z AUTO 26002KT 6SM 31/27 A2971 RMK T03100270 IEM_DS3505
ZGSZ,1997-07-29 06:00,ZGSZ 290600Z AUTO 25004KT 7SM 29/26 A2971 RMK 60008 SLP062 T02910263 57021 IEM_DS3505
ZGSZ,1997-07-29 07:00,ZGSZ 290700Z AUTO 24004KT 6SM 32/28 A2968 RMK T03200280 IEM_DS3505
ZGSZ,1997-07-29 08:00,ZGSZ 290800Z AUTO 20006KT 7SM 31/27 A2965 RMK T03100270 IEM_DS3505
ZGSZ,1997-07-29 09:00,ZGSZ 290900Z AUTO 27006KT 7SM 28/25 A2965 RMK SLP055 T02840252 57008 IEM_DS3505
ZGSZ,1997-07-29 10:00,ZGSZ 291000Z AUTO 16008KT 7SM 29/27 A2965 RMK T02900270 IEM_DS3505
ZGSZ,1997-07-29 11:00,ZGSZ 291100Z AUTO 11006KT 7SM 29/26 A2965 RMK T02900260 IEM_DS3505
ZGSZ,1997-07-29 12:00,ZGSZ 291200Z AUTO 14004KT 5SM 29/26 A2968 RMK 60008 SLP066 T02880256 52011 IEM_DS3505
ZGSZ,1997-07-29 13:00,ZGSZ 291300Z AUTO 10006KT 6SM 29/27 A2971 RMK T02900270 IEM_DS3505
ZGSZ,1997-07-29 14:00,ZGSZ 291400Z AUTO 11006KT 6SM 29/27 A2974 RMK T02900270 IEM_DS3505
ZGSZ,1997-07-29 15:00,ZGSZ 291500Z AUTO 11006KT 3SM 29/27 A2974 RMK T02900270 IEM_DS3505
ZGSZ,1997-07-29 16:00,ZGSZ 291600Z AUTO 08004KT 2 1/2SM 29/27 A2974 RMK T02900270 IEM_DS3505
ZGSZ,1997-07-29 18:00,ZGSZ 291800Z AUTO 09002KT 6SM 28/25 RMK SLP058 T02800247 57022 IEM_DS3505
ZGSZ,1997-07-29 21:00,ZGSZ 292100Z AUTO 04004KT 5SM 28/26 A2968 RMK 70012 SLP059 T02770255 54000 IEM_DS3505
ZGSZ,1997-07-29 22:00,ZGSZ 292200Z AUTO 09004KT 3SM 27/26 A2968 RMK T02700260 IEM_DS3505
ZGSZ,1997-07-29 23:00,ZGSZ 292300Z AUTO 08004KT 4SM 28/27 A2968 RMK T02800270 IEM_DS3505
ZGSZ,1997-07-30 00:00,ZGSZ 300000Z AUTO 00000KT 5SM 28/25 A2968 RMK 70012 SLP063 T02820251 52005 IEM_DS3505
ZGSZ,1997-07-30 01:00,ZGSZ 300100Z AUTO 09002KT 4SM 30/26 A2968 RMK T03000260 IEM_DS3505
ZGSZ,1997-07-30 02:00,ZGSZ 300200Z AUTO 25002KT 6SM 32/25 A2968 RMK T03200250 IEM_DS3505
ZGSZ,1997-07-30 03:00,ZGSZ 300300Z AUTO 07006KT 9SM 32/22 A2968 RMK SLP055 T03220225 57008 IEM_DS3505
ZGSZ,1997-07-30 04:00,ZGSZ 300400Z AUTO 27006KT 7SM 32/27 A2965 RMK T03200270 IEM_DS3505
ZGSZ,1997-07-30 05:00,ZGSZ 300500Z AUTO 25008KT 7SM 33/27 A2965 RMK T03300270 IEM_DS3505
ZGSZ,1997-07-30 06:00,ZGSZ 300600Z AUTO 18006KT 17SM 34/23 A2965 RMK SLP046 T03410234 57009 IEM_DS3505
ZGSZ,1997-07-30 07:00,ZGSZ 300700Z AUTO 18006KT 7SM 31/27 A2962 RMK T03100270 IEM_DS3505
ZGSZ,1997-07-30 08:00,ZGSZ 300800Z AUTO 20006KT 7SM 32/27 A2959 RMK T03200270 IEM_DS3505
ZGSZ,1997-07-30 09:00,ZGSZ 300900Z AUTO 14006KT 19SM 33/22 A2959 RMK SLP030 T03280219 57016 IEM_DS3505
ZGSZ,1997-07-30 10:00,ZGSZ 301000Z AUTO 19006KT 7SM 31/27 A2959 RMK T03100270 IEM_DS3505
ZGSZ,1997-07-30 11:00,ZGSZ 301100Z AUTO 14004KT 7SM 30/28 A2959 RMK T03000280 IEM_DS3505
ZGSZ,1997-07-30 12:00,ZGSZ 301200Z AUTO 02006KT 12SM 31/24 A2962 RMK SLP047 T03060242 52017 IEM_DS3505
ZGSZ,1997-07-30 13:00,ZGSZ 301300Z AUTO 11004KT 6SM 30/26 A2965 RMK T03000260 IEM_DS3505
ZGSZ,1997-07-30 14:00,ZGSZ 301400Z AUTO 11004KT 6SM 30/26 A2968 RMK T03000260 IEM_DS3505
ZGSZ,1997-07-30 15:00,ZGSZ 301500Z AUTO 08002KT 6SM 29/26 A2968 RMK T02900260 IEM_DS3505
ZGSZ,1997-07-30 18:00,ZGSZ 301800Z AUTO 04006KT 9SM 30/25 RMK SLP041 T02960253 57013 IEM_DS3505
ZGSZ,1997-07-30 21:00,ZGSZ 302100Z AUTO 05008KT 8SM 28/25 A2959 RMK SLP027 T02850250 51014 IEM_DS3505
ZGSZ,1997-07-30 22:00,ZGSZ 302200Z AUTO 05008KT 7SM 28/26 A2959 RMK T02800260 IEM_DS3505
ZGSZ,1997-07-30 23:00,ZGSZ 302300Z AUTO 06008KT 7SM 29/26 A2959 RMK T02900260 IEM_DS3505
ZGSZ,1997-07-31 00:00,ZGSZ 310000Z AUTO 04004KT 9SM 28/25 A2962 RMK 60000 SLP038 T02840246 52011 IEM_DS3505
ZGSZ,1997-07-31 01:00,ZGSZ 310100Z AUTO 06008KT 7SM 30/26 A2962 RMK T03000260 IEM_DS3505
ZGSZ,1997-07-31 02:00,ZGSZ 310200Z AUTO 08008KT 7SM 32/27 A2962 RMK T03200270 IEM_DS3505
ZGSZ,1997-07-31 03:00,ZGSZ 310300Z AUTO 09012KT 8SM 30/25 A2962 RMK SLP039 T02950250 52001 IEM_DS3505
ZGSZ,1997-07-31 04:00,ZGSZ 310400Z AUTO 08008KT 7SM 31/28 A2959 RMK T03100280 IEM_DS3505
ZGSZ,1997-07-31 05:00,ZGSZ 310500Z AUTO 10012KT 7SM 32/27 A2959 RMK T03200270 IEM_DS3505
ZGSZ,1997-07-31 06:00,ZGSZ 310600Z AUTO 09010KT 16SM 32/25 A2959 RMK 60004 SLP026 T03220248 57013 IEM_DS3505
ZGSZ,1997-07-31 07:00,ZGSZ 310700Z AUTO 09008KT 7SM 31/28 A2956 RMK T03100280 IEM_DS3505
ZGSZ,1997-07-31 08:00,ZGSZ 310800Z AUTO 09014KT 7SM 32/27 A2953 RMK T03200270 IEM_DS3505
ZGSZ,1997-07-31 09:00,ZGSZ 310900Z AUTO 04012KT 19SM 31/25 A2950 RMK SLP008 T03110248 57018 IEM_DS3505
ZGSZ,1997-07-31 10:00,ZGSZ 311000Z AUTO 10016KT 6SM 31/26 A2953 RMK T03100260 IEM_DS3505
ZGSZ,1997-07-31 11:00,ZGSZ 311100Z AUTO 10012KT 6SM 30/25 A2953 RMK T03000250 IEM_DS3505
ZGSZ,1997-07-31 12:00,ZGSZ 311200Z AUTO 10010KT 9SM 30/24 A2956 RMK SLP020 T03010235 52012 IEM_DS3505
ZGSZ,1997-07-31 13:00,ZGSZ 311300Z AUTO 08010KT 7SM 30/25 A2959 RMK T03000250 IEM_DS3505
ZGSZ,1997-07-31 14:00,ZGSZ 311400Z AUTO 08010KT 7SM 30/25 A2962 RMK T03000250 IEM_DS3505
ZGSZ,1997-07-31 15:00,ZGSZ 311500Z AUTO 08012KT 6SM 29/26 A2962 RMK T02900260 IEM_DS3505
ZGSZ,1997-07-31 16:00,ZGSZ 311600Z AUTO 08010KT 6SM 29/25 A2959 RMK T02900250 IEM_DS3505
ZGSZ,1997-07-31 17:00,ZGSZ 311700Z AUTO 07012KT 6SM 29/25 A2956 RMK T02900250 IEM_DS3505
ZGSZ,1997-07-31 18:00,ZGSZ 311800Z AUTO 09014KT 9SM 29/24 RMK SLP017 T02910235 57020 IEM_DS3505
ZGSZ,1997-07-31 19:00,ZGSZ 311900Z AUTO 07014KT 6SM 28/25 A2953 RMK T02800250 IEM_DS3505
ZGSZ,1997-07-31 21:00,ZGSZ 312100Z AUTO 04010KT 11SM 28/24 A2953 RMK 70004 SLP012 T02820241 57005 IEM_DS3505
ZGSZ,1997-07-31 22:00,ZGSZ 312200Z AUTO 05012KT 6SM 28/25 A2953 RMK T02800250 IEM_DS3505
ZGSZ,1997-07-31 23:00,ZGSZ 312300Z AUTO 06010KT 7SM 29/25 A2953 RMK T02900250 IEM_DS3505
ZGSZ,1997-08-01 00:00,ZGSZ 010000Z AUTO 02010KT 17SM 30/23 A2953 RMK 70004 SLP007 T02960234 57005 IEM_DS3505
ZGSZ,1997-08-01 02:00,ZGSZ 010200Z AUTO 07016KT 7SM 29/26 A2956 RMK T02900260 IEM_DS3505
ZGSZ,1997-08-01 03:00,ZGSZ 010300Z AUTO 07014KT 16SM 30/24 A2956 RMK SLP014 T02950244 52007 IEM_DS3505
ZGSZ,1997-08-01 04:00,ZGSZ 010400Z AUTO 09012KT 7SM 32/26 A2953 RMK T03200260 IEM_DS3505
ZGSZ,1997-08-01 05:00,ZGSZ 010500Z AUTO 08017KT 7SM 31/26 A2953 RMK T03100260 IEM_DS3505
ZGSZ,1997-08-01 06:00,ZGSZ 010600Z AUTO 09017KT 11SM 30/24 A2950 RMK 60004 SLP004 T02980237 57010 IEM_DS3505
ZGSZ,1997-08-01 07:00,ZGSZ 010700Z AUTO 08016KT 7SM 32/26 A2950 RMK T03200260 IEM_DS3505
ZGSZ,1997-08-01 08:00,ZGSZ 010800Z AUTO 08014KT 7SM 31/26 A2947 RMK T03100260 IEM_DS3505
ZGSZ,1997-08-01 09:00,ZGSZ 010900Z AUTO 07012KT 11SM 29/24 A2947 RMK SLP985 T02940241 57019 IEM_DS3505
ZGSZ,1997-08-01 10:00,ZGSZ 011000Z AUTO 07014KT 7SM 29/26 A2947 RMK T02900260 IEM_DS3505
ZGSZ,1997-08-01 11:00,ZGSZ 011100Z AUTO 06014KT 7SM 28/25 A2947 RMK T02800250 IEM_DS3505
ZGSZ,1997-08-01 12:00,ZGSZ 011200Z AUTO 04010KT 12SM 28/24 A2950 RMK SLP993 T02810237 52008 IEM_DS3505
ZGSZ,1997-08-01 13:00,ZGSZ 011300Z AUTO 06014KT 7SM 28/25 A2950 RMK T02800250 IEM_DS3505
ZGSZ,1997-08-01 14:00,ZGSZ 011400Z AUTO 11008KT 2SM 26/25 A2953 RMK T02600250 IEM_DS3505
ZGSZ,1997-08-01 15:00,ZGSZ 011500Z AUTO 05014KT 2 1/2SM 26/25 A2953 RMK T02600250 IEM_DS3505
ZGSZ,1997-08-01 16:00,ZGSZ 011600Z AUTO 03014KT 1 1/2SM 27/25 A2953 RMK T02700250 IEM_DS3505
ZGSZ,1997-08-01 18:00,ZGSZ 011800Z AUTO 04006KT 16SM 28/24 RMK 60106 SLP987 T02750244 57018 IEM_DS3505
ZGSZ,1997-08-01 21:00,ZGSZ 012100Z AUTO 04010KT 16SM 26/24 A2941 RMK 70122 SLP967 T02640240 57020 IEM_DS3505
ZGSZ,1997-08-01 22:00,ZGSZ 012200Z AUTO 06014KT 7SM 27/25 A2941 RMK T02700250 IEM_DS3505
ZGSZ,1997-08-01 23:00,ZGSZ 012300Z AUTO 06012KT 7SM 27/25 A2941 RMK T02700250 IEM_DS3505
ZGSZ,1997-08-02 00:00,ZGSZ 020000Z AUTO 04012KT 11SM 26/24 A2941 RMK 60028 70146 SLP963 T02610238 57004 IEM_DS3505
ZGSZ,1997-08-02 01:00,ZGSZ 020100Z AUTO 05014KT 7SM 26/25 A2941 RMK T02600250 IEM_DS3505
ZGSZ,1997-08-02 02:00,ZGSZ 020200Z AUTO 02016KT 7SM 27/26 A2938 RMK T02700260 IEM_DS3505
ZGSZ,1997-08-02 03:00,ZGSZ 020300Z AUTO 04012KT 6SM 26/24 A2935 RMK SLP942 T02590242 57021 IEM_DS3505
ZGSZ,1997-08-02 04:00,ZGSZ 020400Z AUTO 03025KT 7SM 27/25 A2932 RMK T02700250 IEM_DS3505
ZGSZ,1997-08-02 05:00,ZGSZ 020500Z AUTO 02019KT 7SM 26/25 A2926 RMK T02600250 IEM_DS3505
ZGSZ,1997-08-02 06:00,ZGSZ 020600Z AUTO 04012KT 3SM 25/24 A2921 RMK 60185 SLP901 T02510244 57041 IEM_DS3505
ZGSZ,1997-08-02 07:00,ZGSZ 020700Z AUTO 02010KT 2SM 25/24 A2918 RMK SLP881 T02490242 57048 IEM_DS3505
ZGSZ,1997-08-02 08:00,ZGSZ 020800Z AUTO 04019KT 2SM 26/25 A2912 RMK SLP859 T02630250 57053 IEM_DS3505
ZGSZ,1997-08-02 09:00,ZGSZ 020900Z AUTO 04016KT 1 1/2SM 27/25 A2909 RMK SLP840 T02660251 57061 IEM_DS3505
ZGSZ,1997-08-02 10:00,ZGSZ 021000Z AUTO 02023KT 2 1/2SM 27/25 A2903 RMK SLP819 T02710248 57062 IEM_DS3505
ZGSZ,1997-08-02 11:00,ZGSZ 021100Z AUTO 04025KT 2 1/2SM 26/25 A2897 RMK SLP785 T02640249 57074 IEM_DS3505
ZGSZ,1997-08-02 12:00,ZGSZ 021200Z AUTO 07016KT 2SM 27/26 A2891 RMK 60299 SLP761 T02700255 57078 IEM_DS3505
ZGSZ,1997-08-02 13:00,ZGSZ 021300Z AUTO 14021KT 2 1/2SM 27/25 A2885 RMK SLP746 T02700253 57072 IEM_DS3505
ZGSZ,1997-08-02 14:00,ZGSZ 021400Z AUTO 22010KT 3SM 26/25 A2879 RMK SLP796 T02630250 52011 IEM_DS3505
ZGSZ,1997-08-02 16:00,ZGSZ 021600Z AUTO 22023KT 2 1/2SM 25/24 RMK SLP896 T02470238 52149 IEM_DS3505
ZGSZ,1997-08-02 17:00,ZGSZ 021700Z AUTO 20017KT 2 1/2SM 25/24 RMK SLP923 T02480238 52127 IEM_DS3505
ZGSZ,1997-08-02 18:00,ZGSZ 021800Z AUTO 22012KT 5SM 25/24 RMK 60295 SLP936 T02460240 40276//// 52081 IEM_DS3505
ZGSZ,1997-08-02 21:00,ZGSZ 022100Z AUTO 22012KT 4SM 26/24 A2938 RMK 70831 SLP961 T02590240 52025 IEM_DS3505
ZGSZ,1997-08-02 22:00,ZGSZ 022200Z AUTO 20012KT 7SM 26/26 A2941 RMK T02600260 IEM_DS3505
ZGSZ,1997-08-02 23:00,ZGSZ 022300Z AUTO 20010KT 7SM 27/27 A2944 RMK T02700270 IEM_DS3505
ZGSZ,1997-08-03 00:00,ZGSZ 030000Z AUTO 22008KT 6SM 26/25 A2944 RMK 60043 70823 SLP990 T02650249 52029 IEM_DS3505
ZGSZ,1997-08-03 01:00,ZGSZ 030100Z AUTO 20017KT 7SM 26/26 A2950 RMK T02600260 IEM_DS3505
ZGSZ,1997-08-03 02:00,ZGSZ 030200Z AUTO 19016KT 7SM 26/26 A2953 RMK T02600260 IEM_DS3505
ZGSZ,1997-08-03 03:00,ZGSZ 030300Z AUTO 22008KT 6SM 26/25 A2953 RMK SLP009 T02560247 52018 IEM_DS3505
ZGSZ,1997-08-03 04:00,ZGSZ 030400Z AUTO 18012KT 7SM 27/27 A2953 RMK T02700270 IEM_DS3505
ZGSZ,1997-08-03 05:00,ZGSZ 030500Z AUTO 17010KT 7SM 28/28 A2953 RMK T02800280 IEM_DS3505
ZGSZ,1997-08-03 06:00,ZGSZ 030600Z AUTO 22010KT 14SM 28/25 A2956 RMK 60043 SLP018 T02830254 52009 IEM_DS3505
ZGSZ,1997-08-03 07:00,ZGSZ 030700Z AUTO 18014KT 7SM 30/28 A2953 RMK T03000280 IEM_DS3505
ZGSZ,1997-08-03 08:00,ZGSZ 030800Z AUTO 18012KT 7SM 29/28 A2953 RMK T02900280 IEM_DS3505
ZGSZ,1997-08-03 09:00,ZGSZ 030900Z AUTO 14002KT 14SM 29/25 A2953 RMK SLP012 T02890253 57005 IEM_DS3505
ZGSZ,1997-08-03 10:00,ZGSZ 031000Z AUTO 17014KT 7SM 29/28 A2953 RMK T02900280 IEM_DS3505
ZGSZ,1997-08-03 11:00,ZGSZ 031100Z AUTO 17012KT 7SM 29/28 A2956 RMK T02900280 IEM_DS3505
ZGSZ,1997-08-03 12:00,ZGSZ 031200Z AUTO 14002KT 12SM 28/26 A2956 RMK SLP029 T02780257 52016 IEM_DS3505
ZGSZ,1997-08-03 13:00,ZGSZ 031300Z AUTO 16012KT 7SM 28/28 A2959 RMK T02800280 IEM_DS3505
ZGSZ,1997-08-03 14:00,ZGSZ 031400Z AUTO 17012KT 7SM 28/28 A2962 RMK T02800280 IEM_DS3505
ZGSZ,1997-08-03 15:00,ZGSZ 031500Z AUTO 16012KT 7SM 28/28 A2962 RMK T02800280 IEM_DS3505
ZGSZ,1997-08-03 16:00,ZGSZ 031600Z AUTO 16012KT 7SM 28/28 A2962 RMK T02800280 IEM_DS3505
ZGSZ,1997-08-03 17:00,ZGSZ 031700Z AUTO 17008KT 7SM 28/27 A2962 RMK T02800270 IEM_DS3505
ZGSZ,1997-08-03 18:00,ZGSZ 031800Z AUTO 00000KT 11SM 27/26 A2962 RMK 60031 SLP042 T02700255 57005 IEM_DS3505
ZGSZ,1997-08-03 19:00,ZGSZ 031900Z AUTO 16008KT 7SM 28/27 A2962 RMK T02800270 IEM_DS3505
ZGSZ,1997-08-03 20:00,ZGSZ 032000Z AUTO 16010KT 7SM 28/27 A2959 RMK T02800270 IEM_DS3505
ZGSZ,1997-08-03 21:00,ZGSZ 032100Z AUTO 18002KT 9SM 26/25 A2962 RMK 70094 SLP038 T02630253 57004 IEM_DS3505
ZGSZ,1997-08-03 22:00,ZGSZ 032200Z AUTO 17006KT 7SM 28/27 A2962 RMK T02800270 IEM_DS3505
ZGSZ,1997-08-03 23:00,ZGSZ 032300Z AUTO 16008KT 7SM 28/28 A2965 RMK T02800280 IEM_DS3505
ZGSZ,1997-08-04 00:00,ZGSZ 040000Z AUTO 00000KT 7SM 28/26 A2965 RMK 60008 70083 SLP050 T02750258 52012 IEM_DS3505
ZGSZ,1997-08-04 01:00,ZGSZ 040100Z AUTO 19004KT 7SM 28/28 A2965 RMK T02800280 IEM_DS3505
ZGSZ,1997-08-04 02:00,ZGSZ 040200Z AUTO 17008KT 7SM 30/28 A2968 RMK T03000280 IEM_DS3505
ZGSZ,1997-08-04 03:00,ZGSZ 040300Z AUTO 00000KT 12SM 28/25 A2968 RMK SLP059 T02780253 52009 IEM_DS3505
ZGSZ,1997-08-04 04:00,ZGSZ 040400Z AUTO 17012KT 7SM 30/28 A2965 RMK T03000280 IEM_DS3505
ZGSZ,1997-08-04 05:00,ZGSZ 040500Z AUTO 17010KT 7SM 30/28 A2965 RMK T03000280 IEM_DS3505
ZGSZ,1997-08-04 06:00,ZGSZ 040600Z AUTO 22008KT 16SM 30/26 A2962 RMK 60047 SLP043 T02970259 57015 IEM_DS3505
ZGSZ,1997-08-04 07:00,ZGSZ 040700Z AUTO 17008KT 7SM 30/28 A2962 RMK T03000280 IEM_DS3505
ZGSZ,1997-08-04 08:00,ZGSZ 040800Z AUTO 16010KT 7SM 30/28 A2959 RMK T03000280 IEM_DS3505
ZGSZ,1997-08-04 09:00,ZGSZ 040900Z AUTO 22006KT 16SM 31/26 A2959 RMK SLP029 T03080262 57014 IEM_DS3505
ZGSZ,1997-08-04 10:00,ZGSZ 041000Z AUTO 16010KT 6SM 29/28 A2959 RMK T02900280 IEM_DS3505
ZGSZ,1997-08-04 11:00,ZGSZ 041100Z AUTO 16010KT 6SM 29/28 A2959 RMK T02900280 IEM_DS3505
ZGSZ,1997-08-04 12:00,ZGSZ 041200Z AUTO 18004KT 14SM 29/25 A2962 RMK SLP044 T02870253 52015 IEM_DS3505
ZGSZ,1997-08-04 13:00,ZGSZ 041300Z AUTO 17010KT 6SM 29/28 A2965 RMK T02900280 IEM_DS3505
ZGSZ,1997-08-04 14:00,ZGSZ 041400Z AUTO 16008KT 7SM 28/28 A2968 RMK T02800280 IEM_DS3505
ZGSZ,1997-08-04 15:00,ZGSZ 041500Z AUTO 16008KT 7SM 28/28 A2968 RMK T02800280 IEM_DS3505
ZGSZ,1997-08-04 18:00,ZGSZ 041800Z AUTO 25002KT 11SM 28/26 RMK SLP046 T02750257 57013 IEM_DS3505
ZGSZ,1997-08-04 21:00,ZGSZ 042100Z AUTO 00000KT 12SM 28/26 A2962 RMK 70047 SLP040 T02750261 57006 IEM_DS3505
ZGSZ,1997-08-04 22:00,ZGSZ 042200Z AUTO 17006KT 7SM 28/28 A2962 RMK T02800280 IEM_DS3505
ZGSZ,1997-08-04 23:00,ZGSZ 042300Z AUTO 18004KT 6SM 28/28 A2965 RMK T02800280 IEM_DS3505
ZGSZ,1997-08-05 00:00,ZGSZ 050000Z AUTO 00000KT 8SM 28/26 A2965 RMK 70047 SLP050 T02820260 52010 IEM_DS3505
ZGSZ,1997-08-05 01:00,ZGSZ 050100Z AUTO 18004KT 7SM 30/29 A2965 RMK T03000290 IEM_DS3505
ZGSZ,1997-08-05 02:00,ZGSZ 050200Z AUTO 20002KT 7SM 30/28 A2965 RMK T03000280 IEM_DS3505
ZGSZ,1997-08-05 03:00,ZGSZ 050300Z AUTO 22006KT 17SM 32/24 A2965 RMK SLP050 T03170244 54000 IEM_DS3505
ZGSZ,1997-08-05 04:00,ZGSZ 050400Z AUTO 21002KT 7SM 31/28 A2965 RMK T03100280 IEM_DS3505
ZGSZ,1997-08-05 05:00,ZGSZ 050500Z AUTO 19002KT 7SM 33/28 A2962 RMK T03300280 IEM_DS3505
ZGSZ,1997-08-05 06:00,ZGSZ 050600Z AUTO 27006KT 17SM 33/25 A2959 RMK SLP029 T03300252 57021 IEM_DS3505
ZGSZ,1997-08-05 07:00,ZGSZ 050700Z AUTO 18006KT 6SM 32/28 A2956 RMK T03200280 IEM_DS3505
ZGSZ,1997-08-05 08:00,ZGSZ 050800Z AUTO 18008KT 6SM 31/28 A2956 RMK T03100280 IEM_DS3505
ZGSZ,1997-08-05 09:00,ZGSZ 050900Z AUTO 20004KT 17SM 32/25 A2953 RMK SLP014 T03180252 57015 IEM_DS3505
ZGSZ,1997-08-05 10:00,ZGSZ 051000Z AUTO 18012KT 6SM 30/28 A2956 RMK T03000280 IEM_DS3505
ZGSZ,1997-08-05 11:00,ZGSZ 051100Z AUTO 17010KT 6SM 30/28 A2956 RMK T03000280 IEM_DS3505
ZGSZ,1997-08-05 12:00,ZGSZ 051200Z AUTO 27004KT 11SM 30/26 A2959 RMK SLP036 T02990259 52022 IEM_DS3505
ZGSZ,1997-08-05 13:00,ZGSZ 051300Z AUTO 17008KT 6SM 29/28 A2962 RMK T02900280 IEM_DS3505
ZGSZ,1997-08-05 14:00,ZGSZ 051400Z AUTO 17010KT 6SM 29/28 A2962 RMK T02900280 IEM_DS3505
ZGSZ,1997-08-05 15:00,ZGSZ 051500Z AUTO 18010KT 7SM 29/29 A2962 RMK T02900290 IEM_DS3505
ZGSZ,1997-08-05 18:00,ZGSZ 051800Z AUTO 20004KT 19SM 28/26 RMK SLP035 T02850261 57009 IEM_DS3505
ZGSZ,1997-08-05 21:00,ZGSZ 052100Z AUTO 22004KT 10SM 28/26 A2959 RMK SLP035 T02820257 54000 IEM_DS3505
ZGSZ,1997-08-05 22:00,ZGSZ 052200Z AUTO 20004KT 7SM 28/28 A2959 RMK T02800280 IEM_DS3505
ZGSZ,1997-08-05 23:00,ZGSZ 052300Z AUTO 17004KT 7SM 29/28 A2959 RMK T02900280 IEM_DS3505
ZGSZ,1997-08-06 00:00,ZGSZ 060000Z AUTO 22004KT 12SM 29/26 A2962 RMK SLP039 T02910262 52004 IEM_DS3505
ZGSZ,1997-08-06 01:00,ZGSZ 060100Z AUTO 18006KT 7SM 30/28 A2962 RMK T03000280 IEM_DS3505
ZGSZ,1997-08-06 02:00,ZGSZ 060200Z AUTO 17006KT 7SM 30/28 A2965 RMK T03000280 IEM_DS3505
ZGSZ,1997-08-06 03:00,ZGSZ 060300Z AUTO 27006KT 14SM 32/26 A2962 RMK SLP040 T03250259 52001 IEM_DS3505
ZGSZ,1997-08-06 04:00,ZGSZ 060400Z AUTO 18006KT 6SM 31/29 A2962 RMK T03100290 IEM_DS3505
ZGSZ,1997-08-06 05:00,ZGSZ 060500Z AUTO 17006KT 7SM 31/29 A2959 RMK T03100290 IEM_DS3505
ZGSZ,1997-08-06 06:00,ZGSZ 060600Z AUTO 27010KT 12SM 32/25 A2956 RMK SLP023 T03250254 57017 IEM_DS3505
ZGSZ,1997-08-06 07:00,ZGSZ 060700Z AUTO 19014KT 7SM 31/27 A2953 RMK T03100270 IEM_DS3505
ZGSZ,1997-08-06 08:00,ZGSZ 060800Z AUTO 19014KT 7SM 31/29 A2953 RMK T03100290 IEM_DS3505
ZGSZ,1997-08-06 09:00,ZGSZ 060900Z AUTO 22010KT 17SM 32/25 A2953 RMK SLP007 T03170253 57016 IEM_DS3505
ZGSZ,1997-08-06 10:00,ZGSZ 061000Z AUTO 17012KT 7SM 30/29 A2953 RMK T03000290 IEM_DS3505
ZGSZ,1997-08-06 11:00,ZGSZ 061100Z AUTO 17010KT 7SM 30/29 A2956 RMK T03000290 IEM_DS3505
ZGSZ,1997-08-06 12:00,ZGSZ 061200Z AUTO 20008KT 16SM 30/26 A2959 RMK SLP028 T03020262 52021 IEM_DS3505
ZGSZ,1997-08-06 13:00,ZGSZ 061300Z AUTO 18012KT 7SM 30/29 A2959 RMK T03000290 IEM_DS3505
ZGSZ,1997-08-06 14:00,ZGSZ 061400Z AUTO 17012KT 6SM 29/29 A2959 RMK T02900290 IEM_DS3505
ZGSZ,1997-08-06 15:00,ZGSZ 061500Z AUTO 18010KT 6SM 29/29 A2959 RMK T02900290 IEM_DS3505
ZGSZ,1997-08-06 18:00,ZGSZ 061800Z AUTO 00000KT 14SM 29/26 RMK SLP028 T02910262 57006 IEM_DS3505
ZGSZ,1997-08-06 21:00,ZGSZ 062100Z AUTO 20006KT 16SM 29/26 A2953 RMK SLP016 T02900255 57012 IEM_DS3505
ZGSZ,1997-08-06 22:00,ZGSZ 062200Z AUTO 18004KT 6SM 29/28 A2956 RMK T02900280 IEM_DS3505
ZGSZ,1997-08-06 23:00,ZGSZ 062300Z AUTO 17006KT 6SM 29/28 A2956 RMK T02900280 IEM_DS3505
ZGSZ,1997-08-07 00:00,ZGSZ 070000Z AUTO 22004KT 17SM 30/26 A2956 RMK SLP026 T02950259 52010 IEM_DS3505
ZGSZ,1997-08-07 01:00,ZGSZ 070100Z AUTO 17006KT 6SM 30/29 A2959 RMK T03000290 IEM_DS3505
ZGSZ,1997-08-07 02:00,ZGSZ 070200Z AUTO 18004KT 6SM 30/29 A2956 RMK T03000290 IEM_DS3505
ZGSZ,1997-08-07 03:00,ZGSZ 070300Z AUTO 27006KT 16SM 32/26 A2959 RMK SLP031 T03180261 52005 IEM_DS3505
ZGSZ,1997-08-07 04:00,ZGSZ 070400Z AUTO 18004KT 6SM 31/29 A2956 RMK T03100290 IEM_DS3505
ZGSZ,1997-08-07 05:00,ZGSZ 070500Z AUTO 19004KT 7SM 31/29 A2956 RMK T03100290 IEM_DS3505
ZGSZ,1997-08-07 06:00,ZGSZ 070600Z AUTO 25010KT 11SM 31/26 A2959 RMK SLP017 T03100265 4////0288 57014 IEM_DS3505
ZGSZ,1997-08-07 07:00,ZGSZ 070700Z AUTO 20008KT 7SM 26/25 A2953 RMK T02600250 IEM_DS3505
ZGSZ,1997-08-07 08:00,ZGSZ 070800Z AUTO 15008KT 7SM 27/25 A2956 RMK T02700250 IEM_DS3505
ZGSZ,1997-08-07 09:00,ZGSZ 070900Z AUTO 14002KT 16SM 25/24 A2956 RMK SLP020 T02540243 52003 IEM_DS3505
ZGSZ,1997-08-07 10:00,ZGSZ 071000Z AUTO 11006KT 7SM 27/26 A2956 RMK T02700260 IEM_DS3505
ZGSZ,1997-08-07 11:00,ZGSZ 071100Z AUTO 11008KT 7SM 26/25 A2959 RMK T02600250 IEM_DS3505
ZGSZ,1997-08-07 12:00,ZGSZ 071200Z AUTO 00000KT 16SM 26/25 A2959 RMK 60039 SLP031 T02570247 52011 IEM_DS3505
ZGSZ,1997-08-07 13:00,ZGSZ 071300Z AUTO 14002KT 7SM 27/26 A2962 RMK T02700260 IEM_DS3505
ZGSZ,1997-08-07 14:00,ZGSZ 071400Z AUTO 29012KT 7SM 26/25 A2965 RMK T02600250 IEM_DS3505
ZGSZ,1997-08-07 15:00,ZGSZ 071500Z AUTO 10002KT 7SM 25/25 A2962 RMK T02500250 IEM_DS3505
ZGSZ,1997-08-07 16:00,ZGSZ 071600Z AUTO 19012KT 7SM 25/25 A2965 RMK T02500250 IEM_DS3505
ZGSZ,1997-08-07 17:00,ZGSZ 071700Z AUTO 21010KT 7SM 25/25 A2965 RMK T02500250 IEM_DS3505
ZGSZ,1997-08-07 18:00,ZGSZ 071800Z AUTO 11002KT 6SM 24/24 RMK 60079 SLP034 T02420236 57013 IEM_DS3505
ZGSZ,1997-08-07 21:00,ZGSZ 072100Z AUTO 32002KT 9SM 24/24 A2962 RMK 70130 SLP040 T02410237 52005 IEM_DS3505
ZGSZ,1997-08-07 22:00,ZGSZ 072200Z AUTO 11006KT 7SM 25/25 A2962 RMK T02500250 IEM_DS3505
ZGSZ,1997-08-07 23:00,ZGSZ 072300Z AUTO 11006KT 7SM 26/25 A2962 RMK T02600250 IEM_DS3505
ZGSZ,1997-08-08 00:00,ZGSZ 080000Z AUTO 00000KT 11SM 26/25 A2965 RMK 60016 70134 SLP049 T02550246 52009 IEM_DS3505
ZGSZ,1997-08-08 01:00,ZGSZ 080100Z AUTO 11006KT 7SM 27/26 A2965 RMK T02700260 IEM_DS3505
ZGSZ,1997-08-08 02:00,ZGSZ 080200Z AUTO 10004KT 7SM 27/26 A2965 RMK T02700260 IEM_DS3505
ZGSZ,1997-08-08 03:00,ZGSZ 080300Z AUTO 00000KT 12SM 26/25 A2965 RMK SLP054 T02650254 52005 IEM_DS3505
ZGSZ,1997-08-08 04:00,ZGSZ 080400Z AUTO 19010KT 7SM 27/27 A2965 RMK T02700270 IEM_DS3505
ZGSZ,1997-08-08 05:00,ZGSZ 080500Z AUTO 29006KT 7SM 28/26 A2965 RMK T02800260 IEM_DS3505
ZGSZ,1997-08-08 06:00,ZGSZ 080600Z AUTO 22006KT 12SM 27/25 A2962 RMK 60020 SLP046 T02720248 57008 IEM_DS3505
ZGSZ,1997-08-08 07:00,ZGSZ 080700Z AUTO 00000KT 7SM 28/26 A2962 RMK T02800260 IEM_DS3505
ZGSZ,1997-08-08 08:00,ZGSZ 080800Z AUTO 18004KT 7SM 28/27 A2962 RMK T02800270 IEM_DS3505
ZGSZ,1997-08-08 09:00,ZGSZ 080900Z AUTO 11002KT 10SM 28/26 A2962 RMK SLP041 T02820255 57005 IEM_DS3505
ZGSZ,1997-08-08 10:00,ZGSZ 081000Z AUTO 16008KT 7SM 28/27 A2962 RMK T02800270 IEM_DS3505
ZGSZ,1997-08-08 11:00,ZGSZ 081100Z AUTO 16006KT 7SM 28/27 A2962 RMK T02800270 IEM_DS3505
ZGSZ,1997-08-08 12:00,ZGSZ 081200Z AUTO 09004KT 12SM 27/26 A2962 RMK SLP041 T02730255 54000 IEM_DS3505
ZGSZ,1997-08-08 13:00,ZGSZ 081300Z AUTO 15004KT 7SM 28/27 A2965 RMK T02800270 IEM_DS3505
ZGSZ,1997-08-08 14:00,ZGSZ 081400Z AUTO 15002KT 7SM 28/27 A2968 RMK T02800270 IEM_DS3505
ZGSZ,1997-08-08 15:00,ZGSZ 081500Z AUTO 15002KT 7SM 27/27 A2968 RMK T02700270 IEM_DS3505
ZGSZ,1997-08-08 18:00,ZGSZ 081800Z AUTO 00000KT 8SM 27/26 RMK SLP053 T02700256 57010 IEM_DS3505
ZGSZ,1997-08-08 21:00,ZGSZ 082100Z AUTO 00000KT 7SM 27/25 A2965 RMK 70024 SLP045 T02670254 57008 IEM_DS3505
ZGSZ,1997-08-08 22:00,ZGSZ 082200Z AUTO 19006KT 7SM 28/28 A2965 RMK T02800280 IEM_DS3505
ZGSZ,1997-08-08 23:00,ZGSZ 082300Z AUTO 20004KT 7SM 28/28 A2965 RMK T02800280 IEM_DS3505
ZGSZ,1997-08-09 00:00,ZGSZ 090000Z AUTO 25006KT 7SM 28/26 A2965 RMK 60000 70020 SLP057 T02840265 52012 IEM_DS3505
ZGSZ,1997-08-09 01:00,ZGSZ 090100Z AUTO 21004KT 7SM 29/29 A2968 RMK T02900290 IEM_DS3505
ZGSZ,1997-08-09 02:00,ZGSZ 090200Z AUTO 17008KT 7SM 30/29 A2968 RMK T03000290 IEM_DS3505
ZGSZ,1997-08-09 03:00,ZGSZ 090300Z AUTO 22004KT 7SM 30/27 A2971 RMK SLP069 T02980271 52012 IEM_DS3505
ZGSZ,1997-08-09 04:00,ZGSZ 090400Z AUTO 19006KT 7SM 30/30 A2968 RMK T03000300 IEM_DS3505
ZGSZ,1997-08-09 05:00,ZGSZ 090500Z AUTO 18008KT 7SM 30/29 A2968 RMK T03000290 IEM_DS3505
ZGSZ,1997-08-09 06:00,ZGSZ 090600Z AUTO 22006KT 5SM 28/25 A2968 RMK 60000 SLP063 T02790246 57006 IEM_DS3505
ZGSZ,1997-08-09 07:00,ZGSZ 090700Z AUTO 24008KT 7SM 27/27 A2968 RMK T02700270 IEM_DS3505
ZGSZ,1997-08-09 08:00,ZGSZ 090800Z AUTO 26006KT 5SM 27/26 A2965 RMK T02700260 IEM_DS3505
ZGSZ,1997-08-09 09:00,ZGSZ 090900Z AUTO 20002KT 4SM 26/25 A2965 RMK SLP051 T02630249 57012 IEM_DS3505
ZGSZ,1997-08-09 10:00,ZGSZ 091000Z AUTO 10002KT 7SM 27/27 A2965 RMK T02700270 IEM_DS3505
ZGSZ,1997-08-09 11:00,ZGSZ 091100Z AUTO 10004KT 7SM 27/26 A2968 RMK T02700260 IEM_DS3505
ZGSZ,1997-08-09 12:00,ZGSZ 091200Z AUTO 07004KT 6SM 27/25 A2968 RMK 60035 SLP062 T02680254 52011 IEM_DS3505
ZGSZ,1997-08-09 13:00,ZGSZ 091300Z AUTO 10004KT 7SM 27/27 A2971 RMK T02700270 IEM_DS3505
ZGSZ,1997-08-09 14:00,ZGSZ 091400Z AUTO 13006KT 7SM 28/27 A2974 RMK T02800270 IEM_DS3505
ZGSZ,1997-08-09 15:00,ZGSZ 091500Z AUTO 16006KT 7SM 28/28 A2971 RMK T02800280 IEM_DS3505
ZGSZ,1997-08-09 16:00,ZGSZ 091600Z AUTO 17008KT 7SM 28/28 A2971 RMK T02800280 IEM_DS3505
ZGSZ,1997-08-09 18:00,ZGSZ 091800Z AUTO 32004KT 10SM 27/26 RMK 60000 SLP067 T02700260 57007 IEM_DS3505
ZGSZ,1997-08-09 21:00,ZGSZ 092100Z AUTO 00000KT 9SM 26/25 A2968 RMK 70079 SLP068 T02560249 52001 IEM_DS3505
ZGSZ,1997-08-09 22:00,ZGSZ 092200Z AUTO 15004KT 7SM 27/25 A2971 RMK T02700250 IEM_DS3505
ZGSZ,1997-08-09 23:00,ZGSZ 092300Z AUTO 12002KT 7SM 26/26 A2974 RMK T02600260 IEM_DS3505
ZGSZ,1997-08-10 00:00,ZGSZ 100000Z AUTO 00000KT 8SM 26/25 A2974 RMK 60043 70079 SLP080 T02620252 52012 IEM_DS3505
ZGSZ,1997-08-10 01:00,ZGSZ 100100Z AUTO 12004KT 7SM 29/27 A2974 RMK T02900270 IEM_DS3505
ZGSZ,1997-08-10 02:00,ZGSZ 100200Z AUTO 15006KT 7SM 30/29 A2974 RMK T03000290 IEM_DS3505
ZGSZ,1997-08-10 03:00,ZGSZ 100300Z AUTO 27012KT 9SM 29/26 A2974 RMK SLP085 T02940264 52005 IEM_DS3505
ZGSZ,1997-08-10 04:00,ZGSZ 100400Z AUTO 16008KT 7SM 30/28 A2971 RMK T03000280 IEM_DS3505
ZGSZ,1997-08-10 05:00,ZGSZ 100500Z AUTO 17010KT 7SM 31/29 A2971 RMK T03100290 IEM_DS3505
ZGSZ,1997-08-10 06:00,ZGSZ 100600Z AUTO 22004KT 9SM 30/27 A2971 RMK 60024 SLP061 T02980269 57023 IEM_DS3505
ZGSZ,1997-08-10 07:00,ZGSZ 100700Z AUTO 23002KT 7SM 28/26 A2968 RMK T02800260 IEM_DS3505
ZGSZ,1997-08-10 08:00,ZGSZ 100800Z AUTO 15004KT 6SM 28/26 A2968 RMK T02800260 IEM_DS3505
ZGSZ,1997-08-10 09:00,ZGSZ 100900Z AUTO 22004KT 11SM 29/26 A2968 RMK SLP059 T02890255 57003 IEM_DS3505
ZGSZ,1997-08-10 10:00,ZGSZ 101000Z AUTO 14004KT 6SM 29/28 A2968 RMK T02900280 IEM_DS3505
ZGSZ,1997-08-10 11:00,ZGSZ 101100Z AUTO 18008KT 6SM 29/28 A2968 RMK T02900280 IEM_DS3505
ZGSZ,1997-08-10 12:00,ZGSZ 101200Z AUTO 22002KT 7SM 29/26 A2971 RMK SLP074 T02870259 52011 IEM_DS3505
ZGSZ,1997-08-10 13:00,ZGSZ 101300Z AUTO 16006KT 6SM 28/28 A2971 RMK T02800280 IEM_DS3505
ZGSZ,1997-08-10 14:00,ZGSZ 101400Z AUTO 15004KT 6SM 28/28 A2974 RMK T02800280 IEM_DS3505
ZGSZ,1997-08-10 15:00,ZGSZ 101500Z AUTO 17006KT 6SM 28/28 A2974 RMK T02800280 IEM_DS3505
ZGSZ,1997-08-10 18:00,ZGSZ 101800Z AUTO 00000KT 6SM 28/26 RMK SLP070 T02760255 57008 IEM_DS3505
ZGSZ,1997-08-10 21:00,ZGSZ 102100Z AUTO 00000KT 7SM 27/24 A2971 RMK 70024 SLP071 T02690243 54000 IEM_DS3505
ZGSZ,1997-08-10 22:00,ZGSZ 102200Z AUTO 10004KT 7SM 27/26 A2971 RMK T02700260 IEM_DS3505
ZGSZ,1997-08-10 23:00,ZGSZ 102300Z AUTO 11006KT 7SM 28/27 A2974 RMK T02800270 IEM_DS3505
ZGSZ,1997-08-11 00:00,ZGSZ 110000Z AUTO 14004KT 9SM 28/25 A2974 RMK 70024 SLP080 T02780251 52009 IEM_DS3505
ZGSZ,1997-08-11 01:00,ZGSZ 110100Z AUTO 16006KT 7SM 31/28 A2974 RMK T03100280 IEM_DS3505
ZGSZ,1997-08-11 02:00,ZGSZ 110200Z AUTO 17012KT 7SM 31/29 A2974 RMK T03100290 IEM_DS3505
ZGSZ,1997-08-11 03:00,ZGSZ 110300Z AUTO 22010KT 12SM 32/26 A2974 RMK SLP081 T03160256 52002 IEM_DS3505
ZGSZ,1997-08-11 04:00,ZGSZ 110400Z AUTO 18016KT 7SM 31/28 A2974 RMK T03100280 IEM_DS3505
ZGSZ,1997-08-11 05:00,ZGSZ 110500Z AUTO 18016KT 7SM 31/29 A2971 RMK T03100290 IEM_DS3505
ZGSZ,1997-08-11 06:00,ZGSZ 110600Z AUTO 27008KT 13SM 32/24 A2971 RMK SLP068 T03220240 57013 IEM_DS3505
ZGSZ,1997-08-11 07:00,ZGSZ 110700Z AUTO 18017KT 7SM 31/29 A2968 RMK T03100290 IEM_DS3505
ZGSZ,1997-08-11 08:00,ZGSZ 110800Z AUTO 18017KT 7SM 31/28 A2968 RMK T03100280 IEM_DS3505
ZGSZ,1997-08-11 09:00,ZGSZ 110900Z AUTO 22008KT 13SM 31/25 A2968 RMK SLP057 T03080247 57011 IEM_DS3505
ZGSZ,1997-08-11 10:00,ZGSZ 111000Z AUTO 18014KT 7SM 30/28 A2968 RMK T03000280 IEM_DS3505
ZGSZ,1997-08-11 11:00,ZGSZ 111100Z AUTO 18017KT 7SM 30/28 A2968 RMK T03000280 IEM_DS3505
ZGSZ,1997-08-11 12:00,ZGSZ 111200Z AUTO 22004KT 12SM 29/26 A2971 RMK 60000 SLP070 T02910257 52012 IEM_DS3505
ZGSZ,1997-08-11 13:00,ZGSZ 111300Z AUTO 17012KT 5SM 26/26 A2974 RMK T02600260 IEM_DS3505
ZGSZ,1997-08-11 14:00,ZGSZ 111400Z AUTO 12006KT 7SM 26/26 A2977 RMK T02600260 IEM_DS3505
ZGSZ,1997-08-11 15:00,ZGSZ 111500Z AUTO 12004KT 7SM 27/27 A2974 RMK T02700270 IEM_DS3505
ZGSZ,1997-08-11 16:00,ZGSZ 111600Z AUTO 20012KT 2SM 27/27 A2974 RMK T02700270 IEM_DS3505
ZGSZ,1997-08-11 18:00,ZGSZ 111800Z AUTO 04004KT 7SM 27/26 RMK 60004 SLP065 T02730255 57018 IEM_DS3505
ZGSZ,1997-08-11 21:00,ZGSZ 112100Z AUTO 22014KT 7SM 27/26 A2968 RMK 70031 SLP061 T02720259 57004 IEM_DS3505
ZGSZ,1997-08-11 22:00,ZGSZ 112200Z AUTO 23010KT 5SM 26/26 A2971 RMK T02600260 IEM_DS3505
ZGSZ,1997-08-11 23:00,ZGSZ 112300Z AUTO 14006KT 4SM 25/25 A2971 RMK T02500250 IEM_DS3505
ZGSZ,1997-08-12 00:00,ZGSZ 120000Z AUTO 00000KT 9SM 25/24 A2971 RMK 60055 70059 SLP074 T02540245 52012 IEM_DS3505
ZGSZ,1997-08-12 01:00,ZGSZ 120100Z AUTO 13006KT 7SM 26/26 A2974 RMK T02600260 IEM_DS3505
ZGSZ,1997-08-12 02:00,ZGSZ 120200Z AUTO 23010KT 7SM 26/26 A2974 RMK T02600260 IEM_DS3505
ZGSZ,1997-08-12 03:00,ZGSZ 120300Z AUTO 22006KT 4SM 25/24 A2974 RMK SLP084 T02520245 52010 IEM_DS3505
ZGSZ,1997-08-12 04:00,ZGSZ 120400Z AUTO 14008KT 7SM 27/26 A2974 RMK T02700260 IEM_DS3505
ZGSZ,1997-08-12 05:00,ZGSZ 120500Z AUTO 23017KT 7SM 26/26 A2974 RMK T02600260 IEM_DS3505
ZGSZ,1997-08-12 06:00,ZGSZ 120600Z AUTO 22004KT 8SM 25/24 A2971 RMK 60260 SLP075 T02460243 57009 IEM_DS3505
ZGSZ,1997-08-12 07:00,ZGSZ 120700Z AUTO 09006KT 7SM 26/26 A2971 RMK T02600260 IEM_DS3505
ZGSZ,1997-08-12 08:00,ZGSZ 120800Z AUTO 14006KT 7SM 27/27 A2968 RMK T02700270 IEM_DS3505
ZGSZ,1997-08-12 09:00,ZGSZ 120900Z AUTO 04002KT 9SM 26/25 A2968 RMK SLP059 T02630247 57016 IEM_DS3505
ZGSZ,1997-08-12 10:00,ZGSZ 121000Z AUTO 19008KT 7SM 29/28 A2968 RMK T02900280 IEM_DS3505
ZGSZ,1997-08-12 11:00,ZGSZ 121100Z AUTO 18008KT 7SM 28/27 A2968 RMK T02800270 IEM_DS3505
ZGSZ,1997-08-12 12:00,ZGSZ 121200Z AUTO 04008KT 4SM 26/25 A2968 RMK 60000 SLP067 T02640251 52008 IEM_DS3505
ZGSZ,1997-08-12 13:00,ZGSZ 121300Z AUTO 14004KT 7SM 28/27 A2971 RMK T02800270 IEM_DS3505
ZGSZ,1997-08-12 14:00,ZGSZ 121400Z AUTO 14006KT 7SM 27/27 A2974 RMK T02700270 IEM_DS3505
ZGSZ,1997-08-12 15:00,ZGSZ 121500Z AUTO 16006KT 7SM 27/27 A2974 RMK T02700270 IEM_DS3505
ZGSZ,1997-08-12 18:00,ZGSZ 121800Z AUTO 14002KT 11SM 27/25 RMK SLP068 T02660252 57008 IEM_DS3505
ZGSZ,1997-08-12 21:00,ZGSZ 122100Z AUTO 09004KT 11SM 27/24 A2968 RMK 70287 SLP063 T02660243 57005 IEM_DS3505
ZGSZ,1997-08-12 22:00,ZGSZ 122200Z AUTO 12006KT 7SM 27/26 A2968 RMK T02700260 IEM_DS3505
ZGSZ,1997-08-12 23:00,ZGSZ 122300Z AUTO 12004KT 7SM 27/27 A2971 RMK T02700270 IEM_DS3505
ZGSZ,1997-08-13 00:00,ZGSZ 130000Z AUTO 14004KT 16SM 27/25 A2974 RMK 70260 SLP081 T02710248 52018 IEM_DS3505
ZGSZ,1997-08-13 01:00,ZGSZ 130100Z AUTO 12006KT 7SM 28/27 A2974 RMK T02800270 IEM_DS3505
ZGSZ,1997-08-13 02:00,ZGSZ 130200Z AUTO 14008KT 7SM 29/27 A2977 RMK T02900270 IEM_DS3505
ZGSZ,1997-08-13 03:00,ZGSZ 130300Z AUTO 00000KT 16SM 27/25 A2977 RMK SLP088 T02730246 52007 IEM_DS3505
ZGSZ,1997-08-13 04:00,ZGSZ 130400Z AUTO 17012KT 7SM 27/26 A2974 RMK T02700260 IEM_DS3505
ZGSZ,1997-08-13 05:00,ZGSZ 130500Z AUTO 17010KT 7SM 28/27 A2974 RMK T02800270 IEM_DS3505
ZGSZ,1997-08-13 06:00,ZGSZ 130600Z AUTO 27004KT 16SM 28/25 A2974 RMK 60000 SLP076 T02840247 57012 IEM_DS3505
ZGSZ,1997-08-13 07:00,ZGSZ 130700Z AUTO 17008KT 7SM 28/27 A2971 RMK T02800270 IEM_DS3505
ZGSZ,1997-08-13 08:00,ZGSZ 130800Z AUTO 16008KT 7SM 29/28 A2971 RMK T02900280 IEM_DS3505
ZGSZ,1997-08-13 09:00,ZGSZ 130900Z AUTO 14002KT 12SM 28/26 A2968 RMK SLP061 T02850256 57015 IEM_DS3505
ZGSZ,1997-08-13 10:00,ZGSZ 131000Z AUTO 17010KT 7SM 29/28 A2968 RMK T02900280 IEM_DS3505
ZGSZ,1997-08-13 11:00,ZGSZ 131100Z AUTO 17008KT 7SM 28/28 A2971 RMK T02800280 IEM_DS3505
ZGSZ,1997-08-13 12:00,ZGSZ 131200Z AUTO 00000KT 9SM 28/25 A2971 RMK 60000 SLP073 T02750252 52012 IEM_DS3505
ZGSZ,1997-08-13 13:00,ZGSZ 131300Z AUTO 15006KT 6SM 28/27 A2974 RMK T02800270 IEM_DS3505
ZGSZ,1997-08-13 14:00,ZGSZ 131400Z AUTO 14006KT 7SM 28/27 A2974 RMK T02800270 IEM_DS3505
ZGSZ,1997-08-13 15:00,ZGSZ 131500Z AUTO 13004KT 6SM 28/27 A2974 RMK T02800270 IEM_DS3505
ZGSZ,1997-08-13 18:00,ZGSZ 131800Z AUTO 07002KT 5SM 26/25 A2971 RMK SLP068 T02650252 57017 IEM_DS3505
ZGSZ,1997-08-13 21:00,ZGSZ 132100Z AUTO 04002KT 4SM 26/25 A2971 RMK 70001 SLP071 T02630250 52003 IEM_DS3505
ZGSZ,1997-08-13 22:00,ZGSZ 132200Z AUTO 11004KT 6SM 27/26 A2971 RMK T02700260 IEM_DS3505
ZGSZ,1997-08-13 23:00,ZGSZ 132300Z AUTO 10006KT 7SM 27/27 A2974 RMK T02700270 IEM_DS3505
ZGSZ,1997-08-14 00:00,ZGSZ 140000Z AUTO 04004KT 1 1/4SM 26/25 A2974 RMK 60001 70002 SLP081 T02620254 52010 IEM_DS3505
ZGSZ,1997-08-14 01:00,ZGSZ 140100Z AUTO 10006KT 7SM 29/27 A2974 RMK T02900270 IEM_DS3505
ZGSZ,1997-08-14 02:00,ZGSZ 140200Z AUTO 11006KT 7SM 30/28 A2974 RMK T03000280 IEM_DS3505
ZGSZ,1997-08-14 03:00,ZGSZ 140300Z AUTO 11008KT 12SM 29/25 A2974 RMK SLP080 T02920248 57001 IEM_DS3505
ZGSZ,1997-08-14 04:00,ZGSZ 140400Z AUTO 19008KT 7SM 31/28 A2971 RMK T03100280 IEM_DS3505
ZGSZ,1997-08-14 05:00,ZGSZ 140500Z AUTO 20008KT 7SM 31/28 A2971 RMK T03100280 IEM_DS3505
ZGSZ,1997-08-14 06:00,ZGSZ 140600Z AUTO 14006KT 19SM 31/26 A2968 RMK SLP059 T03090256 57020 IEM_DS3505
ZGSZ,1997-08-14 07:00,ZGSZ 140700Z AUTO 21008KT 7SM 31/29 A2965 RMK T03100290 IEM_DS3505
ZGSZ,1997-08-14 08:00,ZGSZ 140800Z AUTO 20008KT 7SM 31/28 A2965 RMK T03100280 IEM_DS3505
ZGSZ,1997-08-14 09:00,ZGSZ 140900Z AUTO 09008KT 19SM 30/26 A2965 RMK SLP059 T02950256 57001 IEM_DS3505
ZGSZ,1997-08-14 10:00,ZGSZ 141000Z AUTO 18008KT 7SM 30/28 A2965 RMK T03000280 IEM_DS3505
ZGSZ,1997-08-14 11:00,ZGSZ 141100Z AUTO 19006KT 6SM 29/28 A2965 RMK T02900280 IEM_DS3505
ZGSZ,1997-08-14 12:00,ZGSZ 141200Z AUTO 09002KT 11SM 28/25 A2968 RMK SLP062 T02810253 52003 IEM_DS3505
ZGSZ,1997-08-14 13:00,ZGSZ 141300Z AUTO 12006KT 6SM 29/27 A2971 RMK T02900270 IEM_DS3505
ZGSZ,1997-08-14 14:00,ZGSZ 141400Z AUTO 12006KT 6SM 28/27 A2971 RMK T02800270 IEM_DS3505
ZGSZ,1997-08-14 15:00,ZGSZ 141500Z AUTO 11006KT 6SM 28/27 A2974 RMK T02800270 IEM_DS3505
ZGSZ,1997-08-14 18:00,ZGSZ 141800Z AUTO 00000KT 11SM 27/26 RMK SLP075 T02720257 57003 IEM_DS3505
ZGSZ,1997-08-14 21:00,ZGSZ 142100Z AUTO 04004KT 7SM 27/26 A2971 RMK 70001 SLP069 T02700255 57007 IEM_DS3505
ZGSZ,1997-08-14 22:00,ZGSZ 142200Z AUTO 01002KT 7SM 27/26 A2971 RMK T02700260 IEM_DS3505
ZGSZ,1997-08-14 23:00,ZGSZ 142300Z AUTO 08002KT 7SM 28/27 A2971 RMK T02800270 IEM_DS3505
ZGSZ,1997-08-15 00:00,ZGSZ 150000Z AUTO 09004KT 4SM 27/26 A2974 RMK SLP078 T02730255 52009 IEM_DS3505
ZGSZ,1997-08-15 01:00,ZGSZ 150100Z AUTO 24002KT 7SM 30/28 A2974 RMK T03000280 IEM_DS3505
ZGSZ,1997-08-15 02:00,ZGSZ 150200Z AUTO 22004KT 7SM 30/28 A2974 RMK T03000280 IEM_DS3505
ZGSZ,1997-08-15 03:00,ZGSZ 150300Z AUTO 00000KT 7SM 31/25 A2974 RMK SLP076 T03130250 57001 IEM_DS3505
ZGSZ,1997-08-15 04:00,ZGSZ 150400Z AUTO 24004KT 6SM 31/28 A2971 RMK T03100280 IEM_DS3505
ZGSZ,1997-08-15 05:00,ZGSZ 150500Z AUTO 25006KT 6SM 31/28 A2968 RMK T03100280 IEM_DS3505
ZGSZ,1997-08-15 06:00,ZGSZ 150600Z AUTO 27006KT 6SM 32/26 A2965 RMK SLP050 T03250256 57026 IEM_DS3505
ZGSZ,1997-08-15 07:00,ZGSZ 150700Z AUTO 24010KT 6SM 30/28 A2962 RMK T03000280 IEM_DS3505
ZGSZ,1997-08-15 08:00,ZGSZ 150800Z AUTO 24008KT 6SM 30/28 A2962 RMK T03000280 IEM_DS3505
ZGSZ,1997-08-15 09:00,ZGSZ 150900Z AUTO 14006KT 7SM 29/22 A2962 RMK SLP046 T02860222 57005 IEM_DS3505
ZGSZ,1997-08-15 10:00,ZGSZ 151000Z AUTO 18008KT 6SM 30/28 A2965 RMK T03000280 IEM_DS3505
ZGSZ,1997-08-15 11:00,ZGSZ 151100Z AUTO 17006KT 6SM 29/28 A2965 RMK T02900280 IEM_DS3505
ZGSZ,1997-08-15 12:00,ZGSZ 151200Z AUTO 00000KT 5SM 29/24 A2968 RMK SLP055 T02890244 52009 IEM_DS3505
ZGSZ,1997-08-15 13:00,ZGSZ 151300Z AUTO 21002KT 6SM 29/28 A2971 RMK T02900280 IEM_DS3505
ZGSZ,1997-08-15 14:00,ZGSZ 151400Z AUTO 24004KT 7SM 29/28 A2971 RMK T02900280 IEM_DS3505
ZGSZ,1997-08-15 15:00,ZGSZ 151500Z AUTO 26004KT 4SM 28/27 A2974 RMK T02800270 IEM_DS3505
ZGSZ,1997-08-15 18:00,ZGSZ 151800Z AUTO 00000KT 4SM 28/26 RMK SLP057 T02800255 57018 IEM_DS3505
ZGSZ,1997-08-15 21:00,ZGSZ 152100Z AUTO 27002KT 3SM 28/26 A2968 RMK SLP055 T02770259 57003 IEM_DS3505
ZGSZ,1997-08-15 22:00,ZGSZ 152200Z AUTO 33002KT 1 1/2SM 26/26 A2968 RMK T02600260 IEM_DS3505
ZGSZ,1997-08-15 23:00,ZGSZ 152300Z AUTO 29006KT 1 1/4SM 27/27 A2968 RMK T02700270 IEM_DS3505
ZGSZ,1997-08-16 00:00,ZGSZ 160000Z AUTO 27002KT 2SM 28/26 A2971 RMK SLP063 T02790259 52008 IEM_DS3505
ZGSZ,1997-08-16 01:00,ZGSZ 160100Z AUTO 30006KT 1SM 28/27 A2971 RMK T02800270 IEM_DS3505
ZGSZ,1997-08-16 02:00,ZGSZ 160200Z AUTO 28004KT 1SM 30/28 A2971 RMK T03000280 IEM_DS3505
ZGSZ,1997-08-16 03:00,ZGSZ 160300Z AUTO 27006KT 2 1/2SM 31/26 A2971 RMK SLP061 T03090265 57001 IEM_DS3505
ZGSZ,1997-08-16 05:00,ZGSZ 160500Z AUTO 28004KT 1 1/4SM 32/27 A2965 RMK T03200270 IEM_DS3505
ZGSZ,1997-08-16 06:00,ZGSZ 160600Z AUTO 36008KT 3SM 29/27 A2962 RMK 60008 SLP046 T02880267 57015 IEM_DS3505
ZGSZ,1997-08-16 07:00,ZGSZ 160700Z AUTO 20004KT 1 1/2SM 32/28 A2959 RMK T03200280 IEM_DS3505
ZGSZ,1997-08-16 08:00,ZGSZ 160800Z AUTO 12010KT 2 1/2SM 28/26 A2959 RMK T02800260 IEM_DS3505
ZGSZ,1997-08-16 09:00,ZGSZ 160900Z AUTO 34004KT 4SM 27/24 A2962 RMK SLP045 T02660243 57002 IEM_DS3505
ZGSZ,1997-08-16 10:00,ZGSZ 161000Z AUTO 09006KT 7SM 27/26 A2962 RMK T02700260 IEM_DS3505
ZGSZ,1997-08-16 11:00,ZGSZ 161100Z AUTO 08008KT 7SM 27/25 A2959 RMK T02700250 IEM_DS3505
ZGSZ,1997-08-16 12:00,ZGSZ 161200Z AUTO 02002KT 4SM 26/24 A2965 RMK 60020 SLP045 T02630244 54000 IEM_DS3505
ZGSZ,1997-08-16 13:00,ZGSZ 161300Z AUTO 11006KT 7SM 27/25 A2965 RMK T02700250 IEM_DS3505
ZGSZ,1997-08-16 14:00,ZGSZ 161400Z AUTO 00000KT 6SM 28/24 A2965 RMK T02800240 IEM_DS3505
ZGSZ,1997-08-16 15:00,ZGSZ 161500Z AUTO 11002KT 6SM 27/24 A2965 RMK T02700240 IEM_DS3505
ZGSZ,1997-08-16 18:00,ZGSZ 161800Z AUTO 00000KT 4SM 26/24 RMK SLP037 T02590239 57018 IEM_DS3505
ZGSZ,1997-08-16 21:00,ZGSZ 162100Z AUTO 36002KT 4SM 26/24 A2959 RMK 70028 SLP026 T02560239 57011 IEM_DS3505
ZGSZ,1997-08-16 22:00,ZGSZ 162200Z AUTO 35004KT 7SM 26/25 A2959 RMK T02600250 IEM_DS3505
ZGSZ,1997-08-16 23:00,ZGSZ 162300Z AUTO 35004KT 7SM 26/25 A2959 RMK T02600250 IEM_DS3505
ZGSZ,1997-08-17 00:00,ZGSZ 170000Z AUTO 04002KT 5SM 26/24 A2962 RMK 70028 SLP036 T02640238 52010 IEM_DS3505
ZGSZ,1997-08-17 01:00,ZGSZ 170100Z AUTO 36006KT 6SM 29/26 A2962 RMK T02900260 IEM_DS3505
ZGSZ,1997-08-17 02:00,ZGSZ 170200Z AUTO 36006KT 7SM 30/26 A2962 RMK T03000260 IEM_DS3505
ZGSZ,1997-08-17 03:00,ZGSZ 170300Z AUTO 36002KT 5SM 30/24 A2962 RMK SLP038 T02980243 52003 IEM_DS3505
ZGSZ,1997-08-17 04:00,ZGSZ 170400Z AUTO 36004KT 7SM 32/26 A2959 RMK T03200260 IEM_DS3505
ZGSZ,1997-08-17 05:00,ZGSZ 170500Z AUTO 28008KT 2 1/2SM 32/27 A2959 RMK T03200270 IEM_DS3505
ZGSZ,1997-08-17 06:00,ZGSZ 170600Z AUTO 27004KT 4SM 33/24 A2953 RMK SLP012 T03270239 57026 IEM_DS3505
ZGSZ,1997-08-17 07:00,ZGSZ 170700Z AUTO 27008KT 2 1/2SM 32/27 A2950 RMK T03200270 IEM_DS3505
ZGSZ,1997-08-17 08:00,ZGSZ 170800Z AUTO 28006KT 2 1/2SM 33/26 A2950 RMK T03300260 IEM_DS3505
ZGSZ,1997-08-17 09:00,ZGSZ 170900Z AUTO 22006KT 2 1/2SM 32/25 A2947 RMK SLP996 T03240248 57016 IEM_DS3505
ZGSZ,1997-08-17 10:00,ZGSZ 171000Z AUTO 28004KT 3SM 32/26 A2947 RMK T03200260 IEM_DS3505
ZGSZ,1997-08-17 11:00,ZGSZ 171100Z AUTO 03014KT 7SM 28/24 A2953 RMK T02800240 IEM_DS3505
ZGSZ,1997-08-17 12:00,ZGSZ 171200Z AUTO 32004KT 6SM 28/23 A2950 RMK 60000 SLP005 T02820230 52009 IEM_DS3505
ZGSZ,1997-08-17 13:00,ZGSZ 171300Z AUTO 33004KT 6SM 28/24 A2953 RMK T02800240 IEM_DS3505
ZGSZ,1997-08-17 14:00,ZGSZ 171400Z AUTO 36006KT 6SM 28/25 A2953 RMK T02800250 IEM_DS3505
ZGSZ,1997-08-17 15:00,ZGSZ 171500Z AUTO 02004KT 6SM 29/24 A2953 RMK T02900240 IEM_DS3505
ZGSZ,1997-08-17 18:00,ZGSZ 171800Z AUTO 22002KT 6SM 27/23 RMK SLP005 T02720231 57010 IEM_DS3505
ZGSZ,1997-08-17 21:00,ZGSZ 172100Z AUTO 00000KT 5SM 27/23 A2947 RMK 70001 SLP991 T02680233 57014 IEM_DS3505
ZGSZ,1997-08-17 22:00,ZGSZ 172200Z AUTO 35004KT 6SM 27/25 A2950 RMK T02700250 IEM_DS3505
ZGSZ,1997-08-17 23:00,ZGSZ 172300Z AUTO 34006KT 3SM 27/25 A2950 RMK T02700250 IEM_DS3505
ZGSZ,1997-08-18 00:00,ZGSZ 180000Z AUTO 04004KT 6SM 28/23 A2950 RMK 70001 SLP995 T02760234 52004 IEM_DS3505
ZGSZ,1997-08-18 01:00,ZGSZ 180100Z AUTO 32010KT 4SM 30/25 A2950 RMK T03000250 IEM_DS3505
ZGSZ,1997-08-18 02:00,ZGSZ 180200Z AUTO 33010KT 6SM 31/25 A2950 RMK T03100250 IEM_DS3505
ZGSZ,1997-08-18 03:00,ZGSZ 180300Z AUTO 36010KT 7SM 32/22 A2947 RMK SLP991 T03230220 57004 IEM_DS3505
ZGSZ,1997-08-18 04:00,ZGSZ 180400Z AUTO 31012KT 7SM 33/24 A2947 RMK T03300240 IEM_DS3505
ZGSZ,1997-08-18 05:00,ZGSZ 180500Z AUTO 30010KT 7SM 33/25 A2944 RMK T03300250 IEM_DS3505
ZGSZ,1997-08-18 06:00,ZGSZ 180600Z AUTO 34006KT 8SM 34/22 A2941 RMK SLP969 T03360215 57022 IEM_DS3505
ZGSZ,1997-08-18 07:00,ZGSZ 180700Z AUTO 33014KT 7SM 35/23 A2938 RMK T03500230 IEM_DS3505
ZGSZ,1997-08-18 08:00,ZGSZ 180800Z AUTO 35012KT 7SM 35/23 A2935 RMK T03500230 IEM_DS3505
ZGSZ,1997-08-18 09:00,ZGSZ 180900Z AUTO 32008KT 8SM 34/22 A2935 RMK SLP954 T03410218 57015 IEM_DS3505
ZGSZ,1997-08-18 10:00,ZGSZ 181000Z AUTO 35012KT 7SM 35/22 A2938 RMK T03500220 IEM_DS3505
ZGSZ,1997-08-18 11:00,ZGSZ 181100Z AUTO 34008KT 7SM 33/23 A2938 RMK T03300230 IEM_DS3505
ZGSZ,1997-08-18 12:00,ZGSZ 181200Z AUTO 36002KT 6SM 32/23 A2941 RMK SLP964 T03200230 52010 IEM_DS3505
ZGSZ,1997-08-18 13:00,ZGSZ 181300Z AUTO 01004KT 6SM 31/25 A2941 RMK T03100250 IEM_DS3505
ZGSZ,1997-08-18 14:00,ZGSZ 181400Z AUTO 01004KT 6SM 30/25 A2944 RMK T03000250 IEM_DS3505
ZGSZ,1997-08-18 15:00,ZGSZ 181500Z AUTO 31004KT 3SM 29/25 A2944 RMK T02900250 IEM_DS3505
ZGSZ,1997-08-18 18:00,ZGSZ 181800Z AUTO 00000KT 6SM 29/24 RMK SLP975 T02920241 57003 IEM_DS3505
ZGSZ,1997-08-18 21:00,ZGSZ 182100Z AUTO 00000KT 4SM 28/24 A2944 RMK SLP974 T02840235 57001 IEM_DS3505
ZGSZ,1997-08-18 22:00,ZGSZ 182200Z AUTO 34006KT 4SM 28/24 A2944 RMK T02800240 IEM_DS3505
ZGSZ,1997-08-18 23:00,ZGSZ 182300Z AUTO 34004KT 4SM 28/24 A2944 RMK T02800240 IEM_DS3505
ZGSZ,1997-08-19 00:00,ZGSZ 190000Z AUTO 32002KT 6SM 29/22 A2947 RMK SLP987 T02910216 52013 IEM_DS3505
ZGSZ,1997-08-19 01:00,ZGSZ 190100Z AUTO 30008KT 2 1/2SM 30/25 A2947 RMK T03000250 IEM_DS3505
ZGSZ,1997-08-19 02:00,ZGSZ 190200Z AUTO 30008KT 4SM 31/25 A2947 RMK T03100250 IEM_DS3505
ZGSZ,1997-08-19 03:00,ZGSZ 190300Z AUTO 32006KT 6SM 33/22 A2950 RMK SLP992 T03310216 52005 IEM_DS3505
ZGSZ,1997-08-19 04:00,ZGSZ 190400Z AUTO 31010KT 2 1/2SM 33/26 A2947 RMK T03300260 IEM_DS3505
ZGSZ,1997-08-19 06:00,ZGSZ 190600Z AUTO 36006KT 4SM 35/22 A2944 RMK SLP982 T03520225 57010 IEM_DS3505
ZGSZ,1997-08-19 07:00,ZGSZ 190700Z AUTO 30008KT 6SM 35/25 A2944 RMK T03500250 IEM_DS3505
ZGSZ,1997-08-19 08:00,ZGSZ 190800Z AUTO 30010KT 6SM 35/25 A2944 RMK T03500250 IEM_DS3505
ZGSZ,1997-08-19 09:00,ZGSZ 190900Z AUTO 32006KT 5SM 35/23 A2944 RMK SLP979 T03490226 57003 IEM_DS3505
ZGSZ,1997-08-19 10:00,ZGSZ 191000Z AUTO 35008KT 6SM 34/24 A2944 RMK T03400240 IEM_DS3505
ZGSZ,1997-08-19 11:00,ZGSZ 191100Z AUTO 34006KT 6SM 34/24 A2947 RMK T03400240 IEM_DS3505
ZGSZ,1997-08-19 12:00,ZGSZ 191200Z AUTO 32006KT 4SM 33/24 A2950 RMK SLP000 T03270241 52021 IEM_DS3505
ZGSZ,1997-08-19 13:00,ZGSZ 191300Z AUTO 34006KT 6SM 32/25 A2953 RMK T03200250 IEM_DS3505
ZGSZ,1997-08-19 14:00,ZGSZ 191400Z AUTO 35006KT 6SM 32/24 A2956 RMK T03200240 IEM_DS3505
ZGSZ,1997-08-19 15:00,ZGSZ 191500Z AUTO 34006KT 6SM 31/24 A2956 RMK T03100240 IEM_DS3505
ZGSZ,1997-08-19 18:00,ZGSZ 191800Z AUTO 00000KT 5SM 30/22 RMK SLP013 T02990225 57006 IEM_DS3505
ZGSZ,1997-08-19 21:00,ZGSZ 192100Z AUTO 00000KT 4SM 29/23 A2956 RMK SLP014 T02900229 52001 IEM_DS3505
ZGSZ,1997-08-19 22:00,ZGSZ 192200Z AUTO 00000KT 4SM 28/24 A2956 RMK T02800240 IEM_DS3505
ZGSZ,1997-08-19 23:00,ZGSZ 192300Z AUTO 01006KT 4SM 28/24 A2956 RMK T02800240 IEM_DS3505
ZGSZ,1997-08-20 00:00,ZGSZ 200000Z AUTO 04006KT 5SM 30/23 A2959 RMK SLP027 T02950230 52013 IEM_DS3505
ZGSZ,1997-08-20 01:00,ZGSZ 200100Z AUTO 36006KT 3SM 30/25 A2959 RMK T03000250 IEM_DS3505
ZGSZ,1997-08-20 02:00,ZGSZ 200200Z AUTO 05004KT 3SM 32/26 A2959 RMK T03200260 IEM_DS3505
ZGSZ,1997-08-20 03:00,ZGSZ 200300Z AUTO 04010KT 4SM 33/24 A2959 RMK SLP028 T03310244 52001 IEM_DS3505
ZGSZ,1997-08-20 04:00,ZGSZ 200400Z AUTO 07006KT 6SM 34/25 A2959 RMK T03400250 IEM_DS3505
ZGSZ,1997-08-20 05:00,ZGSZ 200500Z AUTO 03010KT 6SM 34/25 A2956 RMK T03400250 IEM_DS3505
ZGSZ,1997-08-20 06:00,ZGSZ 200600Z AUTO 09006KT 3SM 34/25 A2956 RMK SLP016 T03350253 57012 IEM_DS3505
ZGSZ,1997-08-20 07:00,ZGSZ 200700Z AUTO 05008KT 7SM 35/25 A2953 RMK T03500250 IEM_DS3505
ZGSZ,1997-08-20 08:00,ZGSZ 200800Z AUTO 05008KT 7SM 34/25 A2950 RMK T03400250 IEM_DS3505
ZGSZ,1997-08-20 09:00,ZGSZ 200900Z AUTO 14008KT 3SM 28/23 A2953 RMK SLP018 T02840226 52002 IEM_DS3505
ZGSZ,1997-08-20 10:00,ZGSZ 201000Z AUTO 12010KT 4SM 30/26 A2956 RMK T03000260 IEM_DS3505
ZGSZ,1997-08-20 11:00,ZGSZ 201100Z AUTO 08014KT 7SM 28/25 A2956 RMK T02800250 IEM_DS3505
ZGSZ,1997-08-20 12:00,ZGSZ 201200Z AUTO 07004KT 6SM 27/24 A2959 RMK 60008 SLP037 T02720241 52019 IEM_DS3505
ZGSZ,1997-08-20 13:00,ZGSZ 201300Z AUTO 03008KT 7SM 28/24 A2965 RMK T02800240 IEM_DS3505
ZGSZ,1997-08-20 14:00,ZGSZ 201400Z AUTO 06008KT 7SM 28/25 A2965 RMK T02800250 IEM_DS3505
ZGSZ,1997-08-20 15:00,ZGSZ 201500Z AUTO 09004KT 6SM 28/25 A2965 RMK T02800250 IEM_DS3505
ZGSZ,1997-08-20 16:00,ZGSZ 201600Z AUTO 05006KT 6SM 28/25 A2962 RMK T02800250 IEM_DS3505
ZGSZ,1997-08-20 18:00,ZGSZ 201800Z AUTO 36006KT 9SM 27/24 RMK SLP030 T02740240 57020 IEM_DS3505
ZGSZ,1997-08-20 21:00,ZGSZ 202100Z AUTO 04006KT 9SM 27/24 A2959 RMK 70008 SLP022 T02670240 57008 IEM_DS3505
ZGSZ,1997-08-20 22:00,ZGSZ 202200Z AUTO 01008KT 6SM 27/26 A2959 RMK T02700260 IEM_DS3505
ZGSZ,1997-08-20 23:00,ZGSZ 202300Z AUTO 01010KT 6SM 27/26 A2959 RMK T02700260 IEM_DS3505
ZGSZ,1997-08-21 00:00,ZGSZ 210000Z AUTO 04010KT 8SM 28/24 A2959 RMK 70008 SLP029 T02770240 52007 IEM_DS3505
ZGSZ,1997-08-21 01:00,ZGSZ 210100Z AUTO 03016KT 7SM 29/26 A2959 RMK T02900260 IEM_DS3505
ZGSZ,1997-08-21 02:00,ZGSZ 210200Z AUTO 04012KT 7SM 30/26 A2959 RMK T03000260 IEM_DS3505
ZGSZ,1997-08-21 03:00,ZGSZ 210300Z AUTO 04012KT 9SM 29/24 A2959 RMK SLP025 T02890241 57004 IEM_DS3505
ZGSZ,1997-08-21 04:00,ZGSZ 210400Z AUTO 03012KT 7SM 30/26 A2956 RMK T03000260 IEM_DS3505
ZGSZ,1997-08-21 05:00,ZGSZ 210500Z AUTO 03016KT 7SM 31/26 A2956 RMK T03100260 IEM_DS3505
ZGSZ,1997-08-21 06:00,ZGSZ 210600Z AUTO 04016KT 16SM 30/23 A2953 RMK 60008 SLP010 T02980226 57015 IEM_DS3505
ZGSZ,1997-08-21 07:00,ZGSZ 210700Z AUTO 07021KT 7SM 30/24 A2950 RMK T03000240 IEM_DS3505
ZGSZ,1997-08-21 08:00,ZGSZ 210800Z AUTO 07019KT 7SM 29/25 A2953 RMK T02900250 IEM_DS3505
ZGSZ,1997-08-21 09:00,ZGSZ 210900Z AUTO 07012KT 7SM 27/23 A2950 RMK SLP006 T02660231 57005 IEM_DS3505
ZGSZ,1997-08-21 10:00,ZGSZ 211000Z AUTO 07017KT 7SM 29/24 A2950 RMK T02900240 IEM_DS3505
ZGSZ,1997-08-21 11:00,ZGSZ 211100Z AUTO 07017KT 7SM 26/25 A2953 RMK T02600250 IEM_DS3505
ZGSZ,1997-08-21 12:00,ZGSZ 211200Z AUTO 07014KT 9SM 26/24 A2956 RMK 60020 SLP016 T02630237 52010 IEM_DS3505
ZGSZ,1997-08-21 13:00,ZGSZ 211300Z AUTO 06016KT 7SM 26/24 A2959 RMK T02600240 IEM_DS3505
ZGSZ,1997-08-21 14:00,ZGSZ 211400Z AUTO 06012KT 7SM 27/25 A2959 RMK T02700250 IEM_DS3505
ZGSZ,1997-08-21 15:00,ZGSZ 211500Z AUTO 05016KT 7SM 26/25 A2959 RMK T02600250 IEM_DS3505
ZGSZ,1997-08-21 16:00,ZGSZ 211600Z AUTO 07014KT 7SM 27/25 A2956 RMK T02700250 IEM_DS3505
ZGSZ,1997-08-21 18:00,ZGSZ 211800Z AUTO 09010KT 9SM 26/24 A2953 RMK 60028 SLP013 T02640243 57008 IEM_DS3505
ZGSZ,1997-08-21 20:00,ZGSZ 212000Z AUTO 07008KT 1 1/2SM 26/25 A2953 RMK T02600250 IEM_DS3505
ZGSZ,1997-08-21 21:00,ZGSZ 212100Z AUTO 11006KT 4SM 26/24 RMK 70177 SLP014 T02580244 54000 IEM_DS3505
ZGSZ,1997-08-21 22:00,ZGSZ 212200Z AUTO 07010KT 7SM 26/26 A2956 RMK T02600260 IEM_DS3505
ZGSZ,1997-08-21 23:00,ZGSZ 212300Z AUTO 08012KT 7SM 27/26 A2956 RMK T02700260 IEM_DS3505
ZGSZ,1997-08-22 00:00,ZGSZ 220000Z AUTO 09008KT 6SM 26/24 A2956 RMK 60169 70217 SLP024 T02640245 52010 IEM_DS3505
ZGSZ,1997-08-22 01:00,ZGSZ 220100Z AUTO 08012KT 3SM 27/26 A2959 RMK T02700260 IEM_DS3505
ZGSZ,1997-08-22 02:00,ZGSZ 220200Z AUTO 10017KT 7SM 27/26 A2962 RMK T02700260 IEM_DS3505
ZGSZ,1997-08-22 03:00,ZGSZ 220300Z AUTO 04014KT 7SM 27/24 A2962 RMK SLP043 T02690242 52019 IEM_DS3505
ZGSZ,1997-08-22 04:00,ZGSZ 220400Z AUTO 08016KT 7SM 27/26 A2962 RMK T02700260 IEM_DS3505
ZGSZ,1997-08-22 05:00,ZGSZ 220500Z AUTO 11010KT 3SM 25/25 A2962 RMK T02500250 IEM_DS3505
ZGSZ,1997-08-22 06:00,ZGSZ 220600Z AUTO 32002KT 3SM 25/24 A2959 RMK 60252 SLP037 T02470243 57006 IEM_DS3505
ZGSZ,1997-08-22 07:00,ZGSZ 220700Z AUTO 09010KT 3SM 25/25 A2962 RMK T02500250 IEM_DS3505
ZGSZ,1997-08-22 08:00,ZGSZ 220800Z AUTO 09008KT 7SM 26/26 A2959 RMK T02600260 IEM_DS3505
ZGSZ,1997-08-22 09:00,ZGSZ 220900Z AUTO 09006KT 8SM 26/24 A2959 RMK SLP034 T02600243 57003 IEM_DS3505
ZGSZ,1997-08-22 10:00,ZGSZ 221000Z AUTO 09010KT 7SM 27/26 A2959 RMK T02700260 IEM_DS3505
ZGSZ,1997-08-22 11:00,ZGSZ 221100Z AUTO 09010KT 6SM 26/25 A2962 RMK T02600250 IEM_DS3505
ZGSZ,1997-08-22 12:00,ZGSZ 221200Z AUTO 07010KT 9SM 26/24 A2962 RMK 60220 SLP043 T02620243 52009 IEM_DS3505
ZGSZ,1997-08-22 13:00,ZGSZ 221300Z AUTO 09008KT 6SM 27/25 A2965 RMK T02700250 IEM_DS3505
ZGSZ,1997-08-22 14:00,ZGSZ 221400Z AUTO 09010KT 6SM 27/25 A2965 RMK T02700250 IEM_DS3505
ZGSZ,1997-08-22 15:00,ZGSZ 221500Z AUTO 09008KT 6SM 27/25 A2968 RMK T02700250 IEM_DS3505
ZGSZ,1997-08-22 16:00,ZGSZ 221600Z AUTO 07008KT 6SM 26/25 A2965 RMK T02600250 IEM_DS3505
ZGSZ,1997-08-22 17:00,ZGSZ 221700Z AUTO 08006KT 7SM 26/26 A2965 RMK T02600260 IEM_DS3505
ZGSZ,1997-08-22 18:00,ZGSZ 221800Z AUTO 07004KT 7SM 26/25 RMK 60031 SLP045 T02640251 57008 IEM_DS3505
ZGSZ,1997-08-22 21:00,ZGSZ 222100Z AUTO 09004KT 4SM 26/25 A2965 RMK 70547 SLP047 T02630247 52002 IEM_DS3505
ZGSZ,1997-08-22 22:00,ZGSZ 222200Z AUTO 08006KT 7SM 26/26 A2965 RMK T02600260 IEM_DS3505
ZGSZ,1997-08-22 23:00,ZGSZ 222300Z AUTO 06008KT 7SM 26/26 A2968 RMK T02600260 IEM_DS3505
ZGSZ,1997-08-23 00:00,ZGSZ 230000Z AUTO 36002KT 4SM 26/25 A2968 RMK 60020 70520 SLP064 T02600250 52017 IEM_DS3505
ZGSZ,1997-08-23 01:00,ZGSZ 230100Z AUTO 08006KT 7SM 28/27 A2968 RMK T02800270 IEM_DS3505
ZGSZ,1997-08-23 02:00,ZGSZ 230200Z AUTO 08008KT 7SM 29/27 A2971 RMK T02900270 IEM_DS3505
ZGSZ,1997-08-23 03:00,ZGSZ 230300Z AUTO 09006KT 4SM 29/25 A2971 RMK SLP065 T02860252 52001 IEM_DS3505
ZGSZ,1997-08-23 04:00,ZGSZ 230400Z AUTO 06012KT 1SM 25/25 A2971 RMK T02500250 IEM_DS3505
ZGSZ,1997-08-23 05:00,ZGSZ 230500Z AUTO 08004KT 3SM 27/27 A2968 RMK T02700270 IEM_DS3505
ZGSZ,1997-08-23 06:00,ZGSZ 230600Z AUTO 04010KT 4SM 30/25 A2965 RMK 60004 SLP057 T03000254 57008 IEM_DS3505
ZGSZ,1997-08-23 07:00,ZGSZ 230700Z AUTO 07010KT 2SM 27/26 A2968 RMK T02700260 IEM_DS3505
ZGSZ,1997-08-23 08:00,ZGSZ 230800Z AUTO 01002KT 7SM 27/27 A2965 RMK T02700270 IEM_DS3505
ZGSZ,1997-08-23 09:00,ZGSZ 230900Z AUTO 09008KT 12SM 29/24 A2962 RMK SLP045 T02930242 57012 IEM_DS3505
ZGSZ,1997-08-23 10:00,ZGSZ 231000Z AUTO 07006KT 7SM 29/27 A2965 RMK T02900270 IEM_DS3505
ZGSZ,1997-08-23 11:00,ZGSZ 231100Z AUTO 11004KT 7SM 28/26 A2965 RMK T02800260 IEM_DS3505
ZGSZ,1997-08-23 12:00,ZGSZ 231200Z AUTO 11004KT 18SM 27/26 A2968 RMK 60004 SLP058 T02690255 52013 IEM_DS3505
ZGSZ,1997-08-23 13:00,ZGSZ 231300Z AUTO 08004KT 7SM 27/26 A2971 RMK T02700260 IEM_DS3505
ZGSZ,1997-08-23 14:00,ZGSZ 231400Z AUTO 05004KT 7SM 27/26 A2971 RMK T02700260 IEM_DS3505
ZGSZ,1997-08-23 15:00,ZGSZ 231500Z AUTO 06004KT 7SM 27/26 A2974 RMK T02700260 IEM_DS3505
ZGSZ,1997-08-23 16:00,ZGSZ 231600Z AUTO 07006KT 3SM 25/25 A2974 RMK T02500250 IEM_DS3505
ZGSZ,1997-08-23 17:00,ZGSZ 231700Z AUTO 36004KT 7SM 26/26 A2971 RMK T02600260 IEM_DS3505
ZGSZ,1997-08-23 18:00,ZGSZ 231800Z AUTO 04004KT 4SM 26/25 A2971 RMK 60091 SLP067 T02600250 57009 IEM_DS3505
ZGSZ,1997-08-23 19:00,ZGSZ 231900Z AUTO 04006KT 7SM 26/25 A2968 RMK T02600250 IEM_DS3505
ZGSZ,1997-08-23 20:00,ZGSZ 232000Z AUTO 06010KT 7SM 26/25 A2968 RMK T02600250 IEM_DS3505
ZGSZ,1997-08-23 21:00,ZGSZ 232100Z AUTO 07008KT 4SM 25/24 A2968 RMK 70165 SLP060 T02490245 57007 IEM_DS3505
ZGSZ,1997-08-23 22:00,ZGSZ 232200Z AUTO 08008KT 7SM 26/25 A2968 RMK T02600250 IEM_DS3505
ZGSZ,1997-08-23 23:00,ZGSZ 232300Z AUTO 07008KT 7SM 26/25 A2971 RMK T02600250 IEM_DS3505
ZGSZ,1997-08-24 00:00,ZGSZ 240000Z AUTO 07004KT 4SM 25/24 A2971 RMK 60122 70220 SLP072 T02460242 52012 IEM_DS3505
ZGSZ,1997-08-24 01:00,ZGSZ 240100Z AUTO 10008KT 7SM 26/25 A2974 RMK T02600250 IEM_DS3505
ZGSZ,1997-08-24 02:00,ZGSZ 240200Z AUTO 10008KT 7SM 27/26 A2974 RMK T02700260 IEM_DS3505
ZGSZ,1997-08-24 03:00,ZGSZ 240300Z AUTO 04006KT 8SM 26/25 A2974 RMK SLP074 T02620246 52002 IEM_DS3505
ZGSZ,1997-08-24 04:00,ZGSZ 240400Z AUTO 08006KT 6SM 29/27 A2971 RMK T02900270 IEM_DS3505
ZGSZ,1997-08-24 05:00,ZGSZ 240500Z AUTO 26004KT 7SM 30/27 A2971 RMK T03000270 IEM_DS3505
ZGSZ,1997-08-24 06:00,ZGSZ 240600Z AUTO 09008KT 19SM 30/24 A2968 RMK 60028 SLP058 T03030242 57016 IEM_DS3505
ZGSZ,1997-08-24 07:00,ZGSZ 240700Z AUTO 34004KT 7SM 29/27 A2968 RMK T02900270 IEM_DS3505
ZGSZ,1997-08-24 08:00,ZGSZ 240800Z AUTO 25002KT 7SM 25/24 A2968 RMK T02500240 IEM_DS3505
ZGSZ,1997-08-24 09:00,ZGSZ 240900Z AUTO 18002KT 17SM 29/24 A2965 RMK SLP054 T02940244 57004 IEM_DS3505
ZGSZ,1997-08-24 11:00,ZGSZ 241100Z AUTO 00000KT 7SM 26/26 A2968 RMK T02600260 IEM_DS3505
ZGSZ,1997-08-24 12:00,ZGSZ 241200Z AUTO 09004KT 12SM 28/25 A2971 RMK SLP067 T02800250 52013 IEM_DS3505
ZGSZ,1997-08-24 13:00,ZGSZ 241300Z AUTO 08002KT 4SM 26/26 A2974 RMK T02600260 IEM_DS3505
ZGSZ,1997-08-24 14:00,ZGSZ 241400Z AUTO 12002KT 4SM 27/27 A2974 RMK T02700270 IEM_DS3505
ZGSZ,1997-08-24 15:00,ZGSZ 241500Z AUTO 06004KT 4SM 27/26 A2974 RMK T02700260 IEM_DS3505
ZGSZ,1997-08-24 16:00,ZGSZ 241600Z AUTO 05002KT 4SM 26/26 A2974 RMK T02600260 IEM_DS3505
ZGSZ,1997-08-24 17:00,ZGSZ 241700Z AUTO 01002KT 4SM 26/26 A2971 RMK T02600260 IEM_DS3505
ZGSZ,1997-08-24 18:00,ZGSZ 241800Z AUTO 07006KT 11SM 27/24 A2971 RMK SLP067 T02700241 57008 IEM_DS3505
ZGSZ,1997-08-24 19:00,ZGSZ 241900Z AUTO 05004KT 5SM 26/26 A2968 RMK T02600260 IEM_DS3505
ZGSZ,1997-08-24 20:00,ZGSZ 242000Z AUTO 03004KT 5SM 26/26 A2971 RMK T02600260 IEM_DS3505
ZGSZ,1997-08-24 21:00,ZGSZ 242100Z AUTO 04004KT 7SM 26/24 A2971 RMK 70094 SLP067 T02650244 57001 IEM_DS3505
ZGSZ,1997-08-24 22:00,ZGSZ 242200Z AUTO 06006KT 7SM 26/26 A2971 RMK T02600260 IEM_DS3505
ZGSZ,1997-08-24 23:00,ZGSZ 242300Z AUTO 05006KT 7SM 27/25 A2971 RMK T02700250 IEM_DS3505
ZGSZ,1997-08-25 00:00,ZGSZ 250000Z AUTO 36006KT 8SM 27/24 A2971 RMK 70028 SLP072 T02670243 52005 IEM_DS3505
ZGSZ,1997-08-25 01:00,ZGSZ 250100Z AUTO 07008KT 7SM 29/26 A2974 RMK T02900260 IEM_DS3505
ZGSZ,1997-08-25 02:00,ZGSZ 250200Z AUTO 06006KT 7SM 30/26 A2974 RMK T03000260 IEM_DS3505
ZGSZ,1997-08-25 03:00,ZGSZ 250300Z AUTO 07004KT 17SM 29/24 A2974 RMK SLP075 T02940244 52003 IEM_DS3505
ZGSZ,1997-08-25 04:00,ZGSZ 250400Z AUTO 06008KT 7SM 31/27 A2971 RMK T03100270 IEM_DS3505
ZGSZ,1997-08-25 05:00,ZGSZ 250500Z AUTO 07008KT 7SM 31/27 A2971 RMK T03100270 IEM_DS3505
ZGSZ,1997-08-25 06:00,ZGSZ 250600Z AUTO 04006KT 19SM 30/24 A2968 RMK SLP060 T03000242 57014 IEM_DS3505
ZGSZ,1997-08-25 07:00,ZGSZ 250700Z AUTO 08008KT 7SM 31/28 A2965 RMK T03100280 IEM_DS3505
ZGSZ,1997-08-25 08:00,ZGSZ 250800Z AUTO 20004KT 7SM 31/26 A2965 RMK T03100260 IEM_DS3505
ZGSZ,1997-08-25 09:00,ZGSZ 250900Z AUTO 09006KT 16SM 29/25 A2965 RMK SLP052 T02890247 57009 IEM_DS3505
ZGSZ,1997-08-25 10:00,ZGSZ 251000Z AUTO 10012KT 7SM 29/26 A2965 RMK T02900260 IEM_DS3505
ZGSZ,1997-08-25 11:00,ZGSZ 251100Z AUTO 11008KT 7SM 29/26 A2968 RMK T02900260 IEM_DS3505
ZGSZ,1997-08-25 12:00,ZGSZ 251200Z AUTO 07006KT 14SM 28/24 A2971 RMK SLP069 T02800244 52017 IEM_DS3505
ZGSZ,1997-08-25 13:00,ZGSZ 251300Z AUTO 10006KT 6SM 28/26 A2971 RMK T02800260 IEM_DS3505
ZGSZ,1997-08-25 15:00,ZGSZ 251500Z AUTO 08002KT 7SM 28/26 A2974 RMK T02800260 IEM_DS3505
ZGSZ,1997-08-25 16:00,ZGSZ 251600Z AUTO 06002KT 7SM 27/26 A2974 RMK T02700260 IEM_DS3505
ZGSZ,1997-08-25 17:00,ZGSZ 251700Z AUTO 00000KT 7SM 27/26 A2974 RMK T02700260 IEM_DS3505
ZGSZ,1997-08-25 18:00,ZGSZ 251800Z AUTO 14002KT 12SM 27/25 RMK 60008 SLP068 T02700249 57007 IEM_DS3505
ZGSZ,1997-08-25 21:00,ZGSZ 252100Z AUTO 04004KT 9SM 26/24 A2968 RMK 70008 SLP060 T02630244 57008 IEM_DS3505
ZGSZ,1997-08-25 22:00,ZGSZ 252200Z AUTO 06006KT 6SM 26/25 A2971 RMK T02600250 IEM_DS3505
ZGSZ,1997-08-25 23:00,ZGSZ 252300Z AUTO 04004KT 7SM 27/25 A2971 RMK T02700250 IEM_DS3505
ZGSZ,1997-08-26 00:00,ZGSZ 260000Z AUTO 04004KT 8SM 27/24 A2974 RMK 60000 70008 SLP079 T02670243 52019 IEM_DS3505
ZGSZ,1997-08-26 01:00,ZGSZ 260100Z AUTO 06008KT 7SM 29/26 A2974 RMK T02900260 IEM_DS3505
ZGSZ,1997-08-26 02:00,ZGSZ 260200Z AUTO 05008KT 7SM 30/26 A2977 RMK T03000260 IEM_DS3505
ZGSZ,1997-08-26 03:00,ZGSZ 260300Z AUTO 09004KT 16SM 30/24 A2974 RMK SLP081 T02970240 52002 IEM_DS3505
ZGSZ,1997-08-26 04:00,ZGSZ 260400Z AUTO 10008KT 7SM 32/26 A2974 RMK T03200260 IEM_DS3505
ZGSZ,1997-08-26 05:00,ZGSZ 260500Z AUTO 08010KT 7SM 32/26 A2974 RMK T03200260 IEM_DS3505
ZGSZ,1997-08-26 06:00,ZGSZ 260600Z AUTO 18008KT 19SM 32/23 A2971 RMK SLP071 T03190232 57009 IEM_DS3505
ZGSZ,1997-08-26 07:00,ZGSZ 260700Z AUTO 09010KT 7SM 32/25 A2968 RMK T03200250 IEM_DS3505
ZGSZ,1997-08-26 09:00,ZGSZ 260900Z AUTO 09008KT 19SM 31/23 A2968 RMK SLP062 T03080233 57009 IEM_DS3505
ZGSZ,1997-08-26 10:00,ZGSZ 261000Z AUTO 12010KT 6SM 31/25 A2968 RMK T03100250 IEM_DS3505
ZGSZ,1997-08-26 11:00,ZGSZ 261100Z AUTO 11012KT 6SM 30/25 A2971 RMK T03000250 IEM_DS3505
ZGSZ,1997-08-26 12:00,ZGSZ 261200Z AUTO 04010KT 19SM 28/24 A2974 RMK SLP078 T02800237 52015 IEM_DS3505
ZGSZ,1997-08-26 13:00,ZGSZ 261300Z AUTO 10012KT 6SM 28/25 A2974 RMK T02800250 IEM_DS3505
ZGSZ,1997-08-26 14:00,ZGSZ 261400Z AUTO 11016KT 6SM 28/25 A2977 RMK T02800250 IEM_DS3505
ZGSZ,1997-08-26 15:00,ZGSZ 261500Z AUTO 10014KT 6SM 28/25 A2977 RMK T02800250 IEM_DS3505
ZGSZ,1997-08-26 16:00,ZGSZ 261600Z AUTO 08006KT 6SM 27/25 A2974 RMK T02700250 IEM_DS3505
ZGSZ,1997-08-26 18:00,ZGSZ 261800Z AUTO 04002KT 17SM 28/23 RMK SLP071 T02780229 57013 IEM_DS3505
ZGSZ,1997-08-26 21:00,ZGSZ 262100Z AUTO 07006KT 12SM 27/23 RMK 70000 SLP069 T02740234 57002 IEM_DS3505
ZGSZ,1997-08-26 22:00,ZGSZ 262200Z AUTO 02004KT 6SM 27/25 A2971 RMK T02700250 IEM_DS3505
ZGSZ,1997-08-26 23:00,ZGSZ 262300Z AUTO 01004KT 7SM 27/25 A2974 RMK T02700250 IEM_DS3505
ZGSZ,1997-08-27 00:00,ZGSZ 270000Z AUTO 04002KT 14SM 28/23 A2974 RMK SLP077 T02780233 52007 IEM_DS3505
ZGSZ,1997-08-27 01:00,ZGSZ 270100Z AUTO 05006KT 7SM 29/25 A2974 RMK T02900250 IEM_DS3505
ZGSZ,1997-08-27 02:00,ZGSZ 270200Z AUTO 07008KT 7SM 30/25 A2977 RMK T03000250 IEM_DS3505
ZGSZ,1997-08-27 03:00,ZGSZ 270300Z AUTO 07010KT 17SM 30/23 A2977 RMK SLP082 T03050227 52006 IEM_DS3505
ZGSZ,1997-08-27 04:00,ZGSZ 270400Z AUTO 07008KT 7SM 31/25 A2974 RMK T03100250 IEM_DS3505
ZGSZ,1997-08-27 05:00,ZGSZ 270500Z AUTO 06010KT 7SM 31/25 A2974 RMK T03100250 IEM_DS3505
ZGSZ,1997-08-27 06:00,ZGSZ 270600Z AUTO 04008KT 19SM 32/22 A2971 RMK SLP069 T03150220 57013 IEM_DS3505
ZGSZ,1997-08-27 07:00,ZGSZ 270700Z AUTO 11010KT 7SM 32/25 A2968 RMK T03200250 IEM_DS3505
ZGSZ,1997-08-27 08:00,ZGSZ 270800Z AUTO 09008KT 7SM 32/25 A2968 RMK T03200250 IEM_DS3505
ZGSZ,1997-08-27 09:00,ZGSZ 270900Z AUTO 04002KT 16SM 30/23 A2968 RMK SLP059 T03020231 57010 IEM_DS3505
ZGSZ,1997-08-27 10:00,ZGSZ 271000Z AUTO 11006KT 7SM 30/25 A2971 RMK T03000250 IEM_DS3505
ZGSZ,1997-08-27 11:00,ZGSZ 271100Z AUTO 10006KT 7SM 30/25 A2971 RMK T03000250 IEM_DS3505
ZGSZ,1997-08-27 12:00,ZGSZ 271200Z AUTO 07008KT 11SM 28/24 A2974 RMK 60000 SLP073 T02850241 52013 IEM_DS3505
ZGSZ,1997-08-27 13:00,ZGSZ 271300Z AUTO 10004KT 6SM 29/26 A2974 RMK T02900260 IEM_DS3505
ZGSZ,1997-08-27 15:00,ZGSZ 271500Z AUTO 11004KT 6SM 28/26 A2974 RMK T02800260 IEM_DS3505
ZGSZ,1997-08-27 16:00,ZGSZ 271600Z AUTO 08004KT 6SM 28/26 A2974 RMK T02800260 IEM_DS3505
ZGSZ,1997-08-27 18:00,ZGSZ 271800Z AUTO 04004KT 9SM 28/24 RMK SLP067 T02800241 57010 IEM_DS3505
ZGSZ,1997-08-27 21:00,ZGSZ 272100Z AUTO 36006KT 7SM 27/23 A2968 RMK 70000 SLP061 T02720234 57006 IEM_DS3505
ZGSZ,1997-08-27 22:00,ZGSZ 272200Z AUTO 01006KT 6SM 26/26 A2968 RMK T02600260 IEM_DS3505
ZGSZ,1997-08-27 23:00,ZGSZ 272300Z AUTO 01004KT 6SM 27/26 A2971 RMK T02700260 IEM_DS3505
ZGSZ,1997-08-28 00:00,ZGSZ 280000Z AUTO 04004KT 7SM 27/24 A2971 RMK SLP068 T02740240 52006 IEM_DS3505
ZGSZ,1997-08-28 01:00,ZGSZ 280100Z AUTO 02006KT 4SM 29/27 A2971 RMK T02900270 IEM_DS3505
ZGSZ,1997-08-28 02:00,ZGSZ 280200Z AUTO 36004KT 7SM 31/26 A2974 RMK T03100260 IEM_DS3505
ZGSZ,1997-08-28 03:00,ZGSZ 280300Z AUTO 04006KT 7SM 32/24 A2971 RMK SLP061 T03150237 57006 IEM_DS3505
ZGSZ,1997-08-28 04:00,ZGSZ 280400Z AUTO 28008KT 4SM 32/26 A2968 RMK T03200260 IEM_DS3505
ZGSZ,1997-08-28 05:00,ZGSZ 280500Z AUTO 29008KT 4SM 33/26 A2965 RMK T03300260 IEM_DS3505
ZGSZ,1997-08-28 06:00,ZGSZ 280600Z AUTO 04004KT 7SM 34/23 A2962 RMK SLP036 T03350232 57025 IEM_DS3505
ZGSZ,1997-08-28 07:00,ZGSZ 280700Z AUTO 29010KT 5SM 33/26 A2959 RMK T03300260 IEM_DS3505
ZGSZ,1997-08-28 08:00,ZGSZ 280800Z AUTO 29006KT 5SM 33/26 A2959 RMK T03300260 IEM_DS3505
ZGSZ,1997-08-28 09:00,ZGSZ 280900Z AUTO 00000KT 8SM 34/23 A2959 RMK SLP026 T03380234 57010 IEM_DS3505
ZGSZ,1997-08-28 10:00,ZGSZ 281000Z AUTO 26004KT 3SM 33/26 A2959 RMK T03300260 IEM_DS3505
ZGSZ,1997-08-28 11:00,ZGSZ 281100Z AUTO 36002KT 2 1/2SM 31/28 A2959 RMK T03100280 IEM_DS3505
ZGSZ,1997-08-28 12:00,ZGSZ 281200Z AUTO 00000KT 4SM 31/25 A2962 RMK SLP035 T03060254 52009 IEM_DS3505
ZGSZ,1997-08-28 13:00,ZGSZ 281300Z AUTO 18010KT 2 1/2SM 29/28 A2962 RMK T02900280 IEM_DS3505
ZGSZ,1997-08-28 14:00,ZGSZ 281400Z AUTO 18008KT 3SM 29/28 A2965 RMK T02900280 IEM_DS3505
ZGSZ,1997-08-28 15:00,ZGSZ 281500Z AUTO 19008KT 3SM 29/27 A2962 RMK T02900270 IEM_DS3505
ZGSZ,1997-08-28 16:00,ZGSZ 281600Z AUTO 19006KT 3SM 29/28 A2962 RMK T02900280 IEM_DS3505
ZGSZ,1997-08-28 17:00,ZGSZ 281700Z AUTO 20004KT 2 1/2SM 28/28 A2962 RMK T02800280 IEM_DS3505
ZGSZ,1997-08-28 18:00,ZGSZ 281800Z AUTO 00000KT 3SM 29/25 RMK SLP026 T02860251 57015 IEM_DS3505
ZGSZ,1997-08-28 21:00,ZGSZ 282100Z AUTO 00000KT 3SM 28/26 A2959 RMK SLP025 T02810259 57001 IEM_DS3505
ZGSZ,1997-08-28 22:00,ZGSZ 282200Z AUTO 32006KT 1 1/2SM 27/27 A2959 RMK T02700270 IEM_DS3505
ZGSZ,1997-08-28 23:00,ZGSZ 282300Z AUTO 35004KT 2SM 28/28 A2959 RMK T02800280 IEM_DS3505
ZGSZ,1997-08-29 00:00,ZGSZ 290000Z AUTO 18002KT 2SM 29/26 A2959 RMK SLP030 T02860262 52005 IEM_DS3505
ZGSZ,1997-08-29 01:00,ZGSZ 290100Z AUTO 31010KT 2 1/2SM 31/27 A2962 RMK T03100270 IEM_DS3505
ZGSZ,1997-08-29 02:00,ZGSZ 290200Z AUTO 30010KT 3SM 32/28 A2962 RMK T03200280 IEM_DS3505
ZGSZ,1997-08-29 03:00,ZGSZ 290300Z AUTO 36004KT 6SM 34/24 A2962 RMK SLP030 T03350236 54000 IEM_DS3505
ZGSZ,1997-08-29 04:00,ZGSZ 290400Z AUTO 29010KT 4SM 33/27 A2959 RMK T03300270 IEM_DS3505
ZGSZ,1997-08-29 05:00,ZGSZ 290500Z AUTO 29008KT 7SM 34/27 A2956 RMK T03400270 IEM_DS3505
ZGSZ,1997-08-29 06:00,ZGSZ 290600Z AUTO 34006KT 9SM 36/22 A2956 RMK SLP014 T03580218 57016 IEM_DS3505
ZGSZ,1997-08-29 07:00,ZGSZ 290700Z AUTO 30012KT 7SM 35/26 A2953 RMK T03500260 IEM_DS3505
ZGSZ,1997-08-29 08:00,ZGSZ 290800Z AUTO 29008KT 7SM 35/26 A2950 RMK T03500260 IEM_DS3505
ZGSZ,1997-08-29 09:00,ZGSZ 290900Z AUTO 32006KT 11SM 36/24 A2950 RMK SLP001 T03550241 57013 IEM_DS3505
ZGSZ,1997-08-29 10:00,ZGSZ 291000Z AUTO 30006KT 6SM 34/27 A2950 RMK T03400270 IEM_DS3505
ZGSZ,1997-08-29 12:00,ZGSZ 291200Z AUTO 22004KT 10SM 33/25 A2953 RMK SLP010 T03310247 52009 IEM_DS3505
ZGSZ,1997-08-29 13:00,ZGSZ 291300Z AUTO 30002KT 6SM 31/28 A2956 RMK T03100280 IEM_DS3505
ZGSZ,1997-08-29 14:00,ZGSZ 291400Z AUTO 28002KT 6SM 31/28 A2956 RMK T03100280 IEM_DS3505
ZGSZ,1997-08-29 15:00,ZGSZ 291500Z AUTO 34002KT 6SM 30/27 A2959 RMK T03000270 IEM_DS3505
ZGSZ,1997-08-29 18:00,ZGSZ 291800Z AUTO 18002KT 7SM 31/26 RMK SLP023 T03080258 57003 IEM_DS3505
ZGSZ,1997-08-29 21:00,ZGSZ 292100Z AUTO 25004KT 5SM 30/26 A2959 RMK SLP022 T03020256 57001 IEM_DS3505
ZGSZ,1997-08-29 22:00,ZGSZ 292200Z AUTO 31006KT 4SM 29/28 A2959 RMK T02900280 IEM_DS3505
ZGSZ,1997-08-29 23:00,ZGSZ 292300Z AUTO 32006KT 3SM 30/28 A2962 RMK T03000280 IEM_DS3505
ZGSZ,1997-08-30 00:00,ZGSZ 300000Z AUTO 22004KT 6SM 30/26 A2962 RMK SLP043 T03010262 52021 IEM_DS3505
ZGSZ,1997-08-30 01:00,ZGSZ 300100Z AUTO 25004KT 2SM 31/29 A2965 RMK T03100290 IEM_DS3505
ZGSZ,1997-08-30 02:00,ZGSZ 300200Z AUTO 24002KT 2 1/2SM 32/28 A2968 RMK T03200280 IEM_DS3505
ZGSZ,1997-08-30 03:00,ZGSZ 300300Z AUTO 22004KT 6SM 33/26 A2968 RMK SLP060 T03280256 52017 IEM_DS3505
ZGSZ,1997-08-30 04:00,ZGSZ 300400Z AUTO 22008KT 2 1/2SM 33/29 A2968 RMK T03300290 IEM_DS3505
ZGSZ,1997-08-30 05:00,ZGSZ 300500Z AUTO 22006KT 3SM 33/29 A2968 RMK T03300290 IEM_DS3505
ZGSZ,1997-08-30 06:00,ZGSZ 300600Z AUTO 27008KT 6SM 36/25 A2965 RMK SLP046 T03550251 57014 IEM_DS3505
ZGSZ,1997-08-30 07:00,ZGSZ 300700Z AUTO 19010KT 3SM 33/30 A2962 RMK T03300300 IEM_DS3505
ZGSZ,1997-08-30 08:00,ZGSZ 300800Z AUTO 19008KT 4SM 33/30 A2959 RMK T03300300 IEM_DS3505
ZGSZ,1997-08-30 09:00,ZGSZ 300900Z AUTO 20008KT 7SM 33/25 A2962 RMK SLP037 T03340252 57009 IEM_DS3505
ZGSZ,1997-08-30 10:00,ZGSZ 301000Z AUTO 18010KT 4SM 31/30 A2962 RMK T03100300 IEM_DS3505
ZGSZ,1997-08-30 11:00,ZGSZ 301100Z AUTO 18006KT 4SM 31/30 A2962 RMK T03100300 IEM_DS3505
ZGSZ,1997-08-30 12:00,ZGSZ 301200Z AUTO 16008KT 3SM 30/30 A2962 RMK T03000300 IEM_DS3505
ZGSZ,1997-08-30 14:00,ZGSZ 301400Z AUTO 17010KT 3SM 30/29 A2968 RMK T03000290 IEM_DS3505
ZGSZ,1997-08-30 15:00,ZGSZ 301500Z AUTO 16010KT 4SM 30/29 A2971 RMK T03000290 IEM_DS3505
ZGSZ,1997-08-30 18:00,ZGSZ 301800Z AUTO 22004KT 4SM 30/26 RMK SLP065 T02960258 57001 IEM_DS3505
ZGSZ,1997-08-30 21:00,ZGSZ 302100Z AUTO 22006KT 4SM 29/25 A2968 RMK SLP069 T02900249 52004 IEM_DS3505
ZGSZ,1997-08-30 22:00,ZGSZ 302200Z AUTO 19010KT 7SM 29/27 A2971 RMK T02900270 IEM_DS3505
ZGSZ,1997-08-30 23:00,ZGSZ 302300Z AUTO 20008KT 7SM 29/27 A2971 RMK T02900270 IEM_DS3505
ZGSZ,1997-08-31 00:00,ZGSZ 310000Z AUTO 22008KT 17SM 29/25 A2974 RMK SLP078 T02920253 52009 IEM_DS3505
ZGSZ,1997-08-31 01:00,ZGSZ 310100Z AUTO 20010KT 7SM 30/28 A2977 RMK T03000280 IEM_DS3505
ZGSZ,1997-08-31 02:00,ZGSZ 310200Z AUTO 19008KT 7SM 31/28 A2977 RMK T03100280 IEM_DS3505
ZGSZ,1997-08-31 03:00,ZGSZ 310300Z AUTO 22010KT 19SM 30/25 A2977 RMK SLP087 T03030248 52009 IEM_DS3505
ZGSZ,1997-08-31 04:00,ZGSZ 310400Z AUTO 18010KT 7SM 32/28 A2977 RMK T03200280 IEM_DS3505
ZGSZ,1997-08-31 05:00,ZGSZ 310500Z AUTO 18012KT 7SM 31/28 A2974 RMK T03100280 IEM_DS3505
ZGSZ,1997-08-31 06:00,ZGSZ 310600Z AUTO 22010KT 19SM 33/23 A2971 RMK SLP069 T03330230 57018 IEM_DS3505
ZGSZ,1997-08-31 07:00,ZGSZ 310700Z AUTO 17012KT 7SM 32/29 A2968 RMK T03200290 IEM_DS3505
ZGSZ,1997-08-31 08:00,ZGSZ 310800Z AUTO 18012KT 6SM 32/29 A2968 RMK T03200290 IEM_DS3505
ZGSZ,1997-08-31 09:00,ZGSZ 310900Z AUTO 20004KT 19SM 32/25 A2968 RMK SLP062 T03170248 57007 IEM_DS3505
ZGSZ,1997-08-31 10:00,ZGSZ 311000Z AUTO 16012KT 6SM 30/28 A2968 RMK T03000280 IEM_DS3505
ZGSZ,1997-08-31 11:00,ZGSZ 311100Z AUTO 17014KT 6SM 29/28 A2971 RMK T02900280 IEM_DS3505
ZGSZ,1997-08-31 12:00,ZGSZ 311200Z AUTO 22004KT 17SM 30/25 A2971 RMK SLP073 T02980252 52011 IEM_DS3505
ZGSZ,1997-08-31 13:00,ZGSZ 311300Z AUTO 17014KT 7SM 29/28 A2974 RMK T02900280 IEM_DS3505
ZGSZ,1997-08-31 14:00,ZGSZ 311400Z AUTO 18012KT 7SM 29/28 A2977 RMK T02900280 IEM_DS3505
ZGSZ,1997-08-31 15:00,ZGSZ 311500Z AUTO 18012KT 7SM 29/28 A2974 RMK T02900280 IEM_DS3505
ZGSZ,1997-08-31 16:00,ZGSZ 311600Z AUTO 18012KT 7SM 29/28 A2974 RMK T02900280 IEM_DS3505
ZGSZ,1997-08-31 18:00,ZGSZ 311800Z AUTO 18002KT 12SM 29/25 RMK SLP074 T02880253 57009 IEM_DS3505
ZGSZ,1997-08-31 21:00,ZGSZ 312100Z AUTO 20004KT 12SM 28/25 A2974 RMK SLP074 T02830253 54000 IEM_DS3505
ZGSZ,1997-08-31 22:00,ZGSZ 312200Z AUTO 21010KT 7SM 28/27 A2974 RMK T02800270 IEM_DS3505
ZGSZ,1997-08-31 23:00,ZGSZ 312300Z AUTO 19008KT 7SM 29/28 A2974 RMK T02900280 IEM_DS3505
ZGSZ,1997-09-01 00:00,ZGSZ 010000Z AUTO 18004KT 19SM 29/25 A2977 RMK SLP085 T02870247 52011 IEM_DS3505
ZGSZ,1997-09-01 01:00,ZGSZ 010100Z AUTO 20008KT 7SM 29/28 A2977 RMK T02900280 IEM_DS3505
ZGSZ,1997-09-01 02:00,ZGSZ 010200Z AUTO 19008KT 7SM 30/29 A2977 RMK T03000290 IEM_DS3505
ZGSZ,1997-09-01 03:00,ZGSZ 010300Z AUTO 25008KT 19SM 32/25 A2977 RMK SLP087 T03220252 52002 IEM_DS3505
ZGSZ,1997-09-01 04:00,ZGSZ 010400Z AUTO 18010KT 7SM 31/29 A2974 RMK T03100290 IEM_DS3505
ZGSZ,1997-09-01 05:00,ZGSZ 010500Z AUTO 18010KT 7SM 32/29 A2974 RMK T03200290 IEM_DS3505
ZGSZ,1997-09-01 06:00,ZGSZ 010600Z AUTO 20006KT 19SM 36/25 A2971 RMK SLP071 T03600251 57016 IEM_DS3505
ZGSZ,1997-09-01 07:00,ZGSZ 010700Z AUTO 18014KT 7SM 32/28 A2968 RMK T03200280 IEM_DS3505
ZGSZ,1997-09-01 08:00,ZGSZ 010800Z AUTO 18014KT 7SM 31/29 A2965 RMK T03100290 IEM_DS3505
ZGSZ,1997-09-01 09:00,ZGSZ 010900Z AUTO 22002KT 16SM 31/25 A2965 RMK SLP053 T03100253 57018 IEM_DS3505
ZGSZ,1997-09-01 10:00,ZGSZ 011000Z AUTO 18014KT 7SM 30/28 A2965 RMK T03000280 IEM_DS3505
ZGSZ,1997-09-01 11:00,ZGSZ 011100Z AUTO 18014KT 7SM 29/28 A2965 RMK T02900280 IEM_DS3505
ZGSZ,1997-09-01 12:00,ZGSZ 011200Z AUTO 22010KT 16SM 30/25 A2968 RMK SLP064 T02950248 52011 IEM_DS3505
ZGSZ,1997-09-01 13:00,ZGSZ 011300Z AUTO 18012KT 7SM 29/28 A2971 RMK T02900280 IEM_DS3505
ZGSZ,1997-09-01 14:00,ZGSZ 011400Z AUTO 18012KT 7SM 29/28 A2974 RMK T02900280 IEM_DS3505
ZGSZ,1997-09-01 15:00,ZGSZ 011500Z AUTO 18010KT 7SM 29/28 A2974 RMK T02900280 IEM_DS3505
ZGSZ,1997-09-01 16:00,ZGSZ 011600Z AUTO 18008KT 6SM 29/28 A2974 RMK T02900280 IEM_DS3505
ZGSZ,1997-09-01 18:00,ZGSZ 011800Z AUTO 22004KT 13SM 29/26 RMK SLP071 T02860255 57006 IEM_DS3505
ZGSZ,1997-09-01 21:00,ZGSZ 012100Z AUTO 18002KT 9SM 28/26 A2968 RMK 70008 SLP059 T02780257 57012 IEM_DS3505
ZGSZ,1997-09-01 22:00,ZGSZ 012200Z AUTO 13002KT 7SM 27/27 A2968 RMK T02700270 IEM_DS3505
ZGSZ,1997-09-01 23:00,ZGSZ 012300Z AUTO 25006KT 7SM 28/28 A2971 RMK T02800280 IEM_DS3505
ZGSZ,1997-09-02 00:00,ZGSZ 020000Z AUTO 22006KT 11SM 29/25 A2974 RMK 60008 70008 SLP073 T02890251 52014 IEM_DS3505
ZGSZ,1997-09-02 01:00,ZGSZ 020100Z AUTO 33004KT 7SM 29/28 A2974 RMK T02900280 IEM_DS3505
ZGSZ,1997-09-02 02:00,ZGSZ 020200Z AUTO 05002KT 4SM 29/27 A2974 RMK T02900270 IEM_DS3505
ZGSZ,1997-09-02 03:00,ZGSZ 020300Z AUTO 18006KT 11SM 30/26 A2974 RMK SLP076 T03010258 52003 IEM_DS3505
ZGSZ,1997-09-02 04:00,ZGSZ 020400Z AUTO 26004KT 7SM 31/28 A2974 RMK T03100280 IEM_DS3505
ZGSZ,1997-09-02 05:00,ZGSZ 020500Z AUTO 24010KT 7SM 30/28 A2974 RMK T03000280 IEM_DS3505
ZGSZ,1997-09-02 06:00,ZGSZ 020600Z AUTO 29002KT 7SM 30/26 A2971 RMK 60024 SLP067 T02960260 57009 IEM_DS3505
ZGSZ,1997-09-02 07:00,ZGSZ 020700Z AUTO 25004KT 7SM 30/27 A2968 RMK T03000270 IEM_DS3505
ZGSZ,1997-09-02 08:00,ZGSZ 020800Z AUTO 27004KT 6SM 30/27 A2965 RMK T03000270 IEM_DS3505
ZGSZ,1997-09-02 09:00,ZGSZ 020900Z AUTO 22006KT 7SM 29/25 A2965 RMK SLP049 T02940250 57018 IEM_DS3505
ZGSZ,1997-09-02 10:00,ZGSZ 021000Z AUTO 24002KT 7SM 29/27 A2965 RMK T02900270 IEM_DS3505
ZGSZ,1997-09-02 11:00,ZGSZ 021100Z AUTO 23004KT 7SM 29/27 A2968 RMK T02900270 IEM_DS3505
ZGSZ,1997-09-02 12:00,ZGSZ 021200Z AUTO 22006KT 7SM 29/26 A2971 RMK SLP070 T02890258 52021 IEM_DS3505
ZGSZ,1997-09-02 13:00,ZGSZ 021300Z AUTO 11004KT 7SM 27/27 A2974 RMK T02700270 IEM_DS3505
ZGSZ,1997-09-02 14:00,ZGSZ 021400Z AUTO 13002KT 7SM 28/27 A2974 RMK T02800270 IEM_DS3505
ZGSZ,1997-09-02 15:00,ZGSZ 021500Z AUTO 00000KT 7SM 28/27 A2974 RMK T02800270 IEM_DS3505
ZGSZ,1997-09-02 16:00,ZGSZ 021600Z AUTO 29004KT 7SM 28/27 A2974 RMK T02800270 IEM_DS3505
ZGSZ,1997-09-02 17:00,ZGSZ 021700Z AUTO 33004KT 7SM 28/27 A2974 RMK T02800270 IEM_DS3505
ZGSZ,1997-09-02 18:00,ZGSZ 021800Z AUTO 00000KT 6SM 28/26 RMK SLP066 T02810256 57011 IEM_DS3505
ZGSZ,1997-09-02 21:00,ZGSZ 022100Z AUTO 07002KT 5SM 28/26 A2971 RMK 70024 SLP069 T02760255 52002 IEM_DS3505
ZGSZ,1997-09-02 22:00,ZGSZ 022200Z AUTO 29006KT 3SM 26/26 A2971 RMK T02600260 IEM_DS3505
ZGSZ,1997-09-02 23:00,ZGSZ 022300Z AUTO 34004KT 3SM 27/26 A2971 RMK T02700260 IEM_DS3505
ZGSZ,1997-09-03 00:00,ZGSZ 030000Z AUTO 00000KT 3SM 28/26 A2974 RMK 70024 SLP083 T02780257 52014 IEM_DS3505
ZGSZ,1997-09-03 01:00,ZGSZ 030100Z AUTO 26004KT 3SM 28/26 A2977 RMK T02800260 IEM_DS3505
ZGSZ,1997-09-03 02:00,ZGSZ 030200Z AUTO 25002KT 3SM 28/26 A2977 RMK T02800260 IEM_DS3505
ZGSZ,1997-09-03 03:00,ZGSZ 030300Z AUTO 25006KT 2 1/2SM 29/25 A2977 RMK SLP085 T02880251 52002 IEM_DS3505
ZGSZ,1997-09-03 04:00,ZGSZ 030400Z AUTO 27002KT 4SM 28/26 A2974 RMK T02800260 IEM_DS3505
ZGSZ,1997-09-03 05:00,ZGSZ 030500Z AUTO 19004KT 7SM 29/27 A2974 RMK T02900270 IEM_DS3505
ZGSZ,1997-09-03 06:00,ZGSZ 030600Z AUTO 18004KT 5SM 30/24 A2971 RMK SLP072 T02990245 57012 IEM_DS3505
ZGSZ,1997-09-03 07:00,ZGSZ 030700Z AUTO 17008KT 7SM 30/27 A2971 RMK T03000270 IEM_DS3505
ZGSZ,1997-09-03 08:00,ZGSZ 030800Z AUTO 18008KT 6SM 30/26 A2968 RMK T03000260 IEM_DS3505
ZGSZ,1997-09-03 09:00,ZGSZ 030900Z AUTO 20004KT 12SM 30/25 A2968 RMK SLP062 T02970246 57010 IEM_DS3505
ZGSZ,1997-09-03 10:00,ZGSZ 031000Z AUTO 18006KT 7SM 29/27 A2971 RMK T02900270 IEM_DS3505
ZGSZ,1997-09-03 11:00,ZGSZ 031100Z AUTO 27016KT 1 1/4SM 27/25 A2971 RMK T02700250 IEM_DS3505
ZGSZ,1997-09-03 12:00,ZGSZ 031200Z AUTO 27010KT 9SM 28/25 A2974 RMK SLP083 T02840246 52020 IEM_DS3505
ZGSZ,1997-09-03 13:00,ZGSZ 031300Z AUTO 10002KT 7SM 24/24 A2977 RMK T02400240 IEM_DS3505
ZGSZ,1997-09-03 14:00,ZGSZ 031400Z AUTO 11004KT 7SM 25/25 A2977 RMK T02500250 IEM_DS3505
ZGSZ,1997-09-03 15:00,ZGSZ 031500Z AUTO 12004KT 7SM 25/25 A2977 RMK T02500250 IEM_DS3505
ZGSZ,1997-09-03 18:00,ZGSZ 031800Z AUTO 27002KT 6SM 26/24 RMK 60028 SLP081 T02550241 57012 IEM_DS3505
ZGSZ,1997-09-03 21:00,ZGSZ 032100Z AUTO 00000KT 4SM 26/24 A2971 RMK 70028 SLP073 T02570243 57008 IEM_DS3505
ZGSZ,1997-09-03 22:00,ZGSZ 032200Z AUTO 33006KT 3SM 26/25 A2974 RMK T02600250 IEM_DS3505
ZGSZ,1997-09-03 23:00,ZGSZ 032300Z AUTO 35004KT 2 1/2SM 25/24 A2974 RMK T02500240 IEM_DS3505
ZGSZ,1997-09-04 00:00,ZGSZ 040000Z AUTO 36002KT 5SM 26/24 A2977 RMK 70028 SLP083 T02650238 52010 IEM_DS3505
ZGSZ,1997-09-04 01:00,ZGSZ 040100Z AUTO 35006KT 3SM 27/25 A2977 RMK T02700250 IEM_DS3505
ZGSZ,1997-09-04 02:00,ZGSZ 040200Z AUTO 34006KT 3SM 27/25 A2977 RMK T02700250 IEM_DS3505
ZGSZ,1997-09-04 03:00,ZGSZ 040300Z AUTO 34004KT 6SM 28/23 A2977 RMK SLP083 T02850232 54000 IEM_DS3505
ZGSZ,1997-09-04 04:00,ZGSZ 040400Z AUTO 29006KT 3SM 29/26 A2974 RMK T02900260 IEM_DS3505
ZGSZ,1997-09-04 05:00,ZGSZ 040500Z AUTO 27004KT 4SM 28/25 A2974 RMK T02800250 IEM_DS3505
ZGSZ,1997-09-04 06:00,ZGSZ 040600Z AUTO 25004KT 4SM 30/24 A2971 RMK 60000 SLP068 T03000236 57015 IEM_DS3505
ZGSZ,1997-09-04 07:00,ZGSZ 040700Z AUTO 27006KT 3SM 30/25 A2971 RMK T03000250 IEM_DS3505
ZGSZ,1997-09-04 08:00,ZGSZ 040800Z AUTO 27008KT 4SM 30/25 A2968 RMK T03000250 IEM_DS3505
ZGSZ,1997-09-04 09:00,ZGSZ 040900Z AUTO 27006KT 5SM 30/23 A2968 RMK SLP061 T03010229 57007 IEM_DS3505
ZGSZ,1997-09-04 10:00,ZGSZ 041000Z AUTO 28010KT 4SM 29/24 A2968 RMK T02900240 IEM_DS3505
ZGSZ,1997-09-04 11:00,ZGSZ 041100Z AUTO 28008KT 4SM 29/24 A2971 RMK T02900240 IEM_DS3505
ZGSZ,1997-09-04 12:00,ZGSZ 041200Z AUTO 32004KT 4SM 28/23 A2971 RMK SLP073 T02840226 52012 IEM_DS3505
ZGSZ,1997-09-04 13:00,ZGSZ 041300Z AUTO 33008KT 4SM 28/24 A2974 RMK T02800240 IEM_DS3505
ZGSZ,1997-09-04 14:00,ZGSZ 041400Z AUTO 34004KT 2 1/2SM 28/24 A2977 RMK T02800240 IEM_DS3505
ZGSZ,1997-09-04 15:00,ZGSZ 041500Z AUTO 01002KT 2 1/2SM 26/24 A2974 RMK T02600240 IEM_DS3505
ZGSZ,1997-09-04 18:00,ZGSZ 041800Z AUTO 00000KT 5SM 26/22 RMK SLP071 T02640224 57008 IEM_DS3505
ZGSZ,1997-09-04 21:00,ZGSZ 042100Z AUTO 00000KT 5SM 26/23 RMK 70001 SLP073 T02580229 52002 IEM_DS3505
ZGSZ,1997-09-04 22:00,ZGSZ 042200Z AUTO 35004KT 3SM 25/24 A2974 RMK T02500240 IEM_DS3505
ZGSZ,1997-09-04 23:00,ZGSZ 042300Z AUTO 03002KT 3SM 25/25 A2974 RMK T02500250 IEM_DS3505
ZGSZ,1997-09-05 00:00,ZGSZ 050000Z AUTO 00000KT 4SM 26/23 A2977 RMK 70001 SLP086 T02620230 52013 IEM_DS3505
ZGSZ,1997-09-05 01:00,ZGSZ 050100Z AUTO 32004KT 6SM 28/24 A2977 RMK T02800240 IEM_DS3505
ZGSZ,1997-09-05 02:00,ZGSZ 050200Z AUTO 32006KT 6SM 29/25 A2977 RMK T02900250 IEM_DS3505
ZGSZ,1997-09-05 03:00,ZGSZ 050300Z AUTO 27002KT 5SM 30/23 A2977 RMK SLP087 T02970229 52001 IEM_DS3505
ZGSZ,1997-09-05 04:00,ZGSZ 050400Z AUTO 30006KT 6SM 31/25 A2977 RMK T03100250 IEM_DS3505
ZGSZ,1997-09-05 05:00,ZGSZ 050500Z AUTO 30006KT 6SM 31/22 A2974 RMK T03100220 IEM_DS3505
ZGSZ,1997-09-05 06:00,ZGSZ 050600Z AUTO 25008KT 8SM 33/19 A2971 RMK SLP065 T03290194 57021 IEM_DS3505
ZGSZ,1997-09-05 07:00,ZGSZ 050700Z AUTO 30008KT 6SM 32/22 A2968 RMK T03200220 IEM_DS3505
ZGSZ,1997-09-05 09:00,ZGSZ 050900Z AUTO 27004KT 7SM 32/21 A2968 RMK SLP051 T03210207 57014 IEM_DS3505
ZGSZ,1997-09-05 10:00,ZGSZ 051000Z AUTO 31008KT 6SM 31/20 A2968 RMK T03100200 IEM_DS3505
ZGSZ,1997-09-05 11:00,ZGSZ 051100Z AUTO 32006KT 6SM 30/21 A2971 RMK T03000210 IEM_DS3505
ZGSZ,1997-09-05 12:00,ZGSZ 051200Z AUTO 32002KT 7SM 30/20 A2971 RMK SLP074 T02960203 52022 IEM_DS3505
ZGSZ,1997-09-05 13:00,ZGSZ 051300Z AUTO 20006KT 6SM 29/26 A2974 RMK T02900260 IEM_DS3505
ZGSZ,1997-09-05 14:00,ZGSZ 051400Z AUTO 21008KT 6SM 29/26 A2977 RMK T02900260 IEM_DS3505
ZGSZ,1997-09-05 15:00,ZGSZ 051500Z AUTO 20006KT 6SM 29/26 A2977 RMK T02900260 IEM_DS3505
ZGSZ,1997-09-05 18:00,ZGSZ 051800Z AUTO 00000KT 5SM 28/23 RMK SLP078 T02780232 57010 IEM_DS3505
ZGSZ,1997-09-05 21:00,ZGSZ 052100Z AUTO 00000KT 3SM 27/24 A2974 RMK SLP074 T02710239 57004 IEM_DS3505
ZGSZ,1997-09-05 22:00,ZGSZ 052200Z AUTO 00000KT 4SM 26/25 A2974 RMK T02600250 IEM_DS3505
ZGSZ,1997-09-05 23:00,ZGSZ 052300Z AUTO 00000KT 3SM 26/25 A2974 RMK T02600250 IEM_DS3505
ZGSZ,1997-09-06 00:00,ZGSZ 060000Z AUTO 07004KT 2 1/2SM 28/24 A2977 RMK SLP086 T02770244 52011 IEM_DS3505
ZGSZ,1997-09-06 01:00,ZGSZ 060100Z AUTO 29004KT 2 1/2SM 29/27 A2977 RMK T02900270 IEM_DS3505
ZGSZ,1997-09-06 02:00,ZGSZ 060200Z AUTO 27004KT 2 1/2SM 30/26 A2977 RMK T03000260 IEM_DS3505
ZGSZ,1997-09-06 03:00,ZGSZ 060300Z AUTO 09002KT 2 1/2SM 31/23 A2977 RMK SLP094 T03130229 52009 IEM_DS3505
ZGSZ,1997-09-06 04:00,ZGSZ 060400Z AUTO 24004KT 3SM 31/27 A2977 RMK T03100270 IEM_DS3505
ZGSZ,1997-09-06 05:00,ZGSZ 060500Z AUTO 24004KT 3SM 32/27 A2974 RMK T03200270 IEM_DS3505
ZGSZ,1997-09-06 06:00,ZGSZ 060600Z AUTO 14004KT 11SM 34/19 A2971 RMK SLP073 T03370191 57021 IEM_DS3505
ZGSZ,1997-09-06 07:00,ZGSZ 060700Z AUTO 23006KT 3SM 31/26 A2971 RMK T03100260 IEM_DS3505
ZGSZ,1997-09-06 08:00,ZGSZ 060800Z AUTO 19008KT 7SM 31/25 A2971 RMK T03100250 IEM_DS3505
ZGSZ,1997-09-06 09:00,ZGSZ 060900Z AUTO 14006KT 6SM 31/22 A2974 RMK SLP072 T03140221 57001 IEM_DS3505
ZGSZ,1997-09-06 10:00,ZGSZ 061000Z AUTO 08010KT 5SM 28/25 A2974 RMK T02800250 IEM_DS3505
ZGSZ,1997-09-06 11:00,ZGSZ 061100Z AUTO 13004KT 3SM 27/26 A2974 RMK T02700260 IEM_DS3505
ZGSZ,1997-09-06 12:00,ZGSZ 061200Z AUTO 14004KT 6SM 29/24 A2977 RMK SLP088 T02900240 52015 IEM_DS3505
ZGSZ,1997-09-06 13:00,ZGSZ 061300Z AUTO 12004KT 4SM 28/26 A2977 RMK T02800260 IEM_DS3505
ZGSZ,1997-09-06 14:00,ZGSZ 061400Z AUTO 14006KT 5SM 28/26 A2980 RMK T02800260 IEM_DS3505
ZGSZ,1997-09-06 18:00,ZGSZ 061800Z AUTO 04004KT 7SM 28/24 RMK SLP091 T02770241 57007 IEM_DS3505
ZGSZ,1997-09-06 21:00,ZGSZ 062100Z AUTO 04004KT 6SM 27/24 A2977 RMK SLP087 T02720245 57004 IEM_DS3505
ZGSZ,1997-09-06 22:00,ZGSZ 062200Z AUTO 03004KT 6SM 27/26 A2977 RMK T02700260 IEM_DS3505
ZGSZ,1997-09-06 23:00,ZGSZ 062300Z AUTO 06006KT 7SM 27/26 A2980 RMK T02700260 IEM_DS3505
ZGSZ,1997-09-07 00:00,ZGSZ 070000Z AUTO 04006KT 5SM 26/24 A2980 RMK 60035 70035 SLP093 T02550245 52005 IEM_DS3505
ZGSZ,1997-09-07 01:00,ZGSZ 070100Z AUTO 07010KT 7SM 26/25 A2980 RMK T02600250 IEM_DS3505
ZGSZ,1997-09-07 02:00,ZGSZ 070200Z AUTO 07008KT 7SM 27/26 A2983 RMK T02700260 IEM_DS3505
ZGSZ,1997-09-07 03:00,ZGSZ 070300Z AUTO 04006KT 4SM 25/24 A2983 RMK SLP108 T02540245 52015 IEM_DS3505
ZGSZ,1997-09-07 04:00,ZGSZ 070400Z AUTO 07012KT 7SM 27/25 A2983 RMK T02700250 IEM_DS3505
ZGSZ,1997-09-07 05:00,ZGSZ 070500Z AUTO 07010KT 7SM 27/25 A2980 RMK T02700250 IEM_DS3505
ZGSZ,1997-09-07 06:00,ZGSZ 070600Z AUTO 04008KT 8SM 26/24 A2980 RMK 60047 SLP095 T02620242 57013 IEM_DS3505
ZGSZ,1997-09-07 07:00,ZGSZ 070700Z AUTO 05008KT 7SM 26/25 A2977 RMK T02600250 IEM_DS3505
ZGSZ,1997-09-07 08:00,ZGSZ 070800Z AUTO 05008KT 7SM 26/25 A2977 RMK T02600250 IEM_DS3505
ZGSZ,1997-09-07 09:00,ZGSZ 070900Z AUTO 04006KT 7SM 25/24 A2977 RMK SLP091 T02540241 57004 IEM_DS3505
ZGSZ,1997-09-07 10:00,ZGSZ 071000Z AUTO 09008KT 7SM 26/25 A2977 RMK T02600250 IEM_DS3505
ZGSZ,1997-09-07 11:00,ZGSZ 071100Z AUTO 09006KT 7SM 26/25 A2980 RMK T02600250 IEM_DS3505
ZGSZ,1997-09-07 12:00,ZGSZ 071200Z AUTO 09002KT 7SM 25/24 A2980 RMK 60035 SLP103 T02520240 52012 IEM_DS3505
ZGSZ,1997-09-07 13:00,ZGSZ 071300Z AUTO 08006KT 7SM 26/25 A2983 RMK T02600250 IEM_DS3505
ZGSZ,1997-09-07 14:00,ZGSZ 071400Z AUTO 04006KT 7SM 25/25 A2983 RMK T02500250 IEM_DS3505
ZGSZ,1997-09-07 18:00,ZGSZ 071800Z AUTO 04004KT 11SM 25/24 RMK 60000 SLP103 T02540240 57005 IEM_DS3505
ZGSZ,1997-09-07 21:00,ZGSZ 072100Z AUTO 00000KT 4SM 25/24 RMK 70213 SLP104 T02470244 52001 IEM_DS3505
ZGSZ,1997-09-08 00:00,ZGSZ 080000Z AUTO 00000KT 4SM 26/25 A2985 RMK 60094 70177 SLP121 T02550248 52017 IEM_DS3505
ZGSZ,1997-09-08 01:00,ZGSZ 080100Z AUTO 03002KT 4SM 26/26 A2988 RMK T02600260 IEM_DS3505
ZGSZ,1997-09-08 02:00,ZGSZ 080200Z AUTO 00000KT 3SM 27/26 A2988 RMK T02700260 IEM_DS3505
ZGSZ,1997-09-08 03:00,ZGSZ 080300Z AUTO 22006KT 6SM 27/24 A2988 RMK SLP134 T02740241 52013 IEM_DS3505
ZGSZ,1997-09-08 04:00,ZGSZ 080400Z AUTO 21004KT 5SM 29/26 A2991 RMK T02900260 IEM_DS3505
ZGSZ,1997-09-08 05:00,ZGSZ 080500Z AUTO 23004KT 5SM 28/26 A2988 RMK T02800260 IEM_DS3505
ZGSZ,1997-09-08 06:00,ZGSZ 080600Z AUTO 22008KT 7SM 28/23 A2985 RMK T02810227 57011 IEM_DS3505
ZGSZ,1997-09-08 07:00,ZGSZ 080700Z AUTO 20016KT 7SM 27/26 A2985 RMK T02700260 IEM_DS3505
ZGSZ,1997-09-08 08:00,ZGSZ 080800Z AUTO 20016KT 7SM 26/25 A2985 RMK T02600250 IEM_DS3505
ZGSZ,1997-09-08 09:00,ZGSZ 080900Z AUTO 20002KT 14SM 27/24 A2985 RMK SLP123 T02670235 54000 IEM_DS3505
ZGSZ,1997-09-08 10:00,ZGSZ 081000Z AUTO 19014KT 7SM 27/26 A2985 RMK T02700260 IEM_DS3505
ZGSZ,1997-09-08 11:00,ZGSZ 081100Z AUTO 20010KT 7SM 27/26 A2985 RMK T02700260 IEM_DS3505
ZGSZ,1997-09-08 12:00,ZGSZ 081200Z AUTO 22004KT 12SM 27/24 A2988 RMK SLP129 T02680239 52006 IEM_DS3505
ZGSZ,1997-09-08 13:00,ZGSZ 081300Z AUTO 23004KT 6SM 26/25 A2988 RMK T02600250 IEM_DS3505
ZGSZ,1997-09-08 14:00,ZGSZ 081400Z AUTO 22004KT 6SM 26/25 A2991 RMK T02600250 IEM_DS3505
ZGSZ,1997-09-08 15:00,ZGSZ 081500Z AUTO 19006KT 7SM 26/25 A2991 RMK T02600250 IEM_DS3505
ZGSZ,1997-09-08 18:00,ZGSZ 081800Z AUTO 14004KT 11SM 26/24 RMK SLP131 T02600237 57006 IEM_DS3505
ZGSZ,1997-09-08 21:00,ZGSZ 082100Z AUTO 14006KT 9SM 26/24 RMK 70002 SLP124 T02570238 57007 IEM_DS3505
ZGSZ,1997-09-08 23:00,ZGSZ 082300Z AUTO 11004KT 7SM 26/26 A2988 RMK T02600260 IEM_DS3505
ZGSZ,1997-09-09 00:00,ZGSZ 090000Z AUTO 00000KT 19SM 26/24 A2991 RMK SLP136 T02630237 52012 IEM_DS3505
ZGSZ,1997-09-09 01:00,ZGSZ 090100Z AUTO 10004KT 7SM 28/26 A2991 RMK T02800260 IEM_DS3505
ZGSZ,1997-09-09 03:00,ZGSZ 090300Z AUTO 14002KT 19SM 29/24 A2994 RMK SLP143 T02910239 52007 IEM_DS3505
ZGSZ,1997-09-09 04:00,ZGSZ 090400Z AUTO 18006KT 7SM 29/26 A2991 RMK T02900260 IEM_DS3505
ZGSZ,1997-09-09 09:00,ZGSZ 090900Z AUTO 00000KT 7SM 28/26 A2985 RMK T02800260 IEM_DS3505
ZGSZ,1997-09-09 10:00,ZGSZ 091000Z AUTO 18004KT 7SM 28/26 A2985 RMK T02800260 IEM_DS3505
ZGSZ,1997-09-09 11:00,ZGSZ 091100Z AUTO 20006KT 7SM 28/26 A2988 RMK T02800260 IEM_DS3505
ZGSZ,1997-09-09 12:00,ZGSZ 091200Z AUTO 14002KT 12SM 28/24 A2988 RMK SLP132 T02810244 52012 IEM_DS3505
ZGSZ,1997-09-09 13:00,ZGSZ 091300Z AUTO 16006KT 6SM 28/26 A2991 RMK T02800260 IEM_DS3505
ZGSZ,1997-09-09 14:00,ZGSZ 091400Z AUTO 17004KT 6SM 28/26 A2991 RMK T02800260 IEM_DS3505
ZGSZ,1997-09-09 15:00,ZGSZ 091500Z AUTO 11006KT 6SM 27/26 A2991 RMK T02700260 IEM_DS3505
ZGSZ,1997-09-09 18:00,ZGSZ 091800Z AUTO 07004KT 12SM 27/24 RMK T02690240 57010 IEM_DS3505
ZGSZ,1997-09-09 21:00,ZGSZ 092100Z AUTO 00000KT 11SM 26/24 A2991 RMK SLP135 T02620242 52006 IEM_DS3505
ZGSZ,1997-09-09 22:00,ZGSZ 092200Z AUTO 08002KT 7SM 26/25 A2991 RMK T02600250 IEM_DS3505
ZGSZ,1997-09-09 23:00,ZGSZ 092300Z AUTO 09004KT 7SM 26/26 A2991 RMK T02600260 IEM_DS3505
ZGSZ,1997-09-10 00:00,ZGSZ 100000Z AUTO 10006KT 4SM 28/27 A2991 RMK T02800270 IEM_DS3505
ZGSZ,1997-09-10 01:00,ZGSZ 100100Z AUTO 19002KT 7SM 29/26 A2994 RMK T02900260 IEM_DS3505
ZGSZ,1997-09-10 02:00,ZGSZ 100200Z AUTO 24004KT 7SM 30/26 A2994 RMK T03000260 IEM_DS3505
ZGSZ,1997-09-10 03:00,ZGSZ 100300Z AUTO 24006KT 7SM 30/26 A2994 RMK T03000260 IEM_DS3505
ZGSZ,1997-09-10 04:00,ZGSZ 100400Z AUTO 24006KT 7SM 30/27 A2991 RMK T03000270 IEM_DS3505
ZGSZ,1997-09-10 05:00,ZGSZ 100500Z AUTO 23008KT 7SM 30/25 A2991 RMK T03000250 IEM_DS3505
ZGSZ,1997-09-10 06:00,ZGSZ 100600Z AUTO 20008KT 11SM 32/23 A2988 RMK SLP123 T03200229 57026 IEM_DS3505
ZGSZ,1997-09-10 07:00,ZGSZ 100700Z AUTO 21006KT 7SM 31/25 A2985 RMK T03100250 IEM_DS3505
ZGSZ,1997-09-10 08:00,ZGSZ 100800Z AUTO 20006KT 7SM 31/24 A2983 RMK T03100240 IEM_DS3505
ZGSZ,1997-09-10 09:00,ZGSZ 100900Z AUTO 27006KT 12SM 31/23 A2985 RMK SLP113 T03100232 57010 IEM_DS3505
ZGSZ,1997-09-10 10:00,ZGSZ 101000Z AUTO 20008KT 6SM 29/26 A2985 RMK T02900260 IEM_DS3505
ZGSZ,1997-09-10 11:00,ZGSZ 101100Z AUTO 19008KT 6SM 29/26 A2985 RMK T02900260 IEM_DS3505
ZGSZ,1997-09-10 12:00,ZGSZ 101200Z AUTO 22002KT 9SM 29/23 A2988 RMK SLP130 T02860234 52017 IEM_DS3505
ZGSZ,1997-09-10 13:00,ZGSZ 101300Z AUTO 17006KT 6SM 28/26 A2991 RMK T02800260 IEM_DS3505
ZGSZ,1997-09-10 14:00,ZGSZ 101400Z AUTO 14006KT 6SM 28/26 A2991 RMK T02800260 IEM_DS3505
ZGSZ,1997-09-10 15:00,ZGSZ 101500Z AUTO 11004KT 6SM 27/26 A2991 RMK T02700260 IEM_DS3505
ZGSZ,1997-09-10 16:00,ZGSZ 101600Z AUTO 11004KT 6SM 27/26 A2988 RMK T02700260 IEM_DS3505
ZGSZ,1997-09-10 18:00,ZGSZ 101800Z AUTO 14004KT 6SM 27/25 RMK SLP125 T02700246 52013 IEM_DS3505
ZGSZ,1997-09-10 21:00,ZGSZ 102100Z AUTO 31004KT 7SM 27/26 A2985 RMK T02700260 IEM_DS3505
ZGSZ,1997-09-10 22:00,ZGSZ 102200Z AUTO 03002KT 5SM 26/25 A2985 RMK T02600250 IEM_DS3505
ZGSZ,1997-09-10 23:00,ZGSZ 102300Z AUTO 02002KT 4SM 26/26 A2988 RMK T02600260 IEM_DS3505
ZGSZ,1997-09-11 00:00,ZGSZ 110000Z AUTO 35002KT 4SM 28/27 A2988 RMK T02800270 IEM_DS3505
ZGSZ,1997-09-11 01:00,ZGSZ 110100Z AUTO 30002KT 4SM 29/26 A2991 RMK T02900260 IEM_DS3505
ZGSZ,1997-09-11 02:00,ZGSZ 110200Z AUTO 29006KT 4SM 30/26 A2991 RMK T03000260 IEM_DS3505
ZGSZ,1997-09-11 03:00,ZGSZ 110300Z AUTO 32002KT 4SM 31/24 RMK SLP132 T03070238 52004 IEM_DS3505
ZGSZ,1997-09-11 04:00,ZGSZ 110400Z AUTO 26006KT 6SM 30/25 A2988 RMK T03000250 IEM_DS3505
ZGSZ,1997-09-11 05:00,ZGSZ 110500Z AUTO 25006KT 6SM 31/25 A2985 RMK T03100250 IEM_DS3505
ZGSZ,1997-09-11 06:00,ZGSZ 110600Z AUTO 27008KT 5SM 32/25 A2983 RMK SLP107 T03170250 57025 IEM_DS3505
ZGSZ,1997-09-11 07:00,ZGSZ 110700Z AUTO 25008KT 3SM 32/27 A2983 RMK T03200270 IEM_DS3505
ZGSZ,1997-09-11 08:00,ZGSZ 110800Z AUTO 24006KT 4SM 32/26 A2980 RMK T03200260 IEM_DS3505
ZGSZ,1997-09-11 09:00,ZGSZ 110900Z AUTO 22004KT 6SM 30/24 A2980 RMK SLP106 T03020241 57001 IEM_DS3505
ZGSZ,1997-09-11 10:00,ZGSZ 111000Z AUTO 18012KT 6SM 30/25 A2983 RMK T03000250 IEM_DS3505
ZGSZ,1997-09-11 11:00,ZGSZ 111100Z AUTO 17010KT 6SM 29/25 A2983 RMK T02900250 IEM_DS3505
ZGSZ,1997-09-11 12:00,ZGSZ 111200Z AUTO 11004KT 4SM 29/24 A2985 RMK SLP118 T02920245 52012 IEM_DS3505
ZGSZ,1997-09-11 13:00,ZGSZ 111300Z AUTO 18008KT 6SM 29/25 A2985 RMK T02900250 IEM_DS3505
ZGSZ,1997-09-11 14:00,ZGSZ 111400Z AUTO 18008KT 6SM 28/26 A2988 RMK T02800260 IEM_DS3505
ZGSZ,1997-09-11 15:00,ZGSZ 111500Z AUTO 16004KT 6SM 28/26 A2985 RMK T02800260 IEM_DS3505
ZGSZ,1997-09-11 18:00,ZGSZ 111800Z AUTO 00000KT 6SM 27/24 RMK SLP113 T02690240 57009 IEM_DS3505
ZGSZ,1997-09-11 21:00,ZGSZ 112100Z AUTO 31006KT 7SM 27/25 A2983 RMK T02700250 IEM_DS3505
ZGSZ,1997-09-11 22:00,ZGSZ 112200Z AUTO 30004KT 7SM 26/25 A2985 RMK T02600250 IEM_DS3505
ZGSZ,1997-09-11 23:00,ZGSZ 112300Z AUTO 35002KT 4SM 26/25 A2985 RMK T02600250 IEM_DS3505
ZGSZ,1997-09-12 00:00,ZGSZ 120000Z AUTO 35004KT 4SM 28/26 A2988 RMK T02800260 IEM_DS3505
ZGSZ,1997-09-12 01:00,ZGSZ 120100Z AUTO 30004KT 5SM 29/26 A2988 RMK T02900260 IEM_DS3505
ZGSZ,1997-09-12 02:00,ZGSZ 120200Z AUTO 24004KT 7SM 30/26 A2988 RMK T03000260 IEM_DS3505
ZGSZ,1997-09-12 03:00,ZGSZ 120300Z AUTO 00000KT 6SM 31/25 A2988 RMK SLP120 T03070246 57005 IEM_DS3505
ZGSZ,1997-09-12 04:00,ZGSZ 120400Z AUTO 25006KT 6SM 31/24 A2985 RMK T03100240 IEM_DS3505
ZGSZ,1997-09-12 05:00,ZGSZ 120500Z AUTO 23006KT 6SM 31/25 A2983 RMK T03100250 IEM_DS3505
ZGSZ,1997-09-12 06:00,ZGSZ 120600Z AUTO 18006KT 4SM 32/24 A2983 RMK SLP102 T03170237 57018 IEM_DS3505
ZGSZ,1997-09-12 07:00,ZGSZ 120700Z AUTO 22008KT 6SM 32/26 A2980 RMK T03200260 IEM_DS3505
ZGSZ,1997-09-12 08:00,ZGSZ 120800Z AUTO 19008KT 6SM 31/27 A2977 RMK T03100270 IEM_DS3505
ZGSZ,1997-09-12 09:00,ZGSZ 120900Z AUTO 25006KT 7SM 31/25 A2980 RMK SLP096 T03120252 57006 IEM_DS3505
ZGSZ,1997-09-12 10:00,ZGSZ 121000Z AUTO 18010KT 7SM 30/27 A2980 RMK T03000270 IEM_DS3505
ZGSZ,1997-09-12 11:00,ZGSZ 121100Z AUTO 18012KT 6SM 29/27 A2980 RMK T02900270 IEM_DS3505
ZGSZ,1997-09-12 12:00,ZGSZ 121200Z AUTO 18010KT 6SM 29/26 A2983 RMK T02900260 IEM_DS3505
ZGSZ,1997-09-12 13:00,ZGSZ 121300Z AUTO 18010KT 6SM 29/26 A2983 RMK T02900260 IEM_DS3505
ZGSZ,1997-09-12 14:00,ZGSZ 121400Z AUTO 19008KT 6SM 29/26 A2985 RMK T02900260 IEM_DS3505
ZGSZ,1997-09-12 15:00,ZGSZ 121500Z AUTO 18006KT 6SM 28/26 A2985 RMK T02800260 IEM_DS3505
ZGSZ,1997-09-12 16:00,ZGSZ 121600Z AUTO 17006KT 6SM 28/26 A2985 RMK T02800260 IEM_DS3505
ZGSZ,1997-09-12 18:00,ZGSZ 121800Z AUTO 00000KT 4SM 28/24 RMK SLP113 T02750245 57001 IEM_DS3505
ZGSZ,1997-09-12 21:00,ZGSZ 122100Z AUTO 00000KT 4SM 27/24 A2985 RMK SLP120 T02670240 52007 IEM_DS3505
ZGSZ,1997-09-12 22:00,ZGSZ 122200Z AUTO 09002KT 7SM 26/26 A2988 RMK T02600260 IEM_DS3505
ZGSZ,1997-09-12 23:00,ZGSZ 122300Z AUTO 00000KT 4SM 27/26 A2988 RMK T02700260 IEM_DS3505
ZGSZ,1997-09-13 00:00,ZGSZ 130000Z AUTO 00000KT 4SM 29/27 A2988 RMK T02900270 IEM_DS3505
ZGSZ,1997-09-13 01:00,ZGSZ 130100Z AUTO 25004KT 7SM 29/26 A2991 RMK T02900260 IEM_DS3505
ZGSZ,1997-09-13 02:00,ZGSZ 130200Z AUTO 27002KT 6SM 30/27 A2991 RMK T03000270 IEM_DS3505
ZGSZ,1997-09-13 03:00,ZGSZ 130300Z AUTO 00000KT 4SM 30/24 A2991 RMK SLP133 T03030240 54000 IEM_DS3505
ZGSZ,1997-09-13 04:00,ZGSZ 130400Z AUTO 24006KT 6SM 30/26 A2988 RMK T03000260 IEM_DS3505
ZGSZ,1997-09-13 06:00,ZGSZ 130600Z AUTO 27006KT 4SM 33/26 A2983 RMK SLP101 T03270259 57031 IEM_DS3505
ZGSZ,1997-09-13 07:00,ZGSZ 130700Z AUTO 24004KT 6SM 31/25 A2980 RMK T03100250 IEM_DS3505
ZGSZ,1997-09-13 08:00,ZGSZ 130800Z AUTO 22004KT 7SM 32/26 A2977 RMK T03200260 IEM_DS3505
ZGSZ,1997-09-13 09:00,ZGSZ 130900Z AUTO 14004KT 4SM 31/23 A2977 RMK SLP090 T03070227 57012 IEM_DS3505
ZGSZ,1997-09-13 10:00,ZGSZ 131000Z AUTO 18008KT 7SM 30/27 A2977 RMK T03000270 IEM_DS3505
ZGSZ,1997-09-13 11:00,ZGSZ 131100Z AUTO 18008KT 7SM 30/27 A2977 RMK T03000270 IEM_DS3505
ZGSZ,1997-09-13 12:00,ZGSZ 131200Z AUTO 14006KT 4SM 29/23 A2980 RMK SLP101 T02930232 52011 IEM_DS3505
ZGSZ,1997-09-13 13:00,ZGSZ 131300Z AUTO 16008KT 6SM 29/27 A2983 RMK T02900270 IEM_DS3505
ZGSZ,1997-09-13 14:00,ZGSZ 131400Z AUTO 17010KT 6SM 29/27 A2983 RMK T02900270 IEM_DS3505
ZGSZ,1997-09-13 15:00,ZGSZ 131500Z AUTO 16006KT 6SM 29/27 A2983 RMK T02900270 IEM_DS3505
ZGSZ,1997-09-13 18:00,ZGSZ 131800Z AUTO 04004KT 5SM 28/25 RMK SLP105 T02780248 57004 IEM_DS3505
ZGSZ,1997-09-13 21:00,ZGSZ 132100Z AUTO 09006KT 8SM 25/24 A2983 RMK 70055 SLP107 T02460237 52001 IEM_DS3505
ZGSZ,1997-09-13 22:00,ZGSZ 132200Z AUTO 32010KT 1 1/4SM 24/24 A2983 RMK T02400240 IEM_DS3505
ZGSZ,1997-09-13 23:00,ZGSZ 132300Z AUTO 25004KT 4SM 23/23 A2985 RMK T02300230 IEM_DS3505
ZGSZ,1997-09-14 00:00,ZGSZ 140000Z AUTO 00000KT 4SM 26/24 A2988 RMK 60055 70055 SLP121 T02560236 52014 IEM_DS3505
ZGSZ,1997-09-14 01:00,ZGSZ 140100Z AUTO 00000KT 3SM 25/25 A2988 RMK T02500250 IEM_DS3505
ZGSZ,1997-09-14 02:00,ZGSZ 140200Z AUTO 35004KT 2 1/2SM 27/26 A2988 RMK T02700260 IEM_DS3505
ZGSZ,1997-09-14 03:00,ZGSZ 140300Z AUTO 27008KT 7SM 30/21 RMK SLP118 T03010207 57003 IEM_DS3505
ZGSZ,1997-09-14 04:00,ZGSZ 140400Z AUTO 29006KT 3SM 30/27 A2985 RMK T03000270 IEM_DS3505
ZGSZ,1997-09-14 05:00,ZGSZ 140500Z AUTO 28008KT 4SM 30/27 A2983 RMK T03000270 IEM_DS3505
ZGSZ,1997-09-14 06:00,ZGSZ 140600Z AUTO 14006KT 7SM 31/20 A2980 RMK SLP100 T03080202 57018 IEM_DS3505
ZGSZ,1997-09-14 07:00,ZGSZ 140700Z AUTO 23006KT 4SM 30/26 A2977 RMK T03000260 IEM_DS3505
ZGSZ,1997-09-14 08:00,ZGSZ 140800Z AUTO 22006KT 4SM 31/26 A2977 RMK T03100260 IEM_DS3505
ZGSZ,1997-09-14 09:00,ZGSZ 140900Z AUTO 09004KT 7SM 31/21 A2974 RMK SLP080 T03110209 57020 IEM_DS3505
ZGSZ,1997-09-14 10:00,ZGSZ 141000Z AUTO 20010KT 6SM 30/24 A2977 RMK T03000240 IEM_DS3505
ZGSZ,1997-09-14 11:00,ZGSZ 141100Z AUTO 19010KT 6SM 29/24 A2977 RMK T02900240 IEM_DS3505
ZGSZ,1997-09-14 12:00,ZGSZ 141200Z AUTO 14004KT 5SM 29/22 RMK SLP096 T02870216 52016 IEM_DS3505
ZGSZ,1997-09-14 13:00,ZGSZ 141300Z AUTO 28006KT 7SM 28/22 A2983 RMK T02800220 IEM_DS3505
ZGSZ,1997-09-14 14:00,ZGSZ 141400Z AUTO 30002KT 4SM 25/24 A2985 RMK T02500240 IEM_DS3505
ZGSZ,1997-09-14 15:00,ZGSZ 141500Z AUTO 00000KT 3SM 25/24 A2985 RMK T02500240 IEM_DS3505
ZGSZ,1997-09-14 16:00,ZGSZ 141600Z AUTO 00000KT 3SM 25/25 A2983 RMK T02500250 IEM_DS3505
ZGSZ,1997-09-14 17:00,ZGSZ 141700Z AUTO 03002KT 3SM 26/25 A2983 RMK T02600250 IEM_DS3505
ZGSZ,1997-09-14 18:00,ZGSZ 141800Z AUTO 04002KT 4SM 27/24 RMK 60000 SLP105 T02660237 57012 IEM_DS3505
ZGSZ,1997-09-14 21:00,ZGSZ 142100Z AUTO 04002KT 4SM 26/24 RMK 70002 SLP100 T02570235 57005 IEM_DS3505
ZGSZ,1997-09-14 22:00,ZGSZ 142200Z AUTO 04002KT 3SM 25/25 A2980 RMK T02500250 IEM_DS3505
ZGSZ,1997-09-14 23:00,ZGSZ 142300Z AUTO 09004KT 2 1/2SM 26/25 A2983 RMK T02600250 IEM_DS3505
ZGSZ,1997-09-15 00:00,ZGSZ 150000Z AUTO 04006KT 4SM 26/23 A2983 RMK 60001 70002 SLP109 T02620231 52009 IEM_DS3505
ZGSZ,1997-09-15 01:00,ZGSZ 150100Z AUTO 36006KT 2SM 28/26 A2985 RMK T02800260 IEM_DS3505
ZGSZ,1997-09-15 02:00,ZGSZ 150200Z AUTO 01002KT 2 1/2SM 28/25 A2988 RMK T02800250 IEM_DS3505
ZGSZ,1997-09-15 03:00,ZGSZ 150300Z AUTO 09004KT 6SM 30/23 RMK SLP119 T02950233 52010 IEM_DS3505
ZGSZ,1997-09-15 04:00,ZGSZ 150400Z AUTO 01004KT 4SM 31/25 A2985 RMK T03100250 IEM_DS3505
ZGSZ,1997-09-15 05:00,ZGSZ 150500Z AUTO 09004KT 4SM 32/26 A2983 RMK T03200260 IEM_DS3505
ZGSZ,1997-09-15 06:00,ZGSZ 150600Z AUTO 00000KT 6SM 32/23 RMK SLP095 T03170226 57024 IEM_DS3505
ZGSZ,1997-09-15 07:00,ZGSZ 150700Z AUTO 29006KT 7SM 32/24 A2977 RMK T03200240 IEM_DS3505
ZGSZ,1997-09-15 08:00,ZGSZ 150800Z AUTO 29006KT 5SM 32/25 A2974 RMK T03200250 IEM_DS3505
ZGSZ,1997-09-15 09:00,ZGSZ 150900Z AUTO 32004KT 6SM 29/24 RMK SLP090 T02890243 57005 IEM_DS3505
ZGSZ,1997-09-15 10:00,ZGSZ 151000Z AUTO 16008KT 4SM 29/26 A2977 RMK T02900260 IEM_DS3505
ZGSZ,1997-09-15 11:00,ZGSZ 151100Z AUTO 15004KT 2SM 28/26 A2977 RMK T02800260 IEM_DS3505
ZGSZ,1997-09-15 12:00,ZGSZ 151200Z AUTO 22006KT 2 1/2SM 29/26 A2980 RMK T02900260 IEM_DS3505
ZGSZ,1997-09-15 13:00,ZGSZ 151300Z AUTO 19004KT 2 1/2SM 28/26 A2983 RMK T02800260 IEM_DS3505
ZGSZ,1997-09-15 14:00,ZGSZ 151400Z AUTO 10008KT 2SM 27/25 A2985 RMK T02700250 IEM_DS3505
ZGSZ,1997-09-15 18:00,ZGSZ 151800Z AUTO 04002KT 4SM 27/24 RMK SLP109 T02700241 57005 IEM_DS3505
ZGSZ,1997-09-15 21:00,ZGSZ 152100Z AUTO 04008KT 4SM 26/22 RMK SLP109 T02640220 54000 IEM_DS3505
ZGSZ,1997-09-15 23:00,ZGSZ 152300Z AUTO 03010KT 4SM 26/23 A2985 RMK T02600230 IEM_DS3505
ZGSZ,1997-09-16 00:00,ZGSZ 160000Z AUTO 02008KT 4SM 26/23 A2988 RMK T02600230 IEM_DS3505
ZGSZ,1997-09-16 01:00,ZGSZ 160100Z AUTO 04008KT 3SM 27/24 A2991 RMK T02700240 IEM_DS3505
ZGSZ,1997-09-16 02:00,ZGSZ 160200Z AUTO 02008KT 3SM 28/24 A2991 RMK T02800240 IEM_DS3505
ZGSZ,1997-09-16 03:00,ZGSZ 160300Z AUTO 02012KT 4SM 29/22 RMK SLP135 T02910217 52010 IEM_DS3505
ZGSZ,1997-09-16 04:00,ZGSZ 160400Z AUTO 06006KT 4SM 30/24 A2991 RMK T03000240 IEM_DS3505
ZGSZ,1997-09-16 05:00,ZGSZ 160500Z AUTO 03004KT 4SM 31/24 A2988 RMK T03100240 IEM_DS3505
ZGSZ,1997-09-16 06:00,ZGSZ 160600Z AUTO 07004KT 6SM 30/22 RMK SLP125 T03030221 57010 IEM_DS3505
ZGSZ,1997-09-16 07:00,ZGSZ 160700Z AUTO 33002KT 7SM 30/24 A2985 RMK T03000240 IEM_DS3505
ZGSZ,1997-09-16 08:00,ZGSZ 160800Z AUTO 05006KT 4SM 30/24 A2985 RMK T03000240 IEM_DS3505
ZGSZ,1997-09-16 09:00,ZGSZ 160900Z AUTO 14004KT 5SM 29/23 RMK SLP115 T02910229 57010 IEM_DS3505
ZGSZ,1997-09-16 10:00,ZGSZ 161000Z AUTO 15010KT 3SM 28/25 A2985 RMK T02800250 IEM_DS3505
ZGSZ,1997-09-16 11:00,ZGSZ 161100Z AUTO 14006KT 3SM 28/25 A2988 RMK T02800250 IEM_DS3505
ZGSZ,1997-09-16 12:00,ZGSZ 161200Z AUTO 10004KT 2 1/2SM 27/25 A2988 RMK T02700250 IEM_DS3505
ZGSZ,1997-09-16 13:00,ZGSZ 161300Z AUTO 13004KT 2 1/2SM 27/25 A2994 RMK T02700250 IEM_DS3505
ZGSZ,1997-09-16 14:00,ZGSZ 161400Z AUTO 04002KT 4SM 27/23 A2994 RMK T02700230 IEM_DS3505
ZGSZ,1997-09-16 18:00,ZGSZ 161800Z AUTO 09004KT 7SM 26/20 RMK SLP144 T02580200 57008 IEM_DS3505
ZGSZ,1997-09-16 21:00,ZGSZ 162100Z AUTO 02006KT 9SM 25/19 RMK 70001 SLP143 T02470193 57001 IEM_DS3505
ZGSZ,1997-09-16 22:00,ZGSZ 162200Z AUTO 01008KT 6SM 23/21 A2994 RMK T02300210 IEM_DS3505
ZGSZ,1997-09-16 23:00,ZGSZ 162300Z AUTO 01006KT 7SM 24/21 A2994 RMK T02400210 IEM_DS3505
ZGSZ,1997-09-17 00:00,ZGSZ 170000Z AUTO 04008KT 9SM 25/19 A2997 RMK 70001 SLP154 T02510189 52011 IEM_DS3505
ZGSZ,1997-09-17 01:00,ZGSZ 170100Z AUTO 05004KT 6SM 26/22 A2997 RMK T02600220 IEM_DS3505
ZGSZ,1997-09-17 03:00,ZGSZ 170300Z AUTO 04004KT 8SM 28/20 RMK SLP154 T02840204 54000 IEM_DS3505
ZGSZ,1997-09-17 04:00,ZGSZ 170400Z AUTO 25004KT 6SM 30/24 A2994 RMK T03000240 IEM_DS3505
ZGSZ,1997-09-17 05:00,ZGSZ 170500Z AUTO 30008KT 7SM 30/24 A2991 RMK T03000240 IEM_DS3505
ZGSZ,1997-09-17 06:00,ZGSZ 170600Z AUTO 09006KT 8SM 31/22 A2991 RMK SLP135 T03100219 57019 IEM_DS3505
ZGSZ,1997-09-17 07:00,ZGSZ 170700Z AUTO 28008KT 7SM 30/23 A2988 RMK T03000230 IEM_DS3505
ZGSZ,1997-09-17 08:00,ZGSZ 170800Z AUTO 27008KT 5SM 30/23 A2988 RMK T03000230 IEM_DS3505
ZGSZ,1997-09-17 09:00,ZGSZ 170900Z AUTO 09006KT 7SM 29/22 RMK SLP126 T02940216 57009 IEM_DS3505
ZGSZ,1997-09-17 10:00,ZGSZ 171000Z AUTO 21004KT 4SM 29/24 A2988 RMK T02900240 IEM_DS3505
ZGSZ,1997-09-17 11:00,ZGSZ 171100Z AUTO 16006KT 3SM 29/24 A2988 RMK T02900240 IEM_DS3505
ZGSZ,1997-09-17 12:00,ZGSZ 171200Z AUTO 12004KT 2 1/2SM 28/24 A2991 RMK T02800240 IEM_DS3505
ZGSZ,1997-09-17 13:00,ZGSZ 171300Z AUTO 11006KT 2 1/2SM 28/25 A2991 RMK T02800250 IEM_DS3505
ZGSZ,1997-09-17 14:00,ZGSZ 171400Z AUTO 11006KT 4SM 27/24 A2994 RMK T02700240 IEM_DS3505
ZGSZ,1997-09-17 15:00,ZGSZ 171500Z AUTO 11006KT 4SM 27/24 A2994 RMK T02700240 IEM_DS3505
ZGSZ,1997-09-17 18:00,ZGSZ 171800Z AUTO 18004KT 5SM 27/23 RMK SLP140 T02680230 57007 IEM_DS3505
ZGSZ,1997-09-17 21:00,ZGSZ 172100Z AUTO 04004KT 4SM 25/24 RMK 70035 SLP140 T02510238 54000 IEM_DS3505
ZGSZ,1997-09-17 22:00,ZGSZ 172200Z AUTO 05004KT 3SM 26/24 A2994 RMK T02600240 IEM_DS3505
ZGSZ,1997-09-17 23:00,ZGSZ 172300Z AUTO 05006KT 3SM 26/24 A2994 RMK T02600240 IEM_DS3505
ZGSZ,1997-09-18 00:00,ZGSZ 180000Z AUTO 07008KT 4SM 26/24 A2994 RMK T02600240 IEM_DS3505
ZGSZ,1997-09-18 01:00,ZGSZ 180100Z AUTO 07006KT 4SM 27/24 A2997 RMK T02700240 IEM_DS3505
ZGSZ,1997-09-18 02:00,ZGSZ 180200Z AUTO 09006KT 4SM 29/23 A2997 RMK T02900230 IEM_DS3505
ZGSZ,1997-09-18 03:00,ZGSZ 180300Z AUTO 09006KT 5SM 29/22 RMK SLP157 T02920218 54000 IEM_DS3505
ZGSZ,1997-09-18 04:00,ZGSZ 180400Z AUTO 26004KT 4SM 29/24 A2994 RMK T02900240 IEM_DS3505
ZGSZ,1997-09-18 05:00,ZGSZ 180500Z AUTO 22006KT 4SM 30/25 A2994 RMK T03000250 IEM_DS3505
ZGSZ,1997-09-18 06:00,ZGSZ 180600Z AUTO 09006KT 7SM 30/22 A2991 RMK SLP135 T03000224 57022 IEM_DS3505
ZGSZ,1997-09-18 07:00,ZGSZ 180700Z AUTO 21006KT 4SM 30/26 A2988 RMK T03000260 IEM_DS3505
ZGSZ,1997-09-18 08:00,ZGSZ 180800Z AUTO 20008KT 5SM 28/26 A2988 RMK T02800260 IEM_DS3505
ZGSZ,1997-09-18 09:00,ZGSZ 180900Z AUTO 29004KT 6SM 29/24 RMK SLP125 T02880241 57010 IEM_DS3505
ZGSZ,1997-09-18 10:00,ZGSZ 181000Z AUTO 19004KT 3SM 28/26 A2988 RMK T02800260 IEM_DS3505
ZGSZ,1997-09-18 11:00,ZGSZ 181100Z AUTO 18004KT 3SM 28/26 A2988 RMK T02800260 IEM_DS3505
ZGSZ,1997-09-18 12:00,ZGSZ 181200Z AUTO 00000KT 6SM 25/24 RMK 60181 SLP136 T02470235 52011 IEM_DS3505
ZGSZ,1997-09-18 13:00,ZGSZ 181300Z AUTO 21004KT 2 1/2SM 27/25 A2994 RMK T02700250 IEM_DS3505
ZGSZ,1997-09-18 14:00,ZGSZ 181400Z AUTO 13006KT 2SM 26/25 A2994 RMK T02600250 IEM_DS3505
ZGSZ,1997-09-18 15:00,ZGSZ 181500Z AUTO 10004KT 2SM 26/25 A2994 RMK T02600250 IEM_DS3505
ZGSZ,1997-09-18 16:00,ZGSZ 181600Z AUTO 13004KT 2 1/2SM 26/25 A2994 RMK T02600250 IEM_DS3505
ZGSZ,1997-09-18 17:00,ZGSZ 181700Z AUTO 10002KT 2 1/2SM 26/25 A2994 RMK T02600250 IEM_DS3505
ZGSZ,1997-09-18 18:00,ZGSZ 181800Z AUTO 00000KT 6SM 25/24 A2994 RMK 60039 SLP143 T02470241 57008 IEM_DS3505
ZGSZ,1997-09-18 19:00,ZGSZ 181900Z AUTO 07006KT 2 1/2SM 26/24 A2991 RMK T02600240 IEM_DS3505
ZGSZ,1997-09-18 21:00,ZGSZ 182100Z AUTO 02008KT 8SM 25/21 A2991 RMK 70217 SLP137 T02470211 57006 IEM_DS3505
ZGSZ,1997-09-18 22:00,ZGSZ 182200Z AUTO 06004KT 2 1/2SM 25/22 A2991 RMK T02500220 IEM_DS3505
ZGSZ,1997-09-18 23:00,ZGSZ 182300Z AUTO 03004KT 2 1/2SM 25/22 A2994 RMK T02500220 IEM_DS3505
ZGSZ,1997-09-19 00:00,ZGSZ 190000Z AUTO 36006KT 5SM 25/21 A2994 RMK 70217 SLP150 T02470209 52013 IEM_DS3505
ZGSZ,1997-09-19 01:00,ZGSZ 190100Z AUTO 36006KT 2 1/2SM 27/22 A2997 RMK T02700220 IEM_DS3505
ZGSZ,1997-09-19 02:00,ZGSZ 190200Z AUTO 07006KT 4SM 28/23 A2997 RMK T02800230 IEM_DS3505
ZGSZ,1997-09-19 03:00,ZGSZ 190300Z AUTO 04006KT 6SM 28/22 A2997 RMK SLP152 T02750217 52002 IEM_DS3505
ZGSZ,1997-09-19 04:00,ZGSZ 190400Z AUTO 08006KT 4SM 30/24 A2994 RMK T03000240 IEM_DS3505
ZGSZ,1997-09-19 05:00,ZGSZ 190500Z AUTO 08004KT 4SM 30/24 A2991 RMK T03000240 IEM_DS3505
ZGSZ,1997-09-19 06:00,ZGSZ 190600Z AUTO 09008KT 7SM 30/24 A2988 RMK SLP131 T03000240 57021 IEM_DS3505
ZGSZ,1997-09-19 07:00,ZGSZ 190700Z AUTO 20002KT 4SM 29/24 A2988 RMK T02900240 IEM_DS3505
ZGSZ,1997-09-19 08:00,ZGSZ 190800Z AUTO 16010KT 7SM 27/24 A2988 RMK T02700240 IEM_DS3505
ZGSZ,1997-09-19 09:00,ZGSZ 190900Z AUTO 09006KT 6SM 27/23 A2988 RMK SLP126 T02740226 57005 IEM_DS3505
ZGSZ,1997-09-19 10:00,ZGSZ 191000Z AUTO 05004KT 7SM 27/25 A2988 RMK T02700250 IEM_DS3505
ZGSZ,1997-09-19 11:00,ZGSZ 191100Z AUTO 07004KT 7SM 27/24 A2991 RMK T02700240 IEM_DS3505
ZGSZ,1997-09-19 12:00,ZGSZ 191200Z AUTO 14004KT 5SM 27/22 A2991 RMK SLP142 T02720224 52016 IEM_DS3505
ZGSZ,1997-09-19 13:00,ZGSZ 191300Z AUTO 10006KT 7SM 27/24 A2994 RMK T02700240 IEM_DS3505
ZGSZ,1997-09-19 14:00,ZGSZ 191400Z AUTO 10004KT 7SM 27/24 A2997 RMK T02700240 IEM_DS3505
ZGSZ,1997-09-19 15:00,ZGSZ 191500Z AUTO 06004KT 4SM 27/24 A2997 RMK T02700240 IEM_DS3505
ZGSZ,1997-09-19 16:00,ZGSZ 191600Z AUTO 06002KT 2 1/2SM 27/24 A2994 RMK T02700240 IEM_DS3505
ZGSZ,1997-09-19 17:00,ZGSZ 191700Z AUTO 08002KT 3SM 27/24 A2994 RMK T02700240 IEM_DS3505
ZGSZ,1997-09-19 18:00,ZGSZ 191800Z AUTO 09006KT 6SM 26/22 A2994 RMK SLP142 T02650225 57011 IEM_DS3505
ZGSZ,1997-09-19 19:00,ZGSZ 191900Z AUTO 07002KT 3SM 26/24 A2991 RMK T02600240 IEM_DS3505
ZGSZ,1997-09-19 21:00,ZGSZ 192100Z AUTO 09006KT 5SM 26/22 A2991 RMK SLP135 T02620222 57007 IEM_DS3505
ZGSZ,1997-09-19 22:00,ZGSZ 192200Z AUTO 03002KT 3SM 26/24 A2991 RMK T02600240 IEM_DS3505
ZGSZ,1997-09-19 23:00,ZGSZ 192300Z AUTO 08006KT 2 1/2SM 25/24 A2991 RMK T02500240 IEM_DS3505
ZGSZ,1997-09-20 00:00,ZGSZ 200000Z AUTO 09006KT 4SM 26/22 A2991 RMK SLP144 T02640221 52009 IEM_DS3505
ZGSZ,1997-09-20 01:00,ZGSZ 200100Z AUTO 09008KT 4SM 28/24 A2994 RMK T02800240 IEM_DS3505
ZGSZ,1997-09-20 02:00,ZGSZ 200200Z AUTO 11006KT 3SM 29/24 A2994 RMK T02900240 IEM_DS3505
ZGSZ,1997-09-20 03:00,ZGSZ 200300Z AUTO 09008KT 4SM 29/23 A2994 RMK SLP145 T02920230 52001 IEM_DS3505
ZGSZ,1997-09-20 04:00,ZGSZ 200400Z AUTO 29002KT 4SM 29/24 A2991 RMK T02900240 IEM_DS3505
ZGSZ,1997-09-20 05:00,ZGSZ 200500Z AUTO 27002KT 3SM 30/25 A2988 RMK T03000250 IEM_DS3505
ZGSZ,1997-09-20 06:00,ZGSZ 200600Z AUTO 09006KT 6SM 29/22 A2988 RMK SLP123 T02870224 57022 IEM_DS3505
ZGSZ,1997-09-20 07:00,ZGSZ 200700Z AUTO 09006KT 3SM 27/25 A2985 RMK T02700250 IEM_DS3505
ZGSZ,1997-09-20 08:00,ZGSZ 200800Z AUTO 12004KT 2 1/2SM 27/25 A2985 RMK T02700250 IEM_DS3505
ZGSZ,1997-09-20 09:00,ZGSZ 200900Z AUTO 14006KT 7SM 28/22 A2985 RMK SLP117 T02780219 57006 IEM_DS3505
ZGSZ,1997-09-20 11:00,ZGSZ 201100Z AUTO 34006KT 2SM 26/25 A2988 RMK T02600250 IEM_DS3505
ZGSZ,1997-09-20 12:00,ZGSZ 201200Z AUTO 09006KT 5SM 27/22 A2991 RMK SLP136 T02720219 52019 IEM_DS3505
ZGSZ,1997-09-20 13:00,ZGSZ 201300Z AUTO 36012KT 2SM 23/23 A2994 RMK T02300230 IEM_DS3505
ZGSZ,1997-09-20 14:00,ZGSZ 201400Z AUTO 01014KT 1 1/4SM 23/23 A2997 RMK T02300230 IEM_DS3505
ZGSZ,1997-09-20 18:00,ZGSZ 201800Z AUTO 36010KT 3SM 20/19 RMK 60024 SLP154 T02040190 57005 IEM_DS3505
ZGSZ,1997-09-20 21:00,ZGSZ 202100Z AUTO 04014KT 9SM 19/17 RMK 70035 SLP155 T01940168 52001 IEM_DS3505
ZGSZ,1997-09-20 22:00,ZGSZ 202200Z AUTO 02012KT 7SM 19/19 A3000 RMK T01900190 IEM_DS3505
ZGSZ,1997-09-20 23:00,ZGSZ 202300Z AUTO 02014KT 7SM 19/18 A3000 RMK T01900180 IEM_DS3505
ZGSZ,1997-09-21 00:00,ZGSZ 210000Z AUTO 04012KT 17SM 19/15 A3000 RMK 60012 70035 SLP170 T01930154 52015 IEM_DS3505
ZGSZ,1997-09-21 01:00,ZGSZ 210100Z AUTO 02010KT 7SM 19/18 A3003 RMK T01900180 IEM_DS3505
ZGSZ,1997-09-21 02:00,ZGSZ 210200Z AUTO 02008KT 7SM 19/18 A3003 RMK T01900180 IEM_DS3505
ZGSZ,1997-09-21 03:00,ZGSZ 210300Z AUTO 04008KT 19SM 19/16 A3003 RMK SLP178 T01940164 52008 IEM_DS3505
ZGSZ,1997-09-21 04:00,ZGSZ 210400Z AUTO 36012KT 7SM 19/18 A3003 RMK T01900180 IEM_DS3505
ZGSZ,1997-09-21 05:00,ZGSZ 210500Z AUTO 01012KT 7SM 19/18 A3003 RMK T01900180 IEM_DS3505
ZGSZ,1997-09-21 06:00,ZGSZ 210600Z AUTO 36012KT 17SM 20/16 A3000 RMK 60004 SLP162 T01950158 57016 IEM_DS3505
ZGSZ,1997-09-21 07:00,ZGSZ 210700Z AUTO 01010KT 7SM 19/18 A3000 RMK T01900180 IEM_DS3505
ZGSZ,1997-09-21 08:00,ZGSZ 210800Z AUTO 01012KT 2SM 18/18 A3000 RMK T01800180 IEM_DS3505
ZGSZ,1997-09-21 09:00,ZGSZ 210900Z AUTO 04006KT 5SM 18/17 A3000 RMK SLP167 T01830172 52005 IEM_DS3505
ZGSZ,1997-09-21 10:00,ZGSZ 211000Z AUTO 01006KT 4SM 19/19 A3000 RMK T01900190 IEM_DS3505
ZGSZ,1997-09-21 11:00,ZGSZ 211100Z AUTO 05008KT 4SM 19/19 A3000 RMK T01900190 IEM_DS3505
ZGSZ,1997-09-21 12:00,ZGSZ 211200Z AUTO 04014KT 11SM 19/17 A3003 RMK 60020 SLP172 T01860170 52005 IEM_DS3505
ZGSZ,1997-09-21 13:00,ZGSZ 211300Z AUTO 02006KT 7SM 19/18 A3003 RMK T01900180 IEM_DS3505
ZGSZ,1997-09-21 14:00,ZGSZ 211400Z AUTO 01008KT 7SM 19/18 A3003 RMK T01900180 IEM_DS3505
ZGSZ,1997-09-21 15:00,ZGSZ 211500Z AUTO 01010KT 7SM 20/18 A3003 RMK T02000180 IEM_DS3505
ZGSZ,1997-09-21 18:00,ZGSZ 211800Z AUTO 02008KT 11SM 20/16 RMK SLP171 T01990161 57004 IEM_DS3505
ZGSZ,1997-09-21 21:00,ZGSZ 212100Z AUTO 02010KT 11SM 20/16 A3000 RMK 70028 SLP171 T02010163 54000 IEM_DS3505
ZGSZ,1997-09-21 22:00,ZGSZ 212200Z AUTO 04004KT 6SM 21/18 A3000 RMK T02100180 IEM_DS3505
ZGSZ,1997-09-22 00:00,ZGSZ 220000Z AUTO 04006KT 12SM 21/17 RMK 70028 SLP180 T02060167 52009 IEM_DS3505
ZGSZ,1997-09-22 01:00,ZGSZ 220100Z AUTO 36010KT 6SM 22/19 A3006 RMK T02200190 IEM_DS3505
ZGSZ,1997-09-22 02:00,ZGSZ 220200Z AUTO 02010KT 6SM 23/19 A3006 RMK T02300190 IEM_DS3505
ZGSZ,1997-09-22 03:00,ZGSZ 220300Z AUTO 02008KT 11SM 23/17 A3006 RMK SLP183 T02290174 52003 IEM_DS3505
ZGSZ,1997-09-22 04:00,ZGSZ 220400Z AUTO 02008KT 6SM 24/19 A3003 RMK T02400190 IEM_DS3505
ZGSZ,1997-09-22 05:00,ZGSZ 220500Z AUTO 01008KT 6SM 24/20 A3000 RMK T02400200 IEM_DS3505
ZGSZ,1997-09-22 06:00,ZGSZ 220600Z AUTO 01010KT 7SM 25/20 A2997 RMK T02500200 IEM_DS3505
ZGSZ,1997-09-22 07:00,ZGSZ 220700Z AUTO 02008KT 6SM 26/20 A2997 RMK T02600200 IEM_DS3505
ZGSZ,1997-09-22 08:00,ZGSZ 220800Z AUTO 02006KT 6SM 27/21 A2997 RMK T02700210 IEM_DS3505
ZGSZ,1997-09-22 09:00,ZGSZ 220900Z AUTO 04006KT 9SM 26/20 A2997 RMK SLP157 T02580197 57003 IEM_DS3505
ZGSZ,1997-09-22 10:00,ZGSZ 221000Z AUTO 03006KT 6SM 26/21 A2997 RMK T02600210 IEM_DS3505
ZGSZ,1997-09-22 11:00,ZGSZ 221100Z AUTO 04006KT 6SM 25/21 A2997 RMK T02500210 IEM_DS3505
ZGSZ,1997-09-22 12:00,ZGSZ 221200Z AUTO 04008KT 7SM 24/20 A3000 RMK SLP166 T02450197 52009 IEM_DS3505
ZGSZ,1997-09-22 13:00,ZGSZ 221300Z AUTO 04004KT 6SM 25/21 A3003 RMK T02500210 IEM_DS3505
ZGSZ,1997-09-22 14:00,ZGSZ 221400Z AUTO 09002KT 7SM 25/21 A3003 RMK T02500210 IEM_DS3505
ZGSZ,1997-09-22 15:00,ZGSZ 221500Z AUTO 07006KT 6SM 25/21 A3003 RMK T02500210 IEM_DS3505
ZGSZ,1997-09-22 18:00,ZGSZ 221800Z AUTO 04010KT 7SM 24/19 RMK SLP166 T02380190 57010 IEM_DS3505
ZGSZ,1997-09-22 21:00,ZGSZ 222100Z AUTO 36004KT 9SM 23/19 A3000 RMK SLP167 T02330193 52001 IEM_DS3505
ZGSZ,1997-09-22 22:00,ZGSZ 222200Z AUTO 02004KT 6SM 23/21 A3000 RMK T02300210 IEM_DS3505
ZGSZ,1997-09-22 23:00,ZGSZ 222300Z AUTO 03008KT 6SM 24/20 A3000 RMK T02400200 IEM_DS3505
ZGSZ,1997-09-23 00:00,ZGSZ 230000Z AUTO 04006KT 9SM 24/19 A3003 RMK SLP178 T02360192 52011 IEM_DS3505
ZGSZ,1997-09-23 01:00,ZGSZ 230100Z AUTO 05006KT 6SM 25/20 A3003 RMK T02500200 IEM_DS3505
ZGSZ,1997-09-23 02:00,ZGSZ 230200Z AUTO 05006KT 7SM 26/21 A3003 RMK T02600210 IEM_DS3505
ZGSZ,1997-09-23 03:00,ZGSZ 230300Z AUTO 09008KT 10SM 27/19 A3003 RMK SLP181 T02660189 52004 IEM_DS3505
ZGSZ,1997-09-23 04:00,ZGSZ 230400Z AUTO 07010KT 6SM 28/22 A3000 RMK T02800220 IEM_DS3505
ZGSZ,1997-09-23 05:00,ZGSZ 230500Z AUTO 10008KT 6SM 28/22 A3000 RMK T02800220 IEM_DS3505
ZGSZ,1997-09-23 06:00,ZGSZ 230600Z AUTO 04008KT 9SM 27/20 A2997 RMK SLP155 T02670198 57026 IEM_DS3505
ZGSZ,1997-09-23 07:00,ZGSZ 230700Z AUTO 10006KT 6SM 28/22 A2997 RMK T02800220 IEM_DS3505
ZGSZ,1997-09-23 08:00,ZGSZ 230800Z AUTO 07006KT 6SM 28/22 A2994 RMK T02800220 IEM_DS3505
ZGSZ,1997-09-23 09:00,ZGSZ 230900Z AUTO 09006KT 8SM 27/22 A2994 RMK SLP151 T02710216 57004 IEM_DS3505
ZGSZ,1997-09-23 10:00,ZGSZ 231000Z AUTO 12006KT 6SM 27/23 A2997 RMK T02700230 IEM_DS3505
ZGSZ,1997-09-23 11:00,ZGSZ 231100Z AUTO 12006KT 6SM 26/23 A2997 RMK T02600230 IEM_DS3505
ZGSZ,1997-09-23 12:00,ZGSZ 231200Z AUTO 07006KT 6SM 26/22 A3000 RMK SLP165 T02620216 52013 IEM_DS3505
ZGSZ,1997-09-23 13:00,ZGSZ 231300Z AUTO 00000KT 4SM 25/23 A3000 RMK T02500230 IEM_DS3505
ZGSZ,1997-09-23 14:00,ZGSZ 231400Z AUTO 00000KT 3SM 25/23 A3003 RMK T02500230 IEM_DS3505
ZGSZ,1997-09-23 16:00,ZGSZ 231600Z AUTO 09006KT 3SM 26/23 A3003 RMK T02600230 IEM_DS3505
ZGSZ,1997-09-23 17:00,ZGSZ 231700Z AUTO 09010KT 3SM 26/22 A3000 RMK T02600220 IEM_DS3505
ZGSZ,1997-09-23 18:00,ZGSZ 231800Z AUTO 04012KT 5SM 26/20 RMK SLP159 T02550202 57018 IEM_DS3505
ZGSZ,1997-09-23 20:00,ZGSZ 232000Z AUTO 11006KT 7SM 24/22 A2997 RMK T02400220 IEM_DS3505
ZGSZ,1997-09-23 21:00,ZGSZ 232100Z AUTO 04008KT 5SM 25/20 A2994 RMK SLP152 T02460203 57007 IEM_DS3505
ZGSZ,1997-09-23 22:00,ZGSZ 232200Z AUTO 09006KT 7SM 25/21 A2997 RMK T02500210 IEM_DS3505
ZGSZ,1997-09-23 23:00,ZGSZ 232300Z AUTO 10004KT 7SM 25/21 A2997 RMK T02500210 IEM_DS3505
ZGSZ,1997-09-24 00:00,ZGSZ 240000Z AUTO 09008KT 5SM 25/20 A3000 RMK SLP166 T02480197 52014 IEM_DS3505
ZGSZ,1997-09-24 01:00,ZGSZ 240100Z AUTO 07008KT 7SM 25/21 A3000 RMK T02500210 IEM_DS3505
ZGSZ,1997-09-24 02:00,ZGSZ 240200Z AUTO 09008KT 7SM 26/22 A3000 RMK T02600220 IEM_DS3505
ZGSZ,1997-09-24 03:00,ZGSZ 240300Z AUTO 04008KT 6SM 26/19 A3000 RMK SLP168 T02620186 52002 IEM_DS3505
ZGSZ,1997-09-24 04:00,ZGSZ 240400Z AUTO 12008KT 6SM 28/22 A2997 RMK T02800220 IEM_DS3505
ZGSZ,1997-09-24 05:00,ZGSZ 240500Z AUTO 12006KT 5SM 28/22 A2997 RMK T02800220 IEM_DS3505
ZGSZ,1997-09-24 06:00,ZGSZ 240600Z AUTO 07006KT 8SM 27/19 A2994 RMK SLP150 T02740191 57018 IEM_DS3505
ZGSZ,1997-09-24 07:00,ZGSZ 240700Z AUTO 07002KT 6SM 29/22 A2994 RMK T02900220 IEM_DS3505
ZGSZ,1997-09-24 08:00,ZGSZ 240800Z AUTO 24002KT 6SM 29/22 A2994 RMK T02900220 IEM_DS3505
ZGSZ,1997-09-24 09:00,ZGSZ 240900Z AUTO 14008KT 8SM 27/20 A2994 RMK SLP148 T02660199 57002 IEM_DS3505
ZGSZ,1997-09-24 10:00,ZGSZ 241000Z AUTO 13008KT 4SM 27/22 A2994 RMK T02700220 IEM_DS3505
ZGSZ,1997-09-24 11:00,ZGSZ 241100Z AUTO 11008KT 4SM 26/22 A2997 RMK T02600220 IEM_DS3505
ZGSZ,1997-09-24 12:00,ZGSZ 241200Z AUTO 04006KT 9SM 26/21 A2997 RMK SLP082 T02580207 52013 IEM_DS3505
ZGSZ,1997-09-24 13:00,ZGSZ 241300Z AUTO 11006KT 5SM 25/22 A3000 RMK T02500220 IEM_DS3505
ZGSZ,1997-09-24 14:00,ZGSZ 241400Z AUTO 10004KT 5SM 25/22 A3000 RMK T02500220 IEM_DS3505
ZGSZ,1997-09-24 15:00,ZGSZ 241500Z AUTO 06004KT 5SM 24/22 A3000 RMK T02400220 IEM_DS3505
ZGSZ,1997-09-24 18:00,ZGSZ 241800Z AUTO 02004KT 9SM 24/21 RMK SLP156 T02450209 57010 IEM_DS3505
ZGSZ,1997-09-24 20:00,ZGSZ 242000Z AUTO 04002KT 5SM 22/22 A2997 RMK T02200220 IEM_DS3505
ZGSZ,1997-09-24 21:00,ZGSZ 242100Z AUTO 02004KT 6SM 24/21 A2997 RMK SLP155 T02350206 57001 IEM_DS3505
ZGSZ,1997-09-24 22:00,ZGSZ 242200Z AUTO 11004KT 6SM 23/22 A2997 RMK T02300220 IEM_DS3505
ZGSZ,1997-09-24 23:00,ZGSZ 242300Z AUTO 09002KT 6SM 23/22 A2997 RMK T02300220 IEM_DS3505
ZGSZ,1997-09-25 00:00,ZGSZ 250000Z AUTO 04004KT 9SM 24/20 A2997 RMK SLP159 T02410198 52004 IEM_DS3505
ZGSZ,1997-09-25 01:00,ZGSZ 250100Z AUTO 05004KT 6SM 26/22 A2997 RMK T02600220 IEM_DS3505
ZGSZ,1997-09-25 02:00,ZGSZ 250200Z AUTO 07008KT 6SM 28/23 A3000 RMK T02800230 IEM_DS3505
ZGSZ,1997-09-25 03:00,ZGSZ 250300Z AUTO 36004KT 11SM 28/20 A3000 RMK SLP162 T02840196 52003 IEM_DS3505
ZGSZ,1997-09-25 04:00,ZGSZ 250400Z AUTO 01006KT 7SM 29/23 A2997 RMK T02900230 IEM_DS3505
ZGSZ,1997-09-25 05:00,ZGSZ 250500Z AUTO 03006KT 7SM 30/23 A2994 RMK T03000230 IEM_DS3505
ZGSZ,1997-09-25 06:00,ZGSZ 250600Z AUTO 04008KT 9SM 30/20 A2991 RMK SLP140 T03050198 57022 IEM_DS3505
ZGSZ,1997-09-25 07:00,ZGSZ 250700Z AUTO 27004KT 4SM 31/23 A2991 RMK T03100230 IEM_DS3505
ZGSZ,1997-09-25 08:00,ZGSZ 250800Z AUTO 28008KT 3SM 30/24 A2988 RMK T03000240 IEM_DS3505
ZGSZ,1997-09-25 09:00,ZGSZ 250900Z AUTO 20006KT 10SM 30/21 A2988 RMK SLP130 T02960213 57010 IEM_DS3505
ZGSZ,1997-09-25 10:00,ZGSZ 251000Z AUTO 29004KT 3SM 29/24 A2991 RMK T02900240 IEM_DS3505
ZGSZ,1997-09-25 11:00,ZGSZ 251100Z AUTO 02012KT 2 1/2SM 26/24 A2991 RMK T02600240 IEM_DS3505
ZGSZ,1997-09-25 12:00,ZGSZ 251200Z AUTO 04010KT 6SM 27/21 A2994 RMK SLP147 T02680211 IEM_DS3505
ZGSZ,1997-09-25 13:00,ZGSZ 251300Z AUTO 36006KT 4SM 24/23 A2997 RMK T02400230 IEM_DS3505
ZGSZ,1997-09-25 14:00,ZGSZ 251400Z AUTO 36008KT 7SM 24/22 A3000 RMK T02400220 IEM_DS3505
ZGSZ,1997-09-25 15:00,ZGSZ 251500Z AUTO 01008KT 7SM 24/22 A3000 RMK T02400220 IEM_DS3505
ZGSZ,1997-09-25 18:00,ZGSZ 251800Z AUTO 04010KT 12SM 24/18 RMK SLP151 T02380181 52016 IEM_DS3505
ZGSZ,1997-09-25 21:00,ZGSZ 252100Z AUTO 04010KT 16SM 23/17 A2994 RMK SLP145 T02310173 57006 IEM_DS3505
ZGSZ,1997-09-25 22:00,ZGSZ 252200Z AUTO 01006KT 6SM 22/20 A2994 RMK T02200200 IEM_DS3505
ZGSZ,1997-09-25 23:00,ZGSZ 252300Z AUTO 36008KT 6SM 23/19 A2997 RMK T02300190 IEM_DS3505
ZGSZ,1997-09-26 00:00,ZGSZ 260000Z AUTO 04010KT 14SM 23/18 A3000 RMK SLP167 T02310177 52021 IEM_DS3505
ZGSZ,1997-09-26 01:00,ZGSZ 260100Z AUTO 04010KT 6SM 24/20 A3003 RMK T02400200 IEM_DS3505
ZGSZ,1997-09-26 02:00,ZGSZ 260200Z AUTO 03006KT 6SM 25/19 A3003 RMK T02500190 IEM_DS3505
ZGSZ,1997-09-26 03:00,ZGSZ 260300Z AUTO 02008KT 14SM 25/18 A3003 RMK SLP172 T02520176 52005 IEM_DS3505
ZGSZ,1997-09-26 04:00,ZGSZ 260400Z AUTO 01010KT 7SM 26/17 A3000 RMK T02600170 IEM_DS3505
ZGSZ,1997-09-26 05:00,ZGSZ 260500Z AUTO 01012KT 7SM 27/17 A2997 RMK T02700170 IEM_DS3505
ZGSZ,1997-09-26 06:00,ZGSZ 260600Z AUTO 04008KT 16SM 28/18 A2994 RMK SLP146 T02770182 57025 IEM_DS3505
ZGSZ,1997-09-26 07:00,ZGSZ 260700Z AUTO 35010KT 7SM 27/19 A2994 RMK T02700190 IEM_DS3505
ZGSZ,1997-09-26 08:00,ZGSZ 260800Z AUTO 02012KT 7SM 26/18 A2994 RMK T02600180 IEM_DS3505
ZGSZ,1997-09-26 09:00,ZGSZ 260900Z AUTO 36008KT 16SM 26/17 A2994 RMK SLP145 T02640168 57001 IEM_DS3505
ZGSZ,1997-09-26 10:00,ZGSZ 261000Z AUTO 01010KT 7SM 25/17 A2997 RMK T02500170 IEM_DS3505
ZGSZ,1997-09-26 11:00,ZGSZ 261100Z AUTO 01010KT 7SM 25/16 A2997 RMK T02500160 IEM_DS3505
ZGSZ,1997-09-26 12:00,ZGSZ 261200Z AUTO 36008KT 11SM 25/14 A3000 RMK SLP166 T02470139 52020 IEM_DS3505
ZGSZ,1997-09-26 13:00,ZGSZ 261300Z AUTO 02010KT 6SM 24/16 A3000 RMK T02400160 IEM_DS3505
ZGSZ,1997-09-26 14:00,ZGSZ 261400Z AUTO 02008KT 7SM 24/15 A3003 RMK T02400150 IEM_DS3505
ZGSZ,1997-09-26 15:00,ZGSZ 261500Z AUTO 02010KT 7SM 23/15 A3000 RMK T02300150 IEM_DS3505
ZGSZ,1997-09-26 18:00,ZGSZ 261800Z AUTO 36008KT 9SM 22/12 RMK SLP165 T02200117 57005 IEM_DS3505
ZGSZ,1997-09-26 21:00,ZGSZ 262100Z AUTO 04006KT 8SM 21/12 A2997 RMK SLP159 T02110121 57006 IEM_DS3505
ZGSZ,1997-09-26 22:00,ZGSZ 262200Z AUTO 01006KT 6SM 21/14 A2997 RMK T02100140 IEM_DS3505
ZGSZ,1997-09-26 23:00,ZGSZ 262300Z AUTO 02008KT 6SM 21/14 A3000 RMK T02100140 IEM_DS3505
ZGSZ,1997-09-27 00:00,ZGSZ 270000Z AUTO 04010KT 14SM 21/12 A3003 RMK SLP172 T02130125 52013 IEM_DS3505
ZGSZ,1997-09-27 01:00,ZGSZ 270100Z AUTO 02010KT 6SM 22/15 A3003 RMK T02200150 IEM_DS3505
ZGSZ,1997-09-27 02:00,ZGSZ 270200Z AUTO 02010KT 6SM 23/14 A3003 RMK T02300140 IEM_DS3505
ZGSZ,1997-09-27 03:00,ZGSZ 270300Z AUTO 34010KT 17SM 25/14 A3003 RMK SLP174 T02460142 52002 IEM_DS3505
ZGSZ,1997-09-27 04:00,ZGSZ 270400Z AUTO 02008KT 6SM 25/15 A3000 RMK T02500150 IEM_DS3505
ZGSZ,1997-09-27 05:00,ZGSZ 270500Z AUTO 02012KT 6SM 25/15 A3000 RMK T02500150 IEM_DS3505
ZGSZ,1997-09-27 06:00,ZGSZ 270600Z AUTO 04006KT 16SM 25/14 A2997 RMK SLP156 T02470143 57018 IEM_DS3505
ZGSZ,1997-09-27 07:00,ZGSZ 270700Z AUTO 02012KT 6SM 24/16 A2994 RMK T02400160 IEM_DS3505
ZGSZ,1997-09-27 08:00,ZGSZ 270800Z AUTO 01014KT 6SM 23/16 A2994 RMK T02300160 IEM_DS3505
ZGSZ,1997-09-27 09:00,ZGSZ 270900Z AUTO 36008KT 12SM 24/15 RMK SLP152 T02400148 57004 IEM_DS3505
ZGSZ,1997-09-27 09:30,ZGSZ 270930Z AUTO 01014KT 6SM 23/16 A2997 RMK T02300160 IEM_DS3505
ZGSZ,1997-09-27 11:00,ZGSZ 271100Z AUTO 03012KT 6SM 22/16 A2997 RMK T02200160 IEM_DS3505
ZGSZ,1997-09-27 12:00,ZGSZ 271200Z AUTO 02008KT 12SM 22/14 A3000 RMK SLP166 T02210135 52014 IEM_DS3505
ZGSZ,1997-09-27 13:00,ZGSZ 271300Z AUTO 02010KT 7SM 20/16 A3003 RMK T02000160 IEM_DS3505
ZGSZ,1997-09-27 14:00,ZGSZ 271400Z AUTO 02008KT 7SM 20/16 A3003 RMK T02000160 IEM_DS3505
ZGSZ,1997-09-27 18:00,ZGSZ 271800Z AUTO 04010KT 14SM 20/14 RMK SLP165 T01960145 57012 IEM_DS3505
ZGSZ,1997-09-27 21:00,ZGSZ 272100Z AUTO 04006KT 14SM 19/15 A2997 RMK SLP158 T01930147 57007 IEM_DS3505
ZGSZ,1997-09-27 22:00,ZGSZ 272200Z AUTO 01010KT 7SM 19/17 A3000 RMK T01900170 IEM_DS3505
ZGSZ,1997-09-27 23:00,ZGSZ 272300Z AUTO 01008KT 6SM 19/17 A3003 RMK T01900170 IEM_DS3505
ZGSZ,1997-09-28 00:00,ZGSZ 280000Z AUTO 02006KT 12SM 19/16 A3006 RMK SLP177 T01900155 52019 IEM_DS3505
ZGSZ,1997-09-28 01:00,ZGSZ 280100Z AUTO 01010KT 3SM 18/18 A3006 RMK T01800180 IEM_DS3505
ZGSZ,1997-09-28 02:00,ZGSZ 280200Z AUTO 02010KT 4SM 19/18 A3006 RMK T01900180 IEM_DS3505
ZGSZ,1997-09-28 03:00,ZGSZ 280300Z AUTO 36008KT 8SM 20/16 A3006 RMK SLP183 T01950164 52006 IEM_DS3505
ZGSZ,1997-09-28 04:00,ZGSZ 280400Z AUTO 02010KT 3SM 19/19 A3003 RMK T01900190 IEM_DS3505
ZGSZ,1997-09-28 05:00,ZGSZ 280500Z AUTO 36006KT 3SM 18/18 A3003 RMK T01800180 IEM_DS3505
ZGSZ,1997-09-28 06:00,ZGSZ 280600Z AUTO 04008KT 7SM 19/16 A3000 RMK 60008 SLP163 T01940162 57020 IEM_DS3505
ZGSZ,1997-09-28 07:00,ZGSZ 280700Z AUTO 02008KT 7SM 19/18 A2997 RMK T01900180 IEM_DS3505
ZGSZ,1997-09-28 08:00,ZGSZ 280800Z AUTO 36008KT 4SM 19/18 A2994 RMK T01900180 IEM_DS3505
ZGSZ,1997-09-28 09:00,ZGSZ 280900Z AUTO 04006KT 4SM 19/17 A2997 RMK SLP156 T01860171 57007 IEM_DS3505
ZGSZ,1997-09-28 10:00,ZGSZ 281000Z AUTO 01008KT 7SM 18/18 A2997 RMK T01800180 IEM_DS3505
ZGSZ,1997-09-28 11:00,ZGSZ 281100Z AUTO 01008KT 7SM 18/18 A3000 RMK T01800180 IEM_DS3505
ZGSZ,1997-09-28 12:00,ZGSZ 281200Z AUTO 04006KT 4SM 18/18 A3000 RMK 60031 SLP169 T01850177 52012 IEM_DS3505
ZGSZ,1997-09-28 13:00,ZGSZ 281300Z AUTO 36006KT 2SM 18/18 A3003 RMK T01800180 IEM_DS3505
ZGSZ,1997-09-28 14:00,ZGSZ 281400Z AUTO 01008KT 2 1/2SM 18/18 A3006 RMK T01800180 IEM_DS3505
ZGSZ,1997-09-28 15:00,ZGSZ 281500Z AUTO 01008KT 2 1/2SM 18/18 A3006 RMK T01800180 IEM_DS3505
ZGSZ,1997-09-28 18:00,ZGSZ 281800Z AUTO 36006KT 12SM 18/18 RMK 60035 SLP162 T01830175 57019 IEM_DS3505
ZGSZ,1997-09-28 21:00,ZGSZ 282100Z AUTO 02004KT 7SM 18/17 A2997 RMK 70071 SLP155 T01840174 57007 IEM_DS3505
ZGSZ,1997-09-28 22:00,ZGSZ 282200Z AUTO 36006KT 7SM 18/18 A2997 RMK T01800180 IEM_DS3505
ZGSZ,1997-09-28 23:00,ZGSZ 282300Z AUTO 36008KT 7SM 19/19 A2997 RMK T01900190 IEM_DS3505
ZGSZ,1997-09-29 00:00,ZGSZ 290000Z AUTO 02008KT 14SM 20/17 A3000 RMK 60001 70071 SLP166 T01950174 52011 IEM_DS3505
ZGSZ,1997-09-29 01:00,ZGSZ 290100Z AUTO 01006KT 7SM 20/20 A3003 RMK T02000200 IEM_DS3505
ZGSZ,1997-09-29 02:00,ZGSZ 290200Z AUTO 04006KT 7SM 21/20 A3003 RMK T02100200 IEM_DS3505
ZGSZ,1997-09-29 03:00,ZGSZ 290300Z AUTO 07004KT 12SM 21/18 A3000 RMK SLP167 T02120183 52001 IEM_DS3505
ZGSZ,1997-09-29 04:00,ZGSZ 290400Z AUTO 35006KT 7SM 23/20 A3000 RMK T02300200 IEM_DS3505
ZGSZ,1997-09-29 05:00,ZGSZ 290500Z AUTO 35006KT 7SM 23/21 A2997 RMK T02300210 IEM_DS3505
ZGSZ,1997-09-29 06:00,ZGSZ 290600Z AUTO 04004KT 6SM 23/19 A2994 RMK 60000 SLP147 T02270194 57020 IEM_DS3505
ZGSZ,1997-09-29 07:00,ZGSZ 290700Z AUTO 03002KT 7SM 24/21 A2991 RMK T02400210 IEM_DS3505
ZGSZ,1997-09-29 08:00,ZGSZ 290800Z AUTO 08002KT 5SM 24/21 A2991 RMK T02400210 IEM_DS3505
ZGSZ,1997-09-29 09:00,ZGSZ 290900Z AUTO 09004KT 6SM 23/20 A2991 RMK SLP135 T02300199 57012 IEM_DS3505
ZGSZ,1997-09-29 10:00,ZGSZ 291000Z AUTO 07002KT 4SM 24/22 A2991 RMK T02400220 IEM_DS3505
ZGSZ,1997-09-29 11:00,ZGSZ 291100Z AUTO 05004KT 4SM 24/21 A2991 RMK T02400210 IEM_DS3505
ZGSZ,1997-09-29 12:00,ZGSZ 291200Z AUTO 04006KT 6SM 22/20 A2994 RMK 60000 SLP147 T02230201 52012 IEM_DS3505
ZGSZ,1997-09-29 13:00,ZGSZ 291300Z AUTO 10004KT 4SM 23/22 A2994 RMK T02300220 IEM_DS3505
ZGSZ,1997-09-29 14:00,ZGSZ 291400Z AUTO 13006KT 3SM 23/22 A2997 RMK T02300220 IEM_DS3505
ZGSZ,1997-09-29 15:00,ZGSZ 291500Z AUTO 09002KT 3SM 23/22 A2997 RMK T02300220 IEM_DS3505
ZGSZ,1997-09-29 18:00,ZGSZ 291800Z AUTO 04002KT 4SM 22/21 RMK SLP148 T02210207 57005 IEM_DS3505
ZGSZ,1997-09-29 21:00,ZGSZ 292100Z AUTO 36004KT 4SM 22/21 A2994 RMK 70008 SLP146 T02160211 57002 IEM_DS3505
ZGSZ,1997-09-29 22:00,ZGSZ 292200Z AUTO 00000KT 3SM 22/22 A2994 RMK T02200220 IEM_DS3505
ZGSZ,1997-09-29 23:00,ZGSZ 292300Z AUTO 07002KT 3SM 22/21 A2994 RMK T02200210 IEM_DS3505
ZGSZ,1997-09-30 00:00,ZGSZ 300000Z AUTO 36004KT 2 1/2SM 22/21 A2997 RMK 60008 70012 SLP156 T02180212 52010 IEM_DS3505
ZGSZ,1997-09-30 01:00,ZGSZ 300100Z AUTO 06004KT 7SM 23/22 A2997 RMK T02300220 IEM_DS3505
ZGSZ,1997-09-30 02:00,ZGSZ 300200Z AUTO 07004KT 7SM 25/23 A2997 RMK T02500230 IEM_DS3505
ZGSZ,1997-09-30 03:00,ZGSZ 300300Z AUTO 36004KT 4SM 22/21 A2997 RMK SLP161 T02220213 52005 IEM_DS3505
ZGSZ,1997-09-30 04:00,ZGSZ 300400Z AUTO 11006KT 7SM 26/23 A2997 RMK T02600230 IEM_DS3505
ZGSZ,1997-09-30 05:00,ZGSZ 300500Z AUTO 23004KT 7SM 25/23 A2994 RMK T02500230 IEM_DS3505
ZGSZ,1997-09-30 06:00,ZGSZ 300600Z AUTO 04004KT 6SM 23/22 A2991 RMK 60012 SLP141 T02310219 57020 IEM_DS3505
ZGSZ,1997-09-30 07:00,ZGSZ 300700Z AUTO 07004KT 7SM 26/24 A2988 RMK T02600240 IEM_DS3505
ZGSZ,1997-09-30 08:00,ZGSZ 300800Z AUTO 06004KT 7SM 26/23 A2988 RMK T02600230 IEM_DS3505
ZGSZ,1997-09-30 09:00,ZGSZ 300900Z AUTO 04008KT 7SM 24/22 A2988 RMK SLP129 T02390217 57012 IEM_DS3505
ZGSZ,1997-09-30 10:00,ZGSZ 301000Z AUTO 08006KT 7SM 25/23 A2988 RMK T02500230 IEM_DS3505
ZGSZ,1997-09-30 11:00,ZGSZ 301100Z AUTO 08004KT 5SM 24/23 A2991 RMK T02400230 IEM_DS3505
ZGSZ,1997-09-30 12:00,ZGSZ 301200Z AUTO 09006KT 7SM 24/23 A2991 RMK SLP139 T02400230 52010 IEM_DS3505
ZGSZ,1997-09-30 13:00,ZGSZ 301300Z AUTO 11006KT 5SM 24/23 A2994 RMK T02400230 IEM_DS3505
ZGSZ,1997-09-30 14:00,ZGSZ 301400Z AUTO 12002KT 6SM 24/23 A2994 RMK T02400230 IEM_DS3505
ZGSZ,1997-09-30 15:00,ZGSZ 301500Z AUTO 11006KT 7SM 24/23 A2994 RMK T02400230 IEM_DS3505
ZGSZ,1997-09-30 18:00,ZGSZ 301800Z AUTO 02002KT 3SM 23/22 RMK 60008 SLP142 T02280222 57011 IEM_DS3505
ZGSZ,1997-09-30 21:00,ZGSZ 302100Z AUTO 04004KT 1 1/2SM 22/22 A2991 RMK 70031 SLP140 T02250222 57002 IEM_DS3505
ZGSZ,1997-09-30 22:00,ZGSZ 302200Z AUTO 04002KT 2 1/2SM 23/23 A2991 RMK T02300230 IEM_DS3505
ZGSZ,1997-09-30 23:00,ZGSZ 302300Z AUTO 05004KT 2 1/2SM 23/23 A2994 RMK T02300230 IEM_DS3505
ZGSZ,1997-10-01 00:00,ZGSZ 010000Z AUTO 04004KT 2 1/2SM 23/22 A2997 RMK 60012 70031 SLP156 T02280224 52016 IEM_DS3505
ZGSZ,1997-10-01 01:00,ZGSZ 010100Z AUTO 03004KT 3SM 24/24 A2997 RMK T02400240 IEM_DS3505
ZGSZ,1997-10-01 02:00,ZGSZ 010200Z AUTO 04006KT 3SM 25/24 A2997 RMK T02500240 IEM_DS3505
ZGSZ,1997-10-01 03:00,ZGSZ 010300Z AUTO 36006KT 4SM 26/23 A2997 RMK SLP166 T02590227 52010 IEM_DS3505
ZGSZ,1997-10-01 04:00,ZGSZ 010400Z AUTO 11010KT 6SM 28/25 A2994 RMK T02800250 IEM_DS3505
ZGSZ,1997-10-01 05:00,ZGSZ 010500Z AUTO 12010KT 6SM 29/25 A2991 RMK T02900250 IEM_DS3505
ZGSZ,1997-10-01 06:00,ZGSZ 010600Z AUTO 14006KT 19SM 29/22 A2988 RMK SLP135 T02870224 57030 IEM_DS3505
ZGSZ,1997-10-01 07:00,ZGSZ 010700Z AUTO 19006KT 7SM 28/25 A2988 RMK T02800250 IEM_DS3505
ZGSZ,1997-10-01 08:00,ZGSZ 010800Z AUTO 23006KT 7SM 28/25 A2988 RMK T02800250 IEM_DS3505
ZGSZ,1997-10-01 09:00,ZGSZ 010900Z AUTO 14006KT 19SM 28/23 A2988 RMK SLP125 T02840226 57010 IEM_DS3505
ZGSZ,1997-10-01 10:00,ZGSZ 011000Z AUTO 24002KT 5SM 27/25 A2988 RMK T02700250 IEM_DS3505
ZGSZ,1997-10-01 11:00,ZGSZ 011100Z AUTO 20002KT 4SM 26/25 A2988 RMK T02600250 IEM_DS3505
ZGSZ,1997-10-01 12:00,ZGSZ 011200Z AUTO 14006KT 17SM 26/22 A2991 RMK SLP139 T02630220 52014 IEM_DS3505
ZGSZ,1997-10-01 13:00,ZGSZ 011300Z AUTO 00000KT 5SM 26/25 A2994 RMK T02600250 IEM_DS3505
ZGSZ,1997-10-01 14:00,ZGSZ 011400Z AUTO 00000KT 5SM 26/25 A2994 RMK T02600250 IEM_DS3505
ZGSZ,1997-10-01 15:00,ZGSZ 011500Z AUTO 12004KT 5SM 25/24 A2994 RMK T02500240 IEM_DS3505
ZGSZ,1997-10-01 18:00,ZGSZ 011800Z AUTO 14004KT 12SM 25/23 RMK SLP143 T02530233 57005 IEM_DS3505
ZGSZ,1997-10-01 21:00,ZGSZ 012100Z AUTO 04004KT 6SM 25/23 A2991 RMK 70004 SLP140 T02510232 57003 IEM_DS3505
ZGSZ,1997-10-01 22:00,ZGSZ 012200Z AUTO 00000KT 3SM 25/24 A2991 RMK T02500240 IEM_DS3505
ZGSZ,1997-10-01 23:00,ZGSZ 012300Z AUTO 00000KT 3SM 25/25 A2994 RMK T02500250 IEM_DS3505
ZGSZ,1997-10-02 00:00,ZGSZ 020000Z AUTO 04004KT 4SM 25/23 A2994 RMK SLP150 T02540234 52010 IEM_DS3505
ZGSZ,1997-10-02 01:00,ZGSZ 020100Z AUTO 00000KT 4SM 27/25 A2997 RMK T02700250 IEM_DS3505
ZGSZ,1997-10-02 02:00,ZGSZ 020200Z AUTO 11004KT 5SM 28/25 A2997 RMK T02800250 IEM_DS3505
ZGSZ,1997-10-02 03:00,ZGSZ 020300Z AUTO 04004KT 6SM 28/23 A2997 RMK SLP155 T02790233 52005 IEM_DS3505
ZGSZ,1997-10-02 04:00,ZGSZ 020400Z AUTO 19006KT 4SM 29/26 A2994 RMK T02900260 IEM_DS3505
ZGSZ,1997-10-02 06:00,ZGSZ 020600Z AUTO 11006KT 12SM 30/22 A2991 RMK SLP133 T03020223 57022 IEM_DS3505
ZGSZ,1997-10-02 07:00,ZGSZ 020700Z AUTO 21006KT 7SM 29/26 A2988 RMK T02900260 IEM_DS3505
ZGSZ,1997-10-02 08:00,ZGSZ 020800Z AUTO 21006KT 7SM 29/26 A2988 RMK T02900260 IEM_DS3505
ZGSZ,1997-10-02 09:00,ZGSZ 020900Z AUTO 14006KT 16SM 29/23 A2988 RMK SLP126 T02900226 57007 IEM_DS3505
ZGSZ,1997-10-02 10:00,ZGSZ 021000Z AUTO 20008KT 6SM 28/25 A2988 RMK T02800250 IEM_DS3505
ZGSZ,1997-10-02 11:00,ZGSZ 021100Z AUTO 21006KT 6SM 27/25 A2988 RMK T02700250 IEM_DS3505
ZGSZ,1997-10-02 12:00,ZGSZ 021200Z AUTO 14004KT 12SM 26/22 A2991 RMK T02640221 52015 IEM_DS3505
ZGSZ,1997-10-02 13:00,ZGSZ 021300Z AUTO 10006KT 5SM 26/24 A2994 RMK T02600240 IEM_DS3505
ZGSZ,1997-10-02 14:00,ZGSZ 021400Z AUTO 11004KT 4SM 26/24 A2994 RMK T02600240 IEM_DS3505
ZGSZ,1997-10-02 15:00,ZGSZ 021500Z AUTO 12004KT 4SM 25/24 A2994 RMK T02500240 IEM_DS3505
ZGSZ,1997-10-02 18:00,ZGSZ 021800Z AUTO 09004KT 19SM 26/22 RMK SLP148 T02590221 57008 IEM_DS3505
ZGSZ,1997-10-02 21:00,ZGSZ 022100Z AUTO 07006KT 19SM 26/21 A2994 RMK SLP144 T02600212 57004 IEM_DS3505
ZGSZ,1997-10-02 22:00,ZGSZ 022200Z AUTO 35002KT 6SM 24/23 A2994 RMK T02400230 IEM_DS3505
ZGSZ,1997-10-02 23:00,ZGSZ 022300Z AUTO 00000KT 6SM 25/23 A2997 RMK T02500230 IEM_DS3505
ZGSZ,1997-10-03 00:00,ZGSZ 030000Z AUTO 11004KT 11SM 25/23 A2997 RMK 60000 70001 SLP162 T02490227 52018 IEM_DS3505
ZGSZ,1997-10-03 01:00,ZGSZ 030100Z AUTO 05006KT 7SM 26/24 A3000 RMK T02600240 IEM_DS3505
ZGSZ,1997-10-03 02:00,ZGSZ 030200Z AUTO 08006KT 7SM 27/25 A3000 RMK T02700250 IEM_DS3505
ZGSZ,1997-10-03 03:00,ZGSZ 030300Z AUTO 09010KT 12SM 27/22 A3000 RMK SLP168 T02740223 52006 IEM_DS3505
ZGSZ,1997-10-03 04:00,ZGSZ 030400Z AUTO 11006KT 7SM 29/25 A3000 RMK T02900250 IEM_DS3505
ZGSZ,1997-10-03 05:00,ZGSZ 030500Z AUTO 12004KT 7SM 30/25 A2997 RMK T03000250 IEM_DS3505
ZGSZ,1997-10-03 06:00,ZGSZ 030600Z AUTO 14008KT 17SM 29/24 A2994 RMK SLP149 T02910235 57019 IEM_DS3505
ZGSZ,1997-10-03 07:00,ZGSZ 030700Z AUTO 11004KT 7SM 31/25 A2991 RMK T03100250 IEM_DS3505
ZGSZ,1997-10-03 08:00,ZGSZ 030800Z AUTO 11010KT 7SM 30/25 A2991 RMK T03000250 IEM_DS3505
ZGSZ,1997-10-03 09:00,ZGSZ 030900Z AUTO 09006KT 12SM 26/23 A2994 RMK SLP149 T02620230 54000 IEM_DS3505
ZGSZ,1997-10-03 10:00,ZGSZ 031000Z AUTO 11008KT 7SM 27/25 A2994 RMK T02700250 IEM_DS3505
ZGSZ,1997-10-03 11:00,ZGSZ 031100Z AUTO 12008KT 7SM 27/24 A2994 RMK T02700240 IEM_DS3505
ZGSZ,1997-10-03 12:00,ZGSZ 031200Z AUTO 09006KT 9SM 26/23 A2997 RMK SLP155 T02610232 52006 IEM_DS3505
ZGSZ,1997-10-03 13:00,ZGSZ 031300Z AUTO 11006KT 6SM 26/24 A2997 RMK T02600240 IEM_DS3505
ZGSZ,1997-10-03 14:00,ZGSZ 031400Z AUTO 10004KT 6SM 26/24 A3000 RMK T02600240 IEM_DS3505
ZGSZ,1997-10-03 15:00,ZGSZ 031500Z AUTO 11006KT 6SM 26/25 A3000 RMK T02600250 IEM_DS3505
ZGSZ,1997-10-03 18:00,ZGSZ 031800Z AUTO 09004KT 6SM 26/24 RMK SLP154 T02580236 57013 IEM_DS3505
ZGSZ,1997-10-03 21:00,ZGSZ 032100Z AUTO 09004KT 6SM 26/24 A2994 RMK 70001 SLP148 T02550235 57006 IEM_DS3505
ZGSZ,1997-10-03 22:00,ZGSZ 032200Z AUTO 01002KT 2SM 24/24 A2997 RMK T02400240 IEM_DS3505
ZGSZ,1997-10-03 23:00,ZGSZ 032300Z AUTO 00000KT 2 1/2SM 25/24 A2997 RMK T02500240 IEM_DS3505
ZGSZ,1997-10-04 00:00,ZGSZ 040000Z AUTO 04002KT 4SM 26/24 A3000 RMK SLP169 T02550235 52021 IEM_DS3505
ZGSZ,1997-10-04 01:00,ZGSZ 040100Z AUTO 09004KT 6SM 29/26 A3000 RMK T02900260 IEM_DS3505
ZGSZ,1997-10-04 02:00,ZGSZ 040200Z AUTO 07006KT 7SM 29/26 A3000 RMK T02900260 IEM_DS3505
ZGSZ,1997-10-04 03:00,ZGSZ 040300Z AUTO 14006KT 10SM 30/24 A3000 RMK SLP167 T02950239 57002 IEM_DS3505
ZGSZ,1997-10-04 04:00,ZGSZ 040400Z AUTO 30006KT 7SM 30/26 A3000 RMK T03000260 IEM_DS3505
ZGSZ,1997-10-04 05:00,ZGSZ 040500Z AUTO 27008KT 7SM 30/26 A2997 RMK T03000260 IEM_DS3505
ZGSZ,1997-10-04 06:00,ZGSZ 040600Z AUTO 09006KT 9SM 29/24 A2994 RMK 60004 SLP144 T02920245 57020 IEM_DS3505
ZGSZ,1997-10-04 07:00,ZGSZ 040700Z AUTO 22006KT 7SM 30/26 A2991 RMK T03000260 IEM_DS3505
ZGSZ,1997-10-04 08:00,ZGSZ 040800Z AUTO 20006KT 7SM 30/27 A2991 RMK T03000270 IEM_DS3505
ZGSZ,1997-10-04 09:00,ZGSZ 040900Z AUTO 14004KT 11SM 29/25 A2991 RMK SLP137 T02910249 57007 IEM_DS3505
ZGSZ,1997-10-04 10:00,ZGSZ 041000Z AUTO 21006KT 6SM 28/26 A2991 RMK T02800260 IEM_DS3505
ZGSZ,1997-10-04 11:00,ZGSZ 041100Z AUTO 19006KT 6SM 27/26 A2994 RMK T02700260 IEM_DS3505
ZGSZ,1997-10-04 12:00,ZGSZ 041200Z AUTO 00000KT 10SM 27/25 A2997 RMK 60004 SLP155 T02720246 52018 IEM_DS3505
ZGSZ,1997-10-04 13:00,ZGSZ 041300Z AUTO 20004KT 7SM 27/26 A3000 RMK T02700260 IEM_DS3505
ZGSZ,1997-10-04 14:00,ZGSZ 041400Z AUTO 00000KT 6SM 27/26 A3000 RMK T02700260 IEM_DS3505
ZGSZ,1997-10-04 15:00,ZGSZ 041500Z AUTO 00000KT 6SM 26/26 A3000 RMK T02600260 IEM_DS3505
ZGSZ,1997-10-04 18:00,ZGSZ 041800Z AUTO 04002KT 4SM 26/24 RMK SLP164 T02620245 57008 IEM_DS3505
ZGSZ,1997-10-04 21:00,ZGSZ 042100Z AUTO 04004KT 8SM 26/23 A2997 RMK 70008 SLP161 T02560233 57003 IEM_DS3505
ZGSZ,1997-10-04 22:00,ZGSZ 042200Z AUTO 04006KT 4SM 25/24 A3000 RMK T02500240 IEM_DS3505
ZGSZ,1997-10-04 23:00,ZGSZ 042300Z AUTO 04004KT 7SM 26/24 A3000 RMK T02600240 IEM_DS3505
ZGSZ,1997-10-05 00:00,ZGSZ 050000Z AUTO 36006KT 17SM 25/21 A3003 RMK 70008 SLP176 T02480213 52015 IEM_DS3505
ZGSZ,1997-10-05 01:00,ZGSZ 050100Z AUTO 04006KT 6SM 27/24 A3003 RMK T02700240 IEM_DS3505
ZGSZ,1997-10-05 02:00,ZGSZ 050200Z AUTO 36008KT 7SM 28/24 A3003 RMK T02800240 IEM_DS3505
ZGSZ,1997-10-05 03:00,ZGSZ 050300Z AUTO 36006KT 16SM 28/22 RMK SLP178 T02830218 52002 IEM_DS3505
ZGSZ,1997-10-05 04:00,ZGSZ 050400Z AUTO 35008KT 7SM 30/23 A3003 RMK T03000230 IEM_DS3505
ZGSZ,1997-10-05 05:00,ZGSZ 050500Z AUTO 02006KT 7SM 30/24 A3000 RMK T03000240 IEM_DS3505
ZGSZ,1997-10-05 06:00,ZGSZ 050600Z AUTO 04008KT 16SM 30/22 A2997 RMK SLP152 T03010224 57026 IEM_DS3505
ZGSZ,1997-10-05 07:00,ZGSZ 050700Z AUTO 04006KT 7SM 30/24 A2994 RMK T03000240 IEM_DS3505
ZGSZ,1997-10-05 08:00,ZGSZ 050800Z AUTO 36006KT 6SM 31/24 A2994 RMK T03100240 IEM_DS3505
ZGSZ,1997-10-05 09:00,ZGSZ 050900Z AUTO 04010KT 14SM 29/22 A2994 RMK SLP150 T02940219 57002 IEM_DS3505
ZGSZ,1997-10-05 12:00,ZGSZ 051200Z AUTO 04006KT 9SM 27/21 A3000 RMK SLP167 T02720211 52017 IEM_DS3505
ZGSZ,1997-10-05 13:00,ZGSZ 051300Z AUTO 08004KT 6SM 27/23 A3003 RMK T02700230 IEM_DS3505
ZGSZ,1997-10-05 14:00,ZGSZ 051400Z AUTO 06002KT 6SM 26/23 A3006 RMK T02600230 IEM_DS3505
ZGSZ,1997-10-05 15:00,ZGSZ 051500Z AUTO 04004KT 6SM 26/22 A3006 RMK T02600220 IEM_DS3505
ZGSZ,1997-10-05 18:00,ZGSZ 051800Z AUTO 07004KT 9SM 26/20 RMK SLP178 T02560204 57002 IEM_DS3505
ZGSZ,1997-10-05 21:00,ZGSZ 052100Z AUTO 04002KT 5SM 23/22 A3003 RMK 70008 SLP176 T02340219 57002 IEM_DS3505
ZGSZ,1997-10-05 22:00,ZGSZ 052200Z AUTO 07004KT 7SM 25/22 A3003 RMK T02500220 IEM_DS3505
ZGSZ,1997-10-05 23:00,ZGSZ 052300Z AUTO 10004KT 7SM 25/22 A3003 RMK T02500220 IEM_DS3505
ZGSZ,1997-10-06 00:00,ZGSZ 060000Z AUTO 34002KT 7SM 24/21 A3006 RMK 60004 70008 SLP185 T02440211 52009 IEM_DS3505
ZGSZ,1997-10-06 01:00,ZGSZ 060100Z AUTO 11004KT 7SM 26/22 A3006 RMK T02600220 IEM_DS3505
ZGSZ,1997-10-06 02:00,ZGSZ 060200Z AUTO 11004KT 7SM 27/24 A3006 RMK T02700240 IEM_DS3505
ZGSZ,1997-10-06 03:00,ZGSZ 060300Z AUTO 14004KT 9SM 28/22 A3006 RMK SLP187 T02800221 52002 IEM_DS3505
ZGSZ,1997-10-06 04:00,ZGSZ 060400Z AUTO 27006KT 7SM 28/24 A3006 RMK T02800240 IEM_DS3505
ZGSZ,1997-10-06 05:00,ZGSZ 060500Z AUTO 28006KT 7SM 28/24 A3003 RMK T02800240 IEM_DS3505
ZGSZ,1997-10-06 06:00,ZGSZ 060600Z AUTO 14006KT 9SM 29/23 A3000 RMK SLP165 T02940232 57022 IEM_DS3505
ZGSZ,1997-10-06 07:00,ZGSZ 060700Z AUTO 27004KT 6SM 28/24 A3000 RMK T02800240 IEM_DS3505
ZGSZ,1997-10-06 08:00,ZGSZ 060800Z AUTO 22004KT 6SM 29/25 A2997 RMK T02900250 IEM_DS3505
ZGSZ,1997-10-06 09:00,ZGSZ 060900Z AUTO 09006KT 7SM 28/23 A2997 RMK SLP161 T02800231 57004 IEM_DS3505
ZGSZ,1997-10-06 10:00,ZGSZ 061000Z AUTO 18004KT 6SM 28/25 A2997 RMK T02800250 IEM_DS3505
ZGSZ,1997-10-06 11:00,ZGSZ 061100Z AUTO 17006KT 6SM 27/25 A3000 RMK T02700250 IEM_DS3505
ZGSZ,1997-10-06 12:00,ZGSZ 061200Z AUTO 14008KT 7SM 26/22 A3000 RMK SLP175 T02580223 52013 IEM_DS3505
ZGSZ,1997-10-06 13:00,ZGSZ 061300Z AUTO 11006KT 6SM 26/24 A3003 RMK T02600240 IEM_DS3505
ZGSZ,1997-10-06 14:00,ZGSZ 061400Z AUTO 11008KT 6SM 26/24 A3003 RMK T02600240 IEM_DS3505
ZGSZ,1997-10-06 15:00,ZGSZ 061500Z AUTO 11004KT 4SM 25/24 A3003 RMK T02500240 IEM_DS3505
ZGSZ,1997-10-06 18:00,ZGSZ 061800Z AUTO 14002KT 9SM 25/22 RMK SLP175 T02510224 57005 IEM_DS3505
ZGSZ,1997-10-06 21:00,ZGSZ 062100Z AUTO 00000KT 4SM 25/22 A3003 RMK SLP174 T02480224 57001 IEM_DS3505
ZGSZ,1997-10-06 22:00,ZGSZ 062200Z AUTO 10004KT 2 1/2SM 25/24 A3003 RMK T02500240 IEM_DS3505
ZGSZ,1997-10-06 23:00,ZGSZ 062300Z AUTO 10004KT 2 1/2SM 25/24 A3006 RMK T02500240 IEM_DS3505
ZGSZ,1997-10-07 00:00,ZGSZ 070000Z AUTO 04004KT 3SM 25/23 A3006 RMK SLP190 T02480226 52015 IEM_DS3505
ZGSZ,1997-10-07 01:00,ZGSZ 070100Z AUTO 09004KT 3SM 27/25 A3006 RMK T02700250 IEM_DS3505
ZGSZ,1997-10-07 02:00,ZGSZ 070200Z AUTO 11004KT 3SM 28/24 A3009 RMK T02800240 IEM_DS3505
ZGSZ,1997-10-07 03:00,ZGSZ 070300Z AUTO 04004KT 5SM 28/21 A3006 RMK SLP190 T02850214 52001 IEM_DS3505
ZGSZ,1997-10-07 04:00,ZGSZ 070400Z AUTO 22006KT 3SM 28/25 A3006 RMK T02800250 IEM_DS3505
ZGSZ,1997-10-07 05:00,ZGSZ 070500Z AUTO 27006KT 2 1/2SM 30/25 A3003 RMK T03000250 IEM_DS3505
ZGSZ,1997-10-07 06:00,ZGSZ 070600Z AUTO 14004KT 7SM 30/22 A3003 RMK SLP172 T03010220 57018 IEM_DS3505
ZGSZ,1997-10-07 07:00,ZGSZ 070700Z AUTO 21008KT 6SM 29/24 A3000 RMK T02900240 IEM_DS3505
ZGSZ,1997-10-07 08:00,ZGSZ 070800Z AUTO 20008KT 6SM 29/25 A3000 RMK T02900250 IEM_DS3505
ZGSZ,1997-10-07 09:00,ZGSZ 070900Z AUTO 14006KT 6SM 28/22 A3000 RMK SLP172 T02840219 54000 IEM_DS3505
ZGSZ,1997-10-07 10:00,ZGSZ 071000Z AUTO 19008KT 6SM 28/25 A3003 RMK T02800250 IEM_DS3505
ZGSZ,1997-10-07 11:00,ZGSZ 071100Z AUTO 18008KT 6SM 27/25 A3003 RMK T02700250 IEM_DS3505
ZGSZ,1997-10-07 12:00,ZGSZ 071200Z AUTO 20002KT 6SM 26/22 A3003 RMK SLP181 T02630217 52009 IEM_DS3505
ZGSZ,1997-10-07 13:00,ZGSZ 071300Z AUTO 10004KT 4SM 27/24 A3006 RMK T02700240 IEM_DS3505
ZGSZ,1997-10-07 14:00,ZGSZ 071400Z AUTO 09004KT 4SM 26/23 A3006 RMK T02600230 IEM_DS3505
ZGSZ,1997-10-07 15:00,ZGSZ 071500Z AUTO 12002KT 4SM 26/23 A3006 RMK T02600230 IEM_DS3505
ZGSZ,1997-10-07 18:00,ZGSZ 071800Z AUTO 04004KT 9SM 26/23 RMK SLP186 T02560227 57003 IEM_DS3505
ZGSZ,1997-10-07 21:00,ZGSZ 072100Z AUTO 04002KT 7SM 25/23 A3003 RMK SLP183 T02540228 57003 IEM_DS3505
ZGSZ,1997-10-07 22:00,ZGSZ 072200Z AUTO 05004KT 3SM 25/24 A3006 RMK T02500240 IEM_DS3505
ZGSZ,1997-10-07 23:00,ZGSZ 072300Z AUTO 03002KT 2 1/2SM 25/24 A3006 RMK T02500240 IEM_DS3505
ZGSZ,1997-10-08 00:00,ZGSZ 080000Z AUTO 36004KT 4SM 25/23 A3009 RMK 60002 70002 SLP197 T02470229 52013 IEM_DS3505
ZGSZ,1997-10-08 01:00,ZGSZ 080100Z AUTO 05006KT 2SM 25/24 A3009 RMK T02500240 IEM_DS3505
ZGSZ,1997-10-08 02:00,ZGSZ 080200Z AUTO 02004KT 2 1/2SM 25/24 A3012 RMK T02500240 IEM_DS3505
ZGSZ,1997-10-08 03:00,ZGSZ 080300Z AUTO 04006KT 6SM 26/23 A3012 RMK SLP202 T02620230 52005 IEM_DS3505
ZGSZ,1997-10-08 04:00,ZGSZ 080400Z AUTO 04006KT 5SM 27/24 A3009 RMK T02700240 IEM_DS3505
ZGSZ,1997-10-08 05:00,ZGSZ 080500Z AUTO 28004KT 7SM 27/24 A3006 RMK T02700240 IEM_DS3505
ZGSZ,1997-10-08 06:00,ZGSZ 080600Z AUTO 14008KT 7SM 27/22 A3003 RMK SLP178 T02720222 57023 IEM_DS3505
ZGSZ,1997-10-08 07:00,ZGSZ 080700Z AUTO 28006KT 2 1/2SM 25/24 A3003 RMK T02500240 IEM_DS3505
ZGSZ,1997-10-08 08:00,ZGSZ 080800Z AUTO 00000KT 2 1/2SM 24/24 A3003 RMK T02400240 IEM_DS3505
ZGSZ,1997-10-08 09:00,ZGSZ 080900Z AUTO 09006KT 7SM 26/22 A3003 RMK SLP179 T02650217 52001 IEM_DS3505
ZGSZ,1997-10-08 10:00,ZGSZ 081000Z AUTO 12002KT 2SM 24/24 A3003 RMK T02400240 IEM_DS3505
ZGSZ,1997-10-08 11:00,ZGSZ 081100Z AUTO 10006KT 2 1/2SM 25/24 A3006 RMK T02500240 IEM_DS3505
ZGSZ,1997-10-08 12:00,ZGSZ 081200Z AUTO 09006KT 6SM 26/21 A3006 RMK SLP190 T02560214 52010 IEM_DS3505
ZGSZ,1997-10-08 14:00,ZGSZ 081400Z AUTO 12008KT 4SM 25/23 A3009 RMK T02500230 IEM_DS3505
ZGSZ,1997-10-08 15:00,ZGSZ 081500Z AUTO 11010KT 6SM 25/22 A3009 RMK T02500220 IEM_DS3505
ZGSZ,1997-10-08 18:00,ZGSZ 081800Z AUTO 09004KT 7SM 25/19 RMK SLP187 T02480189 57008 IEM_DS3505
ZGSZ,1997-10-08 21:00,ZGSZ 082100Z AUTO 09006KT 6SM 24/19 A3003 RMK 70002 SLP175 T02430193 57012 IEM_DS3505
ZGSZ,1997-10-08 22:00,ZGSZ 082200Z AUTO 00000KT 2SM 23/21 A3003 RMK T02300210 IEM_DS3505
ZGSZ,1997-10-08 23:00,ZGSZ 082300Z AUTO 00000KT 2SM 24/21 A3003 RMK T02400210 IEM_DS3505
ZGSZ,1997-10-09 00:00,ZGSZ 090000Z AUTO 04004KT 7SM 24/20 A3006 RMK SLP187 T02440195 52011 IEM_DS3505
ZGSZ,1997-10-09 02:00,ZGSZ 090200Z AUTO 11004KT 7SM 27/22 A3006 RMK T02700220 IEM_DS3505
ZGSZ,1997-10-09 03:00,ZGSZ 090300Z AUTO 14008KT 5SM 27/21 A3006 RMK SLP185 T02730208 57001 IEM_DS3505
ZGSZ,1997-10-09 04:00,ZGSZ 090400Z AUTO 23006KT 7SM 27/23 A3003 RMK T02700230 IEM_DS3505
ZGSZ,1997-10-09 05:00,ZGSZ 090500Z AUTO 25006KT 7SM 27/23 A3000 RMK T02700230 IEM_DS3505
ZGSZ,1997-10-09 06:00,ZGSZ 090600Z AUTO 14008KT 5SM 27/21 A2997 RMK SLP159 T02690207 57026 IEM_DS3505
ZGSZ,1997-10-09 08:00,ZGSZ 090800Z AUTO 08008KT 3SM 26/24 A2994 RMK T02600240 IEM_DS3505
ZGSZ,1997-10-09 09:00,ZGSZ 090900Z AUTO 14006KT 5SM 26/21 A2994 RMK SLP152 T02620209 57007 IEM_DS3505
ZGSZ,1997-10-09 10:00,ZGSZ 091000Z AUTO 09004KT 3SM 26/23 A2994 RMK T02600230 IEM_DS3505
ZGSZ,1997-10-09 11:00,ZGSZ 091100Z AUTO 10006KT 3SM 26/23 A2997 RMK T02600230 IEM_DS3505
ZGSZ,1997-10-09 12:00,ZGSZ 091200Z AUTO 14006KT 5SM 25/21 A2997 RMK SLP161 T02530212 52009 IEM_DS3505
ZGSZ,1997-10-09 13:00,ZGSZ 091300Z AUTO 12006KT 2SM 25/23 A3000 RMK T02500230 IEM_DS3505
ZGSZ,1997-10-09 14:00,ZGSZ 091400Z AUTO 11004KT 2SM 24/23 A3000 RMK T02400230 IEM_DS3505
ZGSZ,1997-10-09 15:00,ZGSZ 091500Z AUTO 13006KT 2SM 25/23 A3000 RMK T02500230 IEM_DS3505
ZGSZ,1997-10-09 18:00,ZGSZ 091800Z AUTO 00000KT 6SM 25/22 RMK SLP153 T02470220 57014 IEM_DS3505
ZGSZ,1997-10-09 21:00,ZGSZ 092100Z AUTO 00000KT 5SM 24/22 A2994 RMK SLP145 T02390220 57008 IEM_DS3505
ZGSZ,1997-10-09 22:00,ZGSZ 092200Z AUTO 10004KT 1 1/2SM 23/23 A2994 RMK T02300230 IEM_DS3505
ZGSZ,1997-10-09 23:00,ZGSZ 092300Z AUTO 06002KT 1 1/4SM 23/23 A2997 RMK T02300230 IEM_DS3505
ZGSZ,1997-10-10 00:00,ZGSZ 100000Z AUTO 04004KT 2SM 24/22 A3000 RMK SLP167 T02450223 52021 IEM_DS3505
ZGSZ,1997-10-10 01:00,ZGSZ 100100Z AUTO 09004KT 2SM 27/25 A3000 RMK T02700250 IEM_DS3505
ZGSZ,1997-10-10 02:00,ZGSZ 100200Z AUTO 23002KT 2 1/2SM 28/25 A3000 RMK T02800250 IEM_DS3505
ZGSZ,1997-10-10 03:00,ZGSZ 100300Z AUTO 20004KT 6SM 29/22 A3000 RMK SLP164 T02910222 57002 IEM_DS3505
ZGSZ,1997-10-10 04:00,ZGSZ 100400Z AUTO 21004KT 7SM 29/25 A2997 RMK T02900250 IEM_DS3505
ZGSZ,1997-10-10 05:00,ZGSZ 100500Z AUTO 21004KT 6SM 29/25 A2994 RMK T02900250 IEM_DS3505
ZGSZ,1997-10-10 06:00,ZGSZ 100600Z AUTO 22008KT 7SM 32/21 A2991 RMK SLP137 T03150213 57027 IEM_DS3505
ZGSZ,1997-10-10 07:00,ZGSZ 100700Z AUTO 20004KT 6SM 30/25 A2991 RMK T03000250 IEM_DS3505
ZGSZ,1997-10-10 08:00,ZGSZ 100800Z AUTO 20006KT 6SM 29/25 A2988 RMK T02900250 IEM_DS3505
ZGSZ,1997-10-10 09:00,ZGSZ 100900Z AUTO 27006KT 7SM 30/22 RMK SLP130 T02990218 57007 IEM_DS3505
ZGSZ,1997-10-10 12:00,ZGSZ 101200Z AUTO 18002KT 4SM 28/24 RMK SLP146 T02760239 52016 IEM_DS3505
ZGSZ,1997-10-10 15:00,ZGSZ 101500Z AUTO 17002KT 6SM 26/26 A2994 RMK T02600260 IEM_DS3505
ZGSZ,1997-10-10 18:00,ZGSZ 101800Z AUTO 04002KT 4SM 26/24 RMK SLP143 T02600235 57008 IEM_DS3505
ZGSZ,1997-10-10 21:00,ZGSZ 102100Z AUTO 04004KT 2 1/2SM 26/24 A2991 RMK SLP142 T02580235 57001 IEM_DS3505
ZGSZ,1997-10-10 23:00,ZGSZ 102300Z AUTO 08004KT 1 1/4SM 26/25 A2997 RMK T02600250 IEM_DS3505
ZGSZ,1997-10-11 00:00,ZGSZ 110000Z AUTO 04006KT 3SM 26/23 RMK SLP164 T02560233 52022 IEM_DS3505
ZGSZ,1997-10-11 01:00,ZGSZ 110100Z AUTO 33008KT 1SM 26/25 A3000 RMK T02600250 IEM_DS3505
ZGSZ,1997-10-11 02:00,ZGSZ 110200Z AUTO 07004KT 1SM 27/26 A3000 RMK T02700260 IEM_DS3505
ZGSZ,1997-10-11 03:00,ZGSZ 110300Z AUTO 04002KT 5SM 29/24 RMK SLP162 T02910235 57002 IEM_DS3505
ZGSZ,1997-10-11 04:00,ZGSZ 110400Z AUTO 26004KT 3SM 29/25 A2997 RMK T02900250 IEM_DS3505
ZGSZ,1997-10-11 05:00,ZGSZ 110500Z AUTO 26006KT 4SM 29/26 A2994 RMK T02900260 IEM_DS3505
ZGSZ,1997-10-11 06:00,ZGSZ 110600Z AUTO 14004KT 4SM 30/24 A2991 RMK SLP138 T02960240 57024 IEM_DS3505
ZGSZ,1997-10-11 07:00,ZGSZ 110700Z AUTO 24004KT 6SM 30/26 A2991 RMK T03000260 IEM_DS3505
ZGSZ,1997-10-11 08:00,ZGSZ 110800Z AUTO 21006KT 6SM 29/26 A2988 RMK T02900260 IEM_DS3505
ZGSZ,1997-10-11 09:00,ZGSZ 110900Z AUTO 09002KT 3SM 28/24 A2991 RMK SLP136 T02780238 57002 IEM_DS3505
ZGSZ,1997-10-11 10:00,ZGSZ 111000Z AUTO 19008KT 4SM 28/26 A2991 RMK T02800260 IEM_DS3505
ZGSZ,1997-10-11 11:00,ZGSZ 111100Z AUTO 16006KT 3SM 28/26 A2994 RMK T02800260 IEM_DS3505
ZGSZ,1997-10-11 12:00,ZGSZ 111200Z AUTO 15006KT 3SM 27/24 A2994 RMK SLP154 T02670240 52018 IEM_DS3505
ZGSZ,1997-10-11 13:00,ZGSZ 111300Z AUTO 10006KT 1 1/2SM 27/25 A2997 RMK T02700250 IEM_DS3505
ZGSZ,1997-10-11 14:00,ZGSZ 111400Z AUTO 10006KT 1 1/2SM 27/25 A2997 RMK T02700250 IEM_DS3505
ZGSZ,1997-10-11 18:00,ZGSZ 111800Z AUTO 07004KT 3SM 26/24 RMK SLP156 T02610239 57008 IEM_DS3505
ZGSZ,1997-10-11 21:00,ZGSZ 112100Z AUTO 00000KT 2 1/2SM 26/24 A2997 RMK SLP150 T02560237 57006 IEM_DS3505
ZGSZ,1997-10-11 22:00,ZGSZ 112200Z AUTO 11004KT 2SM 25/25 A2997 RMK T02500250 IEM_DS3505
ZGSZ,1997-10-11 23:00,ZGSZ 112300Z AUTO 10002KT 1 1/2SM 25/25 A3000 RMK T02500250 IEM_DS3505
ZGSZ,1997-10-12 00:00,ZGSZ 120000Z AUTO 09006KT 1 1/2SM 26/24 A3000 RMK SLP171 T02580238 52021 IEM_DS3505
ZGSZ,1997-10-12 01:00,ZGSZ 120100Z AUTO 10006KT 2SM 28/26 A3003 RMK T02800260 IEM_DS3505
ZGSZ,1997-10-12 02:00,ZGSZ 120200Z AUTO 08004KT 2 1/2SM 29/26 A3003 RMK T02900260 IEM_DS3505
ZGSZ,1997-10-12 03:00,ZGSZ 120300Z AUTO 14006KT 4SM 28/24 A3003 RMK SLP178 T02760239 52007 IEM_DS3505
ZGSZ,1997-10-12 04:00,ZGSZ 120400Z AUTO 11004KT 2 1/2SM 27/26 A3000 RMK T02700260 IEM_DS3505
ZGSZ,1997-10-12 05:00,ZGSZ 120500Z AUTO 13010KT 4SM 29/25 A3000 RMK T02900250 IEM_DS3505
ZGSZ,1997-10-12 06:00,ZGSZ 120600Z AUTO 14008KT 4SM 27/24 A2994 RMK 60004 SLP157 T02740241 57021 IEM_DS3505
ZGSZ,1997-10-12 07:00,ZGSZ 120700Z AUTO 14008KT 7SM 30/25 A2994 RMK T03000250 IEM_DS3505
ZGSZ,1997-10-12 08:00,ZGSZ 120800Z AUTO 16006KT 7SM 30/25 A2994 RMK T03000250 IEM_DS3505
ZGSZ,1997-10-12 09:00,ZGSZ 120900Z AUTO 14006KT 5SM 28/23 A2994 RMK SLP154 T02750231 57003 IEM_DS3505
ZGSZ,1997-10-12 10:00,ZGSZ 121000Z AUTO 15006KT 5SM 28/25 A2997 RMK T02800250 IEM_DS3505
ZGSZ,1997-10-12 11:00,ZGSZ 121100Z AUTO 12006KT 4SM 27/25 A2997 RMK T02700250 IEM_DS3505
ZGSZ,1997-10-12 12:00,ZGSZ 121200Z AUTO 09006KT 7SM 26/23 A2997 RMK SLP165 T02600231 52011 IEM_DS3505
ZGSZ,1997-10-12 13:00,ZGSZ 121300Z AUTO 07004KT 4SM 26/24 A3000 RMK T02600240 IEM_DS3505
ZGSZ,1997-10-12 14:00,ZGSZ 121400Z AUTO 08004KT 4SM 26/24 A3000 RMK T02600240 IEM_DS3505
ZGSZ,1997-10-12 15:00,ZGSZ 121500Z AUTO 11004KT 4SM 26/24 A3000 RMK T02600240 IEM_DS3505
ZGSZ,1997-10-12 18:00,ZGSZ 121800Z AUTO 09004KT 8SM 26/23 RMK SLP162 T02560230 57007 IEM_DS3505
ZGSZ,1997-10-12 21:00,ZGSZ 122100Z AUTO 14006KT 9SM 25/22 A2997 RMK 70004 SLP155 T02520224 57007 IEM_DS3505
ZGSZ,1997-10-12 22:00,ZGSZ 122200Z AUTO 11002KT 2 1/2SM 25/24 A2997 RMK T02500240 IEM_DS3505
ZGSZ,1997-10-12 23:00,ZGSZ 122300Z AUTO 08004KT 3SM 25/24 A2997 RMK T02500240 IEM_DS3505
ZGSZ,1997-10-13 00:00,ZGSZ 130000Z AUTO 14004KT 7SM 26/22 A3000 RMK 70004 SLP169 T02550222 52014 IEM_DS3505
ZGSZ,1997-10-13 01:00,ZGSZ 130100Z AUTO 09006KT 4SM 27/24 A3003 RMK T02700240 IEM_DS3505
ZGSZ,1997-10-13 02:00,ZGSZ 130200Z AUTO 11004KT 5SM 29/25 A3003 RMK T02900250 IEM_DS3505
ZGSZ,1997-10-13 03:00,ZGSZ 130300Z AUTO 11006KT 8SM 28/22 A3000 RMK SLP171 T02800221 52002 IEM_DS3505
ZGSZ,1997-10-13 04:00,ZGSZ 130400Z AUTO 19008KT 7SM 29/24 A3000 RMK T02900240 IEM_DS3505
ZGSZ,1997-10-13 05:00,ZGSZ 130500Z AUTO 20006KT 7SM 28/25 A2997 RMK T02800250 IEM_DS3505
ZGSZ,1997-10-13 06:00,ZGSZ 130600Z AUTO 14004KT 7SM 30/22 A2994 RMK SLP146 T02960225 57025 IEM_DS3505
ZGSZ,1997-10-13 07:00,ZGSZ 130700Z AUTO 34004KT 3SM 25/24 A2991 RMK T02500240 IEM_DS3505
ZGSZ,1997-10-13 08:00,ZGSZ 130800Z AUTO 00000KT 4SM 26/25 A2991 RMK T02600250 IEM_DS3505
ZGSZ,1997-10-13 09:00,ZGSZ 130900Z AUTO 00000KT 4SM 27/23 A2991 RMK SLP137 T02710232 57009 IEM_DS3505
ZGSZ,1997-10-13 10:00,ZGSZ 131000Z AUTO 00000KT 2SM 26/25 A2991 RMK T02600250 IEM_DS3505
ZGSZ,1997-10-13 11:00,ZGSZ 131100Z AUTO 34004KT 1 1/4SM 26/25 A2994 RMK T02600250 IEM_DS3505
ZGSZ,1997-10-13 12:00,ZGSZ 131200Z AUTO 18002KT 4SM 26/23 A2994 RMK 60012 SLP153 T02640229 52016 IEM_DS3505
ZGSZ,1997-10-13 13:00,ZGSZ 131300Z AUTO 10004KT 1 1/2SM 25/25 A2997 RMK T02500250 IEM_DS3505
ZGSZ,1997-10-13 14:00,ZGSZ 131400Z AUTO 10004KT 1 1/2SM 25/25 A2997 RMK T02500250 IEM_DS3505
ZGSZ,1997-10-13 15:00,ZGSZ 131500Z AUTO 00000KT 1 1/2SM 25/24 A2997 RMK T02500240 IEM_DS3505
ZGSZ,1997-10-13 18:00,ZGSZ 131800Z AUTO 09004KT 3SM 25/23 RMK SLP151 T02520229 57008 IEM_DS3505
ZGSZ,1997-10-13 21:00,ZGSZ 132100Z AUTO 04002KT 2 1/2SM 24/23 A2994 RMK 70012 SLP144 T02450229 57007 IEM_DS3505
ZGSZ,1997-10-13 22:00,ZGSZ 132200Z AUTO 11002KT 1 1/2SM 23/23 A2994 RMK T02300230 IEM_DS3505
ZGSZ,1997-10-13 23:00,ZGSZ 132300Z AUTO 11004KT 1 1/4SM 23/23 A2997 RMK T02300230 IEM_DS3505
ZGSZ,1997-10-14 00:00,ZGSZ 140000Z AUTO 00000KT 4SM 25/23 A2997 RMK 70012 SLP159 T02460228 52015 IEM_DS3505
ZGSZ,1997-10-14 01:00,ZGSZ 140100Z AUTO 10004KT 2SM 28/25 A2997 RMK T02800250 IEM_DS3505
ZGSZ,1997-10-14 02:00,ZGSZ 140200Z AUTO 19004KT 2 1/2SM 28/25 A2997 RMK T02800250 IEM_DS3505
ZGSZ,1997-10-14 03:00,ZGSZ 140300Z AUTO 14004KT 5SM 28/22 A2997 RMK SLP164 T02810224 52005 IEM_DS3505
ZGSZ,1997-10-14 04:00,ZGSZ 140400Z AUTO 25006KT 4SM 28/25 A2997 RMK T02800250 IEM_DS3505
ZGSZ,1997-10-14 05:00,ZGSZ 140500Z AUTO 23006KT 6SM 29/26 A2994 RMK T02900260 IEM_DS3505
ZGSZ,1997-10-14 06:00,ZGSZ 140600Z AUTO 09006KT 6SM 29/22 A2991 RMK SLP133 T02920225 57031 IEM_DS3505
ZGSZ,1997-10-14 07:00,ZGSZ 140700Z AUTO 21006KT 6SM 29/26 A2988 RMK T02900260 IEM_DS3505
ZGSZ,1997-10-14 08:00,ZGSZ 140800Z AUTO 21006KT 6SM 29/25 A2985 RMK T02900250 IEM_DS3505
ZGSZ,1997-10-14 09:00,ZGSZ 140900Z AUTO 14004KT 6SM 29/23 A2985 RMK SLP123 T02880227 57010 IEM_DS3505
ZGSZ,1997-10-14 10:00,ZGSZ 141000Z AUTO 22006KT 6SM 28/25 A2988 RMK T02800250 IEM_DS3505
ZGSZ,1997-10-14 11:00,ZGSZ 141100Z AUTO 19006KT 6SM 27/25 A2985 RMK T02700250 IEM_DS3505
ZGSZ,1997-10-14 12:00,ZGSZ 141200Z AUTO 14006KT 5SM 27/22 A2988 RMK SLP128 T02660222 52005 IEM_DS3505
ZGSZ,1997-10-14 13:00,ZGSZ 141300Z AUTO 18004KT 6SM 27/25 A2991 RMK T02700250 IEM_DS3505
ZGSZ,1997-10-14 14:00,ZGSZ 141400Z AUTO 12004KT 2 1/2SM 27/24 A2994 RMK T02700240 IEM_DS3505
ZGSZ,1997-10-14 15:00,ZGSZ 141500Z AUTO 12004KT 2 1/2SM 26/24 A2994 RMK T02600240 IEM_DS3505
ZGSZ,1997-10-14 18:00,ZGSZ 141800Z AUTO 11002KT 6SM 25/23 RMK SLP137 T02530228 57008 IEM_DS3505
ZGSZ,1997-10-14 21:00,ZGSZ 142100Z AUTO 09004KT 5SM 25/23 A2988 RMK SLP130 T02490228 57007 IEM_DS3505
ZGSZ,1997-10-14 22:00,ZGSZ 142200Z AUTO 09004KT 2 1/2SM 24/24 A2988 RMK T02400240 IEM_DS3505
ZGSZ,1997-10-14 23:00,ZGSZ 142300Z AUTO 10004KT 2 1/2SM 24/24 A2991 RMK T02400240 IEM_DS3505
ZGSZ,1997-10-15 00:00,ZGSZ 150000Z AUTO 02002KT 5SM 25/23 A2994 RMK SLP145 T02510229 52015 IEM_DS3505
ZGSZ,1997-10-15 01:00,ZGSZ 150100Z AUTO 12004KT 2 1/2SM 28/25 A2994 RMK T02800250 IEM_DS3505
ZGSZ,1997-10-15 02:00,ZGSZ 150200Z AUTO 24002KT 4SM 29/24 A2997 RMK T02900240 IEM_DS3505
ZGSZ,1997-10-15 03:00,ZGSZ 150300Z AUTO 04004KT 7SM 29/21 A2997 RMK SLP153 T02880214 52008 IEM_DS3505
ZGSZ,1997-10-15 04:00,ZGSZ 150400Z AUTO 26004KT 3SM 29/25 A2994 RMK T02900250 IEM_DS3505
ZGSZ,1997-10-15 05:00,ZGSZ 150500Z AUTO 23006KT 4SM 30/25 A2991 RMK T03000250 IEM_DS3505
ZGSZ,1997-10-15 06:00,ZGSZ 150600Z AUTO 22002KT 8SM 29/22 A2988 RMK SLP129 T02940224 IEM_DS3505
ZGSZ,1997-10-15 07:00,ZGSZ 150700Z AUTO 20008KT 6SM 29/25 A2985 RMK T02900250 IEM_DS3505
ZGSZ,1997-10-15 08:00,ZGSZ 150800Z AUTO 20006KT 6SM 29/25 A2985 RMK T02900250 IEM_DS3505
ZGSZ,1997-10-15 09:00,ZGSZ 150900Z AUTO 09006KT 9SM 29/23 A2988 RMK SLP127 T02900232 57002 IEM_DS3505
ZGSZ,1997-10-15 10:00,ZGSZ 151000Z AUTO 20002KT 6SM 28/25 A2988 RMK T02800250 IEM_DS3505
ZGSZ,1997-10-15 11:00,ZGSZ 151100Z AUTO 02004KT 4SM 27/24 A2991 RMK T02700240 IEM_DS3505
ZGSZ,1997-10-15 12:00,ZGSZ 151200Z AUTO 00000KT 6SM 27/22 A2994 RMK 60002 SLP146 T02670221 52019 IEM_DS3505
ZGSZ,1997-10-15 13:00,ZGSZ 151300Z AUTO 26002KT 7SM 27/25 A2997 RMK T02700250 IEM_DS3505
ZGSZ,1997-10-15 14:00,ZGSZ 151400Z AUTO 33004KT 1 1/2SM 27/25 A2997 RMK T02700250 IEM_DS3505
ZGSZ,1997-10-15 15:00,ZGSZ 151500Z AUTO 35004KT 1 1/2SM 26/24 A2997 RMK T02600240 IEM_DS3505
ZGSZ,1997-10-15 16:00,ZGSZ 151600Z AUTO 03002KT 2SM 26/24 A2997 RMK T02600240 IEM_DS3505
ZGSZ,1997-10-15 18:00,ZGSZ 151800Z AUTO 07002KT 3SM 26/23 RMK SLP147 T02580227 57012 IEM_DS3505
ZGSZ,1997-10-15 21:00,ZGSZ 152100Z AUTO 36004KT 2 1/2SM 25/22 A2994 RMK 70002 SLP147 T02480224 54000 IEM_DS3505
ZGSZ,1997-10-15 22:00,ZGSZ 152200Z AUTO 35006KT 1 1/2SM 24/23 A2994 RMK T02400230 IEM_DS3505
ZGSZ,1997-10-15 23:00,ZGSZ 152300Z AUTO 00000KT 1 1/4SM 24/23 A2997 RMK T02400230 IEM_DS3505
ZGSZ,1997-10-16 00:00,ZGSZ 160000Z AUTO 32002KT 4SM 26/22 A3000 RMK 70002 SLP164 T02550222 52017 IEM_DS3505
ZGSZ,1997-10-16 01:00,ZGSZ 160100Z AUTO 00000KT 2 1/2SM 26/24 A3000 RMK T02600240 IEM_DS3505
ZGSZ,1997-10-16 02:00,ZGSZ 160200Z AUTO 00000KT 2 1/2SM 28/24 A3000 RMK T02800240 IEM_DS3505
ZGSZ,1997-10-16 03:00,ZGSZ 160300Z AUTO 18002KT 6SM 29/23 A3000 RMK SLP168 T02880230 52004 IEM_DS3505
ZGSZ,1997-10-16 04:00,ZGSZ 160400Z AUTO 29008KT 2 1/2SM 29/25 A2997 RMK T02900250 IEM_DS3505
ZGSZ,1997-10-16 05:00,ZGSZ 160500Z AUTO 28008KT 3SM 30/26 A2994 RMK T03000260 IEM_DS3505
ZGSZ,1997-10-16 06:00,ZGSZ 160600Z AUTO 14006KT 9SM 31/22 RMK SLP142 T03100222 57026 IEM_DS3505
ZGSZ,1997-10-16 07:00,ZGSZ 160700Z AUTO 26006KT 4SM 29/25 A2991 RMK T02900250 IEM_DS3505
ZGSZ,1997-10-16 09:00,ZGSZ 160900Z AUTO 14004KT 8SM 29/23 A2991 RMK SLP141 T02900232 57001 IEM_DS3505
ZGSZ,1997-10-16 10:00,ZGSZ 161000Z AUTO 10004KT 3SM 28/24 A2994 RMK T02800240 IEM_DS3505
ZGSZ,1997-10-16 11:00,ZGSZ 161100Z AUTO 00000KT 2 1/2SM 27/24 A2994 RMK T02700240 IEM_DS3505
ZGSZ,1997-10-16 12:00,ZGSZ 161200Z AUTO 14006KT 9SM 27/23 A2997 RMK SLP164 T02710229 52023 IEM_DS3505
ZGSZ,1997-10-16 13:00,ZGSZ 161300Z AUTO 10002KT 1 1/2SM 27/24 A3000 RMK T02700240 IEM_DS3505
ZGSZ,1997-10-16 14:00,ZGSZ 161400Z AUTO 10006KT 2 1/2SM 27/24 A3003 RMK T02700240 IEM_DS3505
ZGSZ,1997-10-16 15:00,ZGSZ 161500Z AUTO 10004KT 2 1/2SM 27/24 A3003 RMK T02700240 IEM_DS3505
ZGSZ,1997-10-16 18:00,ZGSZ 161800Z AUTO 04002KT 8SM 26/23 RMK SLP166 T02590231 57010 IEM_DS3505
ZGSZ,1997-10-16 21:00,ZGSZ 162100Z AUTO 09004KT 6SM 26/23 A2997 RMK SLP158 T02560233 57008 IEM_DS3505
ZGSZ,1997-10-16 22:00,ZGSZ 162200Z AUTO 00000KT 2SM 25/24 A3000 RMK T02500240 IEM_DS3505
ZGSZ,1997-10-17 00:00,ZGSZ 170000Z AUTO 36002KT 6SM 26/23 A3003 RMK SLP180 T02570231 52022 IEM_DS3505
ZGSZ,1997-10-17 01:00,ZGSZ 170100Z AUTO 02004KT 3SM 27/25 A3006 RMK T02700250 IEM_DS3505
ZGSZ,1997-10-17 02:00,ZGSZ 170200Z AUTO 09002KT 3SM 27/25 A3006 RMK T02700250 IEM_DS3505
ZGSZ,1997-10-17 03:00,ZGSZ 170300Z AUTO 04006KT 8SM 28/22 A3003 RMK SLP181 T02850223 52001 IEM_DS3505
ZGSZ,1997-10-17 04:00,ZGSZ 170400Z AUTO 29006KT 3SM 29/25 A3003 RMK T02900250 IEM_DS3505
ZGSZ,1997-10-17 05:00,ZGSZ 170500Z AUTO 28008KT 3SM 29/25 A3000 RMK T02900250 IEM_DS3505
ZGSZ,1997-10-17 06:00,ZGSZ 170600Z AUTO 34004KT 6SM 29/23 A2997 RMK SLP157 T02890231 57024 IEM_DS3505
ZGSZ,1997-10-17 07:00,ZGSZ 170700Z AUTO 11008KT 1 1/2SM 23/23 A2997 RMK T02300230 IEM_DS3505
ZGSZ,1997-10-17 09:00,ZGSZ 170900Z AUTO 04002KT 3SM 26/24 RMK SLP158 T02560245 52001 IEM_DS3505
ZGSZ,1997-10-17 10:00,ZGSZ 171000Z AUTO 07002KT 3SM 26/25 A2997 RMK T02600250 IEM_DS3505
ZGSZ,1997-10-17 11:00,ZGSZ 171100Z AUTO 01002KT 2SM 25/25 A2997 RMK T02500250 IEM_DS3505
ZGSZ,1997-10-17 12:00,ZGSZ 171200Z AUTO 36004KT 3SM 26/24 A3000 RMK 60028 SLP168 T02580239 52010 IEM_DS3505
ZGSZ,1997-10-17 13:00,ZGSZ 171300Z AUTO 02002KT 3SM 25/24 A3003 RMK T02500240 IEM_DS3505
ZGSZ,1997-10-17 14:00,ZGSZ 171400Z AUTO 35004KT 2SM 25/25 A3003 RMK T02500250 IEM_DS3505
ZGSZ,1997-10-17 15:00,ZGSZ 171500Z AUTO 36004KT 2SM 25/24 A3003 RMK T02500240 IEM_DS3505
ZGSZ,1997-10-17 16:00,ZGSZ 171600Z AUTO 00000KT 2SM 25/24 A3003 RMK T02500240 IEM_DS3505
ZGSZ,1997-10-17 17:00,ZGSZ 171700Z AUTO 00000KT 2SM 24/24 A3000 RMK T02400240 IEM_DS3505
ZGSZ,1997-10-17 18:00,ZGSZ 171800Z AUTO 04002KT 2SM 25/24 A3000 RMK SLP162 T02540237 IEM_DS3505
ZGSZ,1997-10-17 21:00,ZGSZ 172100Z AUTO 04004KT 2 1/2SM 24/24 A2997 RMK 70051 SLP155 T02450238 57007 IEM_DS3505
ZGSZ,1997-10-17 22:00,ZGSZ 172200Z AUTO 00000KT 2SM 24/24 A2997 RMK T02400240 IEM_DS3505
ZGSZ,1997-10-17 23:00,ZGSZ 172300Z AUTO 01004KT 1 1/2SM 24/24 A3000 RMK T02400240 IEM_DS3505
ZGSZ,1997-10-18 00:00,ZGSZ 180000Z AUTO 04002KT 5SM 25/23 A3000 RMK 60028 70055 T02460228 52011 IEM_DS3505
ZGSZ,1997-10-18 01:00,ZGSZ 180100Z AUTO 06004KT 2 1/2SM 25/25 A3003 RMK T02500250 IEM_DS3505
ZGSZ,1997-10-18 02:00,ZGSZ 180200Z AUTO 08002KT 3SM 27/25 A3003 RMK T02700250 IEM_DS3505
ZGSZ,1997-10-18 03:00,ZGSZ 180300Z AUTO 07008KT 7SM 27/23 A3000 RMK SLP170 T02690234 52004 IEM_DS3505
ZGSZ,1997-10-18 04:00,ZGSZ 180400Z AUTO 28006KT 3SM 28/25 A2997 RMK T02800250 IEM_DS3505
ZGSZ,1997-10-18 05:00,ZGSZ 180500Z AUTO 20008KT 4SM 26/25 A2997 RMK T02600250 IEM_DS3505
ZGSZ,1997-10-18 06:00,ZGSZ 180600Z AUTO 14008KT 9SM 28/22 A2994 RMK 60000 SLP147 T02810225 57023 IEM_DS3505
ZGSZ,1997-10-18 07:00,ZGSZ 180700Z AUTO 18004KT 7SM 27/26 A2994 RMK T02700260 IEM_DS3505
ZGSZ,1997-10-18 08:00,ZGSZ 180800Z AUTO 09006KT 7SM 26/24 A2991 RMK T02600240 IEM_DS3505
ZGSZ,1997-10-18 09:00,ZGSZ 180900Z AUTO 09006KT 8SM 27/22 A2991 RMK SLP145 T02740218 57002 IEM_DS3505
ZGSZ,1997-10-18 10:00,ZGSZ 181000Z AUTO 12004KT 7SM 26/24 A2994 RMK T02600240 IEM_DS3505
ZGSZ,1997-10-18 11:00,ZGSZ 181100Z AUTO 10004KT 6SM 26/24 A2994 RMK T02600240 IEM_DS3505
ZGSZ,1997-10-18 12:00,ZGSZ 181200Z AUTO 09002KT 7SM 26/21 A2997 RMK SLP155 T02630209 52010 IEM_DS3505
ZGSZ,1997-10-18 13:00,ZGSZ 181300Z AUTO 00000KT 1 1/2SM 25/24 A3000 RMK T02500240 IEM_DS3505
ZGSZ,1997-10-18 14:00,ZGSZ 181400Z AUTO 00000KT 2SM 25/24 A2997 RMK T02500240 IEM_DS3505
ZGSZ,1997-10-18 15:00,ZGSZ 181500Z AUTO 00000KT 2 1/2SM 25/24 A2997 RMK T02500240 IEM_DS3505
ZGSZ,1997-10-18 18:00,ZGSZ 181800Z AUTO 02002KT 5SM 25/22 RMK SLP152 T02540223 57009 IEM_DS3505
ZGSZ,1997-10-18 21:00,ZGSZ 182100Z AUTO 00000KT 4SM 25/22 A2994 RMK 70004 SLP148 T02460225 57004 IEM_DS3505
ZGSZ,1997-10-18 22:00,ZGSZ 182200Z AUTO 07002KT 2 1/2SM 24/23 A2994 RMK T02400230 IEM_DS3505
ZGSZ,1997-10-18 23:00,ZGSZ 182300Z AUTO 07002KT 4SM 24/24 A2997 RMK T02400240 IEM_DS3505
ZGSZ,1997-10-19 00:00,ZGSZ 190000Z AUTO 00000KT 2 1/2SM 24/22 A2997 RMK SLP160 T02450223 52012 IEM_DS3505
ZGSZ,1997-10-19 01:00,ZGSZ 190100Z AUTO 05002KT 4SM 27/25 A3000 RMK T02700250 IEM_DS3505
ZGSZ,1997-10-19 02:00,ZGSZ 190200Z AUTO 06002KT 4SM 28/24 A3000 RMK T02800240 IEM_DS3505
ZGSZ,1997-10-19 03:00,ZGSZ 190300Z AUTO 04004KT 4SM 28/22 A3000 RMK SLP160 T02800224 54000 IEM_DS3505
ZGSZ,1997-10-19 04:00,ZGSZ 190400Z AUTO 35006KT 4SM 29/24 A2994 RMK T02900240 IEM_DS3505
ZGSZ,1997-10-19 05:00,ZGSZ 190500Z AUTO 35006KT 5SM 30/24 A2991 RMK T03000240 IEM_DS3505
ZGSZ,1997-10-19 06:00,ZGSZ 190600Z AUTO 32002KT 6SM 30/22 A2988 RMK SLP126 T03020218 57034 IEM_DS3505
ZGSZ,1997-10-19 07:00,ZGSZ 190700Z AUTO 29008KT 4SM 30/26 A2985 RMK T03000260 IEM_DS3505
ZGSZ,1997-10-19 08:00,ZGSZ 190800Z AUTO 29008KT 2 1/2SM 30/25 A2985 RMK T03000250 IEM_DS3505
ZGSZ,1997-10-19 09:00,ZGSZ 190900Z AUTO 22004KT 7SM 29/23 A2985 RMK SLP120 T02890233 57006 IEM_DS3505
ZGSZ,1997-10-19 10:00,ZGSZ 191000Z AUTO 29002KT 3SM 29/24 A2985 RMK T02900240 IEM_DS3505
ZGSZ,1997-10-19 11:00,ZGSZ 191100Z AUTO 34004KT 2 1/2SM 27/24 A2988 RMK T02700240 IEM_DS3505
ZGSZ,1997-10-19 12:00,ZGSZ 191200Z AUTO 14006KT 6SM 27/23 A2988 RMK SLP137 T02700232 52017 IEM_DS3505
ZGSZ,1997-10-19 13:00,ZGSZ 191300Z AUTO 08002KT 2SM 26/24 A2991 RMK T02600240 IEM_DS3505
ZGSZ,1997-10-19 14:00,ZGSZ 191400Z AUTO 12002KT 2SM 26/25 A2991 RMK T02600250 IEM_DS3505
ZGSZ,1997-10-19 15:00,ZGSZ 191500Z AUTO 15002KT 2SM 26/25 A2991 RMK T02600250 IEM_DS3505
ZGSZ,1997-10-19 16:00,ZGSZ 191600Z AUTO 13006KT 1 1/2SM 26/25 A2991 RMK T02600250 IEM_DS3505
ZGSZ,1997-10-19 17:00,ZGSZ 191700Z AUTO 11008KT 2SM 25/23 A2991 RMK T02500230 IEM_DS3505
ZGSZ,1997-10-19 18:00,ZGSZ 191800Z AUTO 09004KT 9SM 25/21 RMK SLP132 T02520210 57013 IEM_DS3505
ZGSZ,1997-10-19 21:00,ZGSZ 192100Z AUTO 00000KT 7SM 24/22 A2988 RMK SLP128 T02440217 57004 IEM_DS3505
ZGSZ,1997-10-19 22:00,ZGSZ 192200Z AUTO 12004KT 3SM 24/23 A2988 RMK T02400230 IEM_DS3505
ZGSZ,1997-10-19 23:00,ZGSZ 192300Z AUTO 09002KT 4SM 24/23 A2991 RMK T02400230 IEM_DS3505
ZGSZ,1997-10-20 00:00,ZGSZ 200000Z AUTO 04002KT 4SM 24/22 A2991 RMK SLP144 T02450217 52016 IEM_DS3505
ZGSZ,1997-10-20 01:00,ZGSZ 200100Z AUTO 09002KT 4SM 27/24 A2994 RMK T02700240 IEM_DS3505
ZGSZ,1997-10-20 02:00,ZGSZ 200200Z AUTO 29004KT 3SM 28/24 A2994 RMK T02800240 IEM_DS3505
ZGSZ,1997-10-20 03:00,ZGSZ 200300Z AUTO 34004KT 4SM 28/22 A2991 RMK SLP139 T02840221 57005 IEM_DS3505
ZGSZ,1997-10-20 04:00,ZGSZ 200400Z AUTO 29006KT 2 1/2SM 29/25 A2988 RMK T02900250 IEM_DS3505
ZGSZ,1997-10-20 05:00,ZGSZ 200500Z AUTO 28008KT 2 1/2SM 29/25 A2985 RMK T02900250 IEM_DS3505
ZGSZ,1997-10-20 06:00,ZGSZ 200600Z AUTO 32006KT 5SM 31/22 A2983 RMK SLP108 T03070218 57031 IEM_DS3505
ZGSZ,1997-10-20 07:00,ZGSZ 200700Z AUTO 28006KT 3SM 31/25 A2980 RMK T03100250 IEM_DS3505
ZGSZ,1997-10-20 08:00,ZGSZ 200800Z AUTO 28006KT 2SM 30/25 A2980 RMK T03000250 IEM_DS3505
ZGSZ,1997-10-20 09:00,ZGSZ 200900Z AUTO 36006KT 4SM 31/21 A2983 RMK SLP104 T03060210 57004 IEM_DS3505
ZGSZ,1997-10-20 11:00,ZGSZ 201100Z AUTO 00000KT 1 1/4SM 28/26 A2983 RMK T02800260 IEM_DS3505
ZGSZ,1997-10-20 12:00,ZGSZ 201200Z AUTO 11002KT 4SM 28/23 A2985 RMK SLP122 T02810233 52018 IEM_DS3505
ZGSZ,1997-10-20 13:00,ZGSZ 201300Z AUTO 20004KT 3SM 27/26 A2988 RMK T02700260 IEM_DS3505
ZGSZ,1997-10-20 14:00,ZGSZ 201400Z AUTO 19004KT 3SM 27/26 A2988 RMK T02700260 IEM_DS3505
ZGSZ,1997-10-20 15:00,ZGSZ 201500Z AUTO 18004KT 1 1/2SM 27/26 A2988 RMK T02700260 IEM_DS3505
ZGSZ,1997-10-20 18:00,ZGSZ 201800Z AUTO 00000KT 2 1/2SM 26/24 RMK SLP113 T02600243 57014 IEM_DS3505
ZGSZ,1997-10-20 21:00,ZGSZ 202100Z AUTO 09002KT 2SM 26/24 RMK SLP108 T02550238 57005 IEM_DS3505
ZGSZ,1997-10-20 23:00,ZGSZ 202300Z AUTO 26006KT 1SM 25/25 A2985 RMK T02500250 IEM_DS3505
ZGSZ,1997-10-21 00:00,ZGSZ 210000Z AUTO 00000KT 2SM 26/24 RMK SLP126 T02600237 52018 IEM_DS3505
ZGSZ,1997-10-21 01:00,ZGSZ 210100Z AUTO 30004KT 1 1/4SM 26/26 A2988 RMK T02600260 IEM_DS3505
ZGSZ,1997-10-21 02:00,ZGSZ 210200Z AUTO 29006KT 1 1/4SM 28/26 A2988 RMK T02800260 IEM_DS3505
ZGSZ,1997-10-21 03:00,ZGSZ 210300Z AUTO 32002KT 3SM 29/24 A2985 RMK SLP120 T02900240 57006 IEM_DS3505
ZGSZ,1997-10-21 04:00,ZGSZ 210400Z AUTO 28006KT 1 1/4SM 30/25 A2983 RMK T03000250 IEM_DS3505
ZGSZ,1997-10-21 05:00,ZGSZ 210500Z AUTO 25006KT 1 1/4SM 30/25 A2980 RMK T03000250 IEM_DS3505
ZGSZ,1997-10-21 06:00,ZGSZ 210600Z AUTO 22008KT 4SM 31/22 A2977 RMK SLP090 T03090220 57030 IEM_DS3505
ZGSZ,1997-10-21 08:00,ZGSZ 210800Z AUTO 28004KT 3SM 31/25 A2977 RMK T03100250 IEM_DS3505
ZGSZ,1997-10-21 09:00,ZGSZ 210900Z AUTO 27006KT 4SM 30/23 A2977 RMK SLP088 T03030226 57002 IEM_DS3505
ZGSZ,1997-10-21 10:00,ZGSZ 211000Z AUTO 26004KT 3SM 30/25 A2977 RMK T03000250 IEM_DS3505
ZGSZ,1997-10-21 11:00,ZGSZ 211100Z AUTO 27006KT 4SM 29/25 A2980 RMK T02900250 IEM_DS3505
ZGSZ,1997-10-21 12:00,ZGSZ 211200Z AUTO 22004KT 3SM 28/24 A2980 RMK SLP102 T02850239 52014 IEM_DS3505
ZGSZ,1997-10-21 13:00,ZGSZ 211300Z AUTO 00000KT 2SM 26/24 A2983 RMK T02600240 IEM_DS3505
ZGSZ,1997-10-21 14:00,ZGSZ 211400Z AUTO 15002KT 2SM 26/25 A2983 RMK T02600250 IEM_DS3505
ZGSZ,1997-10-21 15:00,ZGSZ 211500Z AUTO 11002KT 1 1/2SM 26/25 A2983 RMK T02600250 IEM_DS3505
ZGSZ,1997-10-21 18:00,ZGSZ 211800Z AUTO 00000KT 3SM 26/23 RMK SLP095 T02610232 57010 IEM_DS3505
ZGSZ,1997-10-21 21:00,ZGSZ 212100Z AUTO 00000KT 2SM 26/23 RMK SLP097 T02550232 52002 IEM_DS3505
ZGSZ,1997-10-22 00:00,ZGSZ 220000Z AUTO 00000KT 2 1/2SM 26/24 RMK SLP121 T02590236 52024 IEM_DS3505
ZGSZ,1997-10-22 03:00,ZGSZ 220300Z AUTO 22006KT 2 1/2SM 30/23 RMK SLP120 T02990228 57001 IEM_DS3505
ZGSZ,1997-10-22 04:00,ZGSZ 220400Z AUTO 26006KT 1 1/2SM 30/26 A2983 RMK T03000260 IEM_DS3505
ZGSZ,1997-10-22 05:00,ZGSZ 220500Z AUTO 26006KT 2SM 30/25 A2983 RMK T03000250 IEM_DS3505
ZGSZ,1997-10-22 06:00,ZGSZ 220600Z AUTO 27008KT 3SM 32/22 A2980 RMK SLP096 T03210217 57024 IEM_DS3505
ZGSZ,1997-10-22 07:00,ZGSZ 220700Z AUTO 22004KT 4SM 31/23 A2977 RMK T03100230 IEM_DS3505
ZGSZ,1997-10-22 08:00,ZGSZ 220800Z AUTO 20006KT 6SM 31/23 A2977 RMK T03100230 IEM_DS3505
ZGSZ,1997-10-22 09:00,ZGSZ 220900Z AUTO 27006KT 4SM 31/22 A2977 RMK SLP095 T03080215 57001 IEM_DS3505
ZGSZ,1997-10-22 10:00,ZGSZ 221000Z AUTO 19006KT 3SM 29/25 A2980 RMK T02900250 IEM_DS3505
ZGSZ,1997-10-22 11:00,ZGSZ 221100Z AUTO 18004KT 2 1/2SM 28/25 A2980 RMK T02800250 IEM_DS3505
ZGSZ,1997-10-22 12:00,ZGSZ 221200Z AUTO 11006KT 3SM 28/24 A2983 RMK SLP108 T02810242 52013 IEM_DS3505
ZGSZ,1997-10-22 13:00,ZGSZ 221300Z AUTO 14006KT 2SM 28/26 A2983 RMK T02800260 IEM_DS3505
ZGSZ,1997-10-22 14:00,ZGSZ 221400Z AUTO 11002KT 1 1/2SM 27/25 A2983 RMK T02700250 IEM_DS3505
ZGSZ,1997-10-22 15:00,ZGSZ 221500Z AUTO 11004KT 1 1/2SM 27/25 A2985 RMK T02700250 IEM_DS3505
ZGSZ,1997-10-22 18:00,ZGSZ 221800Z AUTO 18002KT 3SM 26/ RMK SLP113 57002 IEM_DS3505
ZGSZ,1997-10-22 21:00,ZGSZ 222100Z AUTO 04006KT 2SM 26/24 A2985 RMK SLP117 T02580239 52004 IEM_DS3505
ZGSZ,1997-10-22 22:00,ZGSZ 222200Z AUTO 09002KT 1 1/2SM 25/25 A2985 RMK T02500250 IEM_DS3505
ZGSZ,1997-10-22 23:00,ZGSZ 222300Z AUTO 09004KT 1 1/2SM 25/25 A2988 RMK T02500250 IEM_DS3505
ZGSZ,1997-10-23 00:00,ZGSZ 230000Z AUTO 04004KT 1 1/4SM 26/24 A2988 RMK SLP133 T02600240 52016 IEM_DS3505
ZGSZ,1997-10-23 01:00,ZGSZ 230100Z AUTO 12004KT 2SM 28/26 A2991 RMK T02800260 IEM_DS3505
ZGSZ,1997-10-23 02:00,ZGSZ 230200Z AUTO 17002KT 3SM 29/26 A2991 RMK T02900260 IEM_DS3505
ZGSZ,1997-10-23 03:00,ZGSZ 230300Z AUTO 14004KT 4SM 29/23 A2991 RMK SLP139 T02920234 52006 IEM_DS3505
ZGSZ,1997-10-23 04:00,ZGSZ 230400Z AUTO 26002KT 4SM 28/25 A2991 RMK T02800250 IEM_DS3505
ZGSZ,1997-10-23 05:00,ZGSZ 230500Z AUTO 13004KT 3SM 30/26 A2988 RMK T03000260 IEM_DS3505
ZGSZ,1997-10-23 06:00,ZGSZ 230600Z AUTO 04004KT 4SM 29/23 A2985 RMK 60000 SLP123 T02860234 57016 IEM_DS3505
ZGSZ,1997-10-23 07:00,ZGSZ 230700Z AUTO 19006KT 4SM 30/26 A2985 RMK T03000260 IEM_DS3505
ZGSZ,1997-10-23 08:00,ZGSZ 230800Z AUTO 16008KT 5SM 30/26 A2985 RMK T03000260 IEM_DS3505
ZGSZ,1997-10-23 09:00,ZGSZ 230900Z AUTO 11006KT 4SM 28/23 A2985 RMK SLP126 T02810233 52003 IEM_DS3505
ZGSZ,1997-10-23 10:00,ZGSZ 231000Z AUTO 13006KT 2SM 28/25 A2988 RMK T02800250 IEM_DS3505
ZGSZ,1997-10-23 12:00,ZGSZ 231200Z AUTO 09006KT 4SM 27/24 A2991 RMK SLP140 T02690239 52014 IEM_DS3505
ZGSZ,1997-10-23 13:00,ZGSZ 231300Z AUTO 11008KT 3SM 27/25 A2994 RMK T02700250 IEM_DS3505
ZGSZ,1997-10-23 14:00,ZGSZ 231400Z AUTO 12006KT 2 1/2SM 27/25 A2994 RMK T02700250 IEM_DS3505
ZGSZ,1997-10-23 15:00,ZGSZ 231500Z AUTO 10006KT 1 1/2SM 26/25 A2997 RMK T02600250 IEM_DS3505
ZGSZ,1997-10-23 18:00,ZGSZ 231800Z AUTO 09002KT 3SM 26/23 RMK SLP152 T02600226 57002 IEM_DS3505
ZGSZ,1997-10-23 21:00,ZGSZ 232100Z AUTO 09002KT 3SM 25/22 RMK 70000 SLP154 T02520224 52002 IEM_DS3505
ZGSZ,1997-10-23 22:00,ZGSZ 232200Z AUTO 08002KT 2SM 24/23 A2997 RMK T02400230 IEM_DS3505
ZGSZ,1997-10-23 23:00,ZGSZ 232300Z AUTO 08002KT 2SM 24/24 A3000 RMK T02400240 IEM_DS3505
ZGSZ,1997-10-24 00:00,ZGSZ 240000Z AUTO 09006KT 4SM 25/22 A3003 RMK SLP172 T02530222 52018 IEM_DS3505
ZGSZ,1997-10-24 01:00,ZGSZ 240100Z AUTO 09006KT 2 1/2SM 27/24 A3003 RMK T02700240 IEM_DS3505
ZGSZ,1997-10-24 02:00,ZGSZ 240200Z AUTO 09004KT 3SM 29/23 A3003 RMK T02900230 IEM_DS3505
ZGSZ,1997-10-24 03:00,ZGSZ 240300Z AUTO 18004KT 7SM 28/22 A3003 RMK SLP179 T02800221 52007 IEM_DS3505
ZGSZ,1997-10-24 04:00,ZGSZ 240400Z AUTO 21006KT 4SM 30/24 A3000 RMK T03000240 IEM_DS3505
ZGSZ,1997-10-24 05:00,ZGSZ 240500Z AUTO 22006KT 4SM 30/25 A3000 RMK T03000250 IEM_DS3505
ZGSZ,1997-10-24 06:00,ZGSZ 240600Z AUTO 14006KT 7SM 30/21 A2997 RMK SLP156 T02960211 57023 IEM_DS3505
ZGSZ,1997-10-24 07:00,ZGSZ 240700Z AUTO 19008KT 7SM 30/25 A2994 RMK T03000250 IEM_DS3505
ZGSZ,1997-10-24 08:00,ZGSZ 240800Z AUTO 18010KT 7SM 30/25 A2994 RMK T03000250 IEM_DS3505
ZGSZ,1997-10-24 09:00,ZGSZ 240900Z AUTO 14006KT 6SM 28/22 A2997 RMK SLP158 T02800220 52002 IEM_DS3505
ZGSZ,1997-10-24 10:00,ZGSZ 241000Z AUTO 13006KT 3SM 28/23 A2997 RMK T02800230 IEM_DS3505
ZGSZ,1997-10-24 11:00,ZGSZ 241100Z AUTO 11006KT 3SM 27/23 A2997 RMK T02700230 IEM_DS3505
ZGSZ,1997-10-24 12:00,ZGSZ 241200Z AUTO 14004KT 7SM 26/22 A3000 RMK SLP173 T02620221 52015 IEM_DS3505
ZGSZ,1997-10-24 13:00,ZGSZ 241300Z AUTO 10004KT 3SM 26/23 A3003 RMK T02600230 IEM_DS3505
ZGSZ,1997-10-24 14:00,ZGSZ 241400Z AUTO 11004KT 2 1/2SM 26/23 A3003 RMK T02600230 IEM_DS3505
ZGSZ,1997-10-24 15:00,ZGSZ 241500Z AUTO 11004KT 2 1/2SM 25/23 A3003 RMK T02500230 IEM_DS3505
ZGSZ,1997-10-24 18:00,ZGSZ 241800Z AUTO 11004KT 9SM 25/22 RMK SLP174 T02530223 57006 IEM_DS3505
ZGSZ,1997-10-24 21:00,ZGSZ 242100Z AUTO 11004KT 9SM 25/22 A3003 RMK SLP174 T02510217 54000 IEM_DS3505
ZGSZ,1997-10-24 22:00,ZGSZ 242200Z AUTO 10004KT 3SM 25/23 A3003 RMK T02500230 IEM_DS3505
ZGSZ,1997-10-24 23:00,ZGSZ 242300Z AUTO 09002KT 3SM 24/23 A3006 RMK T02400230 IEM_DS3505
ZGSZ,1997-10-25 00:00,ZGSZ 250000Z AUTO 04006KT 6SM 25/22 A3006 RMK SLP192 T02520218 52017 IEM_DS3505
ZGSZ,1997-10-25 01:00,ZGSZ 250100Z AUTO 07004KT 2 1/2SM 26/23 A3009 RMK T02600230 IEM_DS3505
ZGSZ,1997-10-25 02:00,ZGSZ 250200Z AUTO 08006KT 2 1/2SM 27/23 A3009 RMK T02700230 IEM_DS3505
ZGSZ,1997-10-25 03:00,ZGSZ 250300Z AUTO 04008KT 6SM 28/22 A3009 RMK SLP192 T02760215 52001 IEM_DS3505
ZGSZ,1997-10-25 04:00,ZGSZ 250400Z AUTO 10008KT 4SM 29/22 A3006 RMK T02900220 IEM_DS3505
ZGSZ,1997-10-25 06:00,ZGSZ 250600Z AUTO 09010KT 7SM 28/20 A3000 RMK SLP165 T02830203 57027 IEM_DS3505
ZGSZ,1997-10-25 09:00,ZGSZ 250900Z AUTO 14004KT 7SM 27/20 A2997 RMK SLP163 T02700197 57002 IEM_DS3505
ZGSZ,1997-10-25 11:00,ZGSZ 251100Z AUTO 11006KT 6SM 26/21 A3003 RMK T02600210 IEM_DS3505
ZGSZ,1997-10-25 12:00,ZGSZ 251200Z AUTO 09006KT 6SM 26/20 A3003 RMK SLP186 T02550202 52022 IEM_DS3505
ZGSZ,1997-10-25 13:00,ZGSZ 251300Z AUTO 13006KT 6SM 25/22 A3006 RMK T02500220 IEM_DS3505
ZGSZ,1997-10-25 14:00,ZGSZ 251400Z AUTO 12004KT 6SM 25/22 A3006 RMK T02500220 IEM_DS3505
ZGSZ,1997-10-25 15:00,ZGSZ 251500Z AUTO 12006KT 6SM 25/22 A3006 RMK T02500220 IEM_DS3505
ZGSZ,1997-10-25 16:00,ZGSZ 251600Z AUTO 12006KT 6SM 24/22 A3006 RMK T02400220 IEM_DS3505
ZGSZ,1997-10-25 18:00,ZGSZ 251800Z AUTO 07004KT 5SM 25/21 RMK SLP178 T02470211 57017 IEM_DS3505
ZGSZ,1997-10-25 21:00,ZGSZ 252100Z AUTO 04002KT 4SM 24/21 A3003 RMK SLP178 T02370208 54000 IEM_DS3505
ZGSZ,1997-10-26 00:00,ZGSZ 260000Z AUTO 04004KT 5SM 24/21 A3009 RMK SLP198 T02390207 52019 IEM_DS3505
ZGSZ,1997-10-26 01:00,ZGSZ 260100Z AUTO 10006KT 6SM 25/22 A3009 RMK T02500220 IEM_DS3505
ZGSZ,1997-10-26 02:00,ZGSZ 260200Z AUTO 09004KT 6SM 27/22 A3012 RMK T02700220 IEM_DS3505
ZGSZ,1997-10-26 03:00,ZGSZ 260300Z AUTO 04004KT 8SM 27/21 RMK SLP199 T02740208 52002 IEM_DS3505
ZGSZ,1997-10-26 04:00,ZGSZ 260400Z AUTO 30006KT 7SM 28/22 A3009 RMK T02800220 IEM_DS3505
ZGSZ,1997-10-26 05:00,ZGSZ 260500Z AUTO 01008KT 7SM 29/21 A3006 RMK T02900210 IEM_DS3505
ZGSZ,1997-10-26 06:00,ZGSZ 260600Z AUTO 04008KT 6SM 29/20 A3003 RMK SLP173 T02880200 57026 IEM_DS3505
ZGSZ,1997-10-26 07:00,ZGSZ 260700Z AUTO 01010KT 6SM 28/22 A3003 RMK T02800220 IEM_DS3505
ZGSZ,1997-10-26 08:00,ZGSZ 260800Z AUTO 03012KT 6SM 26/23 A3003 RMK T02600230 IEM_DS3505
ZGSZ,1997-10-26 09:00,ZGSZ 260900Z AUTO 02008KT 4SM 27/20 A3003 RMK SLP178 T02710199 52005 IEM_DS3505
ZGSZ,1997-10-26 10:00,ZGSZ 261000Z AUTO 01016KT 4SM 24/22 A3006 RMK T02400220 IEM_DS3505
ZGSZ,1997-10-26 11:00,ZGSZ 261100Z AUTO 02012KT 7SM 23/21 A3009 RMK T02300210 IEM_DS3505
ZGSZ,1997-10-26 12:00,ZGSZ 261200Z AUTO 04008KT 8SM 23/16 A3009 RMK SLP202 T02310162 52023 IEM_DS3505
ZGSZ,1997-10-26 13:00,ZGSZ 261300Z AUTO 03010KT 6SM 22/19 A3012 RMK T02200190 IEM_DS3505
ZGSZ,1997-10-26 14:00,ZGSZ 261400Z AUTO 03012KT 6SM 22/18 A3012 RMK T02200180 IEM_DS3505
ZGSZ,1997-10-26 15:00,ZGSZ 261500Z AUTO 01010KT 6SM 22/18 A3012 RMK T02200180 IEM_DS3505
ZGSZ,1997-10-26 16:00,ZGSZ 261600Z AUTO 02012KT 6SM 21/17 A3012 RMK T02100170 IEM_DS3505
ZGSZ,1997-10-26 18:00,ZGSZ 261800Z AUTO 04010KT 12SM 21/14 RMK SLP203 T02070140 57001 IEM_DS3505
ZGSZ,1997-10-26 21:00,ZGSZ 262100Z AUTO 04010KT 11SM 20/13 A3012 RMK SLP204 T01950132 52001 IEM_DS3505
ZGSZ,1997-10-26 22:00,ZGSZ 262200Z AUTO 01010KT 7SM 19/15 A3012 RMK T01900150 IEM_DS3505
ZGSZ,1997-10-26 23:00,ZGSZ 262300Z AUTO 02010KT 7SM 19/15 A3015 RMK T01900150 IEM_DS3505
ZGSZ,1997-10-27 00:00,ZGSZ 270000Z AUTO 04010KT 11SM 20/13 A3018 RMK SLP223 T01950128 52019 IEM_DS3505
ZGSZ,1997-10-27 01:00,ZGSZ 270100Z AUTO 01010KT 7SM 20/15 A3018 RMK T02000150 IEM_DS3505
ZGSZ,1997-10-27 02:00,ZGSZ 270200Z AUTO 01012KT 7SM 20/15 A3021 RMK T02000150 IEM_DS3505
ZGSZ,1997-10-27 03:00,ZGSZ 270300Z AUTO 36008KT 9SM 21/13 A3018 RMK SLP228 T02090126 52005 IEM_DS3505
ZGSZ,1997-10-27 04:00,ZGSZ 270400Z AUTO 01016KT 7SM 21/15 A3015 RMK T02100150 IEM_DS3505
ZGSZ,1997-10-27 05:00,ZGSZ 270500Z AUTO 36016KT 6SM 21/15 A3015 RMK T02100150 IEM_DS3505
ZGSZ,1997-10-27 06:00,ZGSZ 270600Z AUTO 04008KT 11SM 23/14 A3012 RMK SLP203 T02320136 57025 IEM_DS3505
ZGSZ,1997-10-27 07:00,ZGSZ 270700Z AUTO 36012KT 6SM 23/16 A3009 RMK T02300160 IEM_DS3505
ZGSZ,1997-10-27 08:00,ZGSZ 270800Z AUTO 01012KT 6SM 23/16 A3012 RMK T02300160 IEM_DS3505
ZGSZ,1997-10-27 09:00,ZGSZ 270900Z AUTO 04012KT 10SM 22/13 A3012 RMK SLP206 T02240132 52003 IEM_DS3505
ZGSZ,1997-10-27 10:00,ZGSZ 271000Z AUTO 01012KT 6SM 21/15 A3012 RMK T02100150 IEM_DS3505
ZGSZ,1997-10-27 11:00,ZGSZ 271100Z AUTO 02012KT 6SM 21/15 A3015 RMK T02100150 IEM_DS3505
ZGSZ,1997-10-27 12:00,ZGSZ 271200Z AUTO 04008KT 9SM 20/12 A3018 RMK SLP230 T02020122 52023 IEM_DS3505
ZGSZ,1997-10-27 13:00,ZGSZ 271300Z AUTO 01012KT 7SM 19/14 A3021 RMK T01900140 IEM_DS3505
ZGSZ,1997-10-27 14:00,ZGSZ 271400Z AUTO 36010KT 7SM 19/14 A3021 RMK T01900140 IEM_DS3505
ZGSZ,1997-10-27 15:00,ZGSZ 271500Z AUTO 01014KT 7SM 18/14 A3021 RMK T01800140 IEM_DS3505
ZGSZ,1997-10-27 18:00,ZGSZ 271800Z AUTO 04010KT 11SM 18/11 RMK SLP225 T01770111 57008 IEM_DS3505
ZGSZ,1997-10-27 21:00,ZGSZ 272100Z AUTO 04006KT 11SM 17/11 A3018 RMK SLP226 T01690112 54000 IEM_DS3505
ZGSZ,1997-10-27 22:00,ZGSZ 272200Z AUTO 01012KT 6SM 17/13 A3018 RMK T01700130 IEM_DS3505
ZGSZ,1997-10-27 23:00,ZGSZ 272300Z AUTO 01008KT 6SM 17/13 A3021 RMK T01700130 IEM_DS3505
ZGSZ,1997-10-28 00:00,ZGSZ 280000Z AUTO 36010KT 8SM 18/11 A3021 RMK SLP233 T01750114 52007 IEM_DS3505
ZGSZ,1997-10-28 01:00,ZGSZ 280100Z AUTO 01010KT 6SM 18/14 A3021 RMK T01800140 IEM_DS3505
ZGSZ,1997-10-28 02:00,ZGSZ 280200Z AUTO 01010KT 6SM 18/14 A3024 RMK T01800140 IEM_DS3505
ZGSZ,1997-10-28 03:00,ZGSZ 280300Z AUTO 04006KT 8SM 20/12 A3021 RMK SLP232 T01980125 57001 IEM_DS3505
ZGSZ,1997-10-28 04:00,ZGSZ 280400Z AUTO 01012KT 6SM 20/14 A3018 RMK T02000140 IEM_DS3505
ZGSZ,1997-10-28 05:00,ZGSZ 280500Z AUTO 35010KT 6SM 20/14 A3015 RMK T02000140 IEM_DS3505
ZGSZ,1997-10-28 06:00,ZGSZ 280600Z AUTO 04006KT 8SM 20/13 A3012 RMK SLP209 T02040128 57023 IEM_DS3505
ZGSZ,1997-10-28 07:00,ZGSZ 280700Z AUTO 01008KT 6SM 21/15 A3012 RMK T02100150 IEM_DS3505
ZGSZ,1997-10-28 08:00,ZGSZ 280800Z AUTO 04008KT 6SM 21/15 A3012 RMK T02100150 IEM_DS3505
ZGSZ,1997-10-28 09:00,ZGSZ 280900Z AUTO 04010KT 7SM 20/13 A3012 RMK SLP208 T02000126 57001 IEM_DS3505
ZGSZ,1997-10-28 10:00,ZGSZ 281000Z AUTO 02008KT 6SM 20/15 A3012 RMK T02000150 IEM_DS3505
ZGSZ,1997-10-28 11:00,ZGSZ 281100Z AUTO 02006KT 6SM 20/15 A3015 RMK T02000150 IEM_DS3505
ZGSZ,1997-10-28 12:00,ZGSZ 281200Z AUTO 02008KT 7SM 19/13 A3015 RMK SLP221 T01940133 52013 IEM_DS3505
ZGSZ,1997-10-28 13:00,ZGSZ 281300Z AUTO 07004KT 6SM 19/15 A3018 RMK T01900150 IEM_DS3505
ZGSZ,1997-10-28 14:00,ZGSZ 281400Z AUTO 05008KT 6SM 19/15 A3018 RMK T01900150 IEM_DS3505
ZGSZ,1997-10-28 15:00,ZGSZ 281500Z AUTO 06008KT 6SM 19/15 A3018 RMK T01900150 IEM_DS3505
ZGSZ,1997-10-28 18:00,ZGSZ 281800Z AUTO 04008KT 6SM 19/14 RMK SLP226 T01880135 57003 IEM_DS3505
ZGSZ,1997-10-28 21:00,ZGSZ 282100Z AUTO 02006KT 7SM 18/13 A3018 RMK SLP221 T01830128 57005 IEM_DS3505
ZGSZ,1997-10-28 22:00,ZGSZ 282200Z AUTO 03010KT 6SM 18/14 A3018 RMK T01800140 IEM_DS3505
ZGSZ,1997-10-28 23:00,ZGSZ 282300Z AUTO 02010KT 6SM 18/13 A3021 RMK T01800130 IEM_DS3505
ZGSZ,1997-10-29 00:00,ZGSZ 290000Z AUTO 04008KT 9SM 18/11 A3021 RMK SLP235 T01850114 52014 IEM_DS3505
ZGSZ,1997-10-29 01:00,ZGSZ 290100Z AUTO 03006KT 6SM 21/15 A3021 RMK T02100150 IEM_DS3505
ZGSZ,1997-10-29 02:00,ZGSZ 290200Z AUTO 36008KT 6SM 22/15 A3021 RMK T02200150 IEM_DS3505
ZGSZ,1997-10-29 03:00,ZGSZ 290300Z AUTO 02008KT 10SM 22/13 A3021 RMK SLP229 T02240132 57005 IEM_DS3505
ZGSZ,1997-10-29 04:00,ZGSZ 290400Z AUTO 01010KT 6SM 23/16 A3018 RMK T02300160 IEM_DS3505
ZGSZ,1997-10-29 05:00,ZGSZ 290500Z AUTO 35010KT 6SM 25/16 A3015 RMK T02500160 IEM_DS3505
ZGSZ,1997-10-29 06:00,ZGSZ 290600Z AUTO 29002KT 12SM 26/15 A3012 RMK SLP202 T02630149 57027 IEM_DS3505
ZGSZ,1997-10-29 07:00,ZGSZ 290700Z AUTO 01010KT 6SM 26/15 A3009 RMK T02600150 IEM_DS3505
ZGSZ,1997-10-29 08:00,ZGSZ 290800Z AUTO 35010KT 6SM 26/16 A3006 RMK T02600160 IEM_DS3505
ZGSZ,1997-10-29 09:00,ZGSZ 290900Z AUTO 36010KT 6SM 26/16 A3006 RMK T02600160 IEM_DS3505
ZGSZ,1997-10-29 12:00,ZGSZ 291200Z AUTO 04006KT 9SM 24/15 A3012 RMK SLP209 T02350154 52018 IEM_DS3505
ZGSZ,1997-10-29 13:00,ZGSZ 291300Z AUTO 01008KT 4SM 23/15 A3015 RMK T02300150 IEM_DS3505
ZGSZ,1997-10-29 14:00,ZGSZ 291400Z AUTO 02006KT 4SM 23/15 A3015 RMK T02300150 IEM_DS3505
ZGSZ,1997-10-29 15:00,ZGSZ 291500Z AUTO 36006KT 4SM 22/14 A3015 RMK T02200140 IEM_DS3505
ZGSZ,1997-10-29 18:00,ZGSZ 291800Z AUTO 04010KT 12SM 21/11 RMK SLP210 T02080112 57005 IEM_DS3505
ZGSZ,1997-10-29 21:00,ZGSZ 292100Z AUTO 04010KT 12SM 20/09 A3015 RMK SLP211 T01980090 57003 IEM_DS3505
ZGSZ,1997-10-29 22:00,ZGSZ 292200Z AUTO 02010KT 6SM 20/11 A3015 RMK T02000110 IEM_DS3505
ZGSZ,1997-10-29 23:00,ZGSZ 292300Z AUTO 02010KT 6SM 18/12 A3018 RMK T01800120 IEM_DS3505
ZGSZ,1997-10-30 00:00,ZGSZ 300000Z AUTO 02010KT 11SM 19/08 A3018 RMK SLP221 T01930083 52010 IEM_DS3505
ZGSZ,1997-10-30 01:00,ZGSZ 300100Z AUTO 01006KT 6SM 21/11 A3021 RMK T02100110 IEM_DS3505
ZGSZ,1997-10-30 02:00,ZGSZ 300200Z AUTO 01008KT 6SM 23/12 A3021 RMK T02300120 IEM_DS3505
ZGSZ,1997-10-30 03:00,ZGSZ 300300Z AUTO 04012KT 9SM 23/10 A3021 RMK SLP231 T02260095 52010 IEM_DS3505
ZGSZ,1997-10-30 04:00,ZGSZ 300400Z AUTO 36012KT 6SM 24/13 A3018 RMK T02400130 IEM_DS3505
ZGSZ,1997-10-30 05:00,ZGSZ 300500Z AUTO 01010KT 6SM 25/12 A3015 RMK T02500120 IEM_DS3505
ZGSZ,1997-10-30 06:00,ZGSZ 300600Z AUTO 04012KT 9SM 26/11 A3012 RMK SLP202 T02560111 57029 IEM_DS3505
ZGSZ,1997-10-30 07:00,ZGSZ 300700Z AUTO 02012KT 6SM 26/12 A3009 RMK T02600120 IEM_DS3505
ZGSZ,1997-10-30 08:00,ZGSZ 300800Z AUTO 03012KT 6SM 26/12 A3009 RMK T02600120 IEM_DS3505
ZGSZ,1997-10-30 09:00,ZGSZ 300900Z AUTO 02004KT 9SM 25/12 A3009 RMK SLP197 T02530119 57005 IEM_DS3505
ZGSZ,1997-10-30 10:00,ZGSZ 301000Z AUTO 03006KT 6SM 24/12 A3009 RMK T02400120 IEM_DS3505
ZGSZ,1997-10-30 11:00,ZGSZ 301100Z AUTO 01006KT 6SM 23/11 A3012 RMK T02300110 IEM_DS3505
ZGSZ,1997-10-30 12:00,ZGSZ 301200Z AUTO 04006KT 6SM 23/11 A3015 RMK SLP216 T02290113 52019 IEM_DS3505
ZGSZ,1997-10-30 13:00,ZGSZ 301300Z AUTO 36006KT 6SM 22/12 A3015 RMK T02200120 IEM_DS3505
ZGSZ,1997-10-30 14:00,ZGSZ 301400Z AUTO 35006KT 6SM 21/12 A3018 RMK T02100120 IEM_DS3505
ZGSZ,1997-10-30 15:00,ZGSZ 301500Z AUTO 03010KT 6SM 21/09 A3018 RMK T02100090 IEM_DS3505
ZGSZ,1997-10-30 16:00,ZGSZ 301600Z AUTO 01008KT 6SM 21/09 A3018 RMK T02100090 IEM_DS3505
ZGSZ,1997-10-30 18:00,ZGSZ 301800Z AUTO 04010KT 8SM 20/07 RMK SLP220 T02000073 57007 IEM_DS3505
ZGSZ,1997-10-30 21:00,ZGSZ 302100Z AUTO 04010KT 7SM 19/07 A3015 RMK SLP220 T01880071 54000 IEM_DS3505
ZGSZ,1997-10-30 22:00,ZGSZ 302200Z AUTO 01010KT 6SM 19/08 A3018 RMK T01900080 IEM_DS3505
ZGSZ,1997-10-30 23:00,ZGSZ 302300Z AUTO 35004KT 6SM 19/08 A3018 RMK T01900080 IEM_DS3505
ZGSZ,1997-10-31 00:00,ZGSZ 310000Z AUTO 00000KT 9SM 19/08 A3021 RMK SLP250 T01900080 52016 IEM_DS3505
ZGSZ,1997-10-31 01:00,ZGSZ 310100Z AUTO 02010KT 6SM 21/09 A3021 RMK T02100090 IEM_DS3505
ZGSZ,1997-10-31 02:00,ZGSZ 310200Z AUTO 02008KT 6SM 22/08 A3024 RMK T02200080 IEM_DS3505
ZGSZ,1997-10-31 03:00,ZGSZ 310300Z AUTO 04010KT 9SM 22/07 A3021 RMK SLP239 T02190072 52002 IEM_DS3505
ZGSZ,1997-10-31 04:00,ZGSZ 310400Z AUTO 36014KT 6SM 24/09 A3018 RMK T02400090 IEM_DS3505
ZGSZ,1997-10-31 05:00,ZGSZ 310500Z AUTO 03010KT 6SM 25/10 A3015 RMK T02500100 IEM_DS3505
ZGSZ,1997-10-31 06:00,ZGSZ 310600Z AUTO 34008KT 9SM 25/07 A3015 RMK SLP210 T02480074 57029 IEM_DS3505
ZGSZ,1997-10-31 07:00,ZGSZ 310700Z AUTO 02012KT 6SM 25/08 A3012 RMK T02500080 IEM_DS3505
ZGSZ,1997-10-31 08:00,ZGSZ 310800Z AUTO 02012KT 6SM 25/07 A3012 RMK T02500070 IEM_DS3505
ZGSZ,1997-10-31 09:00,ZGSZ 310900Z AUTO 04008KT 9SM 24/07 A3012 RMK SLP211 T02390073 52001 IEM_DS3505
ZGSZ,1997-10-31 10:00,ZGSZ 311000Z AUTO 02010KT 6SM 23/07 A3015 RMK T02300070 IEM_DS3505
ZGSZ,1997-10-31 11:00,ZGSZ 311100Z AUTO 02008KT 6SM 22/07 A3015 RMK T02200070 IEM_DS3505
ZGSZ,1997-10-31 12:00,ZGSZ 311200Z AUTO 04006KT 7SM 22/08 A3018 RMK SLP225 T02210085 52014 IEM_DS3505
ZGSZ,1997-10-31 13:00,ZGSZ 311300Z AUTO 36006KT 6SM 21/07 A3021 RMK T02100070 IEM_DS3505
ZGSZ,1997-10-31 14:00,ZGSZ 311400Z AUTO 02012KT 6SM 21/06 A3021 RMK T02100060 IEM_DS3505
ZGSZ,1997-10-31 15:00,ZGSZ 311500Z AUTO 02010KT 6SM 21/07 A3024 RMK T02100070 IEM_DS3505
ZGSZ,1997-10-31 18:00,ZGSZ 311800Z AUTO 04008KT 9SM 19/06 RMK SLP242 T01920058 52001 IEM_DS3505
ZGSZ,1997-10-31 21:00,ZGSZ 312100Z AUTO 04010KT 9SM 18/05 A3021 RMK SLP236 T01770053 57006 IEM_DS3505
ZGSZ,1997-10-31 22:00,ZGSZ 312200Z AUTO 36008KT 6SM 17/07 A3024 RMK T01700070 IEM_DS3505
ZGSZ,1997-10-31 23:00,ZGSZ 312300Z AUTO 35008KT 6SM 17/07 A3024 RMK T01700070 IEM_DS3505
ZGSZ,1997-11-01 00:00,ZGSZ 010000Z AUTO 02010KT 7SM 17/05 A3027 RMK SLP259 T01710046 52022 IEM_DS3505
ZGSZ,1997-11-01 01:00,ZGSZ 010100Z AUTO 36010KT 6SM 18/08 A3027 RMK T01800080 IEM_DS3505
ZGSZ,1997-11-01 02:00,ZGSZ 010200Z AUTO 02010KT 6SM 20/08 A3030 RMK T02000080 IEM_DS3505
ZGSZ,1997-11-01 03:00,ZGSZ 010300Z AUTO 04010KT 6SM 20/06 A3027 RMK SLP261 T02030061 52002 IEM_DS3505
ZGSZ,1997-11-01 04:00,ZGSZ 010400Z AUTO 03008KT 6SM 22/08 A3027 RMK T02200080 IEM_DS3505
ZGSZ,1997-11-01 06:00,ZGSZ 010600Z AUTO 07004KT 7SM 24/08 A3018 RMK SLP230 T02370075 57030 IEM_DS3505
ZGSZ,1997-11-01 07:00,ZGSZ 010700Z AUTO 01014KT 6SM 24/08 A3018 RMK T02400080 IEM_DS3505
ZGSZ,1997-11-01 08:00,ZGSZ 010800Z AUTO 03008KT 6SM 24/08 A3015 RMK T02400080 IEM_DS3505
ZGSZ,1997-11-01 09:00,ZGSZ 010900Z AUTO 04008KT 8SM 23/08 A3018 RMK SLP228 T02310082 57003 IEM_DS3505
ZGSZ,1997-11-01 10:00,ZGSZ 011000Z AUTO 04006KT 6SM 22/09 A3018 RMK T02200090 IEM_DS3505
ZGSZ,1997-11-01 11:00,ZGSZ 011100Z AUTO 03006KT 6SM 21/09 A3021 RMK T02100090 IEM_DS3505
ZGSZ,1997-11-01 12:00,ZGSZ 011200Z AUTO 04008KT 6SM 21/08 A3021 RMK SLP238 T02100082 52010 IEM_DS3505
ZGSZ,1997-11-01 13:00,ZGSZ 011300Z AUTO 09004KT 6SM 22/07 A3021 RMK T02200070 IEM_DS3505
ZGSZ,1997-11-01 14:00,ZGSZ 011400Z AUTO 08006KT 6SM 20/08 A3024 RMK T02000080 IEM_DS3505
ZGSZ,1997-11-01 15:00,ZGSZ 011500Z AUTO 05006KT 6SM 21/08 A3024 RMK T02100080 IEM_DS3505
ZGSZ,1997-11-01 18:00,ZGSZ 011800Z AUTO 04006KT 7SM 19/08 RMK SLP235 T01860081 57008 IEM_DS3505
ZGSZ,1997-11-01 21:00,ZGSZ 012100Z AUTO 02006KT 9SM 18/08 A3018 RMK SLP229 T01750081 57007 IEM_DS3505
ZGSZ,1997-11-01 22:00,ZGSZ 012200Z AUTO 01006KT 6SM 16/10 A3021 RMK T01600100 IEM_DS3505
ZGSZ,1997-11-01 23:00,ZGSZ 012300Z AUTO 04004KT 6SM 17/09 A3021 RMK T01700090 IEM_DS3505
ZGSZ,1997-11-02 00:00,ZGSZ 020000Z AUTO 04008KT 11SM 18/09 A3024 RMK SLP249 T01800090 52020 IEM_DS3505
ZGSZ,1997-11-02 01:00,ZGSZ 020100Z AUTO 35004KT 6SM 19/10 A3024 RMK T01900100 IEM_DS3505
ZGSZ,1997-11-02 02:00,ZGSZ 020200Z AUTO 35008KT 6SM 21/11 A3027 RMK T02100110 IEM_DS3505
ZGSZ,1997-11-02 03:00,ZGSZ 020300Z AUTO 04006KT 9SM 22/10 A3024 RMK SLP246 T02150103 57003 IEM_DS3505
ZGSZ,1997-11-02 04:00,ZGSZ 020400Z AUTO 06004KT 6SM 24/12 A3021 RMK T02400120 IEM_DS3505
ZGSZ,1997-11-02 05:00,ZGSZ 020500Z AUTO 01008KT 6SM 25/12 A3018 RMK T02500120 IEM_DS3505
ZGSZ,1997-11-02 06:00,ZGSZ 020600Z AUTO 36006KT 11SM 26/11 A3015 RMK SLP213 T02570106 57032 IEM_DS3505
ZGSZ,1997-11-02 07:00,ZGSZ 020700Z AUTO 33010KT 6SM 25/12 A3012 RMK T02500120 IEM_DS3505
ZGSZ,1997-11-02 08:00,ZGSZ 020800Z AUTO 35008KT 6SM 25/12 A3012 RMK T02500120 IEM_DS3505
ZGSZ,1997-11-02 09:00,ZGSZ 020900Z AUTO 07006KT 12SM 24/11 A3012 RMK SLP204 T02450112 57009 IEM_DS3505
ZGSZ,1997-11-02 10:00,ZGSZ 021000Z AUTO 01006KT 6SM 23/12 A3012 RMK T02300120 IEM_DS3505
ZGSZ,1997-11-02 11:00,ZGSZ 021100Z AUTO 01006KT 6SM 23/13 A3012 RMK T02300130 IEM_DS3505
ZGSZ,1997-11-02 12:00,ZGSZ 021200Z AUTO 04002KT 7SM 22/13 A3015 RMK SLP218 T02200130 52013 IEM_DS3505
ZGSZ,1997-11-02 13:00,ZGSZ 021300Z AUTO 07004KT 6SM 21/14 A3015 RMK T02100140 IEM_DS3505
ZGSZ,1997-11-02 14:00,ZGSZ 021400Z AUTO 09004KT 6SM 20/14 A3015 RMK T02000140 IEM_DS3505
ZGSZ,1997-11-02 15:00,ZGSZ 021500Z AUTO 00000KT 6SM 18/14 A3018 RMK T01800140 IEM_DS3505
ZGSZ,1997-11-02 18:00,ZGSZ 021800Z AUTO 36004KT 5SM 20/14 RMK SLP212 T02030137 57012 IEM_DS3505
ZGSZ,1997-11-02 21:00,ZGSZ 022100Z AUTO 04004KT 5SM 19/14 A3012 RMK SLP208 T01930139 57004 IEM_DS3505
ZGSZ,1997-11-02 22:00,ZGSZ 022200Z AUTO 34004KT 2 1/2SM 18/15 A3012 RMK T01800150 IEM_DS3505
ZGSZ,1997-11-02 23:00,ZGSZ 022300Z AUTO 30002KT 6SM 18/15 A3015 RMK T01800150 IEM_DS3505
ZGSZ,1997-11-03 00:00,ZGSZ 030000Z AUTO 04006KT 10SM 19/12 A3018 RMK SLP224 T01900124 52016 IEM_DS3505
ZGSZ,1997-11-03 01:00,ZGSZ 030100Z AUTO 36006KT 6SM 20/14 A3021 RMK T02000140 IEM_DS3505
ZGSZ,1997-11-03 03:00,ZGSZ 030300Z AUTO 04006KT 9SM 24/13 RMK SLP228 T02360133 52004 IEM_DS3505
ZGSZ,1997-11-03 04:00,ZGSZ 030400Z AUTO 05008KT 6SM 25/14 A3015 RMK T02500140 IEM_DS3505
ZGSZ,1997-11-03 05:00,ZGSZ 030500Z AUTO 36010KT 6SM 25/14 A3012 RMK T02500140 IEM_DS3505
ZGSZ,1997-11-03 06:00,ZGSZ 030600Z AUTO 04008KT 11SM 26/12 A3012 RMK SLP198 T02640121 57030 IEM_DS3505
ZGSZ,1997-11-03 07:00,ZGSZ 030700Z AUTO 01006KT 6SM 25/14 A3009 RMK T02500140 IEM_DS3505
ZGSZ,1997-11-03 08:00,ZGSZ 030800Z AUTO 33006KT 6SM 25/14 A3009 RMK T02500140 IEM_DS3505
ZGSZ,1997-11-03 09:00,ZGSZ 030900Z AUTO 04006KT 9SM 25/12 A3009 RMK SLP196 T02520124 57002 IEM_DS3505
ZGSZ,1997-11-03 10:00,ZGSZ 031000Z AUTO 34002KT 6SM 23/14 A3009 RMK T02300140 IEM_DS3505
ZGSZ,1997-11-03 11:00,ZGSZ 031100Z AUTO 33006KT 6SM 22/15 A3012 RMK T02200150 IEM_DS3505
ZGSZ,1997-11-03 12:00,ZGSZ 031200Z AUTO 07002KT 7SM 23/14 A3015 RMK SLP213 T02270138 52017 IEM_DS3505
ZGSZ,1997-11-03 13:00,ZGSZ 031300Z AUTO 36004KT 1 1/2SM 22/15 A3015 RMK T02200150 IEM_DS3505
ZGSZ,1997-11-03 14:00,ZGSZ 031400Z AUTO 08002KT 1 1/2SM 22/15 A3015 RMK T02200150 IEM_DS3505
ZGSZ,1997-11-03 15:00,ZGSZ 031500Z AUTO 00000KT 1 1/4SM 19/16 A3015 RMK T01900160 IEM_DS3505
ZGSZ,1997-11-03 18:00,ZGSZ 031800Z AUTO 04004KT 5SM 20/15 RMK SLP215 T02050149 57006 IEM_DS3505
ZGSZ,1997-11-03 21:00,ZGSZ 032100Z AUTO 00000KT 4SM 19/14 A3012 RMK SLP213 T01910145 57002 IEM_DS3505
ZGSZ,1997-11-03 22:00,ZGSZ 032200Z AUTO 36004KT 2SM 19/14 A3015 RMK T01900140 IEM_DS3505
ZGSZ,1997-11-03 23:00,ZGSZ 032300Z AUTO 35002KT 2 1/2SM 19/14 A3018 RMK T01900140 IEM_DS3505
ZGSZ,1997-11-04 00:00,ZGSZ 040000Z AUTO 04006KT 9SM 20/11 A3021 RMK SLP233 T02040114 52020 IEM_DS3505
ZGSZ,1997-11-04 01:00,ZGSZ 040100Z AUTO 36010KT 6SM 22/13 A3021 RMK T02200130 IEM_DS3505
ZGSZ,1997-11-04 02:00,ZGSZ 040200Z AUTO 02012KT 6SM 23/12 A3024 RMK T02300120 IEM_DS3505
ZGSZ,1997-11-04 03:00,ZGSZ 040300Z AUTO 02010KT 11SM 24/08 A3021 RMK SLP235 T02430079 52002 IEM_DS3505
ZGSZ,1997-11-04 04:00,ZGSZ 040400Z AUTO 01010KT 6SM 25/10 A3018 RMK T02500100 IEM_DS3505
ZGSZ,1997-11-04 05:00,ZGSZ 040500Z AUTO 04012KT 6SM 27/08 A3015 RMK T02700080 IEM_DS3505
ZGSZ,1997-11-04 06:00,ZGSZ 040600Z AUTO 36008KT 16SM 27/04 RMK SLP211 T02720044 57024 IEM_DS3505
ZGSZ,1997-11-04 07:00,ZGSZ 040700Z AUTO 02016KT 6SM 27/07 A3012 RMK T02700070 IEM_DS3505
ZGSZ,1997-11-04 08:00,ZGSZ 040800Z AUTO 03014KT 6SM 27/08 A3012 RMK T02700080 IEM_DS3505
ZGSZ,1997-11-04 09:00,ZGSZ 040900Z AUTO 04008KT 12SM 26/06 A3012 RMK SLP207 T02640061 57004 IEM_DS3505
ZGSZ,1997-11-04 10:00,ZGSZ 041000Z AUTO 06008KT 6SM 25/09 A3015 RMK T02500090 IEM_DS3505
ZGSZ,1997-11-04 11:00,ZGSZ 041100Z AUTO 04008KT 6SM 25/07 A3015 RMK T02500070 IEM_DS3505
ZGSZ,1997-11-04 12:00,ZGSZ 041200Z AUTO 04010KT 10SM 24/06 A3018 RMK SLP225 T02370058 52018 IEM_DS3505
ZGSZ,1997-11-04 13:00,ZGSZ 041300Z AUTO 02010KT 6SM 23/07 A3021 RMK T02300070 IEM_DS3505
ZGSZ,1997-11-04 14:00,ZGSZ 041400Z AUTO 04014KT 6SM 23/06 A3021 RMK T02300060 IEM_DS3505
ZGSZ,1997-11-04 18:00,ZGSZ 041800Z AUTO 04010KT 11SM 20/03 RMK SLP234 T02050032 57001 IEM_DS3505
ZGSZ,1997-11-04 21:00,ZGSZ 042100Z AUTO 02008KT 10SM 19/03 A3021 RMK SLP234 T01890027 54000 IEM_DS3505
ZGSZ,1997-11-04 22:00,ZGSZ 042200Z AUTO 02010KT 6SM 19/01 A3021 RMK T01900010 IEM_DS3505
ZGSZ,1997-11-04 23:00,ZGSZ 042300Z AUTO 34008KT 6SM 18/01 A3024 RMK T01800010 IEM_DS3505
ZGSZ,1997-11-05 00:00,ZGSZ 050000Z AUTO 36006KT 11SM 18/03 A3024 RMK SLP252 T01820028 52017 IEM_DS3505
ZGSZ,1997-11-05 01:00,ZGSZ 050100Z AUTO 02008KT 6SM 20/02 A3027 RMK T02000020 IEM_DS3505
ZGSZ,1997-11-05 02:00,ZGSZ 050200Z AUTO 02008KT 6SM 22/02 A3027 RMK T02200020 IEM_DS3505
ZGSZ,1997-11-05 03:00,ZGSZ 050300Z AUTO 07012KT 10SM 22/02 A3024 RMK SLP243 T02220015 57008 IEM_DS3505
ZGSZ,1997-11-05 04:00,ZGSZ 050400Z AUTO 01012KT 6SM 24/01 A3021 RMK T02400010 IEM_DS3505
ZGSZ,1997-11-05 05:00,ZGSZ 050500Z AUTO 01012KT 6SM 24/02 A3018 RMK T02400020 IEM_DS3505
ZGSZ,1997-11-05 06:00,ZGSZ 050600Z AUTO 04010KT 11SM 25/03 A3012 RMK SLP210 T02510030 57033 IEM_DS3505
ZGSZ,1997-11-05 07:00,ZGSZ 050700Z AUTO 36008KT 6SM 25/02 A3012 RMK T02500020 IEM_DS3505
ZGSZ,1997-11-05 08:00,ZGSZ 050800Z AUTO 01010KT 6SM 25/01 A3012 RMK T02500010 IEM_DS3505
ZGSZ,1997-11-05 09:00,ZGSZ 050900Z AUTO 04008KT 11SM 24/03 A3012 RMK SLP207 T02370030 57003 IEM_DS3505
ZGSZ,1997-11-05 10:00,ZGSZ 051000Z AUTO 03004KT 6SM 22/03 A3015 RMK T02200030 IEM_DS3505
ZGSZ,1997-11-05 11:00,ZGSZ 051100Z AUTO 04004KT 6SM 21/03 A3015 RMK T02100030 IEM_DS3505
ZGSZ,1997-11-05 12:00,ZGSZ 051200Z AUTO 02002KT 8SM 21/07 A3015 RMK SLP222 T02140070 52014 IEM_DS3505
ZGSZ,1997-11-05 13:00,ZGSZ 051300Z AUTO 00000KT 6SM 20/04 A3018 RMK T02000040 IEM_DS3505
ZGSZ,1997-11-05 14:00,ZGSZ 051400Z AUTO 01004KT 2 1/2SM 18/05 A3018 RMK T01800050 IEM_DS3505
ZGSZ,1997-11-05 15:00,ZGSZ 051500Z AUTO 06004KT 3SM 20/04 A3018 RMK T02000040 IEM_DS3505
ZGSZ,1997-11-05 18:00,ZGSZ 051800Z AUTO 04006KT 9SM 19/06 RMK SLP218 T01860058 57009 IEM_DS3505
ZGSZ,1997-11-05 21:00,ZGSZ 052100Z AUTO 04006KT 9SM 17/05 A3018 RMK SLP227 T01740054 52009 IEM_DS3505
ZGSZ,1997-11-05 22:00,ZGSZ 052200Z AUTO 04002KT 6SM 18/04 A3018 RMK T01800040 IEM_DS3505
ZGSZ,1997-11-05 23:00,ZGSZ 052300Z AUTO 06002KT 6SM 16/05 A3021 RMK T01600050 IEM_DS3505
ZGSZ,1997-11-06 00:00,ZGSZ 060000Z AUTO 04004KT 9SM 17/05 A3021 RMK SLP242 T01730052 52014 IEM_DS3505
ZGSZ,1997-11-06 01:00,ZGSZ 060100Z AUTO 03008KT 4SM 20/06 A3024 RMK T02000060 IEM_DS3505
ZGSZ,1997-11-06 02:00,ZGSZ 060200Z AUTO 06006KT 4SM 22/06 A3024 RMK T02200060 IEM_DS3505
ZGSZ,1997-11-06 03:00,ZGSZ 060300Z AUTO 02008KT 6SM 21/06 A3024 RMK SLP246 T02140064 52004 IEM_DS3505
ZGSZ,1997-11-06 04:00,ZGSZ 060400Z AUTO 08006KT 4SM 24/09 A3021 RMK T02400090 IEM_DS3505
ZGSZ,1997-11-06 05:00,ZGSZ 060500Z AUTO 26006KT 5SM 24/09 A3018 RMK T02400090 IEM_DS3505
ZGSZ,1997-11-06 06:00,ZGSZ 060600Z AUTO 00000KT 7SM 25/10 A3015 RMK SLP215 T02540099 57030 IEM_DS3505
ZGSZ,1997-11-06 07:00,ZGSZ 060700Z AUTO 30008KT 6SM 25/07 A3015 RMK T02500070 IEM_DS3505
ZGSZ,1997-11-06 08:00,ZGSZ 060800Z AUTO 28006KT 6SM 23/09 A3015 RMK T02300090 IEM_DS3505
ZGSZ,1997-11-06 09:00,ZGSZ 060900Z AUTO 11006KT 8SM 22/11 A3015 RMK SLP218 T02240113 52002 IEM_DS3505
ZGSZ,1997-11-06 10:00,ZGSZ 061000Z AUTO 34004KT 3SM 21/10 A3015 RMK T02100100 IEM_DS3505
ZGSZ,1997-11-06 11:00,ZGSZ 061100Z AUTO 08002KT 2 1/2SM 19/10 A3018 RMK T01900100 IEM_DS3505
ZGSZ,1997-11-06 12:00,ZGSZ 061200Z AUTO 11004KT 9SM 20/10 A3021 RMK SLP237 T02050099 52019 IEM_DS3505
ZGSZ,1997-11-06 13:00,ZGSZ 061300Z AUTO 09004KT 2SM 19/10 A3021 RMK T01900100 IEM_DS3505
ZGSZ,1997-11-06 14:00,ZGSZ 061400Z AUTO 10004KT 2 1/2SM 18/11 A3021 RMK T01800110 IEM_DS3505
ZGSZ,1997-11-06 15:00,ZGSZ 061500Z AUTO 09004KT 2 1/2SM 17/12 A3021 RMK T01700120 IEM_DS3505
ZGSZ,1997-11-06 18:00,ZGSZ 061800Z AUTO 04004KT 5SM 18/13 RMK SLP234 T01850126 57007 IEM_DS3505
ZGSZ,1997-11-06 21:00,ZGSZ 062100Z AUTO 36004KT 5SM 18/12 A3018 RMK SLP233 T01770119 57002 IEM_DS3505
ZGSZ,1997-11-06 22:00,ZGSZ 062200Z AUTO 03004KT 6SM 16/13 A3021 RMK T01600130 IEM_DS3505
ZGSZ,1997-11-06 23:00,ZGSZ 062300Z AUTO 03006KT 4SM 16/13 A3024 RMK T01600130 IEM_DS3505
ZGSZ,1997-11-07 00:00,ZGSZ 070000Z AUTO 36004KT 6SM 18/12 A3024 RMK SLP248 T01830116 52015 IEM_DS3505
ZGSZ,1997-11-07 01:00,ZGSZ 070100Z AUTO 04004KT 6SM 20/13 A3024 RMK T02000130 IEM_DS3505
ZGSZ,1997-11-07 02:00,ZGSZ 070200Z AUTO 35006KT 6SM 22/12 A3024 RMK T02200120 IEM_DS3505
ZGSZ,1997-11-07 03:00,ZGSZ 070300Z AUTO 36006KT 8SM 22/10 A3024 RMK SLP240 T02240099 57007 IEM_DS3505
ZGSZ,1997-11-07 04:00,ZGSZ 070400Z AUTO 08006KT 6SM 24/11 A3021 RMK T02400110 IEM_DS3505
ZGSZ,1997-11-07 05:00,ZGSZ 070500Z AUTO 12004KT 6SM 25/11 A3018 RMK T02500110 IEM_DS3505
ZGSZ,1997-11-07 06:00,ZGSZ 070600Z AUTO 14006KT 9SM 24/12 A3015 RMK SLP216 T02400120 57024 IEM_DS3505
ZGSZ,1997-11-07 07:00,ZGSZ 070700Z AUTO 30008KT 6SM 25/13 A3012 RMK T02500130 IEM_DS3505
ZGSZ,1997-11-07 08:00,ZGSZ 070800Z AUTO 21006KT 6SM 25/13 A3012 RMK T02500130 IEM_DS3505
ZGSZ,1997-11-07 09:00,ZGSZ 070900Z AUTO 16006KT 10SM 24/11 A3012 RMK SLP213 T02370113 57003 IEM_DS3505
ZGSZ,1997-11-07 10:00,ZGSZ 071000Z AUTO 21002KT 6SM 22/12 A3015 RMK T02200120 IEM_DS3505
ZGSZ,1997-11-07 11:00,ZGSZ 071100Z AUTO 06002KT 6SM 20/13 A3018 RMK T02000130 IEM_DS3505
ZGSZ,1997-11-07 12:00,ZGSZ 071200Z AUTO 00000KT 9SM 21/14 A3018 RMK SLP230 T02130135 52016 IEM_DS3505
ZGSZ,1997-11-07 13:00,ZGSZ 071300Z AUTO 10002KT 6SM 21/14 A3021 RMK T02100140 IEM_DS3505
ZGSZ,1997-11-07 14:00,ZGSZ 071400Z AUTO 11006KT 6SM 21/14 A3021 RMK T02100140 IEM_DS3505
ZGSZ,1997-11-07 15:00,ZGSZ 071500Z AUTO 10004KT 6SM 20/14 A3021 RMK T02000140 IEM_DS3505
ZGSZ,1997-11-07 18:00,ZGSZ 071800Z AUTO 04004KT 4SM 20/15 RMK SLP224 T01970146 57007 IEM_DS3505
ZGSZ,1997-11-07 21:00,ZGSZ 072100Z AUTO 04004KT 3SM 19/15 A3015 RMK SLP224 T01890146 54000 IEM_DS3505
ZGSZ,1997-11-07 22:00,ZGSZ 072200Z AUTO 12002KT 6SM 18/16 A3015 RMK T01800160 IEM_DS3505
ZGSZ,1997-11-07 23:00,ZGSZ 072300Z AUTO 00000KT 6SM 19/16 A3018 RMK T01900160 IEM_DS3505
ZGSZ,1997-11-08 00:00,ZGSZ 080000Z AUTO 04006KT 7SM 20/15 A3018 RMK SLP226 T01960152 52002 IEM_DS3505
ZGSZ,1997-11-08 01:00,ZGSZ 080100Z AUTO 05004KT 6SM 21/17 A3021 RMK T02100170 IEM_DS3505
ZGSZ,1997-11-08 02:00,ZGSZ 080200Z AUTO 08006KT 6SM 23/16 A3018 RMK T02300160 IEM_DS3505
ZGSZ,1997-11-08 03:00,ZGSZ 080300Z AUTO 14006KT 11SM 23/14 A3018 RMK SLP226 T02330135 54000 IEM_DS3505
ZGSZ,1997-11-08 04:00,ZGSZ 080400Z AUTO 27004KT 6SM 25/17 A3012 RMK T02500170 IEM_DS3505
ZGSZ,1997-11-08 05:00,ZGSZ 080500Z AUTO 27006KT 7SM 25/15 A3012 RMK T02500150 IEM_DS3505
ZGSZ,1997-11-08 06:00,ZGSZ 080600Z AUTO 11006KT 16SM 26/15 A3009 RMK SLP195 T02610147 57031 IEM_DS3505
ZGSZ,1997-11-08 07:00,ZGSZ 080700Z AUTO 25004KT 7SM 26/18 A3006 RMK T02600180 IEM_DS3505
ZGSZ,1997-11-08 08:00,ZGSZ 080800Z AUTO 23006KT 7SM 25/18 A3006 RMK T02500180 IEM_DS3505
ZGSZ,1997-11-08 09:00,ZGSZ 080900Z AUTO 11006KT 17SM 24/14 A3006 RMK SLP193 T02390137 57002 IEM_DS3505
ZGSZ,1997-11-08 10:00,ZGSZ 081000Z AUTO 17010KT 7SM 23/18 A3009 RMK T02300180 IEM_DS3505
ZGSZ,1997-11-08 11:00,ZGSZ 081100Z AUTO 17008KT 7SM 23/18 A3012 RMK T02300180 IEM_DS3505
ZGSZ,1997-11-08 12:00,ZGSZ 081200Z AUTO 14006KT 11SM 22/16 A3012 RMK SLP216 T02170163 52023 IEM_DS3505
ZGSZ,1997-11-08 13:00,ZGSZ 081300Z AUTO 11008KT 6SM 22/18 A3015 RMK T02200180 IEM_DS3505
ZGSZ,1997-11-08 14:00,ZGSZ 081400Z AUTO 11006KT 6SM 21/18 A3015 RMK T02100180 IEM_DS3505
ZGSZ,1997-11-08 15:00,ZGSZ 081500Z AUTO 11004KT 6SM 21/18 A3015 RMK T02100180 IEM_DS3505
ZGSZ,1997-11-08 18:00,ZGSZ 081800Z AUTO 07008KT 9SM 22/17 RMK SLP205 T02160167 57012 IEM_DS3505
ZGSZ,1997-11-08 21:00,ZGSZ 082100Z AUTO 07008KT 9SM 21/16 A3015 RMK SLP212 T02100160 52007 IEM_DS3505
ZGSZ,1997-11-08 22:00,ZGSZ 082200Z AUTO 09004KT 6SM 20/17 A3015 RMK T02000170 IEM_DS3505
ZGSZ,1997-11-08 23:00,ZGSZ 082300Z AUTO 07006KT 6SM 21/16 A3015 RMK T02100160 IEM_DS3505
ZGSZ,1997-11-09 00:00,ZGSZ 090000Z AUTO 04006KT 10SM 21/15 A3018 RMK SLP228 T02090148 52016 IEM_DS3505
ZGSZ,1997-11-09 01:00,ZGSZ 090100Z AUTO 06004KT 6SM 22/15 A3021 RMK T02200150 IEM_DS3505
ZGSZ,1997-11-09 02:00,ZGSZ 090200Z AUTO 07008KT 6SM 22/16 A3021 RMK T02200160 IEM_DS3505
ZGSZ,1997-11-09 03:00,ZGSZ 090300Z AUTO 04008KT 7SM 23/16 A3018 RMK SLP232 T02330157 52004 IEM_DS3505
ZGSZ,1997-11-09 04:00,ZGSZ 090400Z AUTO 07006KT 6SM 25/16 A3015 RMK T02500160 IEM_DS3505
ZGSZ,1997-11-09 05:00,ZGSZ 090500Z AUTO 09002KT 6SM 26/16 A3012 RMK T02600160 IEM_DS3505
ZGSZ,1997-11-09 06:00,ZGSZ 090600Z AUTO 18006KT 8SM 25/16 A3009 RMK SLP197 T02520155 57035 IEM_DS3505
ZGSZ,1997-11-09 07:00,ZGSZ 090700Z AUTO 20002KT 6SM 26/16 A3009 RMK T02600160 IEM_DS3505
ZGSZ,1997-11-09 08:00,ZGSZ 090800Z AUTO 25002KT 6SM 24/17 A3006 RMK T02400170 IEM_DS3505
ZGSZ,1997-11-09 09:00,ZGSZ 090900Z AUTO 11004KT 8SM 24/17 A3009 RMK SLP196 T02350167 57001 IEM_DS3505
ZGSZ,1997-11-09 10:00,ZGSZ 091000Z AUTO 00000KT 7SM 23/19 A3009 RMK T02300190 IEM_DS3505
ZGSZ,1997-11-09 11:00,ZGSZ 091100Z AUTO 12004KT 6SM 22/19 A3012 RMK T02200190 IEM_DS3505
ZGSZ,1997-11-09 12:00,ZGSZ 091200Z AUTO 09004KT 8SM 22/17 A3015 RMK SLP213 T02210174 52017 IEM_DS3505
ZGSZ,1997-11-09 13:00,ZGSZ 091300Z AUTO 12006KT 6SM 22/18 A3015 RMK T02200180 IEM_DS3505
ZGSZ,1997-11-09 14:00,ZGSZ 091400Z AUTO 15004KT 6SM 22/18 A3015 RMK T02200180 IEM_DS3505
ZGSZ,1997-11-09 15:00,ZGSZ 091500Z AUTO 11004KT 6SM 21/18 A3015 RMK T02100180 IEM_DS3505
ZGSZ,1997-11-09 18:00,ZGSZ 091800Z AUTO 02004KT 7SM 21/18 RMK SLP209 T02120183 57009 IEM_DS3505
ZGSZ,1997-11-09 21:00,ZGSZ 092100Z AUTO 02002KT 8SM 20/18 A3012 RMK SLP210 T02030175 52001 IEM_DS3505
ZGSZ,1997-11-09 22:00,ZGSZ 092200Z AUTO 06004KT 6SM 19/18 A3015 RMK T01900180 IEM_DS3505
ZGSZ,1997-11-09 23:00,ZGSZ 092300Z AUTO 05002KT 6SM 20/18 A3018 RMK T02000180 IEM_DS3505
ZGSZ,1997-11-10 00:00,ZGSZ 100000Z AUTO 09006KT 7SM 21/18 A3018 RMK SLP229 T02070175 52019 IEM_DS3505
ZGSZ,1997-11-10 01:00,ZGSZ 100100Z AUTO 07004KT 4SM 23/19 A3021 RMK T02300190 IEM_DS3505
ZGSZ,1997-11-10 02:00,ZGSZ 100200Z AUTO 09008KT 6SM 24/19 A3018 RMK T02400190 IEM_DS3505
ZGSZ,1997-11-10 03:00,ZGSZ 100300Z AUTO 04006KT 13SM 25/17 A3018 RMK SLP227 T02460167 57002 IEM_DS3505
ZGSZ,1997-11-10 04:00,ZGSZ 100400Z AUTO 29008KT 6SM 26/20 A3015 RMK T02600200 IEM_DS3505
ZGSZ,1997-11-10 05:00,ZGSZ 100500Z AUTO 26006KT 7SM 26/19 A3012 RMK T02600190 IEM_DS3505
ZGSZ,1997-11-10 06:00,ZGSZ 100600Z AUTO 04008KT 16SM 27/17 A3006 RMK SLP195 T02720170 57032 IEM_DS3505
ZGSZ,1997-11-10 07:00,ZGSZ 100700Z AUTO 28006KT 6SM 26/18 A3006 RMK T02600180 IEM_DS3505
ZGSZ,1997-11-10 08:00,ZGSZ 100800Z AUTO 23006KT 6SM 26/19 A3006 RMK T02600190 IEM_DS3505
ZGSZ,1997-11-10 09:00,ZGSZ 100900Z AUTO 14004KT 12SM 26/17 A3006 RMK SLP191 T02560166 57004 IEM_DS3505
ZGSZ,1997-11-10 10:00,ZGSZ 101000Z AUTO 18004KT 6SM 24/21 A3009 RMK T02400210 IEM_DS3505
ZGSZ,1997-11-10 11:00,ZGSZ 101100Z AUTO 16004KT 6SM 23/21 A3009 RMK T02300210 IEM_DS3505
ZGSZ,1997-11-10 12:00,ZGSZ 101200Z AUTO 14008KT 11SM 23/18 A3009 RMK SLP198 T02310175 52007 IEM_DS3505
ZGSZ,1997-11-10 13:00,ZGSZ 101300Z AUTO 14002KT 2 1/2SM 23/19 A3012 RMK T02300190 IEM_DS3505
ZGSZ,1997-11-10 15:00,ZGSZ 101500Z AUTO 10008KT 3SM 22/19 A3012 RMK T02200190 IEM_DS3505
ZGSZ,1997-11-10 16:00,ZGSZ 101600Z AUTO 10004KT 3SM 22/20 A3009 RMK T02200200 IEM_DS3505
ZGSZ,1997-11-10 18:00,ZGSZ 101800Z AUTO 04006KT 5SM 22/20 RMK SLP197 T02210196 57089 IEM_DS3505
ZGSZ,1997-11-10 21:00,ZGSZ 102100Z AUTO 09006KT 5SM 22/18 A3006 RMK SLP193 T02200185 57004 IEM_DS3505
ZGSZ,1997-11-10 22:00,ZGSZ 102200Z AUTO 00000KT 2 1/2SM 20/19 A3009 RMK T02000190 IEM_DS3505
ZGSZ,1997-11-10 23:00,ZGSZ 102300Z AUTO 00000KT 2 1/2SM 20/19 A3012 RMK T02000190 IEM_DS3505
ZGSZ,1997-11-11 00:00,ZGSZ 110000Z AUTO 07006KT 9SM 22/19 A3012 RMK SLP206 T02230188 52013 IEM_DS3505
ZGSZ,1997-11-11 01:00,ZGSZ 110100Z AUTO 07006KT 4SM 23/20 A3012 RMK T02300200 IEM_DS3505
ZGSZ,1997-11-11 02:00,ZGSZ 110200Z AUTO 09008KT 7SM 25/21 A3015 RMK T02500210 IEM_DS3505
ZGSZ,1997-11-11 03:00,ZGSZ 110300Z AUTO 04010KT 11SM 25/18 A3012 RMK SLP206 T02510176 54000 IEM_DS3505
ZGSZ,1997-11-11 04:00,ZGSZ 110400Z AUTO 28008KT 6SM 27/21 A3009 RMK T02700210 IEM_DS3505
ZGSZ,1997-11-11 05:00,ZGSZ 110500Z AUTO 28008KT 6SM 26/21 A3006 RMK T02600210 IEM_DS3505
ZGSZ,1997-11-11 06:00,ZGSZ 110600Z AUTO 14006KT 19SM 28/17 A3003 RMK SLP178 T02850171 57028 IEM_DS3505
ZGSZ,1997-11-11 07:00,ZGSZ 110700Z AUTO 27006KT 6SM 27/20 A3000 RMK T02700200 IEM_DS3505
ZGSZ,1997-11-11 09:00,ZGSZ 110900Z AUTO 09006KT 19SM 27/16 RMK SLP171 T02680158 57007 IEM_DS3505
ZGSZ,1997-11-11 11:00,ZGSZ 111100Z AUTO 19004KT 4SM 24/21 A3003 RMK T02400210 IEM_DS3505
ZGSZ,1997-11-11 12:00,ZGSZ 111200Z AUTO 09004KT 14SM 25/17 A3003 RMK SLP181 T02460169 52010 IEM_DS3505
ZGSZ,1997-11-11 13:00,ZGSZ 111300Z AUTO 17004KT 3SM 23/22 A3006 RMK T02300220 IEM_DS3505
ZGSZ,1997-11-11 14:00,ZGSZ 111400Z AUTO 00000KT 3SM 22/21 A3006 RMK T02200210 IEM_DS3505
ZGSZ,1997-11-11 15:00,ZGSZ 111500Z AUTO 00000KT 2 1/2SM 22/21 A3006 RMK T02200210 IEM_DS3505
ZGSZ,1997-11-11 16:00,ZGSZ 111600Z AUTO 03002KT 2 1/2SM 22/21 A3006 RMK T02200210 IEM_DS3505
ZGSZ,1997-11-11 18:00,ZGSZ 111800Z AUTO 07002KT 9SM 23/20 RMK SLP177 T02310195 57009 IEM_DS3505
ZGSZ,1997-11-11 21:00,ZGSZ 112100Z AUTO 04006KT 7SM 23/19 A3000 RMK SLP172 T02290193 57006 IEM_DS3505
ZGSZ,1997-11-11 22:00,ZGSZ 112200Z AUTO 00000KT 6SM 23/20 A3003 RMK T02300200 IEM_DS3505
ZGSZ,1997-11-11 23:00,ZGSZ 112300Z AUTO 09002KT 6SM 23/20 A3003 RMK T02300200 IEM_DS3505
ZGSZ,1997-11-12 00:00,ZGSZ 120000Z AUTO 07004KT 8SM 23/19 A3006 RMK SLP184 T02340194 52012 IEM_DS3505
ZGSZ,1997-11-12 01:00,ZGSZ 120100Z AUTO 10004KT 6SM 25/20 A3006 RMK T02500200 IEM_DS3505
ZGSZ,1997-11-12 02:00,ZGSZ 120200Z AUTO 09004KT 7SM 27/19 A3006 RMK T02700190 IEM_DS3505
ZGSZ,1997-11-12 03:00,ZGSZ 120300Z AUTO 14004KT 12SM 27/19 A3006 RMK SLP189 T02660190 52005 IEM_DS3505
ZGSZ,1997-11-12 04:00,ZGSZ 120400Z AUTO 27004KT 6SM 28/20 A3003 RMK T02800200 IEM_DS3505
ZGSZ,1997-11-12 05:00,ZGSZ 120500Z AUTO 26004KT 7SM 28/20 A3000 RMK T02800200 IEM_DS3505
ZGSZ,1997-11-12 06:00,ZGSZ 120600Z AUTO 14004KT 19SM 30/18 A2997 RMK SLP155 T02970184 57033 IEM_DS3505
ZGSZ,1997-11-12 07:00,ZGSZ 120700Z AUTO 24004KT 6SM 28/20 A2997 RMK T02800200 IEM_DS3505
ZGSZ,1997-11-12 08:00,ZGSZ 120800Z AUTO 25006KT 6SM 27/21 A2997 RMK T02700210 IEM_DS3505
ZGSZ,1997-11-12 09:00,ZGSZ 120900Z AUTO 14006KT 19SM 28/18 A2997 RMK SLP153 T02760181 57002 IEM_DS3505
ZGSZ,1997-11-12 10:00,ZGSZ 121000Z AUTO 20004KT 6SM 25/22 A2997 RMK T02500220 IEM_DS3505
ZGSZ,1997-11-12 11:00,ZGSZ 121100Z AUTO 18004KT 6SM 24/22 A2997 RMK T02400220 IEM_DS3505
ZGSZ,1997-11-12 12:00,ZGSZ 121200Z AUTO 09004KT 16SM 26/18 A3000 RMK SLP169 T02560177 52015 IEM_DS3505
ZGSZ,1997-11-12 13:00,ZGSZ 121300Z AUTO 11002KT 2 1/2SM 23/21 A3000 RMK T02300210 IEM_DS3505
ZGSZ,1997-11-12 18:00,ZGSZ 121800Z AUTO 00000KT 11SM 23/18 RMK SLP156 T02290180 57014 IEM_DS3505
ZGSZ,1997-11-12 21:00,ZGSZ 122100Z AUTO 00000KT 9SM 22/18 RMK SLP149 T02200185 57007 IEM_DS3505
ZGSZ,1997-11-12 23:00,ZGSZ 122300Z AUTO 09002KT 1 1/2SM 20/20 A2997 RMK T02000200 IEM_DS3505
ZGSZ,1997-11-13 00:00,ZGSZ 130000Z AUTO 04004KT 3SM 22/19 A3000 RMK SLP168 T02230188 52018 IEM_DS3505
ZGSZ,1997-11-13 01:00,ZGSZ 130100Z AUTO 30002KT 3SM 25/22 A3000 RMK T02500220 IEM_DS3505
ZGSZ,1997-11-13 02:00,ZGSZ 130200Z AUTO 30006KT 3SM 26/22 A3003 RMK T02600220 IEM_DS3505
ZGSZ,1997-11-13 03:00,ZGSZ 130300Z AUTO 22004KT 3SM 28/18 A3000 RMK SLP171 T02750178 52004 IEM_DS3505
ZGSZ,1997-11-13 04:00,ZGSZ 130400Z AUTO 28004KT 5SM 28/21 A2997 RMK T02800210 IEM_DS3505
ZGSZ,1997-11-13 05:00,ZGSZ 130500Z AUTO 30006KT 6SM 28/20 A2994 RMK T02800200 IEM_DS3505
ZGSZ,1997-11-13 06:00,ZGSZ 130600Z AUTO 22006KT 7SM 30/19 A2991 RMK SLP137 T03020191 57034 IEM_DS3505
ZGSZ,1997-11-13 07:00,ZGSZ 130700Z AUTO 18004KT 6SM 29/20 A2991 RMK T02900200 IEM_DS3505
ZGSZ,1997-11-13 08:00,ZGSZ 130800Z AUTO 19004KT 6SM 28/19 A2991 RMK T02800190 IEM_DS3505
ZGSZ,1997-11-13 09:00,ZGSZ 130900Z AUTO 22006KT 7SM 29/18 RMK SLP134 T02860178 57003 IEM_DS3505
ZGSZ,1997-11-13 10:00,ZGSZ 131000Z AUTO 17002KT 6SM 26/20 A2991 RMK T02600200 IEM_DS3505
ZGSZ,1997-11-13 11:00,ZGSZ 131100Z AUTO 14002KT 6SM 26/20 A2991 RMK T02600200 IEM_DS3505
ZGSZ,1997-11-13 12:00,ZGSZ 131200Z AUTO 00000KT 8SM 26/19 A2994 RMK SLP149 T02590189 52014 IEM_DS3505
ZGSZ,1997-11-13 13:00,ZGSZ 131300Z AUTO 13002KT 4SM 25/21 A2994 RMK T02500210 IEM_DS3505
ZGSZ,1997-11-13 14:00,ZGSZ 131400Z AUTO 14004KT 6SM 24/20 A2994 RMK T02400200 IEM_DS3505
ZGSZ,1997-11-13 15:00,ZGSZ 131500Z AUTO 09002KT 6SM 23/20 A2994 RMK T02300200 IEM_DS3505
ZGSZ,1997-11-13 18:00,ZGSZ 131800Z AUTO 11004KT 10SM 23/19 RMK SLP147 T02330191 57003 IEM_DS3505
ZGSZ,1997-11-13 21:00,ZGSZ 132100Z AUTO 07002KT 8SM 22/19 A2994 RMK SLP145 T02250194 57002 IEM_DS3505
ZGSZ,1997-11-13 22:00,ZGSZ 132200Z AUTO 08002KT 6SM 21/21 A2994 RMK T02100210 IEM_DS3505
ZGSZ,1997-11-13 23:00,ZGSZ 132300Z AUTO 08004KT 6SM 21/20 A2997 RMK T02100200 IEM_DS3505
ZGSZ,1997-11-14 00:00,ZGSZ 140000Z AUTO 04004KT 4SM 22/15 A2997 RMK SLP159 T02240153 52013 IEM_DS3505
ZGSZ,1997-11-14 01:00,ZGSZ 140100Z AUTO 12002KT 3SM 27/23 A2997 RMK T02700230 IEM_DS3505
ZGSZ,1997-11-14 02:00,ZGSZ 140200Z AUTO 20002KT 4SM 27/23 A3000 RMK T02700230 IEM_DS3505
ZGSZ,1997-11-14 03:00,ZGSZ 140300Z AUTO 18002KT 7SM 28/18 A2997 RMK SLP155 T02810183 57003 IEM_DS3505
ZGSZ,1997-11-14 04:00,ZGSZ 140400Z AUTO 23006KT 6SM 28/20 A2997 RMK T02800200 IEM_DS3505
ZGSZ,1997-11-14 05:00,ZGSZ 140500Z AUTO 22006KT 6SM 28/21 A2994 RMK T02800210 IEM_DS3505
ZGSZ,1997-11-14 06:00,ZGSZ 140600Z AUTO 27002KT 7SM 30/18 A2988 RMK SLP133 T03030183 57022 IEM_DS3505
ZGSZ,1997-11-14 07:00,ZGSZ 140700Z AUTO 20008KT 6SM 28/23 A2988 RMK T02800230 IEM_DS3505
ZGSZ,1997-11-14 08:00,ZGSZ 140800Z AUTO 20010KT 6SM 28/23 A2985 RMK T02800230 IEM_DS3505
ZGSZ,1997-11-14 09:00,ZGSZ 140900Z AUTO 14004KT 12SM 28/20 A2985 RMK SLP128 T02780197 57005 IEM_DS3505
ZGSZ,1997-11-14 10:00,ZGSZ 141000Z AUTO 17006KT 6SM 25/24 A2988 RMK T02500240 IEM_DS3505
ZGSZ,1997-11-14 11:00,ZGSZ 141100Z AUTO 19008KT 6SM 25/23 A2988 RMK T02500230 IEM_DS3505
ZGSZ,1997-11-14 12:00,ZGSZ 141200Z AUTO 11004KT 9SM 25/22 A2991 RMK SLP138 T02490215 52009 IEM_DS3505
ZGSZ,1997-11-14 13:00,ZGSZ 141300Z AUTO 18008KT 6SM 25/23 A2991 RMK T02500230 IEM_DS3505
ZGSZ,1997-11-14 14:00,ZGSZ 141400Z AUTO 15006KT 6SM 24/23 A2994 RMK T02400230 IEM_DS3505
ZGSZ,1997-11-14 15:00,ZGSZ 141500Z AUTO 11002KT 2 1/2SM 24/23 A2994 RMK T02400230 IEM_DS3505
ZGSZ,1997-11-14 18:00,ZGSZ 141800Z AUTO 14006KT 7SM 23/21 RMK SLP136 T02330212 57007 IEM_DS3505
ZGSZ,1997-11-14 20:00,ZGSZ 142000Z AUTO 11004KT 3SM 23/22 A2988 RMK T02300220 IEM_DS3505
ZGSZ,1997-11-14 21:00,ZGSZ 142100Z AUTO 00000KT 6SM 23/21 A2988 RMK SLP129 T02290209 57007 IEM_DS3505
ZGSZ,1997-11-14 22:00,ZGSZ 142200Z AUTO 11006KT 4SM 23/22 A2988 RMK T02300220 IEM_DS3505
ZGSZ,1997-11-14 23:00,ZGSZ 142300Z AUTO 10004KT 3SM 22/22 A2991 RMK T02200220 IEM_DS3505
ZGSZ,1997-11-15 00:00,ZGSZ 150000Z AUTO 04002KT 5SM 23/21 A2991 RMK SLP146 T02310210 52016 IEM_DS3505
ZGSZ,1997-11-15 01:00,ZGSZ 150100Z AUTO 09004KT 4SM 25/23 A2994 RMK T02500230 IEM_DS3505
ZGSZ,1997-11-15 02:00,ZGSZ 150200Z AUTO 09004KT 4SM 26/23 A2997 RMK T02600230 IEM_DS3505
ZGSZ,1997-11-15 03:00,ZGSZ 150300Z AUTO 32004KT 9SM 27/21 A2994 RMK SLP147 T02720211 52002 IEM_DS3505
ZGSZ,1997-11-15 04:00,ZGSZ 150400Z AUTO 24002KT 7SM 28/23 A2994 RMK T02800230 IEM_DS3505
ZGSZ,1997-11-15 05:00,ZGSZ 150500Z AUTO 30002KT 6SM 28/23 A2991 RMK T02800230 IEM_DS3505
ZGSZ,1997-11-15 06:00,ZGSZ 150600Z AUTO 09006KT 16SM 30/21 A2988 RMK SLP123 T02990213 57024 IEM_DS3505
ZGSZ,1997-11-15 07:00,ZGSZ 150700Z AUTO 21004KT 6SM 27/24 A2985 RMK T02700240 IEM_DS3505
ZGSZ,1997-11-15 08:00,ZGSZ 150800Z AUTO 22006KT 6SM 27/24 A2985 RMK T02700240 IEM_DS3505
ZGSZ,1997-11-15 09:00,ZGSZ 150900Z AUTO 14004KT 19SM 27/20 A2985 RMK SLP118 T02710203 57005 IEM_DS3505
ZGSZ,1997-11-15 10:00,ZGSZ 151000Z AUTO 19008KT 6SM 25/24 A2985 RMK T02500240 IEM_DS3505
ZGSZ,1997-11-15 11:00,ZGSZ 151100Z AUTO 16006KT 6SM 25/24 A2988 RMK T02500240 IEM_DS3505
ZGSZ,1997-11-15 12:00,ZGSZ 151200Z AUTO 14006KT 17SM 25/22 RMK SLP133 T02480218 52014 IEM_DS3505
ZGSZ,1997-11-15 13:00,ZGSZ 151300Z AUTO 11006KT 6SM 25/22 A2991 RMK T02500220 IEM_DS3505
ZGSZ,1997-11-15 14:00,ZGSZ 151400Z AUTO 11004KT 6SM 24/22 A2991 RMK T02400220 IEM_DS3505
ZGSZ,1997-11-15 15:00,ZGSZ 151500Z AUTO 09004KT 6SM 24/22 A2991 RMK T02400220 IEM_DS3505
ZGSZ,1997-11-15 18:00,ZGSZ 151800Z AUTO 04004KT 9SM 24/22 RMK SLP134 T02420221 57003 IEM_DS3505
ZGSZ,1997-11-15 21:00,ZGSZ 152100Z AUTO 00000KT 5SM 24/22 A2988 RMK SLP129 T02350217 57005 IEM_DS3505
ZGSZ,1997-11-15 22:00,ZGSZ 152200Z AUTO 36002KT 6SM 22/22 A2988 RMK T02200220 IEM_DS3505
ZGSZ,1997-11-15 23:00,ZGSZ 152300Z AUTO 10002KT 3SM 21/21 A2991 RMK T02100210 IEM_DS3505
ZGSZ,1997-11-16 00:00,ZGSZ 160000Z AUTO 04004KT 2 1/2SM 23/22 A2991 RMK SLP143 T02340216 52013 IEM_DS3505
ZGSZ,1997-11-16 01:00,ZGSZ 160100Z AUTO 36002KT 3SM 26/24 A2994 RMK T02600240 IEM_DS3505
ZGSZ,1997-11-16 02:00,ZGSZ 160200Z AUTO 27004KT 3SM 27/24 A2994 RMK T02700240 IEM_DS3505
ZGSZ,1997-11-16 03:00,ZGSZ 160300Z AUTO 04002KT 4SM 27/21 A2994 RMK SLP147 T02700213 52005 IEM_DS3505
ZGSZ,1997-11-16 04:00,ZGSZ 160400Z AUTO 28006KT 7SM 27/24 A2994 RMK T02700240 IEM_DS3505
ZGSZ,1997-11-16 05:00,ZGSZ 160500Z AUTO 28004KT 7SM 27/23 A2991 RMK T02700230 IEM_DS3505
ZGSZ,1997-11-16 06:00,ZGSZ 160600Z AUTO 04006KT 11SM 29/21 A2988 RMK SLP122 T02940211 57025 IEM_DS3505
ZGSZ,1997-11-16 07:00,ZGSZ 160700Z AUTO 24004KT 6SM 27/22 A2985 RMK T02700220 IEM_DS3505
ZGSZ,1997-11-16 08:00,ZGSZ 160800Z AUTO 26002KT 6SM 27/22 A2985 RMK T02700220 IEM_DS3505
ZGSZ,1997-11-16 09:00,ZGSZ 160900Z AUTO 25006KT 14SM 28/20 A2988 RMK SLP122 T02820205 54000 IEM_DS3505
ZGSZ,1997-11-16 10:00,ZGSZ 161000Z AUTO 34014KT 4SM 23/19 A2991 RMK T02300190 IEM_DS3505
ZGSZ,1997-11-16 11:00,ZGSZ 161100Z AUTO 01016KT 7SM 22/17 A2994 RMK T02200170 IEM_DS3505
ZGSZ,1997-11-16 12:00,ZGSZ 161200Z AUTO 04008KT 12SM 22/16 A3000 RMK SLP163 T02190161 52040 IEM_DS3505
ZGSZ,1997-11-16 13:00,ZGSZ 161300Z AUTO 34014KT 7SM 18/16 A3006 RMK T01800160 IEM_DS3505
ZGSZ,1997-11-16 14:00,ZGSZ 161400Z AUTO 01012KT 2SM 16/16 A3006 RMK T01600160 IEM_DS3505
ZGSZ,1997-11-16 15:00,ZGSZ 161500Z AUTO 01012KT 7SM 17/15 A3006 RMK T01700150 IEM_DS3505
ZGSZ,1997-11-16 17:00,ZGSZ 161700Z AUTO 35017KT 7SM 17/14 A3006 RMK T01700140 IEM_DS3505
ZGSZ,1997-11-16 18:00,ZGSZ 161800Z AUTO 34008KT 14SM 18/13 RMK SLP180 T01770127 52001 IEM_DS3505
ZGSZ,1997-11-16 21:00,ZGSZ 162100Z AUTO 02006KT 14SM 17/11 A3006 RMK SLP182 T01730110 52002 IEM_DS3505
ZGSZ,1997-11-16 22:00,ZGSZ 162200Z AUTO 02014KT 7SM 16/12 A3006 RMK T01600120 IEM_DS3505
ZGSZ,1997-11-16 23:00,ZGSZ 162300Z AUTO 36012KT 7SM 16/11 A3012 RMK T01600110 IEM_DS3505
ZGSZ,1997-11-17 00:00,ZGSZ 170000Z AUTO 07014KT 17SM 16/09 A3012 RMK SLP203 T01590089 52020 IEM_DS3505
ZGSZ,1997-11-17 01:00,ZGSZ 170100Z AUTO 02017KT 6SM 16/10 A3015 RMK T01600100 IEM_DS3505
ZGSZ,1997-11-17 02:00,ZGSZ 170200Z AUTO 01017KT 6SM 16/09 A3018 RMK T01600090 IEM_DS3505
ZGSZ,1997-11-17 03:00,ZGSZ 170300Z AUTO 04012KT 17SM 17/07 A3015 RMK SLP212 T01730068 52009 IEM_DS3505
ZGSZ,1997-11-17 04:00,ZGSZ 170400Z AUTO 36017KT 6SM 18/08 A3015 RMK T01800080 IEM_DS3505
ZGSZ,1997-11-17 05:00,ZGSZ 170500Z AUTO 02016KT 6SM 18/08 A3012 RMK T01800080 IEM_DS3505
ZGSZ,1997-11-17 06:00,ZGSZ 170600Z AUTO 04012KT 16SM 20/07 A3009 RMK SLP189 T01990074 57023 IEM_DS3505
ZGSZ,1997-11-17 07:00,ZGSZ 170700Z AUTO 02012KT 6SM 19/08 A3006 RMK T01900080 IEM_DS3505
ZGSZ,1997-11-17 08:00,ZGSZ 170800Z AUTO 01014KT 6SM 19/07 A3006 RMK T01900070 IEM_DS3505
ZGSZ,1997-11-17 09:00,ZGSZ 170900Z AUTO 04008KT 17SM 19/06 A3006 RMK SLP186 T01880061 57003 IEM_DS3505
ZGSZ,1997-11-17 10:00,ZGSZ 171000Z AUTO 02012KT 6SM 17/07 A3009 RMK T01700070 IEM_DS3505
ZGSZ,1997-11-17 11:00,ZGSZ 171100Z AUTO 02006KT 6SM 16/07 A3009 RMK T01600070 IEM_DS3505
ZGSZ,1997-11-17 12:00,ZGSZ 171200Z AUTO 04008KT 11SM 17/04 A3012 RMK SLP207 T01660036 52021 IEM_DS3505
ZGSZ,1997-11-17 13:00,ZGSZ 171300Z AUTO 02012KT 6SM 15/06 A3012 RMK T01500060 IEM_DS3505
ZGSZ,1997-11-17 14:00,ZGSZ 171400Z AUTO 02008KT 6SM 15/06 A3012 RMK T01500060 IEM_DS3505
ZGSZ,1997-11-17 15:00,ZGSZ 171500Z AUTO 03012KT 6SM 14/05 A3012 RMK T01400050 IEM_DS3505
ZGSZ,1997-11-17 16:00,ZGSZ 171600Z AUTO 02010KT 7SM 14/03 A3012 RMK T01400030 IEM_DS3505
ZGSZ,1997-11-17 18:00,ZGSZ 171800Z AUTO 02008KT 10SM 13/03 RMK SLP206 T01330029 57005 IEM_DS3505
ZGSZ,1997-11-17 21:00,ZGSZ 172100Z AUTO 02008KT 12SM 12/03 A3012 RMK SLP205 T01230030 57001 IEM_DS3505
ZGSZ,1997-11-17 22:00,ZGSZ 172200Z AUTO 01010KT 7SM 12/03 A3012 RMK T01200030 IEM_DS3505
ZGSZ,1997-11-17 23:00,ZGSZ 172300Z AUTO 01008KT 7SM 12/03 A3015 RMK T01200030 IEM_DS3505
ZGSZ,1997-11-18 00:00,ZGSZ 180000Z AUTO 02006KT 12SM 12/03 A3018 RMK SLP227 T01190030 52021 IEM_DS3505
ZGSZ,1997-11-18 01:00,ZGSZ 180100Z AUTO 01008KT 6SM 13/04 A3018 RMK T01300040 IEM_DS3505
ZGSZ,1997-11-18 02:00,ZGSZ 180200Z AUTO 02006KT 6SM 15/04 A3018 RMK T01500040 IEM_DS3505
ZGSZ,1997-11-18 03:00,ZGSZ 180300Z AUTO 36008KT 14SM 16/08 A3018 RMK SLP225 T01610077 57001 IEM_DS3505
ZGSZ,1997-11-18 04:00,ZGSZ 180400Z AUTO 36008KT 6SM 18/06 A3015 RMK T01800060 IEM_DS3505
ZGSZ,1997-11-18 05:00,ZGSZ 180500Z AUTO 36010KT 6SM 19/07 A3012 RMK T01900070 IEM_DS3505
ZGSZ,1997-11-18 06:00,ZGSZ 180600Z AUTO 36004KT 11SM 21/08 A3009 RMK SLP198 T02110076 57027 IEM_DS3505
ZGSZ,1997-11-18 07:00,ZGSZ 180700Z AUTO 35008KT 6SM 20/08 A3009 RMK T02000080 IEM_DS3505
ZGSZ,1997-11-18 08:00,ZGSZ 180800Z AUTO 34008KT 6SM 20/08 A3009 RMK T02000080 IEM_DS3505
ZGSZ,1997-11-18 09:00,ZGSZ 180900Z AUTO 07006KT 10SM 20/09 A3009 RMK SLP200 T02030087 52002 IEM_DS3505
ZGSZ,1997-11-18 11:00,ZGSZ 181100Z AUTO 03006KT 2 1/2SM 18/09 A3012 RMK T01800090 IEM_DS3505
ZGSZ,1997-11-18 12:00,ZGSZ 181200Z AUTO 04002KT 11SM 18/10 A3015 RMK SLP214 T01830101 52014 IEM_DS3505
ZGSZ,1997-11-18 13:00,ZGSZ 181300Z AUTO 09004KT 2SM 17/09 A3015 RMK T01700090 IEM_DS3505
ZGSZ,1997-11-18 14:00,ZGSZ 181400Z AUTO 07004KT 2 1/2SM 16/08 A3015 RMK T01600080 IEM_DS3505
ZGSZ,1997-11-18 15:00,ZGSZ 181500Z AUTO 13004KT 2 1/2SM 17/08 A3015 RMK T01700080 IEM_DS3505
ZGSZ,1997-11-18 18:00,ZGSZ 181800Z AUTO 04006KT 9SM 16/07 RMK SLP212 T01620066 54000 IEM_DS3505
ZGSZ,1997-11-18 21:00,ZGSZ 182100Z AUTO 04006KT 10SM 15/09 A3012 RMK SLP208 T01540094 57004 IEM_DS3505
ZGSZ,1997-11-18 22:00,ZGSZ 182200Z AUTO 05006KT 4SM 16/11 A3015 RMK T01600110 IEM_DS3505
ZGSZ,1997-11-18 23:00,ZGSZ 182300Z AUTO 03006KT 6SM 16/11 A3015 RMK T01600110 IEM_DS3505
ZGSZ,1997-11-19 00:00,ZGSZ 190000Z AUTO 04006KT 10SM 16/09 A3018 RMK SLP226 T01560087 52018 IEM_DS3505
ZGSZ,1997-11-19 01:00,ZGSZ 190100Z AUTO 05006KT 6SM 17/11 A3018 RMK T01700110 IEM_DS3505
ZGSZ,1997-11-19 02:00,ZGSZ 190200Z AUTO 07006KT 6SM 19/11 A3018 RMK T01900110 IEM_DS3505
ZGSZ,1997-11-19 03:00,ZGSZ 190300Z AUTO 07008KT 9SM 20/10 A3018 RMK SLP226 T01970105 54000 IEM_DS3505
ZGSZ,1997-11-19 04:00,ZGSZ 190400Z AUTO 30004KT 6SM 22/12 A3015 RMK T02200120 IEM_DS3505
ZGSZ,1997-11-19 05:00,ZGSZ 190500Z AUTO 29006KT 6SM 22/13 A3012 RMK T02200130 IEM_DS3505
ZGSZ,1997-11-19 06:00,ZGSZ 190600Z AUTO 09006KT 11SM 24/12 A3009 RMK SLP196 T02380116 57029 IEM_DS3505
ZGSZ,1997-11-19 07:00,ZGSZ 190700Z AUTO 29008KT 6SM 24/12 A3006 RMK T02400120 IEM_DS3505
ZGSZ,1997-11-19 08:00,ZGSZ 190800Z AUTO 28006KT 6SM 24/13 A3006 RMK T02400130 IEM_DS3505
ZGSZ,1997-11-19 09:00,ZGSZ 190900Z AUTO 11004KT 16SM 22/11 A3006 RMK SLP193 T02190109 57004 IEM_DS3505
ZGSZ,1997-11-19 10:00,ZGSZ 191000Z AUTO 31002KT 6SM 22/11 A3009 RMK T02200110 IEM_DS3505
ZGSZ,1997-11-19 11:00,ZGSZ 191100Z AUTO 05004KT 2 1/2SM 20/13 A3009 RMK T02000130 IEM_DS3505
ZGSZ,1997-11-19 12:00,ZGSZ 191200Z AUTO 11008KT 11SM 20/13 A3012 RMK SLP208 T02000130 52015 IEM_DS3505
ZGSZ,1997-11-19 13:00,ZGSZ 191300Z AUTO 11004KT 3SM 19/13 A3012 RMK T01900130 IEM_DS3505
ZGSZ,1997-11-19 14:00,ZGSZ 191400Z AUTO 11002KT 3SM 19/14 A3015 RMK T01900140 IEM_DS3505
ZGSZ,1997-11-19 15:00,ZGSZ 191500Z AUTO 10002KT 3SM 19/15 A3012 RMK T01900150 IEM_DS3505
ZGSZ,1997-11-19 18:00,ZGSZ 191800Z AUTO 02004KT 4SM 18/14 RMK SLP201 T01830143 57009 IEM_DS3505
ZGSZ,1997-11-19 21:00,ZGSZ 192100Z AUTO 02004KT 5SM 18/17 A3009 RMK SLP200 T01800170 57001 IEM_DS3505
ZGSZ,1997-11-19 22:00,ZGSZ 192200Z AUTO 05004KT 1 1/2SM 18/16 A3009 RMK T01800160 IEM_DS3505
ZGSZ,1997-11-19 23:00,ZGSZ 192300Z AUTO 01004KT 2SM 18/16 A3012 RMK T01800160 IEM_DS3505
ZGSZ,1997-11-20 00:00,ZGSZ 200000Z AUTO 02006KT 5SM 18/14 A3015 RMK SLP212 T01850145 52011 IEM_DS3505
ZGSZ,1997-11-20 01:00,ZGSZ 200100Z AUTO 06002KT 4SM 20/17 A3015 RMK T02000170 IEM_DS3505
ZGSZ,1997-11-20 02:00,ZGSZ 200200Z AUTO 02004KT 7SM 22/18 A3015 RMK T02200180 IEM_DS3505
ZGSZ,1997-11-20 03:00,ZGSZ 200300Z AUTO 01006KT 3SM 23/18 A3015 RMK T02300180 IEM_DS3505
ZGSZ,1997-11-20 04:00,ZGSZ 200400Z AUTO 17004KT 4SM 26/19 A3012 RMK T02600190 IEM_DS3505
ZGSZ,1997-11-20 05:00,ZGSZ 200500Z AUTO 29008KT 3SM 26/20 A3009 RMK T02600200 IEM_DS3505
ZGSZ,1997-11-20 06:00,ZGSZ 200600Z AUTO 16004KT 11SM 26/19 A3006 RMK SLP187 T02650186 57030 IEM_DS3505
ZGSZ,1997-11-20 07:00,ZGSZ 200700Z AUTO 25004KT 3SM 25/19 A3003 RMK T02500190 IEM_DS3505
ZGSZ,1997-11-20 08:00,ZGSZ 200800Z AUTO 26004KT 3SM 25/19 A3003 RMK T02500190 IEM_DS3505
ZGSZ,1997-11-20 09:00,ZGSZ 200900Z AUTO 09006KT 16SM 24/18 A3003 RMK SLP179 T02450180 57008 IEM_DS3505
ZGSZ,1997-11-20 10:00,ZGSZ 201000Z AUTO 20004KT 3SM 23/20 A3003 RMK T02300200 IEM_DS3505
ZGSZ,1997-11-20 11:00,ZGSZ 201100Z AUTO 17002KT 3SM 22/20 A3003 RMK T02200200 IEM_DS3505
ZGSZ,1997-11-20 12:00,ZGSZ 201200Z AUTO 14004KT 9SM 22/18 A3006 RMK SLP188 T02210179 52009 IEM_DS3505
ZGSZ,1997-11-20 13:00,ZGSZ 201300Z AUTO 00000KT 1SM 21/20 A3009 RMK T02100200 IEM_DS3505
ZGSZ,1997-11-20 14:00,ZGSZ 201400Z AUTO 07002KT 1 1/2SM 20/19 A3009 RMK T02000190 IEM_DS3505
ZGSZ,1997-11-20 18:00,ZGSZ 201800Z AUTO 04004KT 7SM 21/18 RMK SLP185 T02140182 57004 IEM_DS3505
ZGSZ,1997-11-20 21:00,ZGSZ 202100Z AUTO 04004KT 4SM 20/18 A3003 RMK SLP180 T02030179 57005 IEM_DS3505
ZGSZ,1997-11-20 22:00,ZGSZ 202200Z AUTO 07002KT 1 1/2SM 18/18 A3006 RMK T01800180 IEM_DS3505
ZGSZ,1997-11-20 23:00,ZGSZ 202300Z AUTO 05002KT 3SM 18/18 A3006 RMK T01800180 IEM_DS3505
ZGSZ,1997-11-21 00:00,ZGSZ 210000Z AUTO 02004KT 2SM 20/18 A3006 RMK SLP192 T02030181 52012 IEM_DS3505
ZGSZ,1997-11-21 01:00,ZGSZ 210100Z AUTO 35002KT 1 1/2SM 24/21 A3009 RMK T02400210 IEM_DS3505
ZGSZ,1997-11-21 02:00,ZGSZ 210200Z AUTO 35006KT 1 1/4SM 24/21 A3009 RMK T02400210 IEM_DS3505
ZGSZ,1997-11-21 03:00,ZGSZ 210300Z AUTO 20002KT 6SM 26/20 A3009 RMK SLP191 T02550203 57001 IEM_DS3505
ZGSZ,1997-11-21 04:00,ZGSZ 210400Z AUTO 35006KT 1 1/2SM 25/21 A3006 RMK T02500210 IEM_DS3505
ZGSZ,1997-11-21 05:00,ZGSZ 210500Z AUTO 29006KT 2 1/2SM 27/21 A3003 RMK T02700210 IEM_DS3505
ZGSZ,1997-11-21 06:00,ZGSZ 210600Z AUTO 36004KT 4SM 27/21 A3000 RMK SLP164 T02730207 57027 IEM_DS3505
ZGSZ,1997-11-21 07:00,ZGSZ 210700Z AUTO 25004KT 6SM 27/22 A2997 RMK T02700220 IEM_DS3505
ZGSZ,1997-11-21 08:00,ZGSZ 210800Z AUTO 19004KT 6SM 27/21 A2997 RMK T02700210 IEM_DS3505
ZGSZ,1997-11-21 09:00,ZGSZ 210900Z AUTO 22002KT 5SM 27/20 A2997 RMK SLP156 T02660197 57008 IEM_DS3505
ZGSZ,1997-11-21 10:00,ZGSZ 211000Z AUTO 12004KT 3SM 24/22 A2997 RMK T02400220 IEM_DS3505
ZGSZ,1997-11-21 11:00,ZGSZ 211100Z AUTO 16004KT 2 1/2SM 24/21 A2997 RMK T02400210 IEM_DS3505
ZGSZ,1997-11-21 12:00,ZGSZ 211200Z AUTO 11002KT 4SM 24/21 A3000 RMK SLP170 T02380208 52014 IEM_DS3505
ZGSZ,1997-11-21 13:00,ZGSZ 211300Z AUTO 13002KT 1 1/2SM 23/22 A3000 RMK T02300220 IEM_DS3505
ZGSZ,1997-11-21 14:00,ZGSZ 211400Z AUTO 18002KT 1 1/2SM 23/22 A3000 RMK T02300220 IEM_DS3505
ZGSZ,1997-11-21 16:00,ZGSZ 211600Z AUTO 00000KT 1SM 22/22 A3000 RMK T02200220 IEM_DS3505
ZGSZ,1997-11-21 18:00,ZGSZ 211800Z AUTO 07004KT 4SM 22/20 RMK SLP163 T02190204 57007 IEM_DS3505
ZGSZ,1997-11-21 21:00,ZGSZ 212100Z AUTO 07002KT 3SM 21/20 A2997 RMK SLP156 T02130196 57007 IEM_DS3505
ZGSZ,1997-11-21 22:00,ZGSZ 212200Z AUTO 05002KT 1SM 21/21 A2997 RMK T02100210 IEM_DS3505
ZGSZ,1997-11-21 23:00,ZGSZ 212300Z AUTO 09004KT 1SM 21/21 A3000 RMK T02100210 IEM_DS3505
ZGSZ,1997-11-22 00:00,ZGSZ 220000Z AUTO 00000KT 1 1/4SM 21/20 RMK SLP170 T02110197 52014 IEM_DS3505
ZGSZ,1997-11-22 01:00,ZGSZ 220100Z AUTO 08002KT 1 1/2SM 23/23 A3003 RMK T02300230 IEM_DS3505
ZGSZ,1997-11-22 02:00,ZGSZ 220200Z AUTO 29004KT 2SM 24/23 A3003 RMK T02400230 IEM_DS3505
ZGSZ,1997-11-22 03:00,ZGSZ 220300Z AUTO 22004KT 3SM 26/21 A3003 RMK SLP174 T02560211 52004 IEM_DS3505
ZGSZ,1997-11-22 04:00,ZGSZ 220400Z AUTO 28010KT 2SM 25/23 A3000 RMK T02500230 IEM_DS3505
ZGSZ,1997-11-22 05:00,ZGSZ 220500Z AUTO 28006KT 2SM 26/24 A2997 RMK T02600240 IEM_DS3505
ZGSZ,1997-11-22 06:00,ZGSZ 220600Z AUTO 00000KT 4SM 27/22 A2997 RMK SLP150 T02740215 57023 IEM_DS3505
ZGSZ,1997-11-22 07:00,ZGSZ 220700Z AUTO 30006KT 1 1/4SM 27/24 A2994 RMK T02700240 IEM_DS3505
ZGSZ,1997-11-22 08:00,ZGSZ 220800Z AUTO 29006KT 1 1/4SM 27/23 A2994 RMK T02700230 IEM_DS3505
ZGSZ,1997-11-22 09:00,ZGSZ 220900Z AUTO 32004KT 3SM 26/21 A2994 RMK SLP146 T02640213 57005 IEM_DS3505
ZGSZ,1997-11-22 10:00,ZGSZ 221000Z AUTO 33008KT 1 1/4SM 26/24 A2994 RMK T02600240 IEM_DS3505
ZGSZ,1997-11-22 11:00,ZGSZ 221100Z AUTO 03008KT 1 1/2SM 25/22 A2997 RMK T02500220 IEM_DS3505
ZGSZ,1997-11-22 12:00,ZGSZ 221200Z AUTO 02004KT 3SM 25/21 A2997 RMK SLP158 T02470211 52012 IEM_DS3505
ZGSZ,1997-11-22 13:00,ZGSZ 221300Z AUTO 01008KT 1 1/2SM 23/21 A2997 RMK T02300210 IEM_DS3505
ZGSZ,1997-11-22 14:00,ZGSZ 221400Z AUTO 04004KT 1 1/2SM 23/20 A2997 RMK T02300200 IEM_DS3505
ZGSZ,1997-11-22 18:00,ZGSZ 221800Z AUTO 04006KT 7SM 22/17 RMK SLP153 T02170172 57005 IEM_DS3505
ZGSZ,1997-11-22 21:00,ZGSZ 222100Z AUTO 07002KT 7SM 21/17 A2994 RMK SLP151 T02120168 57002 IEM_DS3505
ZGSZ,1997-11-22 22:00,ZGSZ 222200Z AUTO 03006KT 2 1/2SM 21/18 A2997 RMK T02100180 IEM_DS3505
ZGSZ,1997-11-22 23:00,ZGSZ 222300Z AUTO 06002KT 2 1/2SM 21/18 A2997 RMK T02100180 IEM_DS3505
ZGSZ,1997-11-23 00:00,ZGSZ 230000Z AUTO 04004KT 5SM 21/18 A3000 RMK SLP167 T02130176 52016 IEM_DS3505
ZGSZ,1997-11-23 01:00,ZGSZ 230100Z AUTO 03004KT 2SM 22/19 A3000 RMK T02200190 IEM_DS3505
ZGSZ,1997-11-23 02:00,ZGSZ 230200Z AUTO 09004KT 2 1/2SM 23/20 A3000 RMK T02300200 IEM_DS3505
ZGSZ,1997-11-23 03:00,ZGSZ 230300Z AUTO 09004KT 3SM 23/20 A3000 RMK SLP166 T02290200 57001 IEM_DS3505
ZGSZ,1997-11-23 04:00,ZGSZ 230400Z AUTO 02004KT 2SM 22/19 A2997 RMK T02200190 IEM_DS3505
ZGSZ,1997-11-23 05:00,ZGSZ 230500Z AUTO 01002KT 1SM 22/20 A2994 RMK T02200200 IEM_DS3505
ZGSZ,1997-11-23 06:00,ZGSZ 230600Z AUTO 09006KT 4SM 23/20 A2991 RMK SLP135 T02270199 57031 IEM_DS3505
ZGSZ,1997-11-23 07:00,ZGSZ 230700Z AUTO 36006KT 1SM 19/19 A2988 RMK T01900190 IEM_DS3505
ZGSZ,1997-11-23 08:00,ZGSZ 230800Z AUTO 35006KT 1SM 20/19 A2988 RMK T02000190 IEM_DS3505
ZGSZ,1997-11-23 09:00,ZGSZ 230900Z AUTO 27002KT 4SM 22/20 A2991 RMK SLP135 T02240198 54000 IEM_DS3505
ZGSZ,1997-11-23 10:00,ZGSZ 231000Z AUTO 36006KT 1 1/4SM 20/19 A2991 RMK T02000190 IEM_DS3505
ZGSZ,1997-11-23 11:00,ZGSZ 231100Z AUTO 01004KT 1 1/4SM 20/19 A2991 RMK T02000190 IEM_DS3505
ZGSZ,1997-11-23 12:00,ZGSZ 231200Z AUTO 09006KT 3SM 22/20 A2991 RMK SLP141 T02220197 52006 IEM_DS3505
ZGSZ,1997-11-23 13:00,ZGSZ 231300Z AUTO 00000KT 1 1/4SM 21/21 A2994 RMK T02100210 IEM_DS3505
ZGSZ,1997-11-23 14:00,ZGSZ 231400Z AUTO 03004KT 1 1/4SM 21/20 A2994 RMK T02100200 IEM_DS3505
ZGSZ,1997-11-23 15:00,ZGSZ 231500Z AUTO 10006KT 2 1/2SM 22/21 A2994 RMK T02200210 IEM_DS3505
ZGSZ,1997-11-23 16:00,ZGSZ 231600Z AUTO 11008KT 3SM 22/21 A2991 RMK T02200210 IEM_DS3505
ZGSZ,1997-11-23 18:00,ZGSZ 231800Z AUTO 09008KT 5SM 22/19 RMK SLP137 T02160194 57010 IEM_DS3505
ZGSZ,1997-11-23 21:00,ZGSZ 232100Z AUTO 14006KT 7SM 22/19 A2988 RMK SLP127 T02150188 57010 IEM_DS3505
ZGSZ,1997-11-23 22:00,ZGSZ 232200Z AUTO 10008KT 4SM 21/20 A2985 RMK T02100200 IEM_DS3505
ZGSZ,1997-11-23 23:00,ZGSZ 232300Z AUTO 09006KT 4SM 21/20 A2988 RMK T02100200 IEM_DS3505
ZGSZ,1997-11-24 00:00,ZGSZ 240000Z AUTO 09008KT 8SM 22/19 A2991 RMK SLP135 T02190189 52008 IEM_DS3505
ZGSZ,1997-11-24 01:00,ZGSZ 240100Z AUTO 13010KT 6SM 23/21 A2991 RMK T02300210 IEM_DS3505
ZGSZ,1997-11-24 02:00,ZGSZ 240200Z AUTO 12012KT 6SM 25/22 A2991 RMK T02500220 IEM_DS3505
ZGSZ,1997-11-24 03:00,ZGSZ 240300Z AUTO 09006KT 7SM 23/20 A2991 RMK SLP140 T02310197 52005 IEM_DS3505
ZGSZ,1997-11-24 04:00,ZGSZ 240400Z AUTO 12010KT 7SM 27/23 A2988 RMK T02700230 IEM_DS3505
ZGSZ,1997-11-24 05:00,ZGSZ 240500Z AUTO 13012KT 7SM 27/22 A2985 RMK T02700220 IEM_DS3505
ZGSZ,1997-11-24 06:00,ZGSZ 240600Z AUTO 14008KT 6SM 24/21 A2983 RMK SLP114 T02350206 57026 IEM_DS3505
ZGSZ,1997-11-24 07:00,ZGSZ 240700Z AUTO 13012KT 7SM 26/23 A2980 RMK T02600230 IEM_DS3505
ZGSZ,1997-11-24 08:00,ZGSZ 240800Z AUTO 14012KT 7SM 27/23 A2980 RMK T02700230 IEM_DS3505
ZGSZ,1997-11-24 09:00,ZGSZ 240900Z AUTO 16004KT 6SM 24/21 A2980 RMK SLP105 T02390210 57009 IEM_DS3505
ZGSZ,1997-11-24 10:00,ZGSZ 241000Z AUTO 12010KT 7SM 25/23 A2980 RMK T02500230 IEM_DS3505
ZGSZ,1997-11-24 11:00,ZGSZ 241100Z AUTO 12010KT 7SM 24/23 A2980 RMK T02400230 IEM_DS3505
ZGSZ,1997-11-24 12:00,ZGSZ 241200Z AUTO 09006KT 3SM 24/21 A2983 RMK SLP111 T02370214 52006 IEM_DS3505
ZGSZ,1997-11-24 13:00,ZGSZ 241300Z AUTO 12006KT 4SM 24/23 A2983 RMK T02400230 IEM_DS3505
ZGSZ,1997-11-24 14:00,ZGSZ 241400Z AUTO 12010KT 4SM 24/23 A2983 RMK T02400230 IEM_DS3505
ZGSZ,1997-11-24 15:00,ZGSZ 241500Z AUTO 11006KT 4SM 25/23 A2983 RMK T02500230 IEM_DS3505
ZGSZ,1997-11-24 16:00,ZGSZ 241600Z AUTO 13006KT 3SM 24/23 A2983 RMK T02400230 IEM_DS3505
ZGSZ,1997-11-24 17:00,ZGSZ 241700Z AUTO 11004KT 3SM 24/23 A2983 RMK T02400230 IEM_DS3505
ZGSZ,1997-11-24 18:00,ZGSZ 241800Z AUTO 09002KT 4SM 24/22 RMK SLP103 T02370219 57014 IEM_DS3505
ZGSZ,1997-11-24 21:00,ZGSZ 242100Z AUTO 00000KT 4SM 24/22 A2980 RMK SLP099 T02350223 57004 IEM_DS3505
ZGSZ,1997-11-24 22:00,ZGSZ 242200Z AUTO 14004KT 2 1/2SM 23/23 A2980 RMK T02300230 IEM_DS3505
ZGSZ,1997-11-24 23:00,ZGSZ 242300Z AUTO 14006KT 3SM 23/23 A2983 RMK T02300230 IEM_DS3505
ZGSZ,1997-11-25 00:00,ZGSZ 250000Z AUTO 00000KT 7SM 24/22 A2985 RMK 60000 SLP116 T02360216 52017 IEM_DS3505
ZGSZ,1997-11-25 01:00,ZGSZ 250100Z AUTO 16012KT 7SM 26/25 A2985 RMK T02600250 IEM_DS3505
ZGSZ,1997-11-25 02:00,ZGSZ 250200Z AUTO 16012KT 7SM 27/25 A2985 RMK T02700250 IEM_DS3505
ZGSZ,1997-11-25 03:00,ZGSZ 250300Z AUTO 22008KT 16SM 28/22 A2985 RMK SLP118 T02760225 52002 IEM_DS3505
ZGSZ,1997-11-25 04:00,ZGSZ 250400Z AUTO 17014KT 6SM 28/25 A2983 RMK T02800250 IEM_DS3505
ZGSZ,1997-11-25 05:00,ZGSZ 250500Z AUTO 19012KT 7SM 28/26 A2983 RMK T02800260 IEM_DS3505
ZGSZ,1997-11-25 06:00,ZGSZ 250600Z AUTO 22008KT 19SM 28/22 A2980 RMK SLP097 T02830221 57021 IEM_DS3505
ZGSZ,1997-11-25 07:00,ZGSZ 250700Z AUTO 18014KT 7SM 28/25 A2977 RMK T02800250 IEM_DS3505
ZGSZ,1997-11-25 09:00,ZGSZ 250900Z AUTO 22012KT 19SM 27/21 A2977 RMK SLP092 T02710213 57005 IEM_DS3505
ZGSZ,1997-11-25 10:00,ZGSZ 251000Z AUTO 18014KT 7SM 26/24 A2980 RMK T02600240 IEM_DS3505
ZGSZ,1997-11-25 11:00,ZGSZ 251100Z AUTO 19012KT 7SM 25/25 A2983 RMK T02500250 IEM_DS3505
ZGSZ,1997-11-25 12:00,ZGSZ 251200Z AUTO 20004KT 16SM 26/22 A2983 RMK SLP111 T02610223 52019 IEM_DS3505
ZGSZ,1997-11-25 13:00,ZGSZ 251300Z AUTO 18010KT 6SM 25/25 A2985 RMK T02500250 IEM_DS3505
ZGSZ,1997-11-25 14:00,ZGSZ 251400Z AUTO 17010KT 6SM 25/25 A2988 RMK T02500250 IEM_DS3505
ZGSZ,1997-11-25 15:00,ZGSZ 251500Z AUTO 17010KT 6SM 25/25 A2988 RMK T02500250 IEM_DS3505
ZGSZ,1997-11-25 16:00,ZGSZ 251600Z AUTO 16008KT 6SM 25/25 A2988 RMK T02500250 IEM_DS3505
ZGSZ,1997-11-25 17:00,ZGSZ 251700Z AUTO 16006KT 7SM 25/25 A2988 RMK T02500250 IEM_DS3505
ZGSZ,1997-11-25 18:00,ZGSZ 251800Z AUTO 00000KT 13SM 25/23 RMK SLP126 T02520229 57001 IEM_DS3505
ZGSZ,1997-11-25 21:00,ZGSZ 252100Z AUTO 00000KT 11SM 24/23 A2985 RMK 70000 SLP124 T02450226 57002 IEM_DS3505
ZGSZ,1997-11-25 22:00,ZGSZ 252200Z AUTO 13004KT 3SM 24/24 A2988 RMK T02400240 IEM_DS3505
ZGSZ,1997-11-25 23:00,ZGSZ 252300Z AUTO 14004KT 6SM 24/24 A2991 RMK T02400240 IEM_DS3505
ZGSZ,1997-11-26 00:00,ZGSZ 260000Z AUTO 00000KT 11SM 24/23 A2991 RMK SLP143 T02430227 52019 IEM_DS3505
ZGSZ,1997-11-26 01:00,ZGSZ 260100Z AUTO 16010KT 4SM 26/25 A2994 RMK T02600250 IEM_DS3505
ZGSZ,1997-11-26 02:00,ZGSZ 260200Z AUTO 17006KT 7SM 27/26 A2997 RMK T02700260 IEM_DS3505
ZGSZ,1997-11-26 03:00,ZGSZ 260300Z AUTO 25006KT 12SM 27/23 A2997 RMK SLP152 T02700226 52009 IEM_DS3505
ZGSZ,1997-11-26 04:00,ZGSZ 260400Z AUTO 18008KT 7SM 28/26 A2994 RMK T02800260 IEM_DS3505
ZGSZ,1997-11-26 05:00,ZGSZ 260500Z AUTO 19008KT 7SM 27/25 A2991 RMK T02700250 IEM_DS3505
ZGSZ,1997-11-26 06:00,ZGSZ 260600Z AUTO 22006KT 16SM 30/22 A2988 RMK SLP130 T03000216 57022 IEM_DS3505
ZGSZ,1997-11-26 07:00,ZGSZ 260700Z AUTO 18006KT 7SM 27/25 A2988 RMK T02700250 IEM_DS3505
ZGSZ,1997-11-26 09:00,ZGSZ 260900Z AUTO 25004KT 10SM 27/22 RMK SLP133 T02740224 52003 IEM_DS3505
ZGSZ,1997-11-26 10:00,ZGSZ 261000Z AUTO 17004KT 7SM 26/25 A2991 RMK T02600250 IEM_DS3505
ZGSZ,1997-11-26 11:00,ZGSZ 261100Z AUTO 23002KT 2SM 24/24 A2994 RMK T02400240 IEM_DS3505
ZGSZ,1997-11-26 12:00,ZGSZ 261200Z AUTO 04006KT 4SM 24/21 A2994 RMK SLP149 T02410206 52015 IEM_DS3505
ZGSZ,1997-11-26 13:00,ZGSZ 261300Z AUTO 09006KT 2 1/2SM 23/23 A2997 RMK T02300230 IEM_DS3505
ZGSZ,1997-11-26 14:00,ZGSZ 261400Z AUTO 06004KT 2 1/2SM 23/22 A2997 RMK T02300220 IEM_DS3505
ZGSZ,1997-11-26 15:00,ZGSZ 261500Z AUTO 09008KT 2 1/2SM 23/22 A2997 RMK T02300220 IEM_DS3505
ZGSZ,1997-11-26 21:00,ZGSZ 262100Z AUTO 04002KT 7SM 23/20 A2991 RMK SLP143 T02280205 IEM_DS3505
ZGSZ,1997-11-26 22:00,ZGSZ 262200Z AUTO 10006KT 1 1/2SM 24/23 A2991 RMK T02400230 IEM_DS3505
ZGSZ,1997-11-26 23:00,ZGSZ 262300Z AUTO 12002KT 3SM 23/23 A2994 RMK T02300230 IEM_DS3505
ZGSZ,1997-11-27 00:00,ZGSZ 270000Z AUTO 14006KT 11SM 25/22 A2997 RMK 60000 SLP160 T02480221 52016 IEM_DS3505
ZGSZ,1997-11-27 01:00,ZGSZ 270100Z AUTO 13010KT 7SM 25/25 A2997 RMK T02500250 IEM_DS3505
ZGSZ,1997-11-27 02:00,ZGSZ 270200Z AUTO 14010KT 7SM 26/24 A3000 RMK T02600240 IEM_DS3505
ZGSZ,1997-11-27 03:00,ZGSZ 270300Z AUTO 14006KT 16SM 27/21 A3000 RMK SLP167 T02710211 52008 IEM_DS3505
ZGSZ,1997-11-27 04:00,ZGSZ 270400Z AUTO 16014KT 7SM 28/24 A2997 RMK T02800240 IEM_DS3505
ZGSZ,1997-11-27 05:00,ZGSZ 270500Z AUTO 16014KT 7SM 28/23 A2994 RMK T02800230 IEM_DS3505
ZGSZ,1997-11-27 06:00,ZGSZ 270600Z AUTO 16004KT 19SM 28/22 A2994 RMK SLP145 T02770215 57022 IEM_DS3505
ZGSZ,1997-11-27 07:00,ZGSZ 270700Z AUTO 17014KT 7SM 28/23 A2991 RMK T02800230 IEM_DS3505
ZGSZ,1997-11-27 08:00,ZGSZ 270800Z AUTO 17014KT 7SM 27/24 A2991 RMK T02700240 IEM_DS3505
ZGSZ,1997-11-27 09:00,ZGSZ 270900Z AUTO 14008KT 19SM 26/21 A2991 RMK SLP145 T02650213 54000 IEM_DS3505
ZGSZ,1997-11-27 10:00,ZGSZ 271000Z AUTO 15010KT 7SM 26/23 A2994 RMK T02600230 IEM_DS3505
ZGSZ,1997-11-27 11:00,ZGSZ 271100Z AUTO 16006KT 6SM 25/23 A2997 RMK T02500230 IEM_DS3505
ZGSZ,1997-11-27 12:00,ZGSZ 271200Z AUTO 11008KT 17SM 25/22 A2997 RMK SLP156 T02540215 52011 IEM_DS3505
ZGSZ,1997-11-27 13:00,ZGSZ 271300Z AUTO 15008KT 6SM 25/23 A2997 RMK T02500230 IEM_DS3505
ZGSZ,1997-11-27 14:00,ZGSZ 271400Z AUTO 14008KT 6SM 25/23 A2997 RMK T02500230 IEM_DS3505
ZGSZ,1997-11-27 15:00,ZGSZ 271500Z AUTO 12010KT 6SM 25/23 A2997 RMK T02500230 IEM_DS3505
ZGSZ,1997-11-27 16:00,ZGSZ 271600Z AUTO 10004KT 6SM 24/22 A3000 RMK T02400220 IEM_DS3505
ZGSZ,1997-11-27 18:00,ZGSZ 271800Z AUTO 14006KT 12SM 24/22 RMK SLP158 T02380217 57004 IEM_DS3505
ZGSZ,1997-11-27 21:00,ZGSZ 272100Z AUTO 09006KT 9SM 23/22 RMK 70000 SLP156 T02340216 57002 IEM_DS3505
ZGSZ,1997-11-27 22:00,ZGSZ 272200Z AUTO 11006KT 6SM 23/22 A2997 RMK T02300220 IEM_DS3505
ZGSZ,1997-11-27 23:00,ZGSZ 272300Z AUTO 13006KT 4SM 23/22 A2997 RMK T02300220 IEM_DS3505
ZGSZ,1997-11-28 00:00,ZGSZ 280000Z AUTO 09004KT 5SM 24/22 A3000 RMK SLP170 T02360215 52013 IEM_DS3505
ZGSZ,1997-11-28 01:00,ZGSZ 280100Z AUTO 10008KT 3SM 25/23 A3000 RMK T02500230 IEM_DS3505
ZGSZ,1997-11-28 02:00,ZGSZ 280200Z AUTO 12006KT 7SM 26/24 A3000 RMK T02600240 IEM_DS3505
ZGSZ,1997-11-28 03:00,ZGSZ 280300Z AUTO 14006KT 7SM 26/22 A3000 RMK SLP172 T02570218 52002 IEM_DS3505
ZGSZ,1997-11-28 04:00,ZGSZ 280400Z AUTO 19008KT 7SM 28/24 A3000 RMK T02800240 IEM_DS3505
ZGSZ,1997-11-28 05:00,ZGSZ 280500Z AUTO 20008KT 7SM 28/25 A2997 RMK T02800250 IEM_DS3505
ZGSZ,1997-11-28 06:00,ZGSZ 280600Z AUTO 18004KT 19SM 27/21 A2994 RMK T02720211 57022 IEM_DS3505
ZGSZ,1997-11-28 07:00,ZGSZ 280700Z AUTO 20008KT 6SM 28/24 A2991 RMK T02800240 IEM_DS3505
ZGSZ,1997-11-28 08:00,ZGSZ 280800Z AUTO 19010KT 6SM 28/24 A2991 RMK T02800240 IEM_DS3505
ZGSZ,1997-11-28 09:00,ZGSZ 280900Z AUTO 09006KT 16SM 26/22 A2991 RMK SLP141 T02600215 57008 IEM_DS3505
ZGSZ,1997-11-28 10:00,ZGSZ 281000Z AUTO 18008KT 6SM 26/23 A2994 RMK T02600230 IEM_DS3505
ZGSZ,1997-11-28 11:00,ZGSZ 281100Z AUTO 17008KT 6SM 25/23 A2994 RMK T02500230 IEM_DS3505
ZGSZ,1997-11-28 12:00,ZGSZ 281200Z AUTO 09004KT 9SM 25/23 A2997 RMK SLP157 T02500230 52015 IEM_DS3505
ZGSZ,1997-11-28 13:00,ZGSZ 281300Z AUTO 12006KT 6SM 24/23 A2997 RMK T02400230 IEM_DS3505
ZGSZ,1997-11-28 14:00,ZGSZ 281400Z AUTO 10006KT 6SM 24/23 A2997 RMK T02400230 IEM_DS3505
ZGSZ,1997-11-28 18:00,ZGSZ 281800Z AUTO 09002KT 8SM 24/22 RMK SLP164 T02350217 57001 IEM_DS3505
ZGSZ,1997-11-28 20:00,ZGSZ 282000Z AUTO 09004KT 3SM 22/22 A2997 RMK T02200220 IEM_DS3505
ZGSZ,1997-11-28 21:00,ZGSZ 282100Z AUTO 02004KT 7SM 23/21 A2997 RMK SLP162 T02270213 57003 IEM_DS3505
ZGSZ,1997-11-28 23:00,ZGSZ 282300Z AUTO 09002KT 4SM 22/22 A3000 RMK T02200220 IEM_DS3505
ZGSZ,1997-11-29 00:00,ZGSZ 290000Z AUTO 09002KT 4SM 23/21 A3003 RMK SLP175 T02260212 52013 IEM_DS3505
ZGSZ,1997-11-29 02:00,ZGSZ 290200Z AUTO 36010KT 2SM 21/20 A3009 RMK T02100200 IEM_DS3505
ZGSZ,1997-11-29 03:00,ZGSZ 290300Z AUTO 02008KT 2SM 22/20 A3009 RMK SLP192 T02230198 52017 IEM_DS3505
ZGSZ,1997-11-29 04:00,ZGSZ 290400Z AUTO 36010KT 2 1/2SM 20/19 A3009 RMK T02000190 IEM_DS3505
ZGSZ,1997-11-29 05:00,ZGSZ 290500Z AUTO 36010KT 7SM 20/18 A3003 RMK T02000180 IEM_DS3505
ZGSZ,1997-11-29 06:00,ZGSZ 290600Z AUTO 04010KT 9SM 23/16 A3003 RMK SLP169 T02290156 57023 IEM_DS3505
ZGSZ,1997-11-29 07:00,ZGSZ 290700Z AUTO 35008KT 7SM 21/18 A3000 RMK T02100180 IEM_DS3505
ZGSZ,1997-11-29 08:00,ZGSZ 290800Z AUTO 35010KT 7SM 21/18 A3000 RMK T02100180 IEM_DS3505
ZGSZ,1997-11-29 09:00,ZGSZ 290900Z AUTO 04006KT 11SM 22/15 A3003 RMK SLP168 T02250150 57001 IEM_DS3505
ZGSZ,1997-11-29 10:00,ZGSZ 291000Z AUTO 35010KT 7SM 20/17 A3003 RMK T02000170 IEM_DS3505
ZGSZ,1997-11-29 11:00,ZGSZ 291100Z AUTO 36008KT 7SM 20/17 A3006 RMK T02000170 IEM_DS3505
ZGSZ,1997-11-29 13:00,ZGSZ 291300Z AUTO 33008KT 7SM 20/16 A3009 RMK T02000160 IEM_DS3505
ZGSZ,1997-11-29 14:00,ZGSZ 291400Z AUTO 34006KT 3SM 19/16 A3012 RMK T01900160 IEM_DS3505
ZGSZ,1997-11-29 18:00,ZGSZ 291800Z AUTO 02010KT 12SM 18/12 RMK SLP191 T01820123 57004 IEM_DS3505
ZGSZ,1997-11-29 21:00,ZGSZ 292100Z AUTO 04006KT 14SM 18/12 A3012 RMK SLP202 T01760124 52005 IEM_DS3505
ZGSZ,1997-11-29 22:00,ZGSZ 292200Z AUTO 02008KT 7SM 17/14 A3012 RMK T01700140 IEM_DS3505
ZGSZ,1997-11-29 23:00,ZGSZ 292300Z AUTO 01004KT 7SM 17/14 A3012 RMK T01700140 IEM_DS3505
ZGSZ,1997-11-30 00:00,ZGSZ 300000Z AUTO 04004KT 9SM 18/12 A3015 RMK SLP210 T01760122 52007 IEM_DS3505
ZGSZ,1997-11-30 01:00,ZGSZ 300100Z AUTO 35006KT 7SM 17/14 A3015 RMK T01700140 IEM_DS3505
ZGSZ,1997-11-30 02:00,ZGSZ 300200Z AUTO 03008KT 7SM 18/14 A3018 RMK T01800140 IEM_DS3505
ZGSZ,1997-11-30 03:00,ZGSZ 300300Z AUTO 02008KT 8SM 19/13 A3015 RMK SLP218 T01880132 52008 IEM_DS3505
ZGSZ,1997-11-30 04:00,ZGSZ 300400Z AUTO 03008KT 7SM 20/15 A3012 RMK T02000150 IEM_DS3505
ZGSZ,1997-11-30 05:00,ZGSZ 300500Z AUTO 01006KT 7SM 21/16 A3009 RMK T02100160 IEM_DS3505
ZGSZ,1997-11-30 06:00,ZGSZ 300600Z AUTO 32004KT 8SM 22/15 A3006 RMK SLP189 T02150153 57028 IEM_DS3505
ZGSZ,1997-11-30 07:00,ZGSZ 300700Z AUTO 34010KT 7SM 21/16 A3006 RMK T02100160 IEM_DS3505
ZGSZ,1997-11-30 08:00,ZGSZ 300800Z AUTO 02008KT 7SM 21/17 A3003 RMK T02100170 IEM_DS3505
ZGSZ,1997-11-30 09:00,ZGSZ 300900Z AUTO 04006KT 7SM 21/15 A3006 RMK SLP186 T02070151 57004 IEM_DS3505
ZGSZ,1997-11-30 10:00,ZGSZ 301000Z AUTO 36006KT 3SM 20/17 A3006 RMK T02000170 IEM_DS3505
ZGSZ,1997-11-30 11:00,ZGSZ 301100Z AUTO 36008KT 3SM 19/16 A3009 RMK T01900160 IEM_DS3505
ZGSZ,1997-11-30 12:00,ZGSZ 301200Z AUTO 04004KT 6SM 20/15 A3009 RMK SLP199 T02010154 52013 IEM_DS3505
ZGSZ,1997-11-30 13:00,ZGSZ 301300Z AUTO 36004KT 2 1/2SM 19/16 A3012 RMK T01900160 IEM_DS3505
ZGSZ,1997-11-30 14:00,ZGSZ 301400Z AUTO 36008KT 4SM 19/16 A3012 RMK T01900160 IEM_DS3505
ZGSZ,1997-11-30 16:00,ZGSZ 301600Z AUTO 35006KT 3SM 18/16 A3009 RMK T01800160 IEM_DS3505
ZGSZ,1997-11-30 18:00,ZGSZ 301800Z AUTO 36004KT 7SM 19/15 RMK SLP203 T01940152 54000 IEM_DS3505
ZGSZ,1997-11-30 21:00,ZGSZ 302100Z AUTO 04006KT 6SM 19/15 A3009 RMK SLP200 T01920151 57003 IEM_DS3505
ZGSZ,1997-11-30 22:00,ZGSZ 302200Z AUTO 33006KT 6SM 18/16 A3012 RMK T01800160 IEM_DS3505
ZGSZ,1997-11-30 23:00,ZGSZ 302300Z AUTO 35008KT 6SM 18/16 A3015 RMK T01800160 IEM_DS3505
ZGSZ,1997-12-01 00:00,ZGSZ 010000Z AUTO 36004KT 6SM 19/15 A3015 RMK SLP221 T01880151 52020 IEM_DS3505
ZGSZ,1997-12-01 01:00,ZGSZ 010100Z AUTO 36006KT 3SM 20/18 A3015 RMK T02000180 IEM_DS3505
ZGSZ,1997-12-01 02:00,ZGSZ 010200Z AUTO 33006KT 3SM 22/18 A3018 RMK T02200180 IEM_DS3505
ZGSZ,1997-12-01 03:00,ZGSZ 010300Z AUTO 36006KT 6SM 23/17 A3015 RMK SLP217 T02280166 57003 IEM_DS3505
ZGSZ,1997-12-01 04:00,ZGSZ 010400Z AUTO 34010KT 3SM 24/19 A3012 RMK T02400190 IEM_DS3505
ZGSZ,1997-12-01 05:00,ZGSZ 010500Z AUTO 35008KT 3SM 25/18 A3012 RMK T02500180 IEM_DS3505
ZGSZ,1997-12-01 06:00,ZGSZ 010600Z AUTO 04006KT 3SM 27/17 A3009 RMK SLP189 T02660167 57028 IEM_DS3505
ZGSZ,1997-12-01 08:00,ZGSZ 010800Z AUTO 36008KT 4SM 25/19 A3009 RMK T02500190 IEM_DS3505
ZGSZ,1997-12-01 09:00,ZGSZ 010900Z AUTO 34006KT 6SM 25/17 A3012 RMK SLP192 T02490170 52003 IEM_DS3505
ZGSZ,1997-12-01 10:00,ZGSZ 011000Z AUTO 33016KT 7SM 20/16 A3015 RMK T02000160 IEM_DS3505
ZGSZ,1997-12-01 11:00,ZGSZ 011100Z AUTO 36014KT 7SM 19/15 A3018 RMK T01900150 IEM_DS3505
ZGSZ,1997-12-01 12:00,ZGSZ 011200Z AUTO 04014KT 9SM 18/13 A3021 RMK SLP233 T01830128 52040 IEM_DS3505
ZGSZ,1997-12-01 13:00,ZGSZ 011300Z AUTO 01014KT 7SM 17/12 A3024 RMK T01700120 IEM_DS3505
ZGSZ,1997-12-01 14:00,ZGSZ 011400Z AUTO 01016KT 7SM 16/11 A3024 RMK T01600110 IEM_DS3505
ZGSZ,1997-12-01 18:00,ZGSZ 011800Z AUTO 02012KT 16SM 15/08 RMK SLP253 T01520075 52002 IEM_DS3505
ZGSZ,1997-12-01 21:00,ZGSZ 012100Z AUTO 02012KT 16SM 14/06 A3027 RMK SLP248 T01400063 57005 IEM_DS3505
ZGSZ,1997-12-01 23:00,ZGSZ 012300Z AUTO 01016KT 7SM 13/10 A3030 RMK T01300100 IEM_DS3505
ZGSZ,1997-12-02 00:00,ZGSZ 020000Z AUTO 02012KT 17SM 14/06 A3033 RMK SLP266 T01360065 52018 IEM_DS3505
ZGSZ,1997-12-02 01:00,ZGSZ 020100Z AUTO 01014KT 7SM 13/09 A3033 RMK T01300090 IEM_DS3505
ZGSZ,1997-12-02 02:00,ZGSZ 020200Z AUTO 02014KT 7SM 14/08 A3033 RMK T01400080 IEM_DS3505
ZGSZ,1997-12-02 03:00,ZGSZ 020300Z AUTO 04014KT 14SM 14/06 A3033 RMK SLP278 T01390064 52011 IEM_DS3505
ZGSZ,1997-12-02 04:00,ZGSZ 020400Z AUTO 02012KT 7SM 14/08 A3033 RMK T01400080 IEM_DS3505
ZGSZ,1997-12-02 05:00,ZGSZ 020500Z AUTO 02012KT 7SM 14/09 A3027 RMK T01400090 IEM_DS3505
ZGSZ,1997-12-02 06:00,ZGSZ 020600Z AUTO 04016KT 14SM 14/07 A3024 RMK SLP249 T01450067 57029 IEM_DS3505
ZGSZ,1997-12-02 07:00,ZGSZ 020700Z AUTO 02010KT 7SM 15/09 A3024 RMK T01500090 IEM_DS3505
ZGSZ,1997-12-02 08:00,ZGSZ 020800Z AUTO 02012KT 7SM 15/09 A3024 RMK T01500090 IEM_DS3505
ZGSZ,1997-12-02 09:00,ZGSZ 020900Z AUTO 04010KT 12SM 14/07 A3024 RMK SLP251 T01430069 52002 IEM_DS3505
ZGSZ,1997-12-02 10:00,ZGSZ 021000Z AUTO 03014KT 7SM 14/09 A3027 RMK T01400090 IEM_DS3505
ZGSZ,1997-12-02 11:00,ZGSZ 021100Z AUTO 02012KT 7SM 14/09 A3027 RMK T01400090 IEM_DS3505
ZGSZ,1997-12-02 12:00,ZGSZ 021200Z AUTO 04010KT 12SM 14/06 RMK SLP268 T01350064 52017 IEM_DS3505
ZGSZ,1997-12-02 13:00,ZGSZ 021300Z AUTO 03008KT 7SM 13/09 A3030 RMK T01300090 IEM_DS3505
ZGSZ,1997-12-02 14:00,ZGSZ 021400Z AUTO 03008KT 7SM 13/08 A3030 RMK T01300080 IEM_DS3505
ZGSZ,1997-12-02 15:00,ZGSZ 021500Z AUTO 02010KT 7SM 13/08 A3030 RMK T01300080 IEM_DS3505
ZGSZ,1997-12-02 18:00,ZGSZ 021800Z AUTO 36008KT 8SM 13/07 RMK SLP263 T01260067 57008 IEM_DS3505
ZGSZ,1997-12-02 21:00,ZGSZ 022100Z AUTO 04006KT 7SM 12/07 A3027 RMK SLP252 T01220070 57011 IEM_DS3505
ZGSZ,1997-12-02 22:00,ZGSZ 022200Z AUTO 02010KT 6SM 12/09 A3027 RMK T01200090 IEM_DS3505
ZGSZ,1997-12-02 23:00,ZGSZ 022300Z AUTO 01010KT 7SM 12/09 A3030 RMK T01200090 IEM_DS3505
ZGSZ,1997-12-03 00:00,ZGSZ 030000Z AUTO 36008KT 8SM 12/07 A3033 RMK SLP273 T01250071 52021 IEM_DS3505
ZGSZ,1997-12-03 01:00,ZGSZ 030100Z AUTO 02010KT 6SM 13/09 A3033 RMK T01300090 IEM_DS3505
ZGSZ,1997-12-03 02:00,ZGSZ 030200Z AUTO 36012KT 7SM 13/09 A3033 RMK T01300090 IEM_DS3505
ZGSZ,1997-12-03 03:00,ZGSZ 030300Z AUTO 04008KT 8SM 15/08 A3033 RMK SLP273 T01470079 54000 IEM_DS3505
ZGSZ,1997-12-03 04:00,ZGSZ 030400Z AUTO 36012KT 6SM 15/10 A3030 RMK T01500100 IEM_DS3505
ZGSZ,1997-12-03 05:00,ZGSZ 030500Z AUTO 36010KT 6SM 16/10 A3027 RMK T01600100 IEM_DS3505
ZGSZ,1997-12-03 06:00,ZGSZ 030600Z AUTO 04006KT 7SM 17/09 A3024 RMK SLP250 T01720087 57023 IEM_DS3505
ZGSZ,1997-12-03 07:00,ZGSZ 030700Z AUTO 36012KT 6SM 16/10 A3024 RMK T01600100 IEM_DS3505
ZGSZ,1997-12-03 09:00,ZGSZ 030900Z AUTO 04008KT 7SM 16/09 A3024 RMK SLP246 T01610087 57004 IEM_DS3505
ZGSZ,1997-12-03 10:00,ZGSZ 031000Z AUTO 36014KT 7SM 14/10 A3024 RMK T01400100 IEM_DS3505
ZGSZ,1997-12-03 11:00,ZGSZ 031100Z AUTO 02010KT 7SM 13/09 A3027 RMK T01300090 IEM_DS3505
ZGSZ,1997-12-03 12:00,ZGSZ 031200Z AUTO 04010KT 6SM 13/07 A3030 RMK SLP261 T01310073 52015 IEM_DS3505
ZGSZ,1997-12-03 13:00,ZGSZ 031300Z AUTO 01008KT 7SM 13/10 A3030 RMK T01300100 IEM_DS3505
ZGSZ,1997-12-03 14:00,ZGSZ 031400Z AUTO 01006KT 7SM 13/10 A3030 RMK T01300100 IEM_DS3505
ZGSZ,1997-12-03 21:00,ZGSZ 032100Z AUTO 36006KT 10SM 13/07 A3024 RMK SLP250 T01270073 57006 IEM_DS3505
ZGSZ,1997-12-03 22:00,ZGSZ 032200Z AUTO 02008KT 7SM 13/09 A3027 RMK T01300090 IEM_DS3505
ZGSZ,1997-12-03 23:00,ZGSZ 032300Z AUTO 01006KT 7SM 13/09 A3027 RMK T01300090 IEM_DS3505
ZGSZ,1997-12-04 00:00,ZGSZ 040000Z AUTO 02006KT 9SM 13/08 A3027 RMK SLP260 T01280077 52010 IEM_DS3505
ZGSZ,1997-12-04 01:00,ZGSZ 040100Z AUTO 36008KT 7SM 13/09 A3030 RMK T01300090 IEM_DS3505
ZGSZ,1997-12-04 02:00,ZGSZ 040200Z AUTO 03006KT 7SM 14/10 A3030 RMK T01400100 IEM_DS3505
ZGSZ,1997-12-04 03:00,ZGSZ 040300Z AUTO 04006KT 7SM 15/08 A3027 RMK SLP262 T01460084 52002 IEM_DS3505
ZGSZ,1997-12-04 04:00,ZGSZ 040400Z AUTO 07006KT 7SM 18/11 A3024 RMK T01800110 IEM_DS3505
ZGSZ,1997-12-04 05:00,ZGSZ 040500Z AUTO 07004KT 6SM 19/12 A3021 RMK T01900120 IEM_DS3505
ZGSZ,1997-12-04 06:00,ZGSZ 040600Z AUTO 04004KT 6SM 19/11 A3015 RMK SLP225 T01880109 57036 IEM_DS3505
ZGSZ,1997-12-04 07:00,ZGSZ 040700Z AUTO 25004KT 6SM 21/14 A3015 RMK T02100140 IEM_DS3505
ZGSZ,1997-12-04 08:00,ZGSZ 040800Z AUTO 26002KT 6SM 22/14 A3012 RMK T02200140 IEM_DS3505
ZGSZ,1997-12-04 09:00,ZGSZ 040900Z AUTO 07004KT 6SM 21/12 A3015 RMK SLP217 T02080123 57008 IEM_DS3505
ZGSZ,1997-12-04 10:00,ZGSZ 041000Z AUTO 32002KT 4SM 19/14 A3015 RMK T01900140 IEM_DS3505
ZGSZ,1997-12-04 11:00,ZGSZ 041100Z AUTO 09004KT 3SM 19/14 A3018 RMK T01900140 IEM_DS3505
ZGSZ,1997-12-04 12:00,ZGSZ 041200Z AUTO 07004KT 7SM 18/14 A3018 RMK SLP231 T01850138 52014 IEM_DS3505
ZGSZ,1997-12-04 13:00,ZGSZ 041300Z AUTO 02002KT 3SM 17/14 A3021 RMK T01700140 IEM_DS3505
ZGSZ,1997-12-04 14:00,ZGSZ 041400Z AUTO 13004KT 3SM 17/13 A3021 RMK T01700130 IEM_DS3505
ZGSZ,1997-12-04 18:00,ZGSZ 041800Z AUTO 04004KT 5SM 17/12 RMK SLP223 T01720121 57013 IEM_DS3505
ZGSZ,1997-12-04 21:00,ZGSZ 042100Z AUTO 04004KT 6SM 17/13 A3015 RMK SLP223 T01680127 54000 IEM_DS3505
ZGSZ,1997-12-04 22:00,ZGSZ 042200Z AUTO 35004KT 7SM 17/14 A3018 RMK T01700140 IEM_DS3505
ZGSZ,1997-12-05 00:00,ZGSZ 050000Z AUTO 04006KT 5SM 17/13 A3018 RMK SLP228 T01670133 52005 IEM_DS3505
ZGSZ,1997-12-05 01:00,ZGSZ 050100Z AUTO 34006KT 2 1/2SM 18/15 A3021 RMK T01800150 IEM_DS3505
ZGSZ,1997-12-05 02:00,ZGSZ 050200Z AUTO 34008KT 2 1/2SM 18/16 A3021 RMK T01800160 IEM_DS3505
ZGSZ,1997-12-05 03:00,ZGSZ 050300Z AUTO 36004KT 5SM 20/14 A3021 RMK SLP233 T01950145 52005 IEM_DS3505
ZGSZ,1997-12-05 04:00,ZGSZ 050400Z AUTO 35008KT 2 1/2SM 20/15 A3018 RMK T02000150 IEM_DS3505
ZGSZ,1997-12-05 05:00,ZGSZ 050500Z AUTO 35010KT 2 1/2SM 20/16 A3015 RMK T02000160 IEM_DS3505
ZGSZ,1997-12-05 06:00,ZGSZ 050600Z AUTO 04004KT 4SM 20/15 A3012 RMK SLP210 T02030147 57023 IEM_DS3505
ZGSZ,1997-12-05 07:00,ZGSZ 050700Z AUTO 36006KT 3SM 21/16 A3012 RMK T02100160 IEM_DS3505
ZGSZ,1997-12-05 08:00,ZGSZ 050800Z AUTO 03004KT 4SM 21/17 A3009 RMK T02100170 IEM_DS3505
ZGSZ,1997-12-05 09:00,ZGSZ 050900Z AUTO 04004KT 4SM 21/15 A3009 RMK SLP200 T02060148 57010 IEM_DS3505
ZGSZ,1997-12-05 10:00,ZGSZ 051000Z AUTO 03004KT 2SM 21/17 A3012 RMK T02100170 IEM_DS3505
ZGSZ,1997-12-05 11:00,ZGSZ 051100Z AUTO 01004KT 1 1/2SM 20/16 A3012 RMK T02000160 IEM_DS3505
ZGSZ,1997-12-05 12:00,ZGSZ 051200Z AUTO 34004KT 4SM 20/16 A3012 RMK SLP209 T02040155 52009 IEM_DS3505
ZGSZ,1997-12-05 13:00,ZGSZ 051300Z AUTO 36008KT 1 1/2SM 20/16 A3015 RMK T02000160 IEM_DS3505
ZGSZ,1997-12-05 14:00,ZGSZ 051400Z AUTO 36008KT 1 1/2SM 20/17 A3015 RMK T02000170 IEM_DS3505
ZGSZ,1997-12-05 15:00,ZGSZ 051500Z AUTO 01004KT 1 1/2SM 20/17 A3015 RMK T02000170 IEM_DS3505
ZGSZ,1997-12-05 16:00,ZGSZ 051600Z AUTO 36002KT 2SM 20/17 A3012 RMK T02000170 IEM_DS3505
ZGSZ,1997-12-05 17:00,ZGSZ 051700Z AUTO 35004KT 2SM 20/17 A3012 RMK T02000170 IEM_DS3505
ZGSZ,1997-12-05 18:00,ZGSZ 051800Z AUTO 04002KT 5SM 20/15 A3009 RMK SLP204 T01990152 57010 IEM_DS3505
ZGSZ,1997-12-05 19:00,ZGSZ 051900Z AUTO 01006KT 2SM 20/17 A3009 RMK T02000170 IEM_DS3505
ZGSZ,1997-12-05 20:00,ZGSZ 052000Z AUTO 27002KT 2SM 20/17 A3006 RMK T02000170 IEM_DS3505
ZGSZ,1997-12-05 21:00,ZGSZ 052100Z AUTO 04004KT 4SM 19/16 A3006 RMK SLP196 T01930160 57008 IEM_DS3505
ZGSZ,1997-12-05 22:00,ZGSZ 052200Z AUTO 33006KT 2SM 19/17 A3009 RMK T01900170 IEM_DS3505
ZGSZ,1997-12-05 23:00,ZGSZ 052300Z AUTO 35006KT 2SM 20/18 A3009 RMK T02000180 IEM_DS3505
ZGSZ,1997-12-06 00:00,ZGSZ 060000Z AUTO 04002KT 5SM 20/17 A3009 RMK SLP202 T01990168 52006 IEM_DS3505
ZGSZ,1997-12-06 01:00,ZGSZ 060100Z AUTO 08004KT 1 1/2SM 21/18 A3012 RMK T02100180 IEM_DS3505
ZGSZ,1997-12-06 02:00,ZGSZ 060200Z AUTO 09004KT 2 1/2SM 23/19 A3012 RMK T02300190 IEM_DS3505
ZGSZ,1997-12-06 03:00,ZGSZ 060300Z AUTO 09004KT 4SM 23/18 A3009 RMK SLP196 T02330181 57006 IEM_DS3505
ZGSZ,1997-12-06 04:00,ZGSZ 060400Z AUTO 09008KT 5SM 26/22 A3006 RMK T02600220 IEM_DS3505
ZGSZ,1997-12-06 05:00,ZGSZ 060500Z AUTO 29008KT 1 1/2SM 25/21 A3003 RMK T02500210 IEM_DS3505
ZGSZ,1997-12-06 06:00,ZGSZ 060600Z AUTO 09004KT 9SM 25/20 RMK SLP162 T02490205 57034 IEM_DS3505
ZGSZ,1997-12-06 07:00,ZGSZ 060700Z AUTO 27004KT 1 1/2SM 26/20 A2997 RMK T02600200 IEM_DS3505
ZGSZ,1997-12-06 08:00,ZGSZ 060800Z AUTO 22002KT 1 1/2SM 25/21 A2997 RMK T02500210 IEM_DS3505
ZGSZ,1997-12-06 09:00,ZGSZ 060900Z AUTO 11004KT 9SM 23/20 A2997 RMK SLP158 T02340205 57004 IEM_DS3505
ZGSZ,1997-12-06 10:00,ZGSZ 061000Z AUTO 24002KT 1 1/2SM 24/21 A2997 RMK T02400210 IEM_DS3505
ZGSZ,1997-12-06 11:00,ZGSZ 061100Z AUTO 29002KT 1 1/2SM 24/22 A3000 RMK T02400220 IEM_DS3505
ZGSZ,1997-12-06 12:00,ZGSZ 061200Z AUTO 11004KT 5SM 23/20 A3000 RMK 60002 SLP164 T02260203 52006 IEM_DS3505
ZGSZ,1997-12-06 13:00,ZGSZ 061300Z AUTO 00000KT 2SM 22/22 A3000 RMK T02200220 IEM_DS3505
ZGSZ,1997-12-06 14:00,ZGSZ 061400Z AUTO 26004KT 1 1/4SM 23/22 A3000 RMK T02300220 IEM_DS3505
ZGSZ,1997-12-06 16:00,ZGSZ 061600Z AUTO 36002KT 1 1/4SM 22/22 A2997 RMK T02200220 IEM_DS3505
ZGSZ,1997-12-06 17:00,ZGSZ 061700Z AUTO 32004KT 1SM 22/22 A2997 RMK T02200220 IEM_DS3505
ZGSZ,1997-12-06 18:00,ZGSZ 061800Z AUTO 02002KT 5SM 22/21 RMK SLP153 T02190208 57009 IEM_DS3505
ZGSZ,1997-12-06 21:00,ZGSZ 062100Z AUTO 04002KT 2 1/2SM 22/21 A2991 RMK 70002 SLP141 T02150207 57012 IEM_DS3505
ZGSZ,1997-12-06 22:00,ZGSZ 062200Z AUTO 00000KT 1SM 22/22 A2991 RMK T02200220 IEM_DS3505
ZGSZ,1997-12-06 23:00,ZGSZ 062300Z AUTO 32004KT 3/8SM 21/21 A2994 RMK T02100210 IEM_DS3505
ZGSZ,1997-12-07 00:00,ZGSZ 070000Z AUTO 07002KT 2SM 22/21 A2997 RMK 70002 SLP155 T02160208 52014 IEM_DS3505
ZGSZ,1997-12-07 01:00,ZGSZ 070100Z AUTO 34006KT 3/8SM 21/21 A2997 RMK T02100210 IEM_DS3505
ZGSZ,1997-12-07 02:00,ZGSZ 070200Z AUTO 34006KT 1SM 22/22 A3000 RMK T02200220 IEM_DS3505
ZGSZ,1997-12-07 03:00,ZGSZ 070300Z AUTO 04012KT 5SM 21/17 A3000 RMK T02060168 52016 IEM_DS3505
ZGSZ,1997-12-07 04:00,ZGSZ 070400Z AUTO 36014KT 7SM 21/19 A3000 RMK T02100190 IEM_DS3505
ZGSZ,1997-12-07 05:00,ZGSZ 070500Z AUTO 01014KT 7SM 20/17 A2997 RMK T02000170 IEM_DS3505
ZGSZ,1997-12-07 06:00,ZGSZ 070600Z AUTO 04010KT 14SM 22/14 A2997 RMK 60001 SLP152 T02150144 57019 IEM_DS3505
ZGSZ,1997-12-07 07:00,ZGSZ 070700Z AUTO 01016KT 7SM 21/16 A2997 RMK T02100160 IEM_DS3505
ZGSZ,1997-12-07 08:00,ZGSZ 070800Z AUTO 02012KT 7SM 20/15 A2997 RMK T02000150 IEM_DS3505
ZGSZ,1997-12-07 09:00,ZGSZ 070900Z AUTO 04010KT 16SM 20/12 A3000 RMK SLP166 T02010125 52014 IEM_DS3505
ZGSZ,1997-12-07 10:00,ZGSZ 071000Z AUTO 01014KT 6SM 19/13 A3003 RMK T01900130 IEM_DS3505
ZGSZ,1997-12-07 11:00,ZGSZ 071100Z AUTO 02010KT 6SM 18/13 A3006 RMK T01800130 IEM_DS3505
ZGSZ,1997-12-07 12:00,ZGSZ 071200Z AUTO 02014KT 14SM 17/09 A3009 RMK SLP196 T01690094 52029 IEM_DS3505
ZGSZ,1997-12-07 13:00,ZGSZ 071300Z AUTO 01012KT 6SM 16/11 A3012 RMK T01600110 IEM_DS3505
ZGSZ,1997-12-07 14:00,ZGSZ 071400Z AUTO 02012KT 6SM 16/11 A3015 RMK T01600110 IEM_DS3505
ZGSZ,1997-12-07 15:00,ZGSZ 071500Z AUTO 01012KT 6SM 16/10 A3015 RMK T01600100 IEM_DS3505
ZGSZ,1997-12-07 18:00,ZGSZ 071800Z AUTO 02008KT 11SM 15/07 RMK SLP213 T01480071 57001 IEM_DS3505
ZGSZ,1997-12-07 21:00,ZGSZ 072100Z AUTO 04012KT 7SM 14/05 A3018 RMK 70001 SLP224 T01370054 52011 IEM_DS3505
ZGSZ,1997-12-07 22:00,ZGSZ 072200Z AUTO 03012KT 6SM 13/06 A3015 RMK T01300060 IEM_DS3505
ZGSZ,1997-12-07 23:00,ZGSZ 072300Z AUTO 03014KT 6SM 13/06 A3018 RMK T01300060 IEM_DS3505
ZGSZ,1997-12-08 00:00,ZGSZ 080000Z AUTO 04019KT 8SM 13/04 A3018 RMK 70001 SLP227 T01310040 52003 IEM_DS3505
ZGSZ,1997-12-08 01:00,ZGSZ 080100Z AUTO 02016KT 6SM 14/08 A3024 RMK T01400080 IEM_DS3505
ZGSZ,1997-12-08 02:00,ZGSZ 080200Z AUTO 01016KT 6SM 15/08 A3024 RMK T01500080 IEM_DS3505
ZGSZ,1997-12-08 03:00,ZGSZ 080300Z AUTO 02010KT 8SM 16/05 A3024 RMK SLP235 T01560050 52008 IEM_DS3505
ZGSZ,1997-12-08 04:00,ZGSZ 080400Z AUTO 01017KT 6SM 17/08 A3021 RMK T01700080 IEM_DS3505
ZGSZ,1997-12-08 05:00,ZGSZ 080500Z AUTO 35012KT 6SM 18/08 A3018 RMK T01800080 IEM_DS3505
ZGSZ,1997-12-08 06:00,ZGSZ 080600Z AUTO 36008KT 10SM 20/07 A3015 RMK SLP214 T01950073 57021 IEM_DS3505
ZGSZ,1997-12-08 07:00,ZGSZ 080700Z AUTO 02016KT 6SM 19/07 A3012 RMK T01900070 IEM_DS3505
ZGSZ,1997-12-08 08:00,ZGSZ 080800Z AUTO 03016KT 6SM 18/08 A3015 RMK T01800080 IEM_DS3505
ZGSZ,1997-12-08 09:00,ZGSZ 080900Z AUTO 04012KT 11SM 17/06 A3015 RMK SLP220 T01690058 52006 IEM_DS3505
ZGSZ,1997-12-08 10:00,ZGSZ 081000Z AUTO 03014KT 6SM 15/07 A3021 RMK T01500070 IEM_DS3505
ZGSZ,1997-12-08 11:00,ZGSZ 081100Z AUTO 04016KT 6SM 14/07 A3024 RMK T01400070 IEM_DS3505
ZGSZ,1997-12-08 12:00,ZGSZ 081200Z AUTO 04012KT 11SM 13/04 A3024 RMK SLP248 T01330038 IEM_DS3505
ZGSZ,1997-12-08 14:00,ZGSZ 081400Z AUTO 03010KT 6SM 12/05 A3030 RMK T01200050 IEM_DS3505
ZGSZ,1997-12-08 15:00,ZGSZ 081500Z AUTO 02012KT 6SM 12/05 A3030 RMK T01200050 IEM_DS3505
ZGSZ,1997-12-08 21:00,ZGSZ 082100Z AUTO 04012KT 9SM 11/00 A3024 RMK SLP250 T01100005 57004 IEM_DS3505
ZGSZ,1997-12-08 22:00,ZGSZ 082200Z AUTO 01012KT 6SM 11/02 A3027 RMK T01100020 IEM_DS3505
ZGSZ,1997-12-08 23:00,ZGSZ 082300Z AUTO 02012KT 6SM 10/02 A3030 RMK T01000020 IEM_DS3505
ZGSZ,1997-12-09 00:00,ZGSZ 090000Z AUTO 04010KT 11SM 11/M00 A3030 RMK SLP267 T01061005 52017 IEM_DS3505
ZGSZ,1997-12-09 01:00,ZGSZ 090100Z AUTO 02012KT 6SM 12/02 A3033 RMK T01200020 IEM_DS3505
ZGSZ,1997-12-09 02:00,ZGSZ 090200Z AUTO 01012KT 6SM 13/02 A3033 RMK T01300020 IEM_DS3505
ZGSZ,1997-12-09 03:00,ZGSZ 090300Z AUTO 32008KT 8SM 13/01 A3033 RMK SLP272 T01260009 52005 IEM_DS3505
ZGSZ,1997-12-09 04:00,ZGSZ 090400Z AUTO 01008KT 6SM 15/03 A3030 RMK T01500030 IEM_DS3505
ZGSZ,1997-12-09 05:00,ZGSZ 090500Z AUTO 36010KT 6SM 16/04 A3027 RMK T01600040 IEM_DS3505
ZGSZ,1997-12-09 06:00,ZGSZ 090600Z AUTO 04008KT 7SM 17/04 A3021 RMK SLP236 T01720036 57036 IEM_DS3505
ZGSZ,1997-12-09 07:00,ZGSZ 090700Z AUTO 35008KT 6SM 17/04 A3021 RMK T01700040 IEM_DS3505
ZGSZ,1997-12-09 09:00,ZGSZ 090900Z AUTO 04006KT 7SM 17/04 RMK SLP242 T01660036 52006 IEM_DS3505
ZGSZ,1997-12-09 10:00,ZGSZ 091000Z AUTO 02008KT 6SM 16/04 A3024 RMK T01600040 IEM_DS3505
ZGSZ,1997-12-09 11:00,ZGSZ 091100Z AUTO 02008KT 6SM 15/05 A3027 RMK T01500050 IEM_DS3505
ZGSZ,1997-12-09 12:00,ZGSZ 091200Z AUTO 04006KT 7SM 14/04 A3027 RMK SLP259 T01440036 52017 IEM_DS3505
ZGSZ,1997-12-09 13:00,ZGSZ 091300Z AUTO 06008KT 6SM 15/03 A3027 RMK T01500030 IEM_DS3505
ZGSZ,1997-12-09 14:00,ZGSZ 091400Z AUTO 09006KT 6SM 14/03 A3030 RMK T01400030 IEM_DS3505
ZGSZ,1997-12-09 18:00,ZGSZ 091800Z AUTO 02008KT 9SM 11/02 RMK SLP258 T01130015 57003 IEM_DS3505
ZGSZ,1997-12-09 21:00,ZGSZ 092100Z AUTO 04008KT 9SM 10/02 A3024 RMK SLP248 T01030017 57010 IEM_DS3505
ZGSZ,1997-12-09 22:00,ZGSZ 092200Z AUTO 03008KT 6SM 10/02 A3024 RMK T01000020 IEM_DS3505
ZGSZ,1997-12-09 23:00,ZGSZ 092300Z AUTO 04008KT 6SM 10/02 A3027 RMK T01000020 IEM_DS3505
ZGSZ,1997-12-10 00:00,ZGSZ 100000Z AUTO 04010KT 9SM 10/02 A3030 RMK SLP267 T01030023 52019 IEM_DS3505
ZGSZ,1997-12-10 01:00,ZGSZ 100100Z AUTO 02012KT 6SM 12/03 A3033 RMK T01200030 IEM_DS3505
ZGSZ,1997-12-10 02:00,ZGSZ 100200Z AUTO 02010KT 6SM 13/04 A3033 RMK T01300040 IEM_DS3505
ZGSZ,1997-12-10 03:00,ZGSZ 100300Z AUTO 02010KT 7SM 13/03 A3030 RMK SLP272 T01330026 52005 IEM_DS3505
ZGSZ,1997-12-10 04:00,ZGSZ 100400Z AUTO 01010KT 6SM 15/04 A3027 RMK T01500040 IEM_DS3505
ZGSZ,1997-12-10 05:00,ZGSZ 100500Z AUTO 35012KT 6SM 15/04 A3027 RMK T01500040 IEM_DS3505
ZGSZ,1997-12-10 06:00,ZGSZ 100600Z AUTO 02008KT 8SM 16/03 A3024 RMK SLP204 T01600033 57032 IEM_DS3505
ZGSZ,1997-12-10 07:00,ZGSZ 100700Z AUTO 35012KT 6SM 15/05 A3021 RMK T01500050 IEM_DS3505
ZGSZ,1997-12-10 08:00,ZGSZ 100800Z AUTO 02012KT 6SM 15/04 A3021 RMK T01500040 IEM_DS3505
ZGSZ,1997-12-10 09:00,ZGSZ 100900Z AUTO 04008KT 8SM 15/03 A3021 RMK SLP239 T01490034 57001 IEM_DS3505
ZGSZ,1997-12-10 10:00,ZGSZ 101000Z AUTO 02010KT 6SM 14/04 A3024 RMK T01400040 IEM_DS3505
ZGSZ,1997-12-10 11:00,ZGSZ 101100Z AUTO 03008KT 6SM 13/04 A3024 RMK T01300040 IEM_DS3505
ZGSZ,1997-12-10 12:00,ZGSZ 101200Z AUTO 02010KT 9SM 13/02 A3027 RMK SLP260 T01290023 52021 IEM_DS3505
ZGSZ,1997-12-10 13:00,ZGSZ 101300Z AUTO 03006KT 6SM 13/04 A3027 RMK T01300040 IEM_DS3505
ZGSZ,1997-12-10 14:00,ZGSZ 101400Z AUTO 01010KT 6SM 13/04 A3027 RMK T01300040 IEM_DS3505
ZGSZ,1997-12-10 18:00,ZGSZ 101800Z AUTO 04008KT 8SM 12/03 RMK SLP255 T01170027 57007 IEM_DS3505
ZGSZ,1997-12-10 21:00,ZGSZ 102100Z AUTO 04008KT 7SM 11/01 A3027 RMK SLP250 T01100014 57005 IEM_DS3505
ZGSZ,1997-12-10 22:00,ZGSZ 102200Z AUTO 02008KT 6SM 11/03 A3027 RMK T01100030 IEM_DS3505
ZGSZ,1997-12-11 00:00,ZGSZ 110000Z AUTO 36008KT 8SM 11/02 A3027 RMK SLP258 T01080018 52008 IEM_DS3505
ZGSZ,1997-12-11 02:00,ZGSZ 110200Z AUTO 01006KT 7SM 12/03 A3030 RMK T01200030 IEM_DS3505
ZGSZ,1997-12-11 03:00,ZGSZ 110300Z AUTO 36010KT 7SM 12/02 A3027 RMK SLP262 T01210018 52004 IEM_DS3505
ZGSZ,1997-12-11 04:00,ZGSZ 110400Z AUTO 03010KT 6SM 13/03 A3027 RMK T01300030 IEM_DS3505
ZGSZ,1997-12-11 05:00,ZGSZ 110500Z AUTO 36010KT 6SM 13/03 A3024 RMK T01300030 IEM_DS3505
ZGSZ,1997-12-11 06:00,ZGSZ 110600Z AUTO 04006KT 7SM 14/02 A3021 RMK SLP233 T01430019 57029 IEM_DS3505
ZGSZ,1997-12-11 07:00,ZGSZ 110700Z AUTO 35010KT 6SM 14/04 A3021 RMK T01400040 IEM_DS3505
ZGSZ,1997-12-11 08:00,ZGSZ 110800Z AUTO 35010KT 6SM 13/05 A3021 RMK T01300050 IEM_DS3505
ZGSZ,1997-12-11 09:00,ZGSZ 110900Z AUTO 04006KT 7SM 14/03 A3021 RMK SLP235 T01420030 52002 IEM_DS3505
ZGSZ,1997-12-11 10:00,ZGSZ 111000Z AUTO 01008KT 7SM 13/04 A3021 RMK T01300040 IEM_DS3505
ZGSZ,1997-12-11 11:00,ZGSZ 111100Z AUTO 36008KT 7SM 12/05 A3024 RMK T01200050 IEM_DS3505
ZGSZ,1997-12-11 12:00,ZGSZ 111200Z AUTO 04006KT 6SM 13/02 A3024 RMK SLP251 T01320021 52016 IEM_DS3505
ZGSZ,1997-12-11 13:00,ZGSZ 111300Z AUTO 02004KT 7SM 12/05 A3024 RMK T01200050 IEM_DS3505
ZGSZ,1997-12-11 14:00,ZGSZ 111400Z AUTO 36006KT 6SM 12/06 A3027 RMK T01200060 IEM_DS3505
ZGSZ,1997-12-11 15:00,ZGSZ 111500Z AUTO 36006KT 6SM 12/06 A3024 RMK T01200060 IEM_DS3505
ZGSZ,1997-12-11 16:00,ZGSZ 111600Z AUTO 35008KT 6SM 12/05 A3027 RMK T01200050 IEM_DS3505
ZGSZ,1997-12-11 18:00,ZGSZ 111800Z AUTO 04006KT 7SM 12/05 RMK SLP246 T01180048 57006 IEM_DS3505
ZGSZ,1997-12-11 21:00,ZGSZ 112100Z AUTO 04004KT 6SM 12/05 A3021 RMK SLP238 T01150046 57008 IEM_DS3505
ZGSZ,1997-12-11 23:00,ZGSZ 112300Z AUTO 02008KT 6SM 12/06 A3024 RMK T01200060 IEM_DS3505
ZGSZ,1997-12-12 00:00,ZGSZ 120000Z AUTO 02004KT 6SM 12/05 A3024 RMK SLP251 T01190054 52013 IEM_DS3505
ZGSZ,1997-12-12 01:00,ZGSZ 120100Z AUTO 01010KT 7SM 12/06 A3027 RMK T01200060 IEM_DS3505
ZGSZ,1997-12-12 02:00,ZGSZ 120200Z AUTO 01010KT 7SM 13/06 A3030 RMK T01300060 IEM_DS3505
ZGSZ,1997-12-12 03:00,ZGSZ 120300Z AUTO 02006KT 4SM 13/05 A3027 RMK SLP260 T01290048 52009 IEM_DS3505
ZGSZ,1997-12-12 04:00,ZGSZ 120400Z AUTO 36010KT 4SM 13/06 A3027 RMK T01300060 IEM_DS3505
ZGSZ,1997-12-12 05:00,ZGSZ 120500Z AUTO 01010KT 4SM 13/06 A3024 RMK T01300060 IEM_DS3505
ZGSZ,1997-12-12 06:00,ZGSZ 120600Z AUTO 02006KT 7SM 14/05 A3021 RMK SLP235 T01430048 57025 IEM_DS3505
ZGSZ,1997-12-12 07:00,ZGSZ 120700Z AUTO 36010KT 7SM 14/06 A3021 RMK T01400060 IEM_DS3505
ZGSZ,1997-12-12 08:00,ZGSZ 120800Z AUTO 36012KT 7SM 14/06 A3021 RMK T01400060 IEM_DS3505
ZGSZ,1997-12-12 09:00,ZGSZ 120900Z AUTO 34006KT 4SM 14/06 A3021 RMK SLP236 T01410062 52001 IEM_DS3505
ZGSZ,1997-12-12 10:00,ZGSZ 121000Z AUTO 36010KT 4SM 13/06 A3024 RMK T01300060 IEM_DS3505
ZGSZ,1997-12-12 11:00,ZGSZ 121100Z AUTO 01010KT 6SM 13/07 A3024 RMK T01300070 IEM_DS3505
ZGSZ,1997-12-12 12:00,ZGSZ 121200Z AUTO 04006KT 4SM 13/06 A3024 RMK SLP245 T01290059 52009 IEM_DS3505
ZGSZ,1997-12-12 13:00,ZGSZ 121300Z AUTO 01006KT 6SM 12/07 A3024 RMK T01200070 IEM_DS3505
ZGSZ,1997-12-12 14:00,ZGSZ 121400Z AUTO 36008KT 7SM 12/07 A3027 RMK T01200070 IEM_DS3505
ZGSZ,1997-12-12 16:00,ZGSZ 121600Z AUTO 35008KT 6SM 12/07 A3027 RMK T01200070 IEM_DS3505
ZGSZ,1997-12-12 18:00,ZGSZ 121800Z AUTO 04004KT 4SM 12/05 RMK SLP251 T01180048 52002 IEM_DS3505
ZGSZ,1997-12-12 20:00,ZGSZ 122000Z AUTO 01008KT 6SM 11/07 A3024 RMK T01100070 IEM_DS3505
ZGSZ,1997-12-12 21:00,ZGSZ 122100Z AUTO 04006KT 5SM 12/05 A3024 RMK SLP243 T01150049 57008 IEM_DS3505
ZGSZ,1997-12-12 22:00,ZGSZ 122200Z AUTO 01010KT 6SM 11/07 A3024 RMK T01100070 IEM_DS3505
ZGSZ,1997-12-12 23:00,ZGSZ 122300Z AUTO 02006KT 7SM 11/07 A3024 RMK T01100070 IEM_DS3505
ZGSZ,1997-12-13 00:00,ZGSZ 130000Z AUTO 02008KT 11SM 12/05 A3027 RMK SLP255 T01150046 IEM_DS3505
ZGSZ,1997-12-13 01:00,ZGSZ 130100Z AUTO 01010KT 7SM 11/07 A3027 RMK T01100070 IEM_DS3505
ZGSZ,1997-12-13 03:00,ZGSZ 130300Z AUTO 04006KT 9SM 13/05 A3027 RMK SLP259 T01270049 52004 IEM_DS3505
ZGSZ,1997-12-13 04:00,ZGSZ 130400Z AUTO 35006KT 4SM 14/07 A3024 RMK T01400070 IEM_DS3505
ZGSZ,1997-12-13 05:00,ZGSZ 130500Z AUTO 34008KT 4SM 15/07 A3021 RMK T01500070 IEM_DS3505
ZGSZ,1997-12-13 06:00,ZGSZ 130600Z AUTO 00000KT 6SM 16/07 A3018 RMK SLP223 T01640069 57036 IEM_DS3505
ZGSZ,1997-12-13 07:00,ZGSZ 130700Z AUTO 30010KT 4SM 17/09 A3015 RMK T01700090 IEM_DS3505
ZGSZ,1997-12-13 08:00,ZGSZ 130800Z AUTO 30008KT 4SM 17/10 A3015 RMK T01700100 IEM_DS3505
ZGSZ,1997-12-13 09:00,ZGSZ 130900Z AUTO 25004KT 5SM 17/09 A3015 RMK SLP216 T01740092 57006 IEM_DS3505
ZGSZ,1997-12-13 10:00,ZGSZ 131000Z AUTO 28010KT 2SM 16/10 A3018 RMK T01600100 IEM_DS3505
ZGSZ,1997-12-13 11:00,ZGSZ 131100Z AUTO 28004KT 2SM 14/10 A3015 RMK T01400100 IEM_DS3505
ZGSZ,1997-12-13 12:00,ZGSZ 131200Z AUTO 00000KT 4SM 15/10 A3018 RMK SLP229 T01460102 52012 IEM_DS3505
ZGSZ,1997-12-13 13:00,ZGSZ 131300Z AUTO 33004KT 1SM 13/11 A3021 RMK T01300110 IEM_DS3505
ZGSZ,1997-12-13 14:00,ZGSZ 131400Z AUTO 36002KT 1 1/4SM 12/11 A3021 RMK T01200110 IEM_DS3505
ZGSZ,1997-12-13 15:00,ZGSZ 131500Z AUTO 34002KT 1 1/4SM 12/10 A3021 RMK T01200100 IEM_DS3505
ZGSZ,1997-12-13 18:00,ZGSZ 131800Z AUTO 04002KT 2 1/2SM 13/10 RMK SLP222 T01320099 57013 IEM_DS3505
ZGSZ,1997-12-13 21:00,ZGSZ 132100Z AUTO 04004KT 1 1/4SM 13/09 A3015 RMK SLP221 T01290087 57001 IEM_DS3505
ZGSZ,1997-12-13 22:00,ZGSZ 132200Z AUTO 33002KT 1SM 11/10 A3018 RMK T01100100 IEM_DS3505
ZGSZ,1997-12-13 23:00,ZGSZ 132300Z AUTO 33004KT 1SM 11/10 A3021 RMK T01100100 IEM_DS3505
ZGSZ,1997-12-14 00:00,ZGSZ 140000Z AUTO 02004KT 2 1/2SM 13/09 A3021 RMK SLP238 T01300088 52016 IEM_DS3505
ZGSZ,1997-12-14 01:00,ZGSZ 140100Z AUTO 35004KT 1SM 15/11 A3021 RMK T01500110 IEM_DS3505
ZGSZ,1997-12-14 02:00,ZGSZ 140200Z AUTO 35004KT 1 1/2SM 16/13 A3024 RMK T01600130 IEM_DS3505
ZGSZ,1997-12-14 03:00,ZGSZ 140300Z AUTO 04004KT 2 1/2SM 17/11 RMK SLP243 T01730114 52006 IEM_DS3505
ZGSZ,1997-12-14 04:00,ZGSZ 140400Z AUTO 24004KT 2SM 19/14 A3021 RMK T01900140 IEM_DS3505
ZGSZ,1997-12-14 05:00,ZGSZ 140500Z AUTO 31008KT 2SM 19/13 A3015 RMK T01900130 IEM_DS3505
ZGSZ,1997-12-14 06:00,ZGSZ 140600Z AUTO 34002KT 2 1/2SM 21/13 A3015 RMK SLP208 T02090134 57035 IEM_DS3505
ZGSZ,1997-12-14 07:00,ZGSZ 140700Z AUTO 36008KT 2 1/2SM 20/13 A3012 RMK T02000130 IEM_DS3505
ZGSZ,1997-12-14 08:00,ZGSZ 140800Z AUTO 35008KT 3SM 20/13 A3012 RMK T02000130 IEM_DS3505
ZGSZ,1997-12-14 09:00,ZGSZ 140900Z AUTO 02004KT 4SM 20/14 A3012 RMK SLP207 T02030139 57001 IEM_DS3505
ZGSZ,1997-12-14 10:00,ZGSZ 141000Z AUTO 36006KT 2SM 18/13 A3012 RMK T01800130 IEM_DS3505
ZGSZ,1997-12-14 11:00,ZGSZ 141100Z AUTO 05002KT 1 1/2SM 17/13 A3015 RMK T01700130 IEM_DS3505
ZGSZ,1997-12-14 12:00,ZGSZ 141200Z AUTO 04004KT 2 1/2SM 18/13 A3015 RMK SLP217 T01750129 52010 IEM_DS3505
ZGSZ,1997-12-14 13:00,ZGSZ 141300Z AUTO 35002KT 1 1/2SM 16/13 A3015 RMK T01600130 IEM_DS3505
ZGSZ,1997-12-14 14:00,ZGSZ 141400Z AUTO 30002KT 1 1/2SM 15/13 A3018 RMK T01500130 IEM_DS3505
ZGSZ,1997-12-14 15:00,ZGSZ 141500Z AUTO 28004KT 1 1/2SM 15/13 A3018 RMK T01500130 IEM_DS3505
ZGSZ,1997-12-14 16:00,ZGSZ 141600Z AUTO 27002KT 1 1/2SM 14/13 A3015 RMK T01400130 IEM_DS3505
ZGSZ,1997-12-14 18:00,ZGSZ 141800Z AUTO 07004KT 4SM 16/12 RMK SLP213 T01550122 57009 IEM_DS3505
ZGSZ,1997-12-14 21:00,ZGSZ 142100Z AUTO 04006KT 4SM 15/12 A3015 RMK SLP221 T01460118 52008 IEM_DS3505
ZGSZ,1997-12-14 22:00,ZGSZ 142200Z AUTO 00000KT 1 1/2SM 12/12 A3018 RMK T01200120 IEM_DS3505
ZGSZ,1997-12-14 23:00,ZGSZ 142300Z AUTO 36004KT 1 1/2SM 13/13 A3018 RMK T01300130 IEM_DS3505
ZGSZ,1997-12-15 00:00,ZGSZ 150000Z AUTO 04006KT 4SM 14/12 A3021 RMK SLP233 T01400120 52012 IEM_DS3505
ZGSZ,1997-12-15 01:00,ZGSZ 150100Z AUTO 11004KT 1 1/2SM 17/15 A3021 RMK T01700150 IEM_DS3505
ZGSZ,1997-12-15 02:00,ZGSZ 150200Z AUTO 09006KT 2 1/2SM 20/15 A3021 RMK T02000150 IEM_DS3505
ZGSZ,1997-12-15 03:00,ZGSZ 150300Z AUTO 11004KT 11SM 20/13 A3018 RMK SLP227 T02050130 57006 IEM_DS3505
ZGSZ,1997-12-15 04:00,ZGSZ 150400Z AUTO 29006KT 2SM 22/16 A3015 RMK T02200160 IEM_DS3505
ZGSZ,1997-12-15 05:00,ZGSZ 150500Z AUTO 28006KT 2SM 23/16 A3012 RMK T02300160 IEM_DS3505
ZGSZ,1997-12-15 06:00,ZGSZ 150600Z AUTO 07008KT 19SM 25/14 A3009 RMK SLP194 T02530138 57032 IEM_DS3505
ZGSZ,1997-12-15 07:00,ZGSZ 150700Z AUTO 27002KT 4SM 22/15 A3009 RMK T02200150 IEM_DS3505
ZGSZ,1997-12-15 08:00,ZGSZ 150800Z AUTO 21004KT 6SM 22/16 A3009 RMK T02200160 IEM_DS3505
ZGSZ,1997-12-15 09:00,ZGSZ 150900Z AUTO 14004KT 19SM 22/13 A3012 RMK SLP205 T02190134 52010 IEM_DS3505
ZGSZ,1997-12-15 10:00,ZGSZ 151000Z AUTO 00000KT 3SM 19/17 A3012 RMK T01900170 IEM_DS3505
ZGSZ,1997-12-15 11:00,ZGSZ 151100Z AUTO 12002KT 2SM 18/17 A3012 RMK T01800170 IEM_DS3505
ZGSZ,1997-12-15 12:00,ZGSZ 151200Z AUTO 14008KT 10SM 20/14 A3012 RMK SLP213 T01960139 IEM_DS3505
ZGSZ,1997-12-15 13:00,ZGSZ 151300Z AUTO 14004KT 1 1/4SM 18/16 A3012 RMK T01800160 IEM_DS3505
ZGSZ,1997-12-15 14:00,ZGSZ 151400Z AUTO 13004KT 2SM 18/16 A3012 RMK T01800160 IEM_DS3505
ZGSZ,1997-12-15 18:00,ZGSZ 151800Z AUTO 07004KT 7SM 18/16 RMK SLP205 T01850160 57006 IEM_DS3505
ZGSZ,1997-12-15 21:00,ZGSZ 152100Z AUTO 07006KT 3SM 17/15 RMK SLP210 T01740154 52004 IEM_DS3505
ZGSZ,1997-12-15 23:00,ZGSZ 152300Z AUTO 09006KT 2SM 17/17 A3015 RMK T01700170 IEM_DS3505
ZGSZ,1997-12-16 00:00,ZGSZ 160000Z AUTO 07004KT 5SM 17/15 A3015 RMK SLP221 T01730154 52011 IEM_DS3505
ZGSZ,1997-12-16 01:00,ZGSZ 160100Z AUTO 04004KT 2 1/2SM 19/17 A3018 RMK T01900170 IEM_DS3505
ZGSZ,1997-12-16 02:00,ZGSZ 160200Z AUTO 11004KT 1 1/2SM 22/18 A3018 RMK T02200180 IEM_DS3505
ZGSZ,1997-12-16 03:00,ZGSZ 160300Z AUTO 09004KT 6SM 21/16 A3015 RMK SLP223 T02110158 52002 IEM_DS3505
ZGSZ,1997-12-16 04:00,ZGSZ 160400Z AUTO 27004KT 1 1/2SM 23/19 A3012 RMK T02300190 IEM_DS3505
ZGSZ,1997-12-16 06:00,ZGSZ 160600Z AUTO 34002KT 9SM 27/16 A3006 RMK SLP182 T02700156 57040 IEM_DS3505
ZGSZ,1997-12-16 13:00,ZGSZ 161300Z AUTO 16002KT 2SM 19/19 A3006 RMK T01900190 IEM_DS3505
ZGSZ,1997-12-16 14:00,ZGSZ 161400Z AUTO 19002KT 1 1/2SM 19/19 A3009 RMK T01900190 IEM_DS3505
ZGSZ,1997-12-16 15:00,ZGSZ 161500Z AUTO 20002KT 1 1/2SM 17/17 A3009 RMK T01700170 IEM_DS3505
ZGSZ,1997-12-16 16:00,ZGSZ 161600Z AUTO 00000KT 1 1/4SM 18/18 A3009 RMK T01800180 IEM_DS3505
ZGSZ,1997-12-16 17:00,ZGSZ 161700Z AUTO 29002KT 1 1/4SM 17/17 A3009 RMK T01700170 IEM_DS3505
ZGSZ,1997-12-16 21:00,ZGSZ 162100Z AUTO 00000KT 3SM 18/16 A3006 RMK SLP185 T01780161 57008 IEM_DS3505
ZGSZ,1997-12-16 23:00,ZGSZ 162300Z AUTO 06002KT 1 1/4SM 17/17 A3006 RMK T01700170 IEM_DS3505
ZGSZ,1997-12-17 00:00,ZGSZ 170000Z AUTO 04006KT 2 1/2SM 18/16 A3009 RMK SLP194 T01810164 52008 IEM_DS3505
ZGSZ,1997-12-17 03:00,ZGSZ 170300Z AUTO 34004KT 2 1/2SM 22/17 A3009 RMK SLP196 T02240172 52003 IEM_DS3505
ZGSZ,1997-12-17 04:00,ZGSZ 170400Z AUTO 29008KT 2SM 24/21 A3006 RMK T02400210 IEM_DS3505
ZGSZ,1997-12-17 05:00,ZGSZ 170500Z AUTO 28006KT 2 1/2SM 25/21 A3003 RMK T02500210 IEM_DS3505
ZGSZ,1997-12-17 06:00,ZGSZ 170600Z AUTO 22006KT 2 1/2SM 26/18 A3000 RMK SLP165 T02600180 57031 IEM_DS3505
ZGSZ,1997-12-17 07:00,ZGSZ 170700Z AUTO 29006KT 4SM 26/19 A2997 RMK T02600190 IEM_DS3505
ZGSZ,1997-12-17 08:00,ZGSZ 170800Z AUTO 29006KT 4SM 27/17 A2997 RMK T02700170 IEM_DS3505
ZGSZ,1997-12-17 09:00,ZGSZ 170900Z AUTO 20004KT 2 1/2SM 24/18 A2997 RMK SLP158 T02440177 57007 IEM_DS3505
ZGSZ,1997-12-17 10:00,ZGSZ 171000Z AUTO 35002KT 3SM 23/17 A2997 RMK T02300170 IEM_DS3505
ZGSZ,1997-12-17 11:00,ZGSZ 171100Z AUTO 04002KT 1 1/2SM 22/18 A3000 RMK T02200180 IEM_DS3505
ZGSZ,1997-12-17 12:00,ZGSZ 171200Z AUTO 00000KT 4SM 22/17 A3000 RMK SLP168 T02210169 52010 IEM_DS3505
ZGSZ,1997-12-17 13:00,ZGSZ 171300Z AUTO 11002KT 1 1/4SM 20/18 A3000 RMK T02000180 IEM_DS3505
ZGSZ,1997-12-17 14:00,ZGSZ 171400Z AUTO 18004KT 1 1/4SM 19/18 A3003 RMK T01900180 IEM_DS3505
ZGSZ,1997-12-17 15:00,ZGSZ 171500Z AUTO 11002KT 1 1/4SM 19/18 A3000 RMK T01900180 IEM_DS3505
ZGSZ,1997-12-17 18:00,ZGSZ 171800Z AUTO 00000KT 2 1/2SM 19/17 RMK SLP164 T01920172 57006 IEM_DS3505
ZGSZ,1997-12-17 21:00,ZGSZ 172100Z AUTO 04004KT 2 1/2SM 17/17 A2997 RMK SLP160 T01700170 57004 IEM_DS3505
ZGSZ,1997-12-17 23:00,ZGSZ 172300Z AUTO 00000KT 1SM 16/16 A3003 RMK T01600160 IEM_DS3505
ZGSZ,1997-12-18 00:00,ZGSZ 180000Z AUTO 04004KT 2 1/2SM 19/17 A3003 RMK SLP182 T01890166 52022 IEM_DS3505
ZGSZ,1997-12-18 01:00,ZGSZ 180100Z AUTO 11006KT 1SM 22/21 A3006 RMK T02200210 IEM_DS3505
ZGSZ,1997-12-18 02:00,ZGSZ 180200Z AUTO 08006KT 1 1/4SM 24/19 A3006 RMK T02400190 IEM_DS3505
ZGSZ,1997-12-18 03:00,ZGSZ 180300Z AUTO 14008KT 7SM 23/16 A3006 RMK SLP185 T02330161 52003 IEM_DS3505
ZGSZ,1997-12-18 04:00,ZGSZ 180400Z AUTO 14010KT 6SM 26/18 A3000 RMK T02600180 IEM_DS3505
ZGSZ,1997-12-18 06:00,ZGSZ 180600Z AUTO 11010KT 7SM 23/17 A2994 RMK SLP155 T02320171 57030 IEM_DS3505
ZGSZ,1997-12-18 07:00,ZGSZ 180700Z AUTO 14008KT 5SM 26/19 A2994 RMK T02600190 IEM_DS3505
ZGSZ,1997-12-18 08:00,ZGSZ 180800Z AUTO 12012KT 5SM 25/18 A2994 RMK T02500180 IEM_DS3505
ZGSZ,1997-12-18 09:00,ZGSZ 180900Z AUTO 14008KT 7SM 22/17 A2997 RMK SLP157 T02200170 52002 IEM_DS3505
ZGSZ,1997-12-18 10:00,ZGSZ 181000Z AUTO 12008KT 3SM 23/18 A2997 RMK T02300180 IEM_DS3505
ZGSZ,1997-12-18 11:00,ZGSZ 181100Z AUTO 11008KT 5SM 20/17 A3000 RMK SLP177 T02020173 52020 IEM_DS3505
ZGSZ,1997-12-18 12:00,ZGSZ 181200Z AUTO 11008KT 5SM 20/17 A3000 RMK SLP177 T02020173 52020 IEM_DS3505
ZGSZ,1997-12-18 13:00,ZGSZ 181300Z AUTO 10008KT 2 1/2SM 20/18 A3003 RMK T02000180 IEM_DS3505
ZGSZ,1997-12-18 14:00,ZGSZ 181400Z AUTO 12006KT 2 1/2SM 20/18 A3003 RMK T02000180 IEM_DS3505
ZGSZ,1997-12-18 15:00,ZGSZ 181500Z AUTO 12006KT 2 1/2SM 19/18 A3000 RMK T01900180 IEM_DS3505
ZGSZ,1997-12-18 16:00,ZGSZ 181600Z AUTO 10002KT 2SM 19/17 A3000 RMK T01900170 IEM_DS3505
ZGSZ,1997-12-18 17:00,ZGSZ 181700Z AUTO 13004KT 2SM 18/17 A3000 RMK T01800170 IEM_DS3505
ZGSZ,1997-12-18 18:00,ZGSZ 181800Z AUTO 09002KT 4SM 19/17 A3000 RMK SLP165 T01940171 57010 IEM_DS3505
ZGSZ,1997-12-18 19:00,ZGSZ 181900Z AUTO 10006KT 2 1/2SM 19/18 A2997 RMK T01900180 IEM_DS3505
ZGSZ,1997-12-18 21:00,ZGSZ 182100Z AUTO 00000KT 3SM 20/17 A2997 RMK SLP159 T01970174 57006 IEM_DS3505
ZGSZ,1997-12-18 22:00,ZGSZ 182200Z AUTO 10008KT 2 1/2SM 20/18 A2997 RMK T02000180 IEM_DS3505
ZGSZ,1997-12-19 00:00,ZGSZ 190000Z AUTO 02006KT 4SM 20/17 A3000 RMK SLP176 T01970171 52017 IEM_DS3505
ZGSZ,1997-12-19 01:00,ZGSZ 190100Z AUTO 10006KT 2 1/2SM 21/19 A3003 RMK T02100190 IEM_DS3505
ZGSZ,1997-12-19 03:00,ZGSZ 190300Z AUTO 14004KT 6SM 22/18 A3003 RMK SLP175 T02200184 57001 IEM_DS3505
ZGSZ,1997-12-19 04:00,ZGSZ 190400Z AUTO 30006KT 2SM 24/20 A3000 RMK T02400200 IEM_DS3505
ZGSZ,1997-12-19 05:00,ZGSZ 190500Z AUTO 30004KT 2SM 24/20 A2997 RMK T02400200 IEM_DS3505
ZGSZ,1997-12-19 06:00,ZGSZ 190600Z AUTO 20002KT 5SM 26/19 A2994 RMK SLP150 T02560189 57025 IEM_DS3505
ZGSZ,1997-12-19 07:00,ZGSZ 190700Z AUTO 27004KT 3SM 25/21 A2994 RMK T02500210 IEM_DS3505
ZGSZ,1997-12-19 08:00,ZGSZ 190800Z AUTO 20002KT 6SM 25/21 A2991 RMK T02500210 IEM_DS3505
ZGSZ,1997-12-19 09:00,ZGSZ 190900Z AUTO 14006KT 7SM 24/19 A2994 RMK T02430188 57003 IEM_DS3505
ZGSZ,1997-12-19 10:00,ZGSZ 191000Z AUTO 19002KT 3SM 23/20 A2994 RMK T02300200 IEM_DS3505
ZGSZ,1997-12-19 11:00,ZGSZ 191100Z AUTO 20002KT 2SM 22/20 A2997 RMK T02200200 IEM_DS3505
ZGSZ,1997-12-19 12:00,ZGSZ 191200Z AUTO 14006KT 3SM 21/20 A3000 RMK SLP166 T02100200 52019 IEM_DS3505
ZGSZ,1997-12-19 13:00,ZGSZ 191300Z AUTO 13004KT 1 1/2SM 21/20 A3000 RMK T02100200 IEM_DS3505
ZGSZ,1997-12-19 14:00,ZGSZ 191400Z AUTO 11004KT 1 1/4SM 20/20 A3000 RMK T02000200 IEM_DS3505
ZGSZ,1997-12-19 15:00,ZGSZ 191500Z AUTO 10002KT 1SM 20/20 A3000 RMK T02000200 IEM_DS3505
ZGSZ,1997-12-19 16:00,ZGSZ 191600Z AUTO 31002KT 1SM 20/20 A3000 RMK T02000200 IEM_DS3505
ZGSZ,1997-12-19 17:00,ZGSZ 191700Z AUTO 00000KT 1/4SM 19/19 A3000 RMK T01900190 IEM_DS3505
ZGSZ,1997-12-19 18:00,ZGSZ 191800Z AUTO 11004KT 4SM 20/18 A2997 RMK SLP157 T02020184 57008 IEM_DS3505
ZGSZ,1997-12-19 21:00,ZGSZ 192100Z AUTO 04006KT 4SM 20/18 A2997 RMK SLP154 T01960180 57003 IEM_DS3505
ZGSZ,1997-12-19 22:00,ZGSZ 192200Z AUTO 34002KT 1/4SM 19/19 A2997 RMK T01900190 IEM_DS3505
ZGSZ,1997-12-19 23:00,ZGSZ 192300Z AUTO 00000KT 1/8SM 19/19 A3000 RMK T01900190 IEM_DS3505
ZGSZ,1997-12-20 00:00,ZGSZ 200000Z AUTO 04004KT 3SM 19/18 A3003 RMK SLP174 T01910176 52020 IEM_DS3505
ZGSZ,1997-12-20 01:00,ZGSZ 200100Z AUTO 33004KT 1/2SM 20/20 A3003 RMK T02000200 IEM_DS3505
ZGSZ,1997-12-20 02:00,ZGSZ 200200Z AUTO 00000KT 1SM 22/22 A3006 RMK T02200220 IEM_DS3505
ZGSZ,1997-12-20 03:00,ZGSZ 200300Z AUTO 34004KT 2 1/2SM 23/19 A3003 RMK SLP178 T02320188 52004 IEM_DS3505
ZGSZ,1997-12-20 04:00,ZGSZ 200400Z AUTO 23006KT 1SM 26/21 A3000 RMK T02600210 IEM_DS3505
ZGSZ,1997-12-20 05:00,ZGSZ 200500Z AUTO 26006KT 1 1/4SM 23/21 A2997 RMK T02300210 IEM_DS3505
ZGSZ,1997-12-20 06:00,ZGSZ 200600Z AUTO 18002KT 8SM 27/19 A2994 RMK SLP145 T02710194 57033 IEM_DS3505
ZGSZ,1997-12-20 07:00,ZGSZ 200700Z AUTO 21004KT 2SM 24/21 A2994 RMK T02400210 IEM_DS3505
ZGSZ,1997-12-20 08:00,ZGSZ 200800Z AUTO 20004KT 3SM 24/21 A2994 RMK T02400210 IEM_DS3505
ZGSZ,1997-12-20 09:00,ZGSZ 200900Z AUTO 09004KT 6SM 24/20 A2994 RMK SLP151 T02440198 52006 IEM_DS3505
ZGSZ,1997-12-20 10:00,ZGSZ 201000Z AUTO 14002KT 2SM 22/21 A2997 RMK T02200210 IEM_DS3505
ZGSZ,1997-12-20 11:00,ZGSZ 201100Z AUTO 13002KT 2SM 22/21 A2997 RMK T02200210 IEM_DS3505
ZGSZ,1997-12-20 13:00,ZGSZ 201300Z AUTO 11004KT 1 1/4SM 22/21 A2997 RMK T02200210 IEM_DS3505
ZGSZ,1997-12-20 14:00,ZGSZ 201400Z AUTO 10006KT 2SM 22/21 A3000 RMK T02200210 IEM_DS3505
ZGSZ,1997-12-20 15:00,ZGSZ 201500Z AUTO 10004KT 4SM 22/21 A3000 RMK T02200210 IEM_DS3505
ZGSZ,1997-12-20 16:00,ZGSZ 201600Z AUTO 10006KT 4SM 22/21 A3000 RMK T02200210 IEM_DS3505
ZGSZ,1997-12-20 18:00,ZGSZ 201800Z AUTO 09006KT 4SM 22/20 RMK SLP163 T02150198 57001 IEM_DS3505
ZGSZ,1997-12-20 21:00,ZGSZ 202100Z AUTO 07004KT 3SM 21/20 A2994 RMK 70001 SLP159 T02070199 57004 IEM_DS3505
ZGSZ,1997-12-20 22:00,ZGSZ 202200Z AUTO 11006KT 2 1/2SM 21/21 A2994 RMK T02100210 IEM_DS3505
ZGSZ,1997-12-20 23:00,ZGSZ 202300Z AUTO 12008KT 2SM 21/21 A2994 RMK T02100210 IEM_DS3505
ZGSZ,1997-12-21 00:00,ZGSZ 210000Z AUTO 07006KT 4SM 21/19 A2997 RMK 60001 70001 SLP165 T02070194 52006 IEM_DS3505
ZGSZ,1997-12-21 01:00,ZGSZ 210100Z AUTO 10008KT 3SM 22/21 A3000 RMK T02200210 IEM_DS3505
ZGSZ,1997-12-21 02:00,ZGSZ 210200Z AUTO 10008KT 3SM 22/21 A3003 RMK T02200210 IEM_DS3505
ZGSZ,1997-12-21 03:00,ZGSZ 210300Z AUTO 14006KT 4SM 21/19 A3003 RMK SLP174 T02110194 52009 IEM_DS3505
ZGSZ,1997-12-21 04:00,ZGSZ 210400Z AUTO 09008KT 3SM 23/21 A3000 RMK T02300210 IEM_DS3505
ZGSZ,1997-12-21 05:00,ZGSZ 210500Z AUTO 10008KT 2 1/2SM 23/21 A2997 RMK T02300210 IEM_DS3505
ZGSZ,1997-12-21 06:00,ZGSZ 210600Z AUTO 14006KT 4SM 22/19 A2997 RMK SLP153 T02150191 57021 IEM_DS3505
ZGSZ,1997-12-21 07:00,ZGSZ 210700Z AUTO 10010KT 2 1/2SM 23/21 A2994 RMK T02300210 IEM_DS3505
ZGSZ,1997-12-21 08:00,ZGSZ 210800Z AUTO 09010KT 2 1/2SM 24/21 A2994 RMK T02400210 IEM_DS3505
ZGSZ,1997-12-21 09:00,ZGSZ 210900Z AUTO 07006KT 3SM 22/19 A2997 RMK SLP157 T02150190 52004 IEM_DS3505
ZGSZ,1997-12-21 10:00,ZGSZ 211000Z AUTO 10010KT 3SM 22/20 A2997 RMK T02200200 IEM_DS3505
ZGSZ,1997-12-21 12:00,ZGSZ 211200Z AUTO 09008KT 4SM 21/20 A3000 RMK SLP167 T02100200 52010 IEM_DS3505
ZGSZ,1997-12-21 13:00,ZGSZ 211300Z AUTO 10008KT 3SM 21/20 A3000 RMK T02100200 IEM_DS3505
ZGSZ,1997-12-21 14:00,ZGSZ 211400Z AUTO 11008KT 2 1/2SM 21/20 A3000 RMK T02100200 IEM_DS3505
ZGSZ,1997-12-21 15:00,ZGSZ 211500Z AUTO 10012KT 4SM 21/20 A3003 RMK T02100200 IEM_DS3505
ZGSZ,1997-12-21 18:00,ZGSZ 211800Z AUTO 14004KT 5SM 20/19 RMK SLP178 T02020186 52001 IEM_DS3505
ZGSZ,1997-12-21 21:00,ZGSZ 212100Z AUTO 04006KT 3SM 20/18 RMK 70016 SLP178 T01960185 54000 IEM_DS3505
ZGSZ,1997-12-21 22:00,ZGSZ 212200Z AUTO 02006KT 7SM 19/19 A3003 RMK T01900190 IEM_DS3505
ZGSZ,1997-12-21 23:00,ZGSZ 212300Z AUTO 01008KT 7SM 19/19 A3006 RMK T01900190 IEM_DS3505
ZGSZ,1997-12-22 00:00,ZGSZ 220000Z AUTO 34006KT 5SM 18/17 A3009 RMK 60016 70016 T01850170 52012 IEM_DS3505
ZGSZ,1997-12-22 02:00,ZGSZ 220200Z AUTO 35008KT 5SM 17/17 A3015 RMK T01700170 IEM_DS3505
ZGSZ,1997-12-22 03:00,ZGSZ 220300Z AUTO 36010KT 6SM 17/15 A3012 RMK SLP205 T01720150 52014 IEM_DS3505
ZGSZ,1997-12-22 04:00,ZGSZ 220400Z AUTO 01012KT 7SM 16/16 A3012 RMK T01600160 IEM_DS3505
ZGSZ,1997-12-22 05:00,ZGSZ 220500Z AUTO 02012KT 7SM 16/16 A3009 RMK T01600160 IEM_DS3505
ZGSZ,1997-12-22 06:00,ZGSZ 220600Z AUTO 04010KT 11SM 17/13 A3006 RMK 60012 SLP188 T01670129 57017 IEM_DS3505
ZGSZ,1997-12-22 07:00,ZGSZ 220700Z AUTO 02008KT 7SM 16/16 A3006 RMK T01600160 IEM_DS3505
ZGSZ,1997-12-22 08:00,ZGSZ 220800Z AUTO 01006KT 7SM 16/16 A3006 RMK T01600160 IEM_DS3505
ZGSZ,1997-12-22 09:00,ZGSZ 220900Z AUTO 36010KT 9SM 16/13 A3009 RMK SLP196 T01550126 52008 IEM_DS3505
ZGSZ,1997-12-22 10:00,ZGSZ 221000Z AUTO 03008KT 7SM 16/15 A3009 RMK T01600150 IEM_DS3505
ZGSZ,1997-12-22 11:00,ZGSZ 221100Z AUTO 02012KT 7SM 15/15 A3012 RMK T01500150 IEM_DS3505
ZGSZ,1997-12-22 12:00,ZGSZ 221200Z AUTO 04008KT 10SM 15/12 A3015 RMK 60000 SLP211 T01540123 52015 IEM_DS3505
ZGSZ,1997-12-22 13:00,ZGSZ 221300Z AUTO 01008KT 7SM 15/14 A3015 RMK T01500140 IEM_DS3505
ZGSZ,1997-12-22 14:00,ZGSZ 221400Z AUTO 01008KT 7SM 15/14 A3015 RMK T01500140 IEM_DS3505
ZGSZ,1997-12-22 15:00,ZGSZ 221500Z AUTO 02008KT 7SM 14/13 A3015 RMK T01400130 IEM_DS3505
ZGSZ,1997-12-22 16:00,ZGSZ 221600Z AUTO 35004KT 7SM 14/13 A3015 RMK T01400130 IEM_DS3505
ZGSZ,1997-12-22 18:00,ZGSZ 221800Z AUTO 04010KT 7SM 13/11 RMK 60035 SLP220 T01260113 52001 IEM_DS3505
ZGSZ,1997-12-22 21:00,ZGSZ 222100Z AUTO 04006KT 11SM 12/10 A3015 RMK 70051 SLP212 T01250100 57008 IEM_DS3505
ZGSZ,1997-12-22 22:00,ZGSZ 222200Z AUTO 35010KT 7SM 13/12 A3018 RMK T01300120 IEM_DS3505
ZGSZ,1997-12-22 23:00,ZGSZ 222300Z AUTO 03010KT 7SM 13/12 A3018 RMK T01300120 IEM_DS3505
ZGSZ,1997-12-23 00:00,ZGSZ 230000Z AUTO 04006KT 19SM 13/09 A3018 RMK 60004 70051 SLP229 T01280086 52016 IEM_DS3505
ZGSZ,1997-12-23 01:00,ZGSZ 230100Z AUTO 36010KT 7SM 13/11 A3021 RMK T01300110 IEM_DS3505
ZGSZ,1997-12-23 02:00,ZGSZ 230200Z AUTO 01012KT 7SM 13/11 A3021 RMK T01300110 IEM_DS3505
ZGSZ,1997-12-23 03:00,ZGSZ 230300Z AUTO 04006KT 16SM 14/09 A3021 RMK SLP232 T01430090 52003 IEM_DS3505
ZGSZ,1997-12-23 04:00,ZGSZ 230400Z AUTO 01010KT 7SM 15/12 A3018 RMK T01500120 IEM_DS3505
ZGSZ,1997-12-23 05:00,ZGSZ 230500Z AUTO 36010KT 7SM 15/12 A3015 RMK T01500120 IEM_DS3505
ZGSZ,1997-12-23 06:00,ZGSZ 230600Z AUTO 36006KT 16SM 16/10 RMK SLP204 T01630096 57027 IEM_DS3505
ZGSZ,1997-12-23 07:00,ZGSZ 230700Z AUTO 36012KT 7SM 15/12 A3012 RMK T01500120 IEM_DS3505
ZGSZ,1997-12-23 08:00,ZGSZ 230800Z AUTO 01012KT 7SM 16/11 A3012 RMK T01600110 IEM_DS3505
ZGSZ,1997-12-23 09:00,ZGSZ 230900Z AUTO 34004KT 14SM 16/09 A3012 RMK SLP203 T01580094 57001 IEM_DS3505
ZGSZ,1997-12-23 10:00,ZGSZ 231000Z AUTO 02010KT 6SM 15/11 A3012 RMK T01500110 IEM_DS3505
ZGSZ,1997-12-23 11:00,ZGSZ 231100Z AUTO 03008KT 6SM 15/11 A3015 RMK T01500110 IEM_DS3505
ZGSZ,1997-12-23 12:00,ZGSZ 231200Z AUTO 04008KT 9SM 14/09 A3015 RMK SLP223 T01430088 52019 IEM_DS3505
ZGSZ,1997-12-23 13:00,ZGSZ 231300Z AUTO 03010KT 7SM 14/10 A3015 RMK T01400100 IEM_DS3505
ZGSZ,1997-12-23 14:00,ZGSZ 231400Z AUTO 02010KT 6SM 13/10 A3018 RMK T01300100 IEM_DS3505
ZGSZ,1997-12-23 15:00,ZGSZ 231500Z AUTO 02010KT 6SM 12/09 A3015 RMK T01200090 IEM_DS3505
ZGSZ,1997-12-23 17:00,ZGSZ 231700Z AUTO 01008KT 6SM 12/09 A3015 RMK T01200090 IEM_DS3505
ZGSZ,1997-12-23 18:00,ZGSZ 231800Z AUTO 04006KT 9SM 12/07 A3015 RMK SLP213 T01170069 57011 IEM_DS3505
ZGSZ,1997-12-23 21:00,ZGSZ 232100Z AUTO 04010KT 8SM 11/06 A3012 RMK SLP210 T01120063 57004 IEM_DS3505
ZGSZ,1997-12-23 22:00,ZGSZ 232200Z AUTO 02010KT 6SM 11/08 A3015 RMK T01100080 IEM_DS3505
ZGSZ,1997-12-23 23:00,ZGSZ 232300Z AUTO 02008KT 6SM 11/08 A3015 RMK T01100080 IEM_DS3505
ZGSZ,1997-12-24 00:00,ZGSZ 240000Z AUTO 04006KT 11SM 11/06 A3015 RMK SLP223 T01140065 52013 IEM_DS3505
ZGSZ,1997-12-24 01:00,ZGSZ 240100Z AUTO 01008KT 6SM 13/09 A3018 RMK T01300090 IEM_DS3505
ZGSZ,1997-12-24 02:00,ZGSZ 240200Z AUTO 02012KT 6SM 14/09 A3021 RMK T01400090 IEM_DS3505
ZGSZ,1997-12-24 03:00,ZGSZ 240300Z AUTO 02002KT 9SM 14/08 A3018 RMK SLP224 T01410076 52001 IEM_DS3505
ZGSZ,1997-12-24 04:00,ZGSZ 240400Z AUTO 36008KT 6SM 15/10 A3015 RMK T01500100 IEM_DS3505
ZGSZ,1997-12-24 05:00,ZGSZ 240500Z AUTO 01008KT 6SM 15/10 A3012 RMK T01500100 IEM_DS3505
ZGSZ,1997-12-24 06:00,ZGSZ 240600Z AUTO 04006KT 8SM 15/09 A3009 RMK SLP200 T01540090 57024 IEM_DS3505
ZGSZ,1997-12-24 08:00,ZGSZ 240800Z AUTO 01006KT 7SM 15/10 A3009 RMK T01500100 IEM_DS3505
ZGSZ,1997-12-24 09:00,ZGSZ 240900Z AUTO 04006KT 7SM 15/10 A3009 RMK SLP198 T01520096 57002 IEM_DS3505
ZGSZ,1997-12-24 10:00,ZGSZ 241000Z AUTO 01004KT 7SM 15/11 A3009 RMK T01500110 IEM_DS3505
ZGSZ,1997-12-24 11:00,ZGSZ 241100Z AUTO 36004KT 4SM 15/11 A3009 RMK T01500110 IEM_DS3505
ZGSZ,1997-12-24 12:00,ZGSZ 241200Z AUTO 36004KT 7SM 15/10 A3012 RMK SLP205 T01500102 52007 IEM_DS3505
ZGSZ,1997-12-24 13:00,ZGSZ 241300Z AUTO 04006KT 4SM 15/12 A3012 RMK T01500120 IEM_DS3505
ZGSZ,1997-12-24 14:00,ZGSZ 241400Z AUTO 06006KT 4SM 15/12 A3012 RMK T01500120 IEM_DS3505
ZGSZ,1997-12-24 15:00,ZGSZ 241500Z AUTO 07002KT 4SM 15/12 A3012 RMK T01500120 IEM_DS3505
ZGSZ,1997-12-24 16:00,ZGSZ 241600Z AUTO 04004KT 3SM 15/12 A3012 RMK T01500120 IEM_DS3505
ZGSZ,1997-12-24 17:00,ZGSZ 241700Z AUTO 06006KT 3SM 15/12 A3009 RMK T01500120 IEM_DS3505
ZGSZ,1997-12-24 18:00,ZGSZ 241800Z AUTO 04006KT 6SM 14/11 RMK SLP199 T01410107 57004 IEM_DS3505
ZGSZ,1997-12-24 21:00,ZGSZ 242100Z AUTO 02004KT 6SM 14/11 A3009 RMK SLP196 T01390109 57003 IEM_DS3505
ZGSZ,1997-12-24 22:00,ZGSZ 242200Z AUTO 03004KT 3SM 14/12 A3012 RMK T01400120 IEM_DS3505
ZGSZ,1997-12-25 00:00,ZGSZ 250000Z AUTO 04008KT 7SM 14/11 A3015 RMK SLP210 T01420112 52014 IEM_DS3505
ZGSZ,1997-12-25 01:00,ZGSZ 250100Z AUTO 05006KT 4SM 16/13 A3018 RMK T01600130 IEM_DS3505
ZGSZ,1997-12-25 02:00,ZGSZ 250200Z AUTO 05006KT 7SM 18/14 A3018 RMK T01800140 IEM_DS3505
ZGSZ,1997-12-25 04:00,ZGSZ 250400Z AUTO 10006KT 6SM 21/15 A3015 RMK T02100150 IEM_DS3505
ZGSZ,1997-12-25 05:00,ZGSZ 250500Z AUTO 04004KT 7SM 22/16 A3009 RMK T02200160 IEM_DS3505
ZGSZ,1997-12-25 06:00,ZGSZ 250600Z AUTO 09008KT 16SM 21/14 A3006 RMK SLP199 T02090142 57024 IEM_DS3505
ZGSZ,1997-12-25 07:00,ZGSZ 250700Z AUTO 28010KT 6SM 21/16 A3006 RMK T02100160 IEM_DS3505
ZGSZ,1997-12-25 08:00,ZGSZ 250800Z AUTO 30006KT 3SM 21/16 A3006 RMK T02100160 IEM_DS3505
ZGSZ,1997-12-25 09:00,ZGSZ 250900Z AUTO 14006KT 19SM 20/14 A3009 RMK SLP200 T02020136 52001 IEM_DS3505
ZGSZ,1997-12-25 10:00,ZGSZ 251000Z AUTO 35004KT 2 1/2SM 19/16 A3009 RMK T01900160 IEM_DS3505
ZGSZ,1997-12-25 11:00,ZGSZ 251100Z AUTO 32002KT 1 1/2SM 19/16 A3012 RMK T01900160 IEM_DS3505
ZGSZ,1997-12-25 12:00,ZGSZ 251200Z AUTO 14008KT 9SM 18/14 A3012 RMK SLP205 T01830145 52005 IEM_DS3505
ZGSZ,1997-12-25 13:00,ZGSZ 251300Z AUTO 29004KT 1 1/4SM 17/16 A3015 RMK T01700160 IEM_DS3505
ZGSZ,1997-12-25 14:00,ZGSZ 251400Z AUTO 31006KT 1SM 17/16 A3015 RMK T01700160 IEM_DS3505
ZGSZ,1997-12-25 15:00,ZGSZ 251500Z AUTO 33006KT 1SM 16/16 A3015 RMK T01600160 IEM_DS3505
ZGSZ,1997-12-25 18:00,ZGSZ 251800Z AUTO 09004KT 8SM 18/15 RMK SLP211 T01830152 57002 IEM_DS3505
ZGSZ,1997-12-25 21:00,ZGSZ 252100Z AUTO 09004KT 7SM 17/16 A3015 RMK 70002 SLP213 T01730158 52002 IEM_DS3505
ZGSZ,1997-12-25 22:00,ZGSZ 252200Z AUTO 36006KT 1 1/4SM 17/16 A3015 RMK T01700160 IEM_DS3505
ZGSZ,1997-12-25 23:00,ZGSZ 252300Z AUTO 04010KT 3SM 17/16 A3015 RMK T01700160 IEM_DS3505
ZGSZ,1997-12-26 00:00,ZGSZ 260000Z AUTO 04006KT 4SM 17/15 A3015 RMK 60002 70002 SLP227 T01700146 52014 IEM_DS3505
ZGSZ,1997-12-26 01:00,ZGSZ 260100Z AUTO 02006KT 2 1/2SM 18/16 A3021 RMK T01800160 IEM_DS3505
ZGSZ,1997-12-26 02:00,ZGSZ 260200Z AUTO 02006KT 2 1/2SM 19/16 A3021 RMK T01900160 IEM_DS3505
ZGSZ,1997-12-26 03:00,ZGSZ 260300Z AUTO 34006KT 6SM 19/15 A3021 RMK SLP231 T01930147 52004 IEM_DS3505
ZGSZ,1997-12-26 04:00,ZGSZ 260400Z AUTO 35008KT 2SM 18/16 A3018 RMK T01800160 IEM_DS3505
ZGSZ,1997-12-26 05:00,ZGSZ 260500Z AUTO 34010KT 2SM 18/16 A3015 RMK T01800160 IEM_DS3505
ZGSZ,1997-12-26 06:00,ZGSZ 260600Z AUTO 34006KT 3SM 19/15 A3015 RMK SLP210 T01910150 57021 IEM_DS3505
ZGSZ,1997-12-26 07:00,ZGSZ 260700Z AUTO 02010KT 1 1/2SM 17/17 A3012 RMK T01700170 IEM_DS3505
ZGSZ,1997-12-26 08:00,ZGSZ 260800Z AUTO 03008KT 2SM 18/16 A3012 RMK T01800160 IEM_DS3505
ZGSZ,1997-12-26 09:00,ZGSZ 260900Z AUTO 09006KT 2 1/2SM 18/15 A3012 RMK SLP209 T01840152 57001 IEM_DS3505
ZGSZ,1997-12-26 10:00,ZGSZ 261000Z AUTO 31006KT 2SM 18/16 A3012 RMK T01800160 IEM_DS3505
ZGSZ,1997-12-26 11:00,ZGSZ 261100Z AUTO 33008KT 1 1/2SM 17/17 A3015 RMK T01700170 IEM_DS3505
ZGSZ,1997-12-26 12:00,ZGSZ 261200Z AUTO 04006KT 2 1/2SM 18/15 A3015 RMK SLP217 T01800147 52008 IEM_DS3505
ZGSZ,1997-12-26 14:00,ZGSZ 261400Z AUTO 02004KT 1 1/4SM 16/16 A3015 RMK T01600160 IEM_DS3505
ZGSZ,1997-12-26 15:00,ZGSZ 261500Z AUTO 17002KT 2 1/2SM 17/16 A3015 RMK T01700160 IEM_DS3505
ZGSZ,1997-12-26 16:00,ZGSZ 261600Z AUTO 00000KT 2 1/2SM 16/15 A3015 RMK T01600150 IEM_DS3505
ZGSZ,1997-12-26 18:00,ZGSZ 261800Z AUTO 04006KT 7SM 17/14 RMK SLP211 T01670144 57008 IEM_DS3505
ZGSZ,1997-12-26 20:00,ZGSZ 262000Z AUTO 33008KT 2SM 15/15 A3015 RMK T01500150 IEM_DS3505
ZGSZ,1997-12-26 21:00,ZGSZ 262100Z AUTO 02002KT 9SM 16/14 A3015 RMK SLP216 T01610140 52005 IEM_DS3505
ZGSZ,1997-12-27 00:00,ZGSZ 270000Z AUTO 04006KT 4SM 16/14 A3021 RMK SLP241 T01640137 52025 IEM_DS3505
ZGSZ,1997-12-27 01:00,ZGSZ 270100Z AUTO 03002KT 2 1/2SM 17/16 A3024 RMK T01700160 IEM_DS3505
ZGSZ,1997-12-27 02:00,ZGSZ 270200Z AUTO 05004KT 2 1/2SM 18/16 A3024 RMK T01800160 IEM_DS3505
ZGSZ,1997-12-27 03:00,ZGSZ 270300Z AUTO 32004KT 4SM 18/14 A3021 RMK SLP244 T01770144 52003 IEM_DS3505
ZGSZ,1997-12-27 04:00,ZGSZ 270400Z AUTO 02006KT 4SM 20/17 A3018 RMK T02000170 IEM_DS3505
ZGSZ,1997-12-27 05:00,ZGSZ 270500Z AUTO 02004KT 4SM 21/17 A3015 RMK T02100170 IEM_DS3505
ZGSZ,1997-12-27 06:00,ZGSZ 270600Z AUTO 04008KT 7SM 22/15 A3015 RMK SLP209 T02180151 57035 IEM_DS3505
ZGSZ,1997-12-27 08:00,ZGSZ 270800Z AUTO 31006KT 3SM 22/18 A3012 RMK T02200180 IEM_DS3505
ZGSZ,1997-12-27 09:00,ZGSZ 270900Z AUTO 11004KT 12SM 22/14 A3012 RMK SLP206 T02150145 57003 IEM_DS3505
ZGSZ,1997-12-27 10:00,ZGSZ 271000Z AUTO 36006KT 2 1/2SM 20/17 A3015 RMK T02000170 IEM_DS3505
ZGSZ,1997-12-27 12:00,ZGSZ 271200Z AUTO 14004KT 10SM 20/15 A3018 RMK SLP228 T01950149 52022 IEM_DS3505
ZGSZ,1997-12-27 13:00,ZGSZ 271300Z AUTO 09004KT 1 1/2SM 19/17 A3018 RMK T01900170 IEM_DS3505
ZGSZ,1997-12-27 14:00,ZGSZ 271400Z AUTO 00000KT 1 1/4SM 19/17 A3018 RMK T01900170 IEM_DS3505
ZGSZ,1997-12-27 15:00,ZGSZ 271500Z AUTO 06004KT 2SM 19/17 A3018 RMK T01900170 IEM_DS3505
ZGSZ,1997-12-27 18:00,ZGSZ 271800Z AUTO 36004KT 10SM 19/16 RMK SLP224 T01860157 57005 IEM_DS3505
ZGSZ,1997-12-27 21:00,ZGSZ 272100Z AUTO 04004KT 7SM 18/16 A3015 RMK SLP218 T01790161 57006 IEM_DS3505
ZGSZ,1997-12-27 22:00,ZGSZ 272200Z AUTO 00000KT 6SM 18/17 A3015 RMK T01800170 IEM_DS3505
ZGSZ,1997-12-27 23:00,ZGSZ 272300Z AUTO 00000KT 6SM 18/17 A3018 RMK T01800170 IEM_DS3505
ZGSZ,1997-12-28 00:00,ZGSZ 280000Z AUTO 09004KT 7SM 18/16 A3018 RMK SLP231 T01830159 52013 IEM_DS3505
ZGSZ,1997-12-28 01:00,ZGSZ 280100Z AUTO 09004KT 4SM 19/17 A3021 RMK T01900170 IEM_DS3505
ZGSZ,1997-12-28 02:00,ZGSZ 280200Z AUTO 08002KT 6SM 20/18 A3021 RMK T02000180 IEM_DS3505
ZGSZ,1997-12-28 03:00,ZGSZ 280300Z AUTO 09002KT 9SM 20/16 A3021 RMK SLP234 T02020159 52003 IEM_DS3505
ZGSZ,1997-12-28 04:00,ZGSZ 280400Z AUTO 29006KT 4SM 22/18 A3018 RMK T02200180 IEM_DS3505
ZGSZ,1997-12-28 05:00,ZGSZ 280500Z AUTO 28004KT 5SM 22/18 A3015 RMK T02200180 IEM_DS3505
ZGSZ,1997-12-28 06:00,ZGSZ 280600Z AUTO 18004KT 9SM 24/16 A3009 RMK SLP202 T02360159 57031 IEM_DS3505
ZGSZ,1997-12-28 07:00,ZGSZ 280700Z AUTO 28006KT 4SM 23/18 A3009 RMK T02300180 IEM_DS3505
ZGSZ,1997-12-28 08:00,ZGSZ 280800Z AUTO 25006KT 7SM 21/18 A3009 RMK T02100180 IEM_DS3505
ZGSZ,1997-12-28 09:00,ZGSZ 280900Z AUTO 14004KT 11SM 22/15 A3009 RMK SLP202 T02240146 54000 IEM_DS3505
ZGSZ,1997-12-28 10:00,ZGSZ 281000Z AUTO 00000KT 7SM 21/18 A3012 RMK T02100180 IEM_DS3505
ZGSZ,1997-12-28 11:00,ZGSZ 281100Z AUTO 16004KT 4SM 20/18 A3012 RMK T02000180 IEM_DS3505
ZGSZ,1997-12-28 12:00,ZGSZ 281200Z AUTO 14006KT 9SM 20/16 A3012 RMK SLP212 T01990155 52009 IEM_DS3505
ZGSZ,1997-12-28 13:00,ZGSZ 281300Z AUTO 10002KT 1 1/2SM 19/18 A3012 RMK T01900180 IEM_DS3505
ZGSZ,1997-12-28 14:00,ZGSZ 281400Z AUTO 14004KT 1 1/4SM 19/18 A3012 RMK T01900180 IEM_DS3505
ZGSZ,1997-12-28 15:00,ZGSZ 281500Z AUTO 14006KT 1 1/4SM 19/17 A3012 RMK T01900170 IEM_DS3505
ZGSZ,1997-12-28 16:00,ZGSZ 281600Z AUTO 14004KT 2SM 18/17 A3012 RMK T01800170 IEM_DS3505
ZGSZ,1997-12-28 18:00,ZGSZ 281800Z AUTO 09004KT 5SM 18/16 RMK SLP200 T01850162 57010 IEM_DS3505
ZGSZ,1997-12-28 21:00,ZGSZ 282100Z AUTO 04004KT 4SM 18/16 A3009 RMK SLP201 T01790161 52001 IEM_DS3505
ZGSZ,1997-12-28 22:00,ZGSZ 282200Z AUTO 06004KT 3SM 18/17 A3009 RMK T01800170 IEM_DS3505
ZGSZ,1997-12-28 23:00,ZGSZ 282300Z AUTO 09008KT 4SM 19/17 A3009 RMK T01900170 IEM_DS3505
ZGSZ,1997-12-29 00:00,ZGSZ 290000Z AUTO 04006KT 4SM 18/16 A3012 RMK SLP208 T01760157 52006 IEM_DS3505
ZGSZ,1997-12-29 02:00,ZGSZ 290200Z AUTO 10002KT 4SM 22/18 A3015 RMK T02200180 IEM_DS3505
ZGSZ,1997-12-29 03:00,ZGSZ 290300Z AUTO 09004KT 7SM 21/16 A3012 RMK SLP205 T02130165 57002 IEM_DS3505
ZGSZ,1997-12-29 04:00,ZGSZ 290400Z AUTO 19006KT 7SM 23/20 A3009 RMK T02300200 IEM_DS3505
ZGSZ,1997-12-29 05:00,ZGSZ 290500Z AUTO 30004KT 2 1/2SM 22/19 A3006 RMK T02200190 IEM_DS3505
ZGSZ,1997-12-29 06:00,ZGSZ 290600Z AUTO 07004KT 8SM 23/17 A3003 RMK SLP177 T02330170 57028 IEM_DS3505
ZGSZ,1997-12-29 07:00,ZGSZ 290700Z AUTO 24004KT 4SM 23/19 A3000 RMK T02300190 IEM_DS3505
ZGSZ,1997-12-29 08:00,ZGSZ 290800Z AUTO 22002KT 4SM 24/19 A3000 RMK T02400190 IEM_DS3505
ZGSZ,1997-12-29 09:00,ZGSZ 290900Z AUTO 14006KT 9SM 23/17 A3000 RMK SLP171 T02330174 57006 IEM_DS3505
ZGSZ,1997-12-29 10:00,ZGSZ 291000Z AUTO 20002KT 4SM 21/19 A3003 RMK T02100190 IEM_DS3505
ZGSZ,1997-12-29 11:00,ZGSZ 291100Z AUTO 16004KT 3SM 21/19 A3003 RMK T02100190 IEM_DS3505
ZGSZ,1997-12-29 12:00,ZGSZ 291200Z AUTO 14004KT 7SM 21/16 A3003 RMK SLP179 T02090165 52008 IEM_DS3505
ZGSZ,1997-12-29 13:00,ZGSZ 291300Z AUTO 14002KT 1 1/4SM 20/19 A3003 RMK T02000190 IEM_DS3505
ZGSZ,1997-12-29 14:00,ZGSZ 291400Z AUTO 00000KT 1 1/2SM 19/18 A3003 RMK T01900180 IEM_DS3505
ZGSZ,1997-12-29 18:00,ZGSZ 291800Z AUTO 07004KT 4SM 19/17 RMK SLP179 T01890169 57005 IEM_DS3505
ZGSZ,1997-12-29 21:00,ZGSZ 292100Z AUTO 04004KT 4SM 18/17 A3003 RMK SLP176 T01810166 57003 IEM_DS3505
ZGSZ,1997-12-29 22:00,ZGSZ 292200Z AUTO 00000KT 1SM 17/17 A3003 RMK T01700170 IEM_DS3505
ZGSZ,1997-12-29 23:00,ZGSZ 292300Z AUTO 00000KT 1SM 16/16 A3006 RMK T01600160 IEM_DS3505
ZGSZ,1997-12-30 00:00,ZGSZ 300000Z AUTO 04006KT 2 1/2SM 18/16 A3009 RMK SLP197 T01820164 52020 IEM_DS3505
ZGSZ,1997-12-30 01:00,ZGSZ 300100Z AUTO 00000KT 1SM 20/20 A3009 RMK T02000200 IEM_DS3505
ZGSZ,1997-12-30 02:00,ZGSZ 300200Z AUTO 28004KT 1SM 21/21 A3012 RMK T02100210 IEM_DS3505
ZGSZ,1997-12-30 03:00,ZGSZ 300300Z AUTO 36006KT 3SM 22/17 A3009 RMK SLP201 T02250173 52005 IEM_DS3505
ZGSZ,1997-12-30 04:00,ZGSZ 300400Z AUTO 31008KT 1SM 24/21 A3006 RMK T02400210 IEM_DS3505
ZGSZ,1997-12-30 05:00,ZGSZ 300500Z AUTO 28010KT 2 1/2SM 24/20 A3003 RMK T02400200 IEM_DS3505
ZGSZ,1997-12-30 06:00,ZGSZ 300600Z AUTO 34002KT 4SM 26/18 A3000 RMK SLP168 T02600182 57033 IEM_DS3505
ZGSZ,1997-12-30 07:00,ZGSZ 300700Z AUTO 30010KT 1SM 24/20 A3000 RMK T02400200 IEM_DS3505
ZGSZ,1997-12-30 08:00,ZGSZ 300800Z AUTO 30010KT 1SM 24/21 A3000 RMK T02400210 IEM_DS3505
ZGSZ,1997-12-30 09:00,ZGSZ 300900Z AUTO 22006KT 2SM 24/19 A3000 RMK SLP171 T02370192 52003 IEM_DS3505
ZGSZ,1997-12-30 10:00,ZGSZ 301000Z AUTO 30010KT 1SM 22/19 A3003 RMK T02200190 IEM_DS3505
ZGSZ,1997-12-30 11:00,ZGSZ 301100Z AUTO 31008KT 1 1/4SM 21/19 A3003 RMK T02100190 IEM_DS3505
ZGSZ,1997-12-30 12:00,ZGSZ 301200Z AUTO 20004KT 1SM 21/18 A3006 RMK SLP183 T02120182 52012 IEM_DS3505
ZGSZ,1997-12-30 13:00,ZGSZ 301300Z AUTO 34006KT 2SM 21/18 A3006 RMK T02100180 IEM_DS3505
ZGSZ,1997-12-30 14:00,ZGSZ 301400Z AUTO 11004KT 1 1/2SM 21/19 A3006 RMK T02100190 IEM_DS3505
ZGSZ,1997-12-30 18:00,ZGSZ 301800Z AUTO 04004KT 8SM 20/18 RMK SLP191 T02010175 52003 IEM_DS3505
ZGSZ,1997-12-30 21:00,ZGSZ 302100Z AUTO 09008KT 9SM 20/17 A3006 RMK SLP189 T01970167 57002 IEM_DS3505
ZGSZ,1997-12-30 22:00,ZGSZ 302200Z AUTO 09012KT 7SM 20/18 A3006 RMK T02000180 IEM_DS3505
ZGSZ,1997-12-30 23:00,ZGSZ 302300Z AUTO 10008KT 7SM 20/18 A3006 RMK T02000180 IEM_DS3505
