station,valid,metar
ZGSZ,2009-01-01 00:00,ZGSZ 010000Z AUTO 02006KT 9SM 10/M00 A3030 RMK SLP258 T01031002 52015 IEM_DS3505
ZGSZ,2009-01-01 01:00,ZGSZ 010100Z AUTO 02010KT 6SM 12/00 A3030 RMK T01200000 IEM_DS3505
ZGSZ,2009-01-01 02:00,ZGSZ 010200Z AUTO 01010KT 6SM 13/00 A3033 RMK T01300000 IEM_DS3505
ZGSZ,2009-01-01 03:00,ZGSZ 010300Z AUTO 04004KT 8SM 14/M01 A3030 RMK SLP265 T01451008 52007 IEM_DS3505
ZGSZ,2009-01-01 04:00,ZGSZ 010400Z AUTO 01012KT 6SM 16/00 A3027 RMK T01600000 IEM_DS3505
ZGSZ,2009-01-01 05:00,ZGSZ 010500Z AUTO 35010KT 6SM 17/00 A3024 RMK T01700000 IEM_DS3505
ZGSZ,2009-01-01 06:00,ZGSZ 010600Z AUTO 02006KT 9SM 17/M02 A3021 RMK SLP235 T01721015 57030 IEM_DS3505
ZGSZ,2009-01-01 07:00,ZGSZ 010700Z AUTO 36012KT 6SM 18/M01 A3021 RMK T01801010 IEM_DS3505
ZGSZ,2009-01-01 08:00,ZGSZ 010800Z AUTO 35012KT 6SM 18/M01 A3018 RMK T01801010 IEM_DS3505
ZGSZ,2009-01-01 09:00,ZGSZ 010900Z AUTO 36010KT 9SM 17/M02 A3021 RMK SLP231 T01671019 57004 IEM_DS3505
ZGSZ,2009-01-01 10:00,ZGSZ 011000Z AUTO 04008KT 6SM 17/M02 A3021 RMK T01701020 IEM_DS3505
ZGSZ,2009-01-01 11:00,ZGSZ 011100Z AUTO 03008KT 6SM 17/M01 A3024 RMK T01701010 IEM_DS3505
ZGSZ,2009-01-01 12:00,ZGSZ 011200Z AUTO 02004KT 8SM 15/M01 A3024 RMK SLP245 T01471006 52014 IEM_DS3505
ZGSZ,2009-01-01 13:00,ZGSZ 011300Z AUTO 03008KT 6SM 16/M02 A3027 RMK T01601020 IEM_DS3505
ZGSZ,2009-01-01 14:00,ZGSZ 011400Z AUTO 04008KT 6SM 15/M03 A3030 RMK T01501030 IEM_DS3505
ZGSZ,2009-01-01 15:00,ZGSZ 011500Z AUTO 04006KT 9SM 13/M04 A3030 RMK SLP260 T01331035 52015 IEM_DS3505
ZGSZ,2009-01-01 16:00,ZGSZ 011600Z AUTO 03008KT 6SM 13/M04 A3030 RMK T01301040 IEM_DS3505
ZGSZ,2009-01-01 17:00,ZGSZ 011700Z AUTO 03010KT 6SM 12/M04 A3030 RMK T01201040 IEM_DS3505
ZGSZ,2009-01-01 18:00,ZGSZ 011800Z AUTO 02004KT 10SM 11/M04 A3030 RMK SLP258 T01121045 57002 IEM_DS3505
ZGSZ,2009-01-01 21:00,ZGSZ 012100Z AUTO 07006KT 9SM 10/M05 RMK SLP254 T01001047 57004 IEM_DS3505
ZGSZ,2009-01-01 22:00,ZGSZ 012200Z AUTO 02008KT 6SM 10/M05 A3030 RMK T01001050 IEM_DS3505
ZGSZ,2009-01-01 23:00,ZGSZ 012300Z AUTO 04008KT 6SM 10/M05 A3033 RMK T01001050 IEM_DS3505
ZGSZ,2009-01-02 00:00,ZGSZ 020000Z AUTO 02006KT 9SM 10/M05 A3033 RMK SLP275 T00971054 52021 IEM_DS3505
ZGSZ,2009-01-02 01:00,ZGSZ 020100Z AUTO 01008KT 6SM 11/M04 A3036 RMK T01101040 IEM_DS3505
ZGSZ,2009-01-02 02:00,ZGSZ 020200Z AUTO 02010KT 6SM 13/M05 A3036 RMK T01301050 IEM_DS3505
ZGSZ,2009-01-02 03:00,ZGSZ 020300Z AUTO 04008KT 9SM 13/M05 A3036 RMK SLP278 T01281052 52003 IEM_DS3505
ZGSZ,2009-01-02 04:00,ZGSZ 020400Z AUTO 36006KT 6SM 16/M04 A3033 RMK T01601040 IEM_DS3505
ZGSZ,2009-01-02 05:00,ZGSZ 020500Z AUTO 35008KT 6SM 17/M02 A3027 RMK T01701020 IEM_DS3505
ZGSZ,2009-01-02 06:00,ZGSZ 020600Z AUTO 09006KT 7SM 17/M04 A3024 RMK SLP240 T01681044 57038 IEM_DS3505
ZGSZ,2009-01-02 07:00,ZGSZ 020700Z AUTO 35008KT 6SM 18/M04 A3021 RMK T01801040 IEM_DS3505
ZGSZ,2009-01-02 08:00,ZGSZ 020800Z AUTO 36008KT 6SM 18/M02 A3021 RMK T01801020 IEM_DS3505
ZGSZ,2009-01-02 09:00,ZGSZ 020900Z AUTO 36004KT 7SM 17/M03 A3021 RMK SLP233 T01691032 57007 IEM_DS3505
ZGSZ,2009-01-02 10:00,ZGSZ 021000Z AUTO 03006KT 6SM 16/M03 A3024 RMK T01601030 IEM_DS3505
ZGSZ,2009-01-02 11:00,ZGSZ 021100Z AUTO 04006KT 6SM 16/M02 A3024 RMK T01601020 IEM_DS3505
ZGSZ,2009-01-02 12:00,ZGSZ 021200Z AUTO 09002KT 9SM 14/02 A3027 RMK SLP257 T01370023 52024 IEM_DS3505
ZGSZ,2009-01-02 13:00,ZGSZ 021300Z AUTO 13006KT 3SM 14/02 A3030 RMK T01400020 IEM_DS3505
ZGSZ,2009-01-02 14:00,ZGSZ 021400Z AUTO 10006KT 4SM 14/04 A3027 RMK T01400040 IEM_DS3505
ZGSZ,2009-01-02 15:00,ZGSZ 021500Z AUTO 07002KT 8SM 13/05 A3030 RMK SLP259 T01270047 52002 IEM_DS3505
ZGSZ,2009-01-02 16:00,ZGSZ 021600Z AUTO 6SM 13/05 A3027 RMK T01300050 IEM_DS3505
ZGSZ,2009-01-02 17:00,ZGSZ 021700Z AUTO 03006KT 6SM 13/05 A3027 RMK T01300050 IEM_DS3505
ZGSZ,2009-01-02 18:00,ZGSZ 021800Z AUTO 04004KT 7SM 12/07 A3024 RMK SLP244 T01240067 57014 IEM_DS3505
ZGSZ,2009-01-02 19:00,ZGSZ 021900Z AUTO 03004KT 5SM 12/06 A3024 RMK T01200060 IEM_DS3505
ZGSZ,2009-01-02 20:00,ZGSZ 022000Z AUTO 05004KT 5SM 12/06 A3024 RMK T01200060 IEM_DS3505
ZGSZ,2009-01-02 21:00,ZGSZ 022100Z AUTO 07002KT 6SM 11/05 A3024 RMK SLP241 T01110050 57004 IEM_DS3505
ZGSZ,2009-01-02 22:00,ZGSZ 022200Z AUTO 04004KT 5SM 11/04 A3024 RMK T01100040 IEM_DS3505
ZGSZ,2009-01-02 23:00,ZGSZ 022300Z AUTO 02004KT 6SM 11/02 A3027 RMK T01100020 IEM_DS3505
ZGSZ,2009-01-03 00:00,ZGSZ 030000Z AUTO 04004KT 6SM 11/02 A3027 RMK SLP250 T01080021 52009 IEM_DS3505
ZGSZ,2009-01-03 01:00,ZGSZ 030100Z AUTO 01006KT 6SM 13/02 A3027 RMK T01300020 IEM_DS3505
ZGSZ,2009-01-03 02:00,ZGSZ 030200Z AUTO 36006KT 5SM 14/02 A3027 RMK T01400020 IEM_DS3505
ZGSZ,2009-01-03 03:00,ZGSZ 030300Z AUTO 09004KT 6SM 16/01 A3027 RMK SLP248 T01560006 57002 IEM_DS3505
ZGSZ,2009-01-03 04:00,ZGSZ 030400Z AUTO 03004KT 5SM 17/01 A3021 RMK T01700010 IEM_DS3505
ZGSZ,2009-01-03 05:00,ZGSZ 030500Z AUTO 33004KT 5SM 18/00 A3018 RMK T01800000 IEM_DS3505
ZGSZ,2009-01-03 06:00,ZGSZ 030600Z AUTO 09004KT 11SM 18/01 A3015 RMK SLP215 T01820008 57032 IEM_DS3505
ZGSZ,2009-01-03 07:00,ZGSZ 030700Z AUTO 31008KT 4SM 18/01 A3012 RMK T01800010 IEM_DS3505
ZGSZ,2009-01-03 08:00,ZGSZ 030800Z AUTO 4SM 19/01 A3012 RMK T01900010 IEM_DS3505
ZGSZ,2009-01-03 09:00,ZGSZ 030900Z AUTO 14004KT 10SM 18/01 A3012 RMK SLP206 T01750011 57009 IEM_DS3505
ZGSZ,2009-01-03 10:00,ZGSZ 031000Z AUTO 29006KT 4SM 17/05 A3012 RMK T01700050 IEM_DS3505
ZGSZ,2009-01-03 11:00,ZGSZ 031100Z AUTO 31006KT 3SM 16/05 A3015 RMK T01600050 IEM_DS3505
ZGSZ,2009-01-03 12:00,ZGSZ 031200Z AUTO 11002KT 8SM 16/05 A3015 RMK SLP218 T01580054 52011 IEM_DS3505
ZGSZ,2009-01-03 13:00,ZGSZ 031300Z AUTO 4SM 16/03 A3018 RMK T01600030 IEM_DS3505
ZGSZ,2009-01-03 14:00,ZGSZ 031400Z AUTO 11002KT 4SM 16/03 A3018 RMK T01600030 IEM_DS3505
ZGSZ,2009-01-03 15:00,ZGSZ 031500Z AUTO 11004KT 8SM 15/08 A3018 RMK SLP226 T01530083 52009 IEM_DS3505
ZGSZ,2009-01-03 16:00,ZGSZ 031600Z AUTO 4SM 16/07 A3018 RMK T01600070 IEM_DS3505
ZGSZ,2009-01-03 17:00,ZGSZ 031700Z AUTO 00000KT 4SM 14/09 A3015 RMK T01400090 IEM_DS3505
ZGSZ,2009-01-03 18:00,ZGSZ 031800Z AUTO 02002KT 7SM 14/10 A3015 RMK SLP212 T01450097 57014 IEM_DS3505
ZGSZ,2009-01-03 19:00,ZGSZ 031900Z AUTO 00000KT 4SM 14/09 A3015 RMK T01400090 IEM_DS3505
ZGSZ,2009-01-03 20:00,ZGSZ 032000Z AUTO 02004KT 4SM 15/08 A3012 RMK T01500080 IEM_DS3505
ZGSZ,2009-01-03 21:00,ZGSZ 032100Z AUTO 04006KT 4SM 14/08 A3012 RMK SLP204 T01390081 57008 IEM_DS3505
ZGSZ,2009-01-03 22:00,ZGSZ 032200Z AUTO 02006KT 3SM 15/04 A3015 RMK T01500040 IEM_DS3505
ZGSZ,2009-01-03 23:00,ZGSZ 032300Z AUTO 03006KT 3SM 14/03 A3015 RMK T01400030 IEM_DS3505
ZGSZ,2009-01-04 00:00,ZGSZ 040000Z AUTO 04004KT 4SM 14/06 A3015 RMK SLP217 T01400059 52013 IEM_DS3505
ZGSZ,2009-01-04 01:00,ZGSZ 040100Z AUTO 35006KT 3SM 16/03 A3018 RMK T01600030 IEM_DS3505
ZGSZ,2009-01-04 02:00,ZGSZ 040200Z AUTO 4SM 19/04 A3018 RMK T01900040 IEM_DS3505
ZGSZ,2009-01-04 03:00,ZGSZ 040300Z AUTO 07002KT 4SM 19/05 A3015 RMK SLP214 T01870052 57003 IEM_DS3505
ZGSZ,2009-01-04 04:00,ZGSZ 040400Z AUTO 08004KT 4SM 21/05 A3012 RMK T02100050 IEM_DS3505
ZGSZ,2009-01-04 05:00,ZGSZ 040500Z AUTO 02004KT 5SM 22/06 A3006 RMK T02200060 IEM_DS3505
ZGSZ,2009-01-04 06:00,ZGSZ 040600Z AUTO 04002KT 6SM 22/05 A3003 RMK SLP178 T02160047 57035 IEM_DS3505
ZGSZ,2009-01-04 07:00,ZGSZ 040700Z AUTO 23006KT 3SM 22/09 A3003 RMK T02200090 IEM_DS3505
ZGSZ,2009-01-04 08:00,ZGSZ 040800Z AUTO 23004KT 4SM 21/11 A3003 RMK T02100110 IEM_DS3505
ZGSZ,2009-01-04 09:00,ZGSZ 040900Z AUTO 22004KT 4SM 20/09 A3006 RMK SLP181 T02000087 52003 IEM_DS3505
ZGSZ,2009-01-04 10:00,ZGSZ 041000Z AUTO 15004KT 4SM 17/12 A3006 RMK T01700120 IEM_DS3505
ZGSZ,2009-01-04 11:00,ZGSZ 041100Z AUTO 14006KT 4SM 16/12 A3009 RMK T01600120 IEM_DS3505
ZGSZ,2009-01-04 12:00,ZGSZ 041200Z AUTO 04004KT 2 1/2SM 17/10 A3009 RMK SLP198 T01710098 52016 IEM_DS3505
ZGSZ,2009-01-04 13:00,ZGSZ 041300Z AUTO 13004KT 2 1/2SM 16/11 A3012 RMK T01600110 IEM_DS3505
ZGSZ,2009-01-04 14:00,ZGSZ 041400Z AUTO 12006KT 4SM 17/10 A3012 RMK T01700100 IEM_DS3505
ZGSZ,2009-01-04 15:00,ZGSZ 041500Z AUTO 09004KT 6SM 16/11 A3012 RMK SLP206 T01560114 52009 IEM_DS3505
ZGSZ,2009-01-04 16:00,ZGSZ 041600Z AUTO 12006KT 5SM 16/11 A3012 RMK T01600110 IEM_DS3505
ZGSZ,2009-01-04 17:00,ZGSZ 041700Z AUTO 5SM 16/11 A3012 RMK T01600110 IEM_DS3505
ZGSZ,2009-01-04 18:00,ZGSZ 041800Z AUTO 04004KT 7SM 15/12 A3009 RMK SLP195 T01500120 57011 IEM_DS3505
ZGSZ,2009-01-04 19:00,ZGSZ 041900Z AUTO 34002KT 3SM 14/11 A3009 RMK T01400110 IEM_DS3505
ZGSZ,2009-01-04 20:00,ZGSZ 042000Z AUTO 00000KT 3SM 14/11 A3009 RMK T01400110 IEM_DS3505
ZGSZ,2009-01-04 21:00,ZGSZ 042100Z AUTO 07002KT 9SM 14/11 RMK SLP189 T01420106 57006 IEM_DS3505
ZGSZ,2009-01-04 22:00,ZGSZ 042200Z AUTO 4SM 15/11 A3009 RMK T01500110 IEM_DS3505
ZGSZ,2009-01-04 23:00,ZGSZ 042300Z AUTO 00000KT 4SM 14/11 A3012 RMK T01400110 IEM_DS3505
ZGSZ,2009-01-05 00:00,ZGSZ 050000Z AUTO 09002KT 6SM 15/10 A3015 RMK SLP211 T01460102 52021 IEM_DS3505
ZGSZ,2009-01-05 01:00,ZGSZ 050100Z AUTO 4SM 17/10 A3015 RMK T01700100 IEM_DS3505
ZGSZ,2009-01-05 02:00,ZGSZ 050200Z AUTO 27004KT 3SM 18/11 A3018 RMK T01800110 IEM_DS3505
ZGSZ,2009-01-05 03:00,ZGSZ 050300Z AUTO 14006KT 5SM 20/09 A3015 RMK SLP214 T02000090 52004 IEM_DS3505
ZGSZ,2009-01-05 04:00,ZGSZ 050400Z AUTO 24006KT 3SM 20/11 A3012 RMK T02000110 IEM_DS3505
ZGSZ,2009-01-05 05:00,ZGSZ 050500Z AUTO 23006KT 3SM 20/12 A3009 RMK T02000120 IEM_DS3505
ZGSZ,2009-01-05 06:00,ZGSZ 050600Z AUTO 14006KT 4SM 22/09 A3006 RMK SLP180 T02230091 57034 IEM_DS3505
ZGSZ,2009-01-05 07:00,ZGSZ 050700Z AUTO 18010KT 4SM 21/11 A3003 RMK T02100110 IEM_DS3505
ZGSZ,2009-01-05 08:00,ZGSZ 050800Z AUTO 19008KT 5SM 20/13 A3003 RMK T02000130 IEM_DS3505
ZGSZ,2009-01-05 09:00,ZGSZ 050900Z AUTO 11008KT 9SM 20/11 A3006 RMK SLP180 T02000107 54000 IEM_DS3505
ZGSZ,2009-01-05 10:00,ZGSZ 051000Z AUTO 6SM 19/14 A3006 RMK T01900140 IEM_DS3505
ZGSZ,2009-01-05 11:00,ZGSZ 051100Z AUTO 08004KT 6SM 19/12 A3009 RMK T01900120 IEM_DS3505
ZGSZ,2009-01-05 12:00,ZGSZ 051200Z AUTO 09004KT 8SM 17/12 A3012 RMK SLP206 T01720123 52025 IEM_DS3505
ZGSZ,2009-01-05 13:00,ZGSZ 051300Z AUTO 11012KT 6SM 18/13 A3012 RMK T01800130 IEM_DS3505
ZGSZ,2009-01-05 14:00,ZGSZ 051400Z AUTO 10014KT 6SM 18/13 A3012 RMK T01800130 IEM_DS3505
ZGSZ,2009-01-05 15:00,ZGSZ 051500Z AUTO 09006KT 10SM 17/12 A3015 RMK SLP211 T01660124 52006 IEM_DS3505
ZGSZ,2009-01-05 16:00,ZGSZ 051600Z AUTO 11008KT 6SM 17/13 A3012 RMK T01700130 IEM_DS3505
ZGSZ,2009-01-05 17:00,ZGSZ 051700Z AUTO 6SM 17/13 A3012 RMK T01700130 IEM_DS3505
ZGSZ,2009-01-05 18:00,ZGSZ 051800Z AUTO 07006KT 11SM 16/12 A3012 RMK SLP200 T01580120 57011 IEM_DS3505
ZGSZ,2009-01-05 19:00,ZGSZ 051900Z AUTO 01004KT 4SM 15/13 A3009 RMK T01500130 IEM_DS3505
ZGSZ,2009-01-05 20:00,ZGSZ 052000Z AUTO 02004KT 4SM 15/12 A3009 RMK T01500120 IEM_DS3505
ZGSZ,2009-01-05 21:00,ZGSZ 052100Z AUTO 04004KT 9SM 15/12 A3012 RMK SLP197 T01540123 57003 IEM_DS3505
ZGSZ,2009-01-05 22:00,ZGSZ 052200Z AUTO 4SM 14/11 A3009 RMK T01400110 IEM_DS3505
ZGSZ,2009-01-05 23:00,ZGSZ 052300Z AUTO 4SM 14/12 A3012 RMK T01400120 IEM_DS3505
ZGSZ,2009-01-06 00:00,ZGSZ 060000Z AUTO 07004KT 8SM 16/12 A3015 RMK SLP211 T01600116 52013 IEM_DS3505
ZGSZ,2009-01-06 01:00,ZGSZ 060100Z AUTO 4SM 17/13 A3018 RMK T01700130 IEM_DS3505
ZGSZ,2009-01-06 02:00,ZGSZ 060200Z AUTO 12004KT 4SM 18/13 A3018 RMK T01800130 IEM_DS3505
ZGSZ,2009-01-06 03:00,ZGSZ 060300Z AUTO 09002KT 10SM 19/12 A3018 RMK SLP217 T01880116 52007 IEM_DS3505
ZGSZ,2009-01-06 04:00,ZGSZ 060400Z AUTO 27006KT 3SM 19/13 A3012 RMK T01900130 IEM_DS3505
ZGSZ,2009-01-06 05:00,ZGSZ 060500Z AUTO 19010KT 4SM 20/14 A3006 RMK T02000140 IEM_DS3505
ZGSZ,2009-01-06 06:00,ZGSZ 060600Z AUTO 11002KT 12SM 22/12 A3006 RMK SLP181 T02240115 57036 IEM_DS3505
ZGSZ,2009-01-06 07:00,ZGSZ 060700Z AUTO 25006KT 6SM 21/13 A3006 RMK T02100130 IEM_DS3505
ZGSZ,2009-01-06 08:00,ZGSZ 060800Z AUTO 21006KT 6SM 20/13 A3006 RMK T02000130 IEM_DS3505
ZGSZ,2009-01-06 09:00,ZGSZ 060900Z AUTO 22006KT 9SM 20/13 A3006 RMK SLP185 T02020127 52004 IEM_DS3505
ZGSZ,2009-01-06 10:00,ZGSZ 061000Z AUTO 18004KT 4SM 19/15 A3009 RMK T01900150 IEM_DS3505
ZGSZ,2009-01-06 11:00,ZGSZ 061100Z AUTO 18002KT 4SM 18/14 A3009 RMK T01800140 IEM_DS3505
ZGSZ,2009-01-06 12:00,ZGSZ 061200Z AUTO 22002KT 7SM 18/13 A3012 RMK SLP205 T01750134 52019 IEM_DS3505
ZGSZ,2009-01-06 13:00,ZGSZ 061300Z AUTO 16002KT 3SM 17/15 A3015 RMK T01700150 IEM_DS3505
ZGSZ,2009-01-06 14:00,ZGSZ 061400Z AUTO 15002KT 3SM 17/15 A3015 RMK T01700150 IEM_DS3505
ZGSZ,2009-01-06 15:00,ZGSZ 061500Z AUTO 09004KT 9SM 17/13 A3015 RMK SLP209 T01660126 52005 IEM_DS3505
ZGSZ,2009-01-06 16:00,ZGSZ 061600Z AUTO 1SM 16/15 A3015 RMK T01600150 IEM_DS3505
ZGSZ,2009-01-06 17:00,ZGSZ 061700Z AUTO 00000KT 1 1/4SM 16/15 A3015 RMK T01600150 IEM_DS3505
ZGSZ,2009-01-06 18:00,ZGSZ 061800Z AUTO 36002KT 2SM 14/13 A3015 RMK T01400130 IEM_DS3505
ZGSZ,2009-01-06 19:00,ZGSZ 061900Z AUTO 03004KT 2SM 15/14 A3015 RMK T01500140 IEM_DS3505
ZGSZ,2009-01-06 20:00,ZGSZ 062000Z AUTO 02004KT 2SM 16/12 A3012 RMK T01600120 IEM_DS3505
ZGSZ,2009-01-06 21:00,ZGSZ 062100Z AUTO 04004KT 6SM 15/11 A3015 RMK SLP207 T01520114 57003 IEM_DS3505
ZGSZ,2009-01-06 22:00,ZGSZ 062200Z AUTO 02010KT 2 1/2SM 14/10 A3015 RMK T01400100 IEM_DS3505
ZGSZ,2009-01-06 23:00,ZGSZ 062300Z AUTO 04008KT 2 1/2SM 14/09 A3018 RMK T01400090 IEM_DS3505
ZGSZ,2009-01-07 00:00,ZGSZ 070000Z AUTO 02006KT 5SM 14/07 A3021 RMK SLP231 T01360069 52023 IEM_DS3505
ZGSZ,2009-01-07 01:00,ZGSZ 070100Z AUTO 03008KT 2 1/2SM 14/08 A3024 RMK T01400080 IEM_DS3505
ZGSZ,2009-01-07 02:00,ZGSZ 070200Z AUTO 01012KT 2 1/2SM 15/07 A3027 RMK T01500070 IEM_DS3505
ZGSZ,2009-01-07 03:00,ZGSZ 070300Z AUTO 36008KT 4SM 16/07 A3024 RMK SLP238 T01600072 52007 IEM_DS3505
ZGSZ,2009-01-07 04:00,ZGSZ 070400Z AUTO 01012KT 2 1/2SM 17/07 A3021 RMK T01700070 IEM_DS3505
ZGSZ,2009-01-07 05:00,ZGSZ 070500Z AUTO 01014KT 3SM 18/07 A3018 RMK T01800070 IEM_DS3505
ZGSZ,2009-01-07 06:00,ZGSZ 070600Z AUTO 04008KT 3SM 18/07 A3015 RMK SLP206 T01850070 57031 IEM_DS3505
ZGSZ,2009-01-07 07:00,ZGSZ 070700Z AUTO 36008KT 3SM 19/08 A3012 RMK T01900080 IEM_DS3505
ZGSZ,2009-01-07 08:00,ZGSZ 070800Z AUTO 01008KT 3SM 20/08 A3012 RMK T02000080 IEM_DS3505
ZGSZ,2009-01-07 09:00,ZGSZ 070900Z AUTO 36008KT 4SM 18/07 A3012 RMK SLP206 T01830071 57001 IEM_DS3505
ZGSZ,2009-01-07 10:00,ZGSZ 071000Z AUTO 04006KT 3SM 18/08 A3015 RMK T01800080 IEM_DS3505
ZGSZ,2009-01-07 11:00,ZGSZ 071100Z AUTO 35006KT 3SM 17/08 A3018 RMK T01700080 IEM_DS3505
ZGSZ,2009-01-07 12:00,ZGSZ 071200Z AUTO 07004KT 3SM 17/07 A3018 RMK SLP224 T01660073 52018 IEM_DS3505
ZGSZ,2009-01-07 13:00,ZGSZ 071300Z AUTO 36010KT 3SM 16/07 A3021 RMK T01600070 IEM_DS3505
ZGSZ,2009-01-07 14:00,ZGSZ 071400Z AUTO 36012KT 4SM 16/07 A3021 RMK T01600070 IEM_DS3505
ZGSZ,2009-01-07 15:00,ZGSZ 071500Z AUTO 02008KT 4SM 14/05 A3024 RMK SLP238 T01410049 52014 IEM_DS3505
ZGSZ,2009-01-07 16:00,ZGSZ 071600Z AUTO 03010KT 4SM 14/06 A3024 RMK T01400060 IEM_DS3505
ZGSZ,2009-01-07 17:00,ZGSZ 071700Z AUTO 03008KT 4SM 13/06 A3024 RMK T01300060 IEM_DS3505
ZGSZ,2009-01-07 18:00,ZGSZ 071800Z AUTO 02010KT 6SM 12/05 A3024 RMK SLP245 T01210046 52007 IEM_DS3505
ZGSZ,2009-01-07 19:00,ZGSZ 071900Z AUTO 02012KT 4SM 12/05 A3027 RMK T01200050 IEM_DS3505
ZGSZ,2009-01-07 20:00,ZGSZ 072000Z AUTO 01012KT 4SM 11/05 A3027 RMK T01100050 IEM_DS3505
ZGSZ,2009-01-07 21:00,ZGSZ 072100Z AUTO 36006KT 4SM 10/04 A3027 RMK SLP249 T01030042 52003 IEM_DS3505
ZGSZ,2009-01-07 22:00,ZGSZ 072200Z AUTO 03008KT 4SM 10/05 A3027 RMK T01000050 IEM_DS3505
ZGSZ,2009-01-07 23:00,ZGSZ 072300Z AUTO 01010KT 4SM 10/05 A3027 RMK T01000050 IEM_DS3505
ZGSZ,2009-01-08 00:00,ZGSZ 080000Z AUTO 36010KT 7SM 11/04 A3030 RMK SLP259 T01070040 52010 IEM_DS3505
ZGSZ,2009-01-08 01:00,ZGSZ 080100Z AUTO 02010KT 5SM 12/05 A3030 RMK T01200050 IEM_DS3505
ZGSZ,2009-01-08 02:00,ZGSZ 080200Z AUTO 02012KT 5SM 13/05 A3033 RMK T01300050 IEM_DS3505
ZGSZ,2009-01-08 03:00,ZGSZ 080300Z AUTO 36008KT 7SM 13/05 A3030 RMK SLP260 T01340046 52001 IEM_DS3505
ZGSZ,2009-01-08 04:00,ZGSZ 080400Z AUTO 35012KT 6SM 16/05 A3030 RMK T01600050 IEM_DS3505
ZGSZ,2009-01-08 05:00,ZGSZ 080500Z AUTO 02012KT 6SM 17/05 A3024 RMK T01700050 IEM_DS3505
ZGSZ,2009-01-08 06:00,ZGSZ 080600Z AUTO 36008KT 7SM 17/05 A3021 RMK SLP230 T01690049 57029 IEM_DS3505
ZGSZ,2009-01-08 07:00,ZGSZ 080700Z AUTO 02010KT 6SM 18/05 A3021 RMK T01800050 IEM_DS3505
ZGSZ,2009-01-08 08:00,ZGSZ 080800Z AUTO 01010KT 6SM 18/05 A3018 RMK T01800050 IEM_DS3505
ZGSZ,2009-01-08 09:00,ZGSZ 080900Z AUTO 02006KT 8SM 17/05 A3021 RMK SLP229 T01660049 57002 IEM_DS3505
ZGSZ,2009-01-08 10:00,ZGSZ 081000Z AUTO 34006KT 6SM 16/07 A3021 RMK T01600070 IEM_DS3505
ZGSZ,2009-01-08 11:00,ZGSZ 081100Z AUTO 34010KT 6SM 15/06 A3024 RMK T01500060 IEM_DS3505
ZGSZ,2009-01-08 12:00,ZGSZ 081200Z AUTO 02008KT 9SM 15/04 A3027 RMK SLP248 T01500044 52019 IEM_DS3505
ZGSZ,2009-01-08 13:00,ZGSZ 081300Z AUTO 01012KT 6SM 15/05 A3027 RMK T01500050 IEM_DS3505
ZGSZ,2009-01-08 14:00,ZGSZ 081400Z AUTO 36014KT 6SM 13/03 A3030 RMK T01300030 IEM_DS3505
ZGSZ,2009-01-08 15:00,ZGSZ 081500Z AUTO 02006KT 7SM 12/03 A3033 RMK SLP268 T01160031 52020 IEM_DS3505
ZGSZ,2009-01-08 16:00,ZGSZ 081600Z AUTO 02010KT 6SM 12/03 A3033 RMK T01200030 IEM_DS3505
ZGSZ,2009-01-08 17:00,ZGSZ 081700Z AUTO 03014KT 6SM 11/02 A3033 RMK T01100020 IEM_DS3505
ZGSZ,2009-01-08 18:00,ZGSZ 081800Z AUTO 02012KT 8SM 10/02 A3033 RMK SLP272 T01000019 52004 IEM_DS3505
ZGSZ,2009-01-08 19:00,ZGSZ 081900Z AUTO 02014KT 6SM 10/02 A3033 RMK T01000020 IEM_DS3505
ZGSZ,2009-01-08 20:00,ZGSZ 082000Z AUTO 36014KT 6SM 10/02 A3033 RMK T01000020 IEM_DS3505
ZGSZ,2009-01-08 21:00,ZGSZ 082100Z AUTO 36008KT 9SM 09/02 A3033 RMK SLP270 T00890016 57002 IEM_DS3505
ZGSZ,2009-01-08 22:00,ZGSZ 082200Z AUTO 03014KT 6SM 09/02 A3033 RMK T00900020 IEM_DS3505
ZGSZ,2009-01-08 23:00,ZGSZ 082300Z AUTO 03012KT 6SM 09/01 A3033 RMK T00900010 IEM_DS3505
ZGSZ,2009-01-09 00:00,ZGSZ 090000Z AUTO 04008KT 7SM 08/01 A3036 RMK SLP279 T00850012 52009 IEM_DS3505
ZGSZ,2009-01-09 01:00,ZGSZ 090100Z AUTO 02014KT 5SM 10/01 A3039 RMK T01000010 IEM_DS3505
ZGSZ,2009-01-09 02:00,ZGSZ 090200Z AUTO 03012KT 5SM 11/01 A3039 RMK T01100010 IEM_DS3505
ZGSZ,2009-01-09 03:00,ZGSZ 090300Z AUTO 36010KT 7SM 11/00 A3039 RMK SLP284 T01080002 52004 IEM_DS3505
ZGSZ,2009-01-09 04:00,ZGSZ 090400Z AUTO 01014KT 6SM 14/M01 A3033 RMK T01401010 IEM_DS3505
ZGSZ,2009-01-09 05:00,ZGSZ 090500Z AUTO 01014KT 6SM 15/M02 A3030 RMK T01501020 IEM_DS3505
ZGSZ,2009-01-09 06:00,ZGSZ 090600Z AUTO 02012KT 7SM 13/M02 A3027 RMK SLP246 T01341025 57037 IEM_DS3505
ZGSZ,2009-01-09 07:00,ZGSZ 090700Z AUTO 02014KT 6SM 16/M04 A3024 RMK T01601040 IEM_DS3505
ZGSZ,2009-01-09 08:00,ZGSZ 090800Z AUTO 03014KT 6SM 17/M04 A3024 RMK T01701040 IEM_DS3505
ZGSZ,2009-01-09 09:00,ZGSZ 090900Z AUTO 36012KT 9SM 15/M04 A3024 RMK SLP241 T01491044 57005 IEM_DS3505
ZGSZ,2009-01-09 10:00,ZGSZ 091000Z AUTO 04010KT 6SM 16/M04 A3024 RMK T01601040 IEM_DS3505
ZGSZ,2009-01-09 11:00,ZGSZ 091100Z AUTO 02008KT 6SM 15/M04 A3027 RMK T01501040 IEM_DS3505
ZGSZ,2009-01-09 12:00,ZGSZ 091200Z AUTO 02014G23KT 7SM 14/M05 A3030 RMK SLP257 T01381054 52016 IEM_DS3505
ZGSZ,2009-01-09 13:00,ZGSZ 091300Z AUTO 03014KT 6SM 14/M05 A3033 RMK T01401050 IEM_DS3505
ZGSZ,2009-01-09 14:00,ZGSZ 091400Z AUTO 02012KT 6SM 13/M06 A3036 RMK T01301060 IEM_DS3505
ZGSZ,2009-01-09 15:00,ZGSZ 091500Z AUTO 02004KT 7SM 12/M06 A3036 RMK SLP283 T01161063 52025 IEM_DS3505
ZGSZ,2009-01-09 16:00,ZGSZ 091600Z AUTO 01014KT 6SM 11/M05 A3036 RMK T01101050 IEM_DS3505
ZGSZ,2009-01-09 17:00,ZGSZ 091700Z AUTO 02017KT 6SM 11/M05 A3036 RMK T01101050 IEM_DS3505
ZGSZ,2009-01-09 18:00,ZGSZ 091800Z AUTO 36010KT 9SM 10/M08 A3036 RMK SLP278 T01011076 57004 IEM_DS3505
ZGSZ,2009-01-09 19:00,ZGSZ 091900Z AUTO 02012KT 6SM 10/M05 A3036 RMK T01001050 IEM_DS3505
ZGSZ,2009-01-09 20:00,ZGSZ 092000Z AUTO 36014KT 6SM 09/M05 A3036 RMK T00901050 IEM_DS3505
ZGSZ,2009-01-09 21:00,ZGSZ 092100Z AUTO 36006KT 9SM 09/M10 A3033 RMK SLP271 T00891101 57007 IEM_DS3505
ZGSZ,2009-01-09 22:00,ZGSZ 092200Z AUTO 01012KT 6SM 08/M07 A3033 RMK T00801070 IEM_DS3505
ZGSZ,2009-01-09 23:00,ZGSZ 092300Z AUTO 02010KT 6SM 08/M08 A3036 RMK T00801080 IEM_DS3505
ZGSZ,2009-01-10 00:00,ZGSZ 100000Z AUTO 36004KT 9SM 08/M10 A3036 RMK SLP283 T00841095 52011 IEM_DS3505
ZGSZ,2009-01-10 01:00,ZGSZ 100100Z AUTO 01012KT 6SM 10/M08 A3039 RMK T01001080 IEM_DS3505
ZGSZ,2009-01-10 02:00,ZGSZ 100200Z AUTO 03014KT 6SM 11/M09 A3039 RMK T01101090 IEM_DS3505
ZGSZ,2009-01-10 03:00,ZGSZ 100300Z AUTO 07008KT 11SM 13/M12 A3036 RMK SLP282 T01271117 54000 IEM_DS3505
ZGSZ,2009-01-10 04:00,ZGSZ 100400Z AUTO 01014KT 6SM 14/M10 A3033 RMK T01401100 IEM_DS3505
ZGSZ,2009-01-10 05:00,ZGSZ 100500Z AUTO 03012KT 6SM 16/M10 A3030 RMK T01601100 IEM_DS3505
ZGSZ,2009-01-10 06:00,ZGSZ 100600Z AUTO 34012KT 12SM 14/M13 A3024 RMK SLP245 T01431128 57037 IEM_DS3505
ZGSZ,2009-01-10 07:00,ZGSZ 100700Z AUTO 04012KT 6SM 17/M12 A3021 RMK T01701120 IEM_DS3505
ZGSZ,2009-01-10 08:00,ZGSZ 100800Z AUTO 03010KT 6SM 17/M11 A3021 RMK T01701110 IEM_DS3505
ZGSZ,2009-01-10 09:00,ZGSZ 100900Z AUTO 36008KT 13SM 15/M11 A3021 RMK SLP232 T01461109 57013 IEM_DS3505
ZGSZ,2009-01-10 10:00,ZGSZ 101000Z AUTO 04006KT 6SM 15/M11 A3021 RMK T01501110 IEM_DS3505
ZGSZ,2009-01-10 11:00,ZGSZ 101100Z AUTO 04006KT 6SM 14/M10 A3024 RMK T01401100 IEM_DS3505
ZGSZ,2009-01-10 12:00,ZGSZ 101200Z AUTO 02004KT 9SM 12/M09 A3024 RMK SLP244 T01221089 52011 IEM_DS3505
ZGSZ,2009-01-10 13:00,ZGSZ 101300Z AUTO 6SM 13/M08 A3024 RMK T01301080 IEM_DS3505
ZGSZ,2009-01-10 14:00,ZGSZ 101400Z AUTO 01004KT 6SM 12/M09 A3027 RMK T01201090 IEM_DS3505
ZGSZ,2009-01-10 15:00,ZGSZ 101500Z AUTO 02006KT 9SM 11/M10 A3027 RMK SLP252 T01121097 52009 IEM_DS3505
ZGSZ,2009-01-10 16:00,ZGSZ 101600Z AUTO 04006KT 6SM 11/M09 A3027 RMK T01101090 IEM_DS3505
ZGSZ,2009-01-10 17:00,ZGSZ 101700Z AUTO 03006KT 6SM 10/M09 A3027 RMK T01001090 IEM_DS3505
ZGSZ,2009-01-10 18:00,ZGSZ 101800Z AUTO 04006KT 9SM 10/M09 A3027 RMK SLP250 T00961090 57002 IEM_DS3505
ZGSZ,2009-01-10 19:00,ZGSZ 101900Z AUTO 36004KT 6SM 08/M08 A3027 RMK T00801080 IEM_DS3505
ZGSZ,2009-01-10 20:00,ZGSZ 102000Z AUTO 05004KT 6SM 09/M09 A3024 RMK T00901090 IEM_DS3505
ZGSZ,2009-01-10 21:00,ZGSZ 102100Z AUTO 04004KT 9SM 08/M09 A3024 RMK SLP241 T00841091 57009 IEM_DS3505
ZGSZ,2009-01-10 22:00,ZGSZ 102200Z AUTO 03004KT 6SM 09/M08 A3024 RMK T00901080 IEM_DS3505
ZGSZ,2009-01-10 23:00,ZGSZ 102300Z AUTO 5SM 07/M06 A3024 RMK T00701060 IEM_DS3505
ZGSZ,2009-01-11 00:00,ZGSZ 110000Z AUTO 09004KT 7SM 08/M08 A3027 RMK SLP253 T00851085 52011 IEM_DS3505
ZGSZ,2009-01-11 01:00,ZGSZ 110100Z AUTO 5SM 10/M06 A3030 RMK T01001060 IEM_DS3505
ZGSZ,2009-01-11 02:00,ZGSZ 110200Z AUTO 36006KT 5SM 12/M07 A3030 RMK T01201070 IEM_DS3505
ZGSZ,2009-01-11 03:00,ZGSZ 110300Z AUTO 02004KT 7SM 13/M08 A3030 RMK SLP262 T01261080 52010 IEM_DS3505
ZGSZ,2009-01-11 04:00,ZGSZ 110400Z AUTO 36006KT 5SM 15/M07 A3027 RMK T01501070 IEM_DS3505
ZGSZ,2009-01-11 05:00,ZGSZ 110500Z AUTO 35004KT 5SM 16/M07 A3024 RMK T01601070 IEM_DS3505
ZGSZ,2009-01-11 06:00,ZGSZ 110600Z AUTO 18004KT 4SM 17/M06 A3018 RMK SLP226 T01681063 57036 IEM_DS3505
ZGSZ,2009-01-11 07:00,ZGSZ 110700Z AUTO 29008KT 4SM 16/M04 A3018 RMK T01601040 IEM_DS3505
ZGSZ,2009-01-11 08:00,ZGSZ 110800Z AUTO 30010KT 4SM 16/M03 A3015 RMK T01601030 IEM_DS3505
ZGSZ,2009-01-11 09:00,ZGSZ 110900Z AUTO 20002KT 4SM 16/M02 A3015 RMK SLP217 T01591016 57009 IEM_DS3505
ZGSZ,2009-01-11 10:00,ZGSZ 111000Z AUTO 3SM 14/M02 A3018 RMK T01401020 IEM_DS3505
ZGSZ,2009-01-11 11:00,ZGSZ 111100Z AUTO 04004KT 3SM 15/M05 A3021 RMK T01501050 IEM_DS3505
ZGSZ,2009-01-11 12:00,ZGSZ 111200Z AUTO 00000KT 4SM 13/M01 A3021 RMK SLP240 T01291014 52023 IEM_DS3505
ZGSZ,2009-01-11 13:00,ZGSZ 111300Z AUTO 3SM 13/M04 A3024 RMK T01301040 IEM_DS3505
ZGSZ,2009-01-11 14:00,ZGSZ 111400Z AUTO 09004KT 3SM 13/M04 A3027 RMK T01301040 IEM_DS3505
ZGSZ,2009-01-11 15:00,ZGSZ 111500Z AUTO 07002KT 4SM 11/02 A3027 RMK SLP253 T01140016 52013 IEM_DS3505
ZGSZ,2009-01-11 16:00,ZGSZ 111600Z AUTO 00000KT 3SM 11/M02 A3027 RMK T01101020 IEM_DS3505
ZGSZ,2009-01-11 17:00,ZGSZ 111700Z AUTO 00000KT 3SM 10/M01 A3027 RMK T01001010 IEM_DS3505
ZGSZ,2009-01-11 18:00,ZGSZ 111800Z AUTO 04002KT 5SM 10/00 A3027 RMK SLP254 T01050002 52001 IEM_DS3505
ZGSZ,2009-01-11 19:00,ZGSZ 111900Z AUTO 35002KT 4SM 09/00 A3030 RMK T00900000 IEM_DS3505
ZGSZ,2009-01-11 20:00,ZGSZ 112000Z AUTO 05004KT 4SM 10/01 A3030 RMK T01000010 IEM_DS3505
ZGSZ,2009-01-11 21:00,ZGSZ 112100Z AUTO 07002KT 4SM 10/01 A3030 RMK SLP261 T00950012 52007 IEM_DS3505
ZGSZ,2009-01-11 22:00,ZGSZ 112200Z AUTO 01006KT 4SM 08/M03 A3030 RMK T00801030 IEM_DS3505
ZGSZ,2009-01-11 23:00,ZGSZ 112300Z AUTO 00000KT 5SM 08/M05 A3033 RMK T00801050 IEM_DS3505
ZGSZ,2009-01-12 00:00,ZGSZ 120000Z AUTO 04010KT 6SM 11/M09 A3036 RMK SLP281 T01111092 52020 IEM_DS3505
ZGSZ,2009-01-12 01:00,ZGSZ 120100Z AUTO 01006KT 6SM 13/M06 A3039 RMK T01301060 IEM_DS3505
ZGSZ,2009-01-12 02:00,ZGSZ 120200Z AUTO 02012KT 6SM 15/M07 A3042 RMK T01501070 IEM_DS3505
ZGSZ,2009-01-12 03:00,ZGSZ 120300Z AUTO 36014KT 6SM 14/M08 A3039 RMK SLP295 T01451082 52014 IEM_DS3505
ZGSZ,2009-01-12 04:00,ZGSZ 120400Z AUTO 36012KT 6SM 18/M08 A3039 RMK T01801080 IEM_DS3505
ZGSZ,2009-01-12 05:00,ZGSZ 120500Z AUTO 01014KT 6SM 18/M07 A3036 RMK T01801070 IEM_DS3505
ZGSZ,2009-01-12 06:00,ZGSZ 120600Z AUTO 04010KT 7SM 17/M10 A3030 RMK SLP265 T01691099 57030 IEM_DS3505
ZGSZ,2009-01-12 07:00,ZGSZ 120700Z AUTO 02012KT 6SM 19/M08 A3030 RMK T01901080 IEM_DS3505
ZGSZ,2009-01-12 08:00,ZGSZ 120800Z AUTO 04010KT 6SM 19/M07 A3030 RMK T01901070 IEM_DS3505
ZGSZ,2009-01-12 09:00,ZGSZ 120900Z AUTO 04008KT 9SM 17/M07 A3030 RMK SLP265 T01691069 54000 IEM_DS3505
ZGSZ,2009-01-12 10:00,ZGSZ 121000Z AUTO 03008KT 6SM 17/M05 A3033 RMK T01701050 IEM_DS3505
ZGSZ,2009-01-12 11:00,ZGSZ 121100Z AUTO 03006KT 6SM 16/M05 A3033 RMK T01601050 IEM_DS3505
ZGSZ,2009-01-12 12:00,ZGSZ 121200Z AUTO 02006KT 9SM 15/M07 A3036 RMK SLP286 T01481073 52021 IEM_DS3505
ZGSZ,2009-01-12 13:00,ZGSZ 121300Z AUTO 03010KT 6SM 16/M05 A3039 RMK T01601050 IEM_DS3505
ZGSZ,2009-01-12 14:00,ZGSZ 121400Z AUTO 04012KT 6SM 15/M05 A3042 RMK T01501050 IEM_DS3505
ZGSZ,2009-01-12 15:00,ZGSZ 121500Z AUTO 04008KT 9SM 13/M04 A3045 RMK SLP307 T01291042 52021 IEM_DS3505
ZGSZ,2009-01-12 16:00,ZGSZ 121600Z AUTO 03012KT 6SM 13/M03 A3045 RMK T01301030 IEM_DS3505
ZGSZ,2009-01-12 17:00,ZGSZ 121700Z AUTO 04012KT 6SM 12/M04 A3045 RMK T01201040 IEM_DS3505
ZGSZ,2009-01-12 18:00,ZGSZ 121800Z AUTO 02008KT 9SM 11/M06 A3045 RMK SLP307 T01091064 54000 IEM_DS3505
ZGSZ,2009-01-12 19:00,ZGSZ 121900Z AUTO 02012KT 5SM 10/M05 A3045 RMK T01001050 IEM_DS3505
ZGSZ,2009-01-12 20:00,ZGSZ 122000Z AUTO 01012KT 5SM 10/M05 A3045 RMK T01001050 IEM_DS3505
ZGSZ,2009-01-12 21:00,ZGSZ 122100Z AUTO 34004KT 9SM 09/M06 A3045 RMK SLP310 T00861060 52003 IEM_DS3505
ZGSZ,2009-01-12 22:00,ZGSZ 122200Z AUTO 02012KT 4SM 09/M05 A3045 RMK T00901050 IEM_DS3505
ZGSZ,2009-01-12 23:00,ZGSZ 122300Z AUTO 03012KT 4SM 08/M06 A3047 RMK T00801060 IEM_DS3505
ZGSZ,2009-01-13 00:00,ZGSZ 130000Z AUTO 02006KT 7SM 09/M12 A3047 RMK SLP321 T00871118 52010 IEM_DS3505
ZGSZ,2009-01-13 01:00,ZGSZ 130100Z AUTO 02012KT 5SM 10/M08 A3050 RMK T01001080 IEM_DS3505
ZGSZ,2009-01-13 02:00,ZGSZ 130200Z AUTO 02014KT 6SM 12/M10 A3050 RMK T01201100 IEM_DS3505
ZGSZ,2009-01-13 03:00,ZGSZ 130300Z AUTO 36010KT 7SM 12/M12 A3047 RMK SLP322 T01191124 52001 IEM_DS3505
ZGSZ,2009-01-13 04:00,ZGSZ 130400Z AUTO 01012KT 6SM 15/M10 A3045 RMK T01501100 IEM_DS3505
ZGSZ,2009-01-13 05:00,ZGSZ 130500Z AUTO 01012KT 6SM 16/M09 A3039 RMK T01601090 IEM_DS3505
ZGSZ,2009-01-13 06:00,ZGSZ 130600Z AUTO 07010KT 7SM 15/M12 A3036 RMK SLP282 T01521121 57039 IEM_DS3505
ZGSZ,2009-01-13 07:00,ZGSZ 130700Z AUTO 36010KT 6SM 17/M08 A3033 RMK T01701080 IEM_DS3505
ZGSZ,2009-01-13 08:00,ZGSZ 130800Z AUTO 01012KT 6SM 16/M07 A3033 RMK T01601070 IEM_DS3505
ZGSZ,2009-01-13 09:00,ZGSZ 130900Z AUTO 36006KT 7SM 15/M08 A3036 RMK SLP280 T01461081 57003 IEM_DS3505
ZGSZ,2009-01-13 10:00,ZGSZ 131000Z AUTO 03008KT 6SM 15/M07 A3036 RMK T01501070 IEM_DS3505
ZGSZ,2009-01-13 11:00,ZGSZ 131100Z AUTO 05006KT 6SM 14/M07 A3036 RMK T01401070 IEM_DS3505
ZGSZ,2009-01-13 12:00,ZGSZ 131200Z AUTO 02004KT 6SM 12/M07 A3039 RMK SLP293 T01241066 52013 IEM_DS3505
ZGSZ,2009-01-13 13:00,ZGSZ 131300Z AUTO 05006KT 5SM 13/M07 A3039 RMK T01301070 IEM_DS3505
ZGSZ,2009-01-13 14:00,ZGSZ 131400Z AUTO 04006KT 5SM 13/M08 A3042 RMK T01301080 IEM_DS3505
ZGSZ,2009-01-13 15:00,ZGSZ 131500Z AUTO 04006KT 6SM 12/M08 A3042 RMK SLP302 T01151084 52009 IEM_DS3505
ZGSZ,2009-01-13 16:00,ZGSZ 131600Z AUTO 04008KT 6SM 12/M09 A3042 RMK T01201090 IEM_DS3505
ZGSZ,2009-01-13 17:00,ZGSZ 131700Z AUTO 02006KT 6SM 11/M08 A3042 RMK T01101080 IEM_DS3505
ZGSZ,2009-01-13 18:00,ZGSZ 131800Z AUTO 02004KT 4SM 10/M08 A3042 RMK SLP302 T01011085 52001 IEM_DS3505
ZGSZ,2009-01-13 19:00,ZGSZ 131900Z AUTO 02008KT 6SM 10/M09 A3042 RMK T01001090 IEM_DS3505
ZGSZ,2009-01-13 20:00,ZGSZ 132000Z AUTO 05006KT 6SM 10/M09 A3039 RMK T01001090 IEM_DS3505
ZGSZ,2009-01-13 21:00,ZGSZ 132100Z AUTO 04008KT 4SM 09/M09 A3039 RMK SLP294 T00891091 57009 IEM_DS3505
ZGSZ,2009-01-13 22:00,ZGSZ 132200Z AUTO 05008KT 6SM 09/M09 A3039 RMK T00901090 IEM_DS3505
ZGSZ,2009-01-13 23:00,ZGSZ 132300Z AUTO 6SM 08/M09 A3042 RMK T00801090 IEM_DS3505
ZGSZ,2009-01-14 00:00,ZGSZ 140000Z AUTO 34002KT 6SM 09/M09 A3042 RMK SLP304 T00871093 52010 IEM_DS3505
ZGSZ,2009-01-14 01:00,ZGSZ 140100Z AUTO 01010KT 6SM 10/M08 A3045 RMK T01001080 IEM_DS3505
ZGSZ,2009-01-14 02:00,ZGSZ 140200Z AUTO 01008KT 6SM 12/M07 A3045 RMK T01201070 IEM_DS3505
ZGSZ,2009-01-14 03:00,ZGSZ 140300Z AUTO 02004KT 6SM 12/M08 A3045 RMK SLP314 T01241081 52010 IEM_DS3505
ZGSZ,2009-01-14 04:00,ZGSZ 140400Z AUTO 36006KT 6SM 15/M09 A3042 RMK T01501090 IEM_DS3505
ZGSZ,2009-01-14 05:00,ZGSZ 140500Z AUTO 35006KT 5SM 16/M08 A3039 RMK T01601080 IEM_DS3505
ZGSZ,2009-01-14 06:00,ZGSZ 140600Z AUTO 22004KT 7SM 16/M07 A3036 RMK SLP279 T01641073 57034 IEM_DS3505
ZGSZ,2009-01-14 07:00,ZGSZ 140700Z AUTO 35006KT 5SM 17/M07 A3033 RMK T01701070 IEM_DS3505
ZGSZ,2009-01-14 08:00,ZGSZ 140800Z AUTO 34008KT 4SM 17/M08 A3033 RMK T01701080 IEM_DS3505
ZGSZ,2009-01-14 09:00,ZGSZ 140900Z AUTO 25002KT 5SM 15/M04 A3033 RMK SLP273 T01541035 57006 IEM_DS3505
ZGSZ,2009-01-14 10:00,ZGSZ 141000Z AUTO 32004KT 4SM 14/00 A3033 RMK T01400000 IEM_DS3505
ZGSZ,2009-01-14 11:00,ZGSZ 141100Z AUTO 36004KT 4SM 13/M02 A3033 RMK T01301020 IEM_DS3505
ZGSZ,2009-01-14 12:00,ZGSZ 141200Z AUTO 09004KT 6SM 12/M00 A3036 RMK SLP285 T01251001 52011 IEM_DS3505
ZGSZ,2009-01-14 13:00,ZGSZ 141300Z AUTO 09006KT 4SM 13/00 A3036 RMK T01300000 IEM_DS3505
ZGSZ,2009-01-14 14:00,ZGSZ 141400Z AUTO 3SM 11/01 A3039 RMK T01100010 IEM_DS3505
ZGSZ,2009-01-14 15:00,ZGSZ 141500Z AUTO 07002KT 6SM 11/02 A3039 RMK SLP299 T01110024 52014 IEM_DS3505
ZGSZ,2009-01-14 16:00,ZGSZ 141600Z AUTO 3SM 11/01 A3042 RMK T01100010 IEM_DS3505
ZGSZ,2009-01-14 17:00,ZGSZ 141700Z AUTO 2 1/2SM 10/01 A3042 RMK T01000010 IEM_DS3505
ZGSZ,2009-01-14 18:00,ZGSZ 141800Z AUTO 04004KT 6SM 10/04 A3042 RMK SLP303 T01050040 52005 IEM_DS3505
ZGSZ,2009-01-14 19:00,ZGSZ 141900Z AUTO 07004KT 2 1/2SM 09/02 A3042 RMK T00900020 IEM_DS3505
ZGSZ,2009-01-14 20:00,ZGSZ 142000Z AUTO 10004KT 3SM 08/02 A3039 RMK T00800020 IEM_DS3505
ZGSZ,2009-01-14 21:00,ZGSZ 142100Z AUTO 09004KT 5SM 10/03 A3039 RMK SLP289 T00960034 57014 IEM_DS3505
ZGSZ,2009-01-14 22:00,ZGSZ 142200Z AUTO 11004KT 3SM 08/03 A3039 RMK T00800030 IEM_DS3505
ZGSZ,2009-01-14 23:00,ZGSZ 142300Z AUTO 01006KT 3SM 09/02 A3039 RMK T00900020 IEM_DS3505
ZGSZ,2009-01-15 00:00,ZGSZ 150000Z AUTO 02004KT 5SM 09/M01 A3042 RMK SLP302 T00941008 52012 IEM_DS3505
ZGSZ,2009-01-15 01:00,ZGSZ 150100Z AUTO 01012KT 6SM 12/M07 A3042 RMK T01201070 IEM_DS3505
ZGSZ,2009-01-15 02:00,ZGSZ 150200Z AUTO 04010KT 6SM 14/M08 A3042 RMK T01401080 IEM_DS3505
ZGSZ,2009-01-15 03:00,ZGSZ 150300Z AUTO 02008KT 4SM 14/M06 A3042 RMK SLP295 T01391058 57006 IEM_DS3505
ZGSZ,2009-01-15 04:00,ZGSZ 150400Z AUTO 6SM 17/M06 A3036 RMK T01701060 IEM_DS3505
ZGSZ,2009-01-15 05:00,ZGSZ 150500Z AUTO 03006KT 6SM 18/M07 A3033 RMK T01801070 IEM_DS3505
ZGSZ,2009-01-15 06:00,ZGSZ 150600Z AUTO 02004KT 6SM 17/M06 A3027 RMK SLP256 T01731065 57039 IEM_DS3505
ZGSZ,2009-01-15 07:00,ZGSZ 150700Z AUTO 35008KT 6SM 19/M05 A3024 RMK T01901050 IEM_DS3505
ZGSZ,2009-01-15 08:00,ZGSZ 150800Z AUTO 36008KT 6SM 18/M05 A3024 RMK T01801050 IEM_DS3505
ZGSZ,2009-01-15 09:00,ZGSZ 150900Z AUTO 22008KT 6SM 16/M01 A3024 RMK SLP252 T01611010 57004 IEM_DS3505
ZGSZ,2009-01-15 10:00,ZGSZ 151000Z AUTO 30004KT 4SM 15/05 A3027 RMK T01500050 IEM_DS3505
ZGSZ,2009-01-15 11:00,ZGSZ 151100Z AUTO 18006KT 4SM 14/06 A3030 RMK T01400060 IEM_DS3505
ZGSZ,2009-01-15 12:00,ZGSZ 151200Z AUTO 09004KT 5SM 13/02 A3033 RMK SLP272 T01320021 52019 IEM_DS3505
ZGSZ,2009-01-15 13:00,ZGSZ 151300Z AUTO 11006KT 4SM 14/03 A3033 RMK T01400030 IEM_DS3505
ZGSZ,2009-01-15 14:00,ZGSZ 151400Z AUTO 11006KT 5SM 14/04 A3033 RMK T01400040 IEM_DS3505
ZGSZ,2009-01-15 15:00,ZGSZ 151500Z AUTO 09004KT 6SM 12/06 A3036 RMK SLP280 T01220056 52009 IEM_DS3505
ZGSZ,2009-01-15 16:00,ZGSZ 151600Z AUTO 11006KT 6SM 13/06 A3036 RMK T01300060 IEM_DS3505
ZGSZ,2009-01-15 17:00,ZGSZ 151700Z AUTO 00000KT 6SM 12/06 A3033 RMK T01200060 IEM_DS3505
ZGSZ,2009-01-15 18:00,ZGSZ 151800Z AUTO 02004KT 4SM 12/07 A3033 RMK SLP273 T01150072 57007 IEM_DS3505
ZGSZ,2009-01-15 19:00,ZGSZ 151900Z AUTO 05004KT 3SM 11/06 A3033 RMK T01100060 IEM_DS3505
ZGSZ,2009-01-15 20:00,ZGSZ 152000Z AUTO 06004KT 2 1/2SM 10/07 A3030 RMK T01000070 IEM_DS3505
ZGSZ,2009-01-15 21:00,ZGSZ 152100Z AUTO 11002KT 4SM 10/06 A3030 RMK SLP264 T01030063 57009 IEM_DS3505
ZGSZ,2009-01-15 22:00,ZGSZ 152200Z AUTO 02004KT 2 1/2SM 09/06 A3030 RMK T00900060 IEM_DS3505
ZGSZ,2009-01-15 23:00,ZGSZ 152300Z AUTO 03004KT 3SM 09/06 A3033 RMK T00900060 IEM_DS3505
ZGSZ,2009-01-16 00:00,ZGSZ 160000Z AUTO 04006KT 4SM 10/05 A3033 RMK SLP270 T01050046 52006 IEM_DS3505
ZGSZ,2009-01-16 01:00,ZGSZ 160100Z AUTO 00000KT 3SM 12/06 A3033 RMK T01200060 IEM_DS3505
ZGSZ,2009-01-16 02:00,ZGSZ 160200Z AUTO 18004KT 3SM 14/07 A3033 RMK T01400070 IEM_DS3505
ZGSZ,2009-01-16 03:00,ZGSZ 160300Z AUTO 07004KT 4SM 17/M00 A3030 RMK SLP263 T01701002 57007 IEM_DS3505
ZGSZ,2009-01-16 04:00,ZGSZ 160400Z AUTO 32004KT 3SM 18/05 A3027 RMK T01800050 IEM_DS3505
ZGSZ,2009-01-16 05:00,ZGSZ 160500Z AUTO 24008KT 4SM 18/06 A3024 RMK T01800060 IEM_DS3505
ZGSZ,2009-01-16 06:00,ZGSZ 160600Z AUTO 18004KT 4SM 20/04 A3018 RMK SLP227 T02030039 57035 IEM_DS3505
ZGSZ,2009-01-16 07:00,ZGSZ 160700Z AUTO 27006KT 3SM 19/04 A3018 RMK T01900040 IEM_DS3505
ZGSZ,2009-01-16 08:00,ZGSZ 160800Z AUTO 20008KT 2 1/2SM 18/07 A3015 RMK T01800070 IEM_DS3505
ZGSZ,2009-01-16 09:00,ZGSZ 160900Z AUTO 20004KT 4SM 17/06 A3018 RMK SLP221 T01720064 57006 IEM_DS3505
ZGSZ,2009-01-16 10:00,ZGSZ 161000Z AUTO 17006KT 3SM 15/10 A3018 RMK T01500100 IEM_DS3505
ZGSZ,2009-01-16 11:00,ZGSZ 161100Z AUTO 15006KT 3SM 13/10 A3021 RMK T01300100 IEM_DS3505
ZGSZ,2009-01-16 12:00,ZGSZ 161200Z AUTO 07004KT 4SM 15/06 A3024 RMK SLP242 T01480064 52020 IEM_DS3505
ZGSZ,2009-01-16 13:00,ZGSZ 161300Z AUTO 15004KT 3SM 14/10 A3024 RMK T01400100 IEM_DS3505
ZGSZ,2009-01-16 14:00,ZGSZ 161400Z AUTO 10006KT 3SM 15/07 A3027 RMK T01500070 IEM_DS3505
ZGSZ,2009-01-16 15:00,ZGSZ 161500Z AUTO 04004KT 4SM 14/08 A3027 RMK SLP254 T01370075 52013 IEM_DS3505
ZGSZ,2009-01-16 16:00,ZGSZ 161600Z AUTO 11006KT 6SM 15/06 A3027 RMK T01500060 IEM_DS3505
ZGSZ,2009-01-16 17:00,ZGSZ 161700Z AUTO 00000KT 6SM 13/07 A3027 RMK T01300070 IEM_DS3505
ZGSZ,2009-01-16 18:00,ZGSZ 161800Z AUTO 04004KT 6SM 13/08 A3024 RMK SLP245 T01290078 57009 IEM_DS3505
ZGSZ,2009-01-16 19:00,ZGSZ 161900Z AUTO 6SM 11/06 A3021 RMK T01100060 IEM_DS3505
ZGSZ,2009-01-16 20:00,ZGSZ 162000Z AUTO 00000KT 6SM 11/08 A3021 RMK T01100080 IEM_DS3505
ZGSZ,2009-01-16 21:00,ZGSZ 162100Z AUTO 04004KT 9SM 12/07 A3021 RMK SLP230 T01250072 57015 IEM_DS3505
ZGSZ,2009-01-16 22:00,ZGSZ 162200Z AUTO 5SM 12/07 A3021 RMK T01200070 IEM_DS3505
ZGSZ,2009-01-16 23:00,ZGSZ 162300Z AUTO 5SM 11/06 A3021 RMK T01100060 IEM_DS3505
ZGSZ,2009-01-17 00:00,ZGSZ 170000Z AUTO 04002KT 8SM 12/07 A3024 RMK SLP240 T01210066 52009 IEM_DS3505
ZGSZ,2009-01-17 01:00,ZGSZ 170100Z AUTO 31006KT 4SM 14/08 A3024 RMK T01400080 IEM_DS3505
ZGSZ,2009-01-17 02:00,ZGSZ 170200Z AUTO 3SM 17/08 A3024 RMK T01700080 IEM_DS3505
ZGSZ,2009-01-17 03:00,ZGSZ 170300Z AUTO 09006KT 6SM 19/00 A3021 RMK SLP230 T01940004 57009 IEM_DS3505
ZGSZ,2009-01-17 04:00,ZGSZ 170400Z AUTO 27008KT 2 1/2SM 19/08 A3018 RMK T01900080 IEM_DS3505
ZGSZ,2009-01-17 05:00,ZGSZ 170500Z AUTO 27008KT 4SM 19/05 A3015 RMK T01900050 IEM_DS3505
ZGSZ,2009-01-17 06:00,ZGSZ 170600Z AUTO 07006KT 12SM 22/M00 A3009 RMK SLP195 T02191001 57034 IEM_DS3505
ZGSZ,2009-01-17 07:00,ZGSZ 170700Z AUTO 22006KT 6SM 20/06 A3009 RMK T02000060 IEM_DS3505
ZGSZ,2009-01-17 08:00,ZGSZ 170800Z AUTO 21004KT 6SM 19/07 A3006 RMK T01900070 IEM_DS3505
ZGSZ,2009-01-17 09:00,ZGSZ 170900Z AUTO 09004KT 11SM 20/05 A3006 RMK SLP188 T02040048 57008 IEM_DS3505
ZGSZ,2009-01-17 10:00,ZGSZ 171000Z AUTO 16004KT 6SM 17/10 A3009 RMK T01700100 IEM_DS3505
ZGSZ,2009-01-17 11:00,ZGSZ 171100Z AUTO 6SM 15/10 A3009 RMK T01500100 IEM_DS3505
ZGSZ,2009-01-17 12:00,ZGSZ 171200Z AUTO 09002KT 10SM 17/06 A3012 RMK SLP200 T01720058 52012 IEM_DS3505
ZGSZ,2009-01-17 13:00,ZGSZ 171300Z AUTO 00000KT 6SM 14/12 A3012 RMK T01400120 IEM_DS3505
ZGSZ,2009-01-17 14:00,ZGSZ 171400Z AUTO 6SM 15/08 A3015 RMK T01500080 IEM_DS3505
ZGSZ,2009-01-17 15:00,ZGSZ 171500Z AUTO 09002KT 7SM 16/11 A3015 RMK SLP215 T01600114 52016 IEM_DS3505
ZGSZ,2009-01-17 16:00,ZGSZ 171600Z AUTO 6SM 15/09 A3015 RMK T01500090 IEM_DS3505
ZGSZ,2009-01-17 17:00,ZGSZ 171700Z AUTO 01004KT 4SM 14/09 A3015 RMK T01400090 IEM_DS3505
ZGSZ,2009-01-17 18:00,ZGSZ 171800Z AUTO 07004KT 4SM 15/11 A3012 RMK SLP208 T01460112 57007 IEM_DS3505
ZGSZ,2009-01-17 19:00,ZGSZ 171900Z AUTO 03004KT 3SM 13/09 A3012 RMK T01300090 IEM_DS3505
ZGSZ,2009-01-17 20:00,ZGSZ 172000Z AUTO 03004KT 3SM 13/10 A3012 RMK T01300100 IEM_DS3505
ZGSZ,2009-01-17 21:00,ZGSZ 172100Z AUTO 04004KT 4SM 14/11 A3012 RMK SLP201 T01390109 57007 IEM_DS3505
ZGSZ,2009-01-17 22:00,ZGSZ 172200Z AUTO 00000KT 3SM 12/10 A3012 RMK T01200100 IEM_DS3505
ZGSZ,2009-01-17 23:00,ZGSZ 172300Z AUTO 03004KT 2 1/2SM 13/10 A3012 RMK T01300100 IEM_DS3505
ZGSZ,2009-01-18 00:00,ZGSZ 180000Z AUTO 14002KT 5SM 15/10 A3015 RMK SLP214 T01500100 52012 IEM_DS3505
ZGSZ,2009-01-18 01:00,ZGSZ 180100Z AUTO 33004KT 3SM 17/10 A3018 RMK T01700100 IEM_DS3505
ZGSZ,2009-01-18 02:00,ZGSZ 180200Z AUTO 09006KT 4SM 20/11 A3018 RMK T02000110 IEM_DS3505
ZGSZ,2009-01-18 03:00,ZGSZ 180300Z AUTO 07004KT 6SM 21/11 A3018 RMK SLP221 T02110114 52008 IEM_DS3505
ZGSZ,2009-01-18 04:00,ZGSZ 180400Z AUTO 33006KT 4SM 23/12 A3015 RMK T02300120 IEM_DS3505
ZGSZ,2009-01-18 05:00,ZGSZ 180500Z AUTO 30010KT 4SM 23/12 A3009 RMK T02300120 IEM_DS3505
ZGSZ,2009-01-18 06:00,ZGSZ 180600Z AUTO 25004KT 9SM 24/12 A3006 RMK SLP185 T02440120 57036 IEM_DS3505
ZGSZ,2009-01-18 07:00,ZGSZ 180700Z AUTO 28008KT 3SM 23/11 A3003 RMK T02300110 IEM_DS3505
ZGSZ,2009-01-18 08:00,ZGSZ 180800Z AUTO 29006KT 4SM 23/12 A3003 RMK T02300120 IEM_DS3505
ZGSZ,2009-01-18 09:00,ZGSZ 180900Z AUTO 22004KT 6SM 24/11 A3003 RMK SLP171 T02350106 57014 IEM_DS3505
ZGSZ,2009-01-18 10:00,ZGSZ 181000Z AUTO 35004KT 4SM 20/11 A3003 RMK T02000110 IEM_DS3505
ZGSZ,2009-01-18 11:00,ZGSZ 181100Z AUTO 34004KT 4SM 21/09 A3003 RMK T02100090 IEM_DS3505
ZGSZ,2009-01-18 12:00,ZGSZ 181200Z AUTO 14002KT 4SM 19/12 A3006 RMK SLP185 T01940122 52014 IEM_DS3505
ZGSZ,2009-01-18 13:00,ZGSZ 181300Z AUTO 16004KT 2SM 17/12 A3006 RMK T01700120 IEM_DS3505
ZGSZ,2009-01-18 14:00,ZGSZ 181400Z AUTO 2SM 17/12 A3006 RMK T01700120 IEM_DS3505
ZGSZ,2009-01-18 15:00,ZGSZ 181500Z AUTO 02004KT 4SM 18/12 A3006 RMK SLP186 T01750118 52001 IEM_DS3505
ZGSZ,2009-01-18 16:00,ZGSZ 181600Z AUTO 17002KT 2 1/2SM 15/14 A3006 RMK T01500140 IEM_DS3505
ZGSZ,2009-01-18 17:00,ZGSZ 181700Z AUTO 00000KT 2SM 16/15 A3006 RMK T01600150 IEM_DS3505
ZGSZ,2009-01-18 18:00,ZGSZ 181800Z AUTO 04004KT 5SM 18/13 A3006 RMK SLP181 T01770126 57004 IEM_DS3505
ZGSZ,2009-01-18 19:00,ZGSZ 181900Z AUTO 00000KT 2SM 15/13 A3003 RMK T01500130 IEM_DS3505
ZGSZ,2009-01-18 20:00,ZGSZ 182000Z AUTO 00000KT 2SM 15/13 A3003 RMK T01500130 IEM_DS3505
ZGSZ,2009-01-18 21:00,ZGSZ 182100Z AUTO 07002KT 6SM 17/13 A3003 RMK SLP173 T01730126 57008 IEM_DS3505
ZGSZ,2009-01-18 22:00,ZGSZ 182200Z AUTO 00000KT 2SM 16/12 A3003 RMK T01600120 IEM_DS3505
ZGSZ,2009-01-18 23:00,ZGSZ 182300Z AUTO 1 1/4SM 16/13 A3003 RMK T01600130 IEM_DS3505
ZGSZ,2009-01-19 00:00,ZGSZ 190000Z AUTO 25002KT 5SM 17/14 A3006 RMK SLP184 T01720135 52010 IEM_DS3505
ZGSZ,2009-01-19 01:00,ZGSZ 190100Z AUTO 00000KT 3SM 19/14 A3009 RMK T01900140 IEM_DS3505
ZGSZ,2009-01-19 02:00,ZGSZ 190200Z AUTO 3SM 22/14 A3006 RMK T02200140 IEM_DS3505
ZGSZ,2009-01-19 03:00,ZGSZ 190300Z AUTO 07004KT 5SM 23/13 A3006 RMK SLP182 T02300129 57001 IEM_DS3505
ZGSZ,2009-01-19 04:00,ZGSZ 190400Z AUTO 28006KT 4SM 23/13 A3003 RMK T02300130 IEM_DS3505
ZGSZ,2009-01-19 05:00,ZGSZ 190500Z AUTO 29006KT 7SM 23/12 A3000 RMK T02300120 IEM_DS3505
ZGSZ,2009-01-19 06:00,ZGSZ 190600Z AUTO 07004KT 12SM 24/10 A2997 RMK SLP156 T02400099 57026 IEM_DS3505
ZGSZ,2009-01-19 07:00,ZGSZ 190700Z AUTO 22006KT 6SM 24/13 A2994 RMK T02400130 IEM_DS3505
ZGSZ,2009-01-19 08:00,ZGSZ 190800Z AUTO 6SM 24/13 A2994 RMK T02400130 IEM_DS3505
ZGSZ,2009-01-19 09:00,ZGSZ 190900Z AUTO 14006KT 12SM 22/09 A2991 RMK SLP144 T02250086 57012 IEM_DS3505
ZGSZ,2009-01-19 10:00,ZGSZ 191000Z AUTO 14010KT 6SM 22/09 A2994 RMK T02200090 IEM_DS3505
ZGSZ,2009-01-19 11:00,ZGSZ 191100Z AUTO 12008KT 6SM 21/10 A2994 RMK T02100100 IEM_DS3505
ZGSZ,2009-01-19 12:00,ZGSZ 191200Z AUTO 09006KT 7SM 18/11 A2997 RMK SLP158 T01810107 52013 IEM_DS3505
ZGSZ,2009-01-19 13:00,ZGSZ 191300Z AUTO 11010KT 4SM 19/11 A2997 RMK T01900110 IEM_DS3505
ZGSZ,2009-01-19 14:00,ZGSZ 191400Z AUTO 11008KT 5SM 19/11 A3000 RMK T01900110 IEM_DS3505
ZGSZ,2009-01-19 15:00,ZGSZ 191500Z AUTO 07006KT 6SM 17/12 A3003 RMK SLP168 T01690118 52011 IEM_DS3505
ZGSZ,2009-01-19 16:00,ZGSZ 191600Z AUTO 11006KT 4SM 18/11 A3003 RMK T01800110 IEM_DS3505
ZGSZ,2009-01-19 17:00,ZGSZ 191700Z AUTO 13004KT 3SM 17/11 A3003 RMK T01700110 IEM_DS3505
ZGSZ,2009-01-19 18:00,ZGSZ 191800Z AUTO 07006KT 4SM 17/10 A3000 RMK SLP169 T01670105 52001 IEM_DS3505
ZGSZ,2009-01-19 19:00,ZGSZ 191900Z AUTO 4SM 17/10 A3000 RMK T01700100 IEM_DS3505
ZGSZ,2009-01-19 20:00,ZGSZ 192000Z AUTO 01002KT 3SM 16/11 A3000 RMK T01600110 IEM_DS3505
ZGSZ,2009-01-19 21:00,ZGSZ 192100Z AUTO 07008KT 3SM 16/11 A3000 RMK SLP168 T01560114 57002 IEM_DS3505
ZGSZ,2009-01-19 22:00,ZGSZ 192200Z AUTO 3SM 15/11 A3000 RMK T01500110 IEM_DS3505
ZGSZ,2009-01-19 23:00,ZGSZ 192300Z AUTO 3SM 17/11 A3003 RMK T01700110 IEM_DS3505
ZGSZ,2009-01-20 00:00,ZGSZ 200000Z AUTO 36002KT 4SM 17/11 A3003 RMK SLP176 T01680109 52008 IEM_DS3505
ZGSZ,2009-01-20 01:00,ZGSZ 200100Z AUTO 3SM 18/12 A3003 RMK T01800120 IEM_DS3505
ZGSZ,2009-01-20 02:00,ZGSZ 200200Z AUTO 29006KT 3SM 18/12 A3006 RMK T01800120 IEM_DS3505
ZGSZ,2009-01-20 03:00,ZGSZ 200300Z AUTO 11002KT 4SM 20/11 A3006 RMK SLP179 T02050112 52003 IEM_DS3505
ZGSZ,2009-01-20 04:00,ZGSZ 200400Z AUTO 27006KT 3SM 21/12 A3003 RMK T02100120 IEM_DS3505
ZGSZ,2009-01-20 05:00,ZGSZ 200500Z AUTO 27006KT 3SM 21/12 A3000 RMK T02100120 IEM_DS3505
ZGSZ,2009-01-20 06:00,ZGSZ 200600Z AUTO 14008KT 6SM 22/10 A2997 RMK SLP152 T02210096 57026 IEM_DS3505
ZGSZ,2009-01-20 07:00,ZGSZ 200700Z AUTO 25004KT 3SM 22/13 A2994 RMK T02200130 IEM_DS3505
ZGSZ,2009-01-20 08:00,ZGSZ 200800Z AUTO 23004KT 4SM 21/12 A2994 RMK T02100120 IEM_DS3505
ZGSZ,2009-01-20 09:00,ZGSZ 200900Z AUTO 09006KT 7SM 21/11 A2994 RMK SLP147 T02130111 57006 IEM_DS3505
ZGSZ,2009-01-20 10:00,ZGSZ 201000Z AUTO 18002KT 3SM 20/13 A2997 RMK T02000130 IEM_DS3505
ZGSZ,2009-01-20 11:00,ZGSZ 201100Z AUTO 00000KT 4SM 18/13 A2997 RMK T01800130 IEM_DS3505
ZGSZ,2009-01-20 12:00,ZGSZ 201200Z AUTO 07004KT 5SM 19/11 A3000 RMK SLP161 T01900111 52014 IEM_DS3505
ZGSZ,2009-01-20 13:00,ZGSZ 201300Z AUTO 09004KT 4SM 21/12 A3000 RMK T02100120 IEM_DS3505
ZGSZ,2009-01-20 14:00,ZGSZ 201400Z AUTO 4SM 19/14 A3003 RMK T01900140 IEM_DS3505
ZGSZ,2009-01-20 15:00,ZGSZ 201500Z AUTO 02002KT 4SM 18/12 A3003 RMK SLP176 T01840119 52015 IEM_DS3505
ZGSZ,2009-01-20 16:00,ZGSZ 201600Z AUTO 1 1/2SM 18/15 A3003 RMK T01800150 IEM_DS3505
ZGSZ,2009-01-20 17:00,ZGSZ 201700Z AUTO 16002KT 2SM 17/15 A3006 RMK T01700150 IEM_DS3505
ZGSZ,2009-01-20 18:00,ZGSZ 201800Z AUTO 09002KT 5SM 18/13 A3006 RMK SLP180 T01770128 52004 IEM_DS3505
ZGSZ,2009-01-20 19:00,ZGSZ 201900Z AUTO 33004KT 3SM 18/15 A3003 RMK T01800150 IEM_DS3505
ZGSZ,2009-01-20 20:00,ZGSZ 202000Z AUTO 5SM 19/14 A3003 RMK T01900140 IEM_DS3505
ZGSZ,2009-01-20 21:00,ZGSZ 202100Z AUTO 07006KT 5SM 18/13 A3003 RMK SLP172 T01750128 57008 IEM_DS3505
ZGSZ,2009-01-20 22:00,ZGSZ 202200Z AUTO 00000KT 3SM 17/14 A3003 RMK T01700140 IEM_DS3505
ZGSZ,2009-01-20 23:00,ZGSZ 202300Z AUTO 3SM 19/13 A3006 RMK T01900130 IEM_DS3505
ZGSZ,2009-01-21 00:00,ZGSZ 210000Z AUTO 04004KT 4SM 18/13 A3006 RMK SLP188 T01770126 52016 IEM_DS3505
ZGSZ,2009-01-21 01:00,ZGSZ 210100Z AUTO 27004KT 3SM 20/14 A3009 RMK T02000140 IEM_DS3505
ZGSZ,2009-01-21 02:00,ZGSZ 210200Z AUTO 23006KT 4SM 21/15 A3009 RMK T02100150 IEM_DS3505
ZGSZ,2009-01-21 03:00,ZGSZ 210300Z AUTO 04006KT 5SM 23/14 A3006 RMK SLP186 T02270138 57001 IEM_DS3505
ZGSZ,2009-01-21 04:00,ZGSZ 210400Z AUTO 25006KT 3SM 23/14 A3003 RMK T02300140 IEM_DS3505
ZGSZ,2009-01-21 05:00,ZGSZ 210500Z AUTO 24006KT 4SM 24/14 A3000 RMK T02400140 IEM_DS3505
ZGSZ,2009-01-21 06:00,ZGSZ 210600Z AUTO 22012KT 11SM 25/14 A2997 RMK SLP149 T02530141 57037 IEM_DS3505
ZGSZ,2009-01-21 07:00,ZGSZ 210700Z AUTO 24006KT 6SM 24/15 A2994 RMK T02400150 IEM_DS3505
ZGSZ,2009-01-21 08:00,ZGSZ 210800Z AUTO 22004KT 6SM 24/15 A2994 RMK T02400150 IEM_DS3505
ZGSZ,2009-01-21 09:00,ZGSZ 210900Z AUTO 20006KT 9SM 22/15 A2997 RMK SLP148 T02240148 57001 IEM_DS3505
ZGSZ,2009-01-21 10:00,ZGSZ 211000Z AUTO 31006KT 2SM 21/14 A2994 RMK T02100140 IEM_DS3505
ZGSZ,2009-01-21 11:00,ZGSZ 211100Z AUTO 30006KT 2SM 20/15 A2997 RMK T02000150 IEM_DS3505
ZGSZ,2009-01-21 12:00,ZGSZ 211200Z AUTO 22004KT 3SM 20/14 A2997 RMK SLP157 T02000144 52008 IEM_DS3505
ZGSZ,2009-01-21 13:00,ZGSZ 211300Z AUTO 30008KT 2SM 19/13 A3000 RMK T01900130 IEM_DS3505
ZGSZ,2009-01-21 14:00,ZGSZ 211400Z AUTO 31008KT 2SM 18/13 A3000 RMK T01800130 IEM_DS3505
ZGSZ,2009-01-21 15:00,ZGSZ 211500Z AUTO 25002KT 2SM 18/12 A3000 RMK SLP165 T01840124 52009 IEM_DS3505
ZGSZ,2009-01-21 16:00,ZGSZ 211600Z AUTO 31006KT 2SM 18/12 A3000 RMK T01800120 IEM_DS3505
ZGSZ,2009-01-21 17:00,ZGSZ 211700Z AUTO 30010KT 2SM 18/12 A3000 RMK T01800120 IEM_DS3505
ZGSZ,2009-01-21 18:00,ZGSZ 211800Z AUTO 25004KT 2SM 17/11 A3000 RMK SLP156 T01740110 57009 IEM_DS3505
ZGSZ,2009-01-21 19:00,ZGSZ 211900Z AUTO 31012KT 2SM 16/11 A2997 RMK T01600110 IEM_DS3505
ZGSZ,2009-01-21 20:00,ZGSZ 212000Z AUTO 31012KT 2SM 16/11 A2997 RMK T01600110 IEM_DS3505
ZGSZ,2009-01-21 21:00,ZGSZ 212100Z AUTO 32004KT 1 1/2SM 16/10 A2997 RMK SLP154 T01620103 57003 IEM_DS3505
ZGSZ,2009-01-21 22:00,ZGSZ 212200Z AUTO 08004KT 2SM 16/11 A2997 RMK T01600110 IEM_DS3505
ZGSZ,2009-01-21 23:00,ZGSZ 212300Z AUTO 30008KT 1 1/2SM 16/12 A2997 RMK T01600120 IEM_DS3505
ZGSZ,2009-01-22 00:00,ZGSZ 220000Z AUTO 22002KT 1 1/2SM 16/12 A2997 RMK SLP155 T01560116 52001 IEM_DS3505
ZGSZ,2009-01-22 01:00,ZGSZ 220100Z AUTO 32004KT 1 1/4SM 17/12 A3000 RMK T01700120 IEM_DS3505
ZGSZ,2009-01-22 02:00,ZGSZ 220200Z AUTO 29004KT 1 1/4SM 18/13 A3000 RMK T01800130 IEM_DS3505
ZGSZ,2009-01-22 03:00,ZGSZ 220300Z AUTO 18004KT 1 1/2SM 20/12 A2997 RMK SLP152 T01980118 57003 IEM_DS3505
ZGSZ,2009-01-22 04:00,ZGSZ 220400Z AUTO 31010KT 1 1/2SM 19/12 A2994 RMK T01900120 IEM_DS3505
ZGSZ,2009-01-22 05:00,ZGSZ 220500Z AUTO 30010KT 2SM 20/11 A2991 RMK T02000110 IEM_DS3505
ZGSZ,2009-01-22 06:00,ZGSZ 220600Z AUTO 20008KT 1 1/4SM 23/12 A2988 RMK SLP118 T02270118 57033 IEM_DS3505
ZGSZ,2009-01-22 07:00,ZGSZ 220700Z AUTO 27006KT 2 1/2SM 22/11 A2985 RMK T02200110 IEM_DS3505
ZGSZ,2009-01-22 08:00,ZGSZ 220800Z AUTO 3SM 23/12 A2985 RMK T02300120 IEM_DS3505
ZGSZ,2009-01-22 09:00,ZGSZ 220900Z AUTO 20002KT 2 1/2SM 22/12 A2985 RMK SLP114 T02190125 57004 IEM_DS3505
ZGSZ,2009-01-22 10:00,ZGSZ 221000Z AUTO 23002KT 2SM 20/14 A2985 RMK T02000140 IEM_DS3505
ZGSZ,2009-01-22 11:00,ZGSZ 221100Z AUTO 00000KT 1 1/2SM 19/14 A2988 RMK T01900140 IEM_DS3505
ZGSZ,2009-01-22 12:00,ZGSZ 221200Z AUTO 11002KT 3SM 19/12 A2991 RMK SLP131 T01920122 52016 IEM_DS3505
ZGSZ,2009-01-22 13:00,ZGSZ 221300Z AUTO 00000KT 1 1/2SM 19/13 A2994 RMK T01900130 IEM_DS3505
ZGSZ,2009-01-22 14:00,ZGSZ 221400Z AUTO 00000KT 1 1/2SM 17/13 A2994 RMK T01700130 IEM_DS3505
ZGSZ,2009-01-22 15:00,ZGSZ 221500Z AUTO 04004KT 2 1/2SM 18/13 A2994 RMK SLP145 T01830134 52014 IEM_DS3505
ZGSZ,2009-01-22 16:00,ZGSZ 221600Z AUTO 1 1/2SM 19/13 A2994 RMK T01900130 IEM_DS3505
ZGSZ,2009-01-22 17:00,ZGSZ 221700Z AUTO 00000KT 1 1/4SM 17/12 A2994 RMK T01700120 IEM_DS3505
ZGSZ,2009-01-22 18:00,ZGSZ 221800Z AUTO 07004KT 2SM 18/14 A2994 RMK SLP141 T01770140 57003 IEM_DS3505
ZGSZ,2009-01-22 19:00,ZGSZ 221900Z AUTO 27002KT 1SM 16/13 A2994 RMK T01600130 IEM_DS3505
ZGSZ,2009-01-22 20:00,ZGSZ 222000Z AUTO 00000KT 1 1/4SM 16/14 A2997 RMK T01600140 IEM_DS3505
ZGSZ,2009-01-22 21:00,ZGSZ 222100Z AUTO 07006KT 2 1/2SM 17/12 A2997 RMK SLP158 T01660120 52016 IEM_DS3505
ZGSZ,2009-01-22 22:00,ZGSZ 222200Z AUTO 04008KT 2SM 17/13 A3000 RMK T01700130 IEM_DS3505
ZGSZ,2009-01-22 23:00,ZGSZ 222300Z AUTO 06006KT 2SM 17/12 A3006 RMK T01700120 IEM_DS3505
ZGSZ,2009-01-23 00:00,ZGSZ 230000Z AUTO 04012KT 1 1/2SM 16/10 A3009 RMK SLP192 T01600097 52034 IEM_DS3505
ZGSZ,2009-01-23 01:00,ZGSZ 230100Z AUTO 01012KT 2SM 17/10 A3012 RMK T01700100 IEM_DS3505
ZGSZ,2009-01-23 02:00,ZGSZ 230200Z AUTO 04008KT 3SM 18/09 A3015 RMK T01800090 IEM_DS3505
ZGSZ,2009-01-23 03:00,ZGSZ 230300Z AUTO 07014KT 4SM 17/07 A3015 RMK SLP207 T01670074 52015 IEM_DS3505
ZGSZ,2009-01-23 04:00,ZGSZ 230400Z AUTO 04010KT 5SM 18/08 A3012 RMK T01800080 IEM_DS3505
ZGSZ,2009-01-23 05:00,ZGSZ 230500Z AUTO 01010KT 7SM 19/08 A3009 RMK T01900080 IEM_DS3505
ZGSZ,2009-01-23 06:00,ZGSZ 230600Z AUTO 07006KT 5SM 18/08 A3006 RMK SLP183 T01810075 57024 IEM_DS3505
ZGSZ,2009-01-23 07:00,ZGSZ 230700Z AUTO 03012KT 7SM 19/08 A3006 RMK T01900080 IEM_DS3505
ZGSZ,2009-01-23 08:00,ZGSZ 230800Z AUTO 03012KT 7SM 19/08 A3009 RMK T01900080 IEM_DS3505
ZGSZ,2009-01-23 09:00,ZGSZ 230900Z AUTO 02006KT 6SM 18/07 A3012 RMK SLP198 T01760071 52015 IEM_DS3505
ZGSZ,2009-01-23 10:00,ZGSZ 231000Z AUTO 04014KT 7SM 18/07 A3012 RMK T01800070 IEM_DS3505
ZGSZ,2009-01-23 11:00,ZGSZ 231100Z AUTO 03014KT 7SM 16/06 A3015 RMK T01600060 IEM_DS3505
ZGSZ,2009-01-23 12:00,ZGSZ 231200Z AUTO 02012KT 9SM 15/04 A3018 RMK SLP223 T01460043 52024 IEM_DS3505
ZGSZ,2009-01-23 13:00,ZGSZ 231300Z AUTO 04012KT 7SM 15/05 A3021 RMK T01500050 IEM_DS3505
ZGSZ,2009-01-23 14:00,ZGSZ 231400Z AUTO 02012KT 6SM 14/04 A3024 RMK T01400040 IEM_DS3505
ZGSZ,2009-01-23 15:00,ZGSZ 231500Z AUTO 02012KT 9SM 12/03 A3027 RMK SLP246 T01240034 52023 IEM_DS3505
ZGSZ,2009-01-23 16:00,ZGSZ 231600Z AUTO 02012KT 7SM 13/03 A3027 RMK T01300030 IEM_DS3505
ZGSZ,2009-01-23 17:00,ZGSZ 231700Z AUTO 03012KT 7SM 12/02 A3027 RMK T01200020 IEM_DS3505
ZGSZ,2009-01-23 18:00,ZGSZ 231800Z AUTO 02006KT 9SM 11/01 A3027 RMK SLP251 T01100007 52005 IEM_DS3505
ZGSZ,2009-01-23 19:00,ZGSZ 231900Z AUTO 02014KT 7SM 11/00 A3027 RMK T01100000 IEM_DS3505
ZGSZ,2009-01-23 20:00,ZGSZ 232000Z AUTO 02016G25KT 7SM 10/M01 A3027 RMK T01001010 IEM_DS3505
ZGSZ,2009-01-23 21:00,ZGSZ 232100Z AUTO 07008KT 11SM 10/M02 A3027 RMK SLP250 T00981019 57002 IEM_DS3505
ZGSZ,2009-01-23 22:00,ZGSZ 232200Z AUTO 03012KT 7SM 09/M01 A3027 RMK T00901010 IEM_DS3505
ZGSZ,2009-01-23 23:00,ZGSZ 232300Z AUTO 01014KT 7SM 09/M01 A3030 RMK T00901010 IEM_DS3505
ZGSZ,2009-01-24 00:00,ZGSZ 240000Z AUTO 04008KT 11SM 09/M02 A3033 RMK SLP267 T00891024 52017 IEM_DS3505
ZGSZ,2009-01-24 01:00,ZGSZ 240100Z AUTO 03012KT 7SM 08/M01 A3033 RMK T00801010 IEM_DS3505
ZGSZ,2009-01-24 02:00,ZGSZ 240200Z AUTO 03014KT 7SM 08/M02 A3036 RMK T00801020 IEM_DS3505
ZGSZ,2009-01-24 03:00,ZGSZ 240300Z AUTO 02008KT 12SM 08/M04 A3036 RMK SLP276 T00821039 52008 IEM_DS3505
ZGSZ,2009-01-24 04:00,ZGSZ 240400Z AUTO 02010KT 7SM 09/M04 A3033 RMK T00901040 IEM_DS3505
ZGSZ,2009-01-24 05:00,ZGSZ 240500Z AUTO 01014KT 7SM 09/M05 A3030 RMK T00901050 IEM_DS3505
ZGSZ,2009-01-24 06:00,ZGSZ 240600Z AUTO 36006KT 11SM 09/M04 A3027 RMK SLP250 T00931043 57026 IEM_DS3505
ZGSZ,2009-01-24 07:00,ZGSZ 240700Z AUTO 02014KT 7SM 10/M06 A3024 RMK T01001060 IEM_DS3505
ZGSZ,2009-01-24 08:00,ZGSZ 240800Z AUTO 03012KT 7SM 10/M07 A3024 RMK T01001070 IEM_DS3505
ZGSZ,2009-01-24 09:00,ZGSZ 240900Z AUTO 36006KT 12SM 09/M06 A3027 RMK SLP246 T00931061 57004 IEM_DS3505
ZGSZ,2009-01-24 10:00,ZGSZ 241000Z AUTO 03012KT 7SM 10/M07 A3027 RMK T01001070 IEM_DS3505
ZGSZ,2009-01-24 11:00,ZGSZ 241100Z AUTO 03010KT 7SM 10/M08 A3027 RMK T01001080 IEM_DS3505
ZGSZ,2009-01-24 12:00,ZGSZ 241200Z AUTO 04008KT 11SM 10/M09 A3027 RMK SLP251 T00951086 52005 IEM_DS3505
ZGSZ,2009-01-24 13:00,ZGSZ 241300Z AUTO 03010KT 7SM 10/M08 A3027 RMK T01001080 IEM_DS3505
ZGSZ,2009-01-24 14:00,ZGSZ 241400Z AUTO 02010KT 7SM 10/M09 A3030 RMK T01001090 IEM_DS3505
ZGSZ,2009-01-24 15:00,ZGSZ 241500Z AUTO 04006KT 11SM 09/M09 A3030 RMK SLP260 T00931092 52009 IEM_DS3505
ZGSZ,2009-01-24 16:00,ZGSZ 241600Z AUTO 02008KT 7SM 10/M08 A3027 RMK T01001080 IEM_DS3505
ZGSZ,2009-01-24 17:00,ZGSZ 241700Z AUTO 01008KT 7SM 09/M08 A3027 RMK T00901080 IEM_DS3505
ZGSZ,2009-01-24 18:00,ZGSZ 241800Z AUTO 04006KT 14SM 09/M09 A3027 RMK SLP252 T00881092 57008 IEM_DS3505
ZGSZ,2009-01-24 19:00,ZGSZ 241900Z AUTO 03008KT 7SM 09/M09 A3027 RMK T00901090 IEM_DS3505
ZGSZ,2009-01-24 20:00,ZGSZ 242000Z AUTO 04010KT 7SM 09/M08 A3024 RMK T00901080 IEM_DS3505
ZGSZ,2009-01-24 21:00,ZGSZ 242100Z AUTO 02006KT 14SM 08/M08 A3024 RMK SLP240 T00821083 57012 IEM_DS3505
ZGSZ,2009-01-24 22:00,ZGSZ 242200Z AUTO 02006KT 7SM 09/M08 A3024 RMK T00901080 IEM_DS3505
ZGSZ,2009-01-24 23:00,ZGSZ 242300Z AUTO 02006KT 7SM 09/M08 A3024 RMK T00901080 IEM_DS3505
ZGSZ,2009-01-25 00:00,ZGSZ 250000Z AUTO 04004KT 12SM 08/M06 A3024 RMK SLP243 T00831063 52003 IEM_DS3505
ZGSZ,2009-01-25 01:00,ZGSZ 250100Z AUTO 04004KT 7SM 09/M07 A3024 RMK T00901070 IEM_DS3505
ZGSZ,2009-01-25 02:00,ZGSZ 250200Z AUTO 01006KT 7SM 10/M06 A3024 RMK T01001060 IEM_DS3505
ZGSZ,2009-01-25 03:00,ZGSZ 250300Z AUTO 07006KT 11SM 12/M02 A3021 RMK SLP233 T01151016 57009 IEM_DS3505
ZGSZ,2009-01-25 04:00,ZGSZ 250400Z AUTO 01008KT 6SM 13/M04 A3018 RMK T01301040 IEM_DS3505
ZGSZ,2009-01-25 05:00,ZGSZ 250500Z AUTO 36008KT 7SM 14/M02 A3012 RMK T01401020 IEM_DS3505
ZGSZ,2009-01-25 06:00,ZGSZ 250600Z AUTO 07008KT 9SM 15/04 A3012 RMK SLP198 T01480045 57035 IEM_DS3505
ZGSZ,2009-01-25 07:00,ZGSZ 250700Z AUTO 36010KT 7SM 15/M03 A3009 RMK T01501030 IEM_DS3505
ZGSZ,2009-01-25 08:00,ZGSZ 250800Z AUTO 36010KT 7SM 15/M02 A3009 RMK T01501020 IEM_DS3505
ZGSZ,2009-01-25 09:00,ZGSZ 250900Z AUTO 09006KT 9SM 14/06 A3009 RMK SLP193 T01420056 57005 IEM_DS3505
ZGSZ,2009-01-25 10:00,ZGSZ 251000Z AUTO 01006KT 7SM 14/M01 A3009 RMK T01401010 IEM_DS3505
ZGSZ,2009-01-25 11:00,ZGSZ 251100Z AUTO 36008KT 7SM 14/M02 A3009 RMK T01401020 IEM_DS3505
ZGSZ,2009-01-25 12:00,ZGSZ 251200Z AUTO 09002KT 9SM 14/04 A3012 RMK SLP204 T01380036 52011 IEM_DS3505
ZGSZ,2009-01-25 13:00,ZGSZ 251300Z AUTO 03004KT 7SM 14/M01 A3012 RMK T01401010 IEM_DS3505
ZGSZ,2009-01-25 14:00,ZGSZ 251400Z AUTO 05006KT 7SM 14/M01 A3012 RMK T01401010 IEM_DS3505
ZGSZ,2009-01-25 15:00,ZGSZ 251500Z AUTO 04002KT 9SM 14/03 A3012 RMK SLP205 T01350030 52001 IEM_DS3505
ZGSZ,2009-01-25 16:00,ZGSZ 251600Z AUTO 02004KT 6SM 13/01 A3012 RMK T01300010 IEM_DS3505
ZGSZ,2009-01-25 17:00,ZGSZ 251700Z AUTO 02006KT 6SM 14/01 A3012 RMK T01400010 IEM_DS3505
ZGSZ,2009-01-25 18:00,ZGSZ 251800Z AUTO 04006KT 9SM 14/06 A3009 RMK SLP192 T01370058 57012 IEM_DS3505
ZGSZ,2009-01-25 19:00,ZGSZ 251900Z AUTO 36008KT 6SM 13/00 A3009 RMK T01300000 IEM_DS3505
ZGSZ,2009-01-25 20:00,ZGSZ 252000Z AUTO 05006KT 6SM 13/02 A3009 RMK T01300020 IEM_DS3505
ZGSZ,2009-01-25 21:00,ZGSZ 252100Z AUTO 07006KT 10SM 13/05 A3009 RMK SLP189 T01310050 57003 IEM_DS3505
ZGSZ,2009-01-25 22:00,ZGSZ 252200Z AUTO 08004KT 7SM 13/02 A3009 RMK T01300020 IEM_DS3505
ZGSZ,2009-01-25 23:00,ZGSZ 252300Z AUTO 6SM 12/02 A3009 RMK T01200020 IEM_DS3505
ZGSZ,2009-01-26 00:00,ZGSZ 260000Z AUTO 07002KT 10SM 13/04 A3012 RMK SLP199 T01280043 52010 IEM_DS3505
ZGSZ,2009-01-26 01:00,ZGSZ 260100Z AUTO 36006KT 6SM 13/01 A3012 RMK T01300010 IEM_DS3505
ZGSZ,2009-01-26 02:00,ZGSZ 260200Z AUTO 01006KT 6SM 14/01 A3012 RMK T01400010 IEM_DS3505
ZGSZ,2009-01-26 03:00,ZGSZ 260300Z AUTO 02004KT 10SM 14/05 A3012 RMK SLP205 T01430049 52006 IEM_DS3505
ZGSZ,2009-01-26 04:00,ZGSZ 260400Z AUTO 36010KT 7SM 13/01 A3012 RMK T01300010 IEM_DS3505
ZGSZ,2009-01-26 05:00,ZGSZ 260500Z AUTO 01010KT 7SM 14/01 A3009 RMK T01400010 IEM_DS3505
ZGSZ,2009-01-26 06:00,ZGSZ 260600Z AUTO 02006KT 9SM 14/03 A3009 RMK SLP185 T01380027 57020 IEM_DS3505
ZGSZ,2009-01-26 07:00,ZGSZ 260700Z AUTO 35010KT 7SM 13/02 A3009 RMK T01300020 IEM_DS3505
ZGSZ,2009-01-26 08:00,ZGSZ 260800Z AUTO 35012KT 7SM 12/03 A3009 RMK T01200030 IEM_DS3505
ZGSZ,2009-01-26 09:00,ZGSZ 260900Z AUTO 36006KT 8SM 12/02 A3012 RMK SLP197 T01210017 52011 IEM_DS3505
ZGSZ,2009-01-26 10:00,ZGSZ 261000Z AUTO 36012KT 7SM 11/03 A3012 RMK T01100030 IEM_DS3505
ZGSZ,2009-01-26 11:00,ZGSZ 261100Z AUTO 01008KT 7SM 11/04 A3012 RMK T01100040 IEM_DS3505
ZGSZ,2009-01-26 12:00,ZGSZ 261200Z AUTO 02006KT 9SM 11/03 A3015 RMK SLP208 T01060027 52011 IEM_DS3505
ZGSZ,2009-01-26 13:00,ZGSZ 261300Z AUTO 36014KT 4SM 10/06 A3015 RMK T01000060 IEM_DS3505
ZGSZ,2009-01-26 14:00,ZGSZ 261400Z AUTO 01012KT 2 1/2SM 09/07 A3018 RMK T00900070 IEM_DS3505
ZGSZ,2009-01-26 15:00,ZGSZ 261500Z AUTO 34010KT 9SM 09/05 A3018 RMK SLP218 T00920046 52010 IEM_DS3505
ZGSZ,2009-01-26 16:00,ZGSZ 261600Z AUTO 02008KT 4SM 09/07 A3018 RMK T00900070 IEM_DS3505
ZGSZ,2009-01-26 17:00,ZGSZ 261700Z AUTO 01010KT 5SM 08/07 A3018 RMK T00800070 IEM_DS3505
ZGSZ,2009-01-26 18:00,ZGSZ 261800Z AUTO 02006KT 9SM 09/05 A3018 RMK 60000 SLP220 T00910049 52002 IEM_DS3505
ZGSZ,2009-01-26 19:00,ZGSZ 261900Z AUTO 36010KT 7SM 08/07 A3018 RMK T00800070 IEM_DS3505
ZGSZ,2009-01-26 20:00,ZGSZ 262000Z AUTO 36010KT 7SM 09/07 A3015 RMK T00900070 IEM_DS3505
ZGSZ,2009-01-26 21:00,ZGSZ 262100Z AUTO 07004KT 12SM 09/05 A3015 RMK 70000 SLP207 T00890051 57013 IEM_DS3505
ZGSZ,2009-01-26 22:00,ZGSZ 262200Z AUTO 36008KT 5SM 08/07 A3015 RMK T00800070 IEM_DS3505
ZGSZ,2009-01-26 23:00,ZGSZ 262300Z AUTO 03008KT 7SM 08/07 A3015 RMK T00800070 IEM_DS3505
ZGSZ,2009-01-27 00:00,ZGSZ 270000Z AUTO 36006KT 10SM 08/06 A3015 RMK 60000 70000 SLP218 T00840062 52010 IEM_DS3505
ZGSZ,2009-01-27 01:00,ZGSZ 270100Z AUTO 36008KT 7SM 08/07 A3018 RMK T00800070 IEM_DS3505
ZGSZ,2009-01-27 02:00,ZGSZ 270200Z AUTO 01008KT 3SM 08/07 A3021 RMK T00800070 IEM_DS3505
ZGSZ,2009-01-27 03:00,ZGSZ 270300Z AUTO 09004KT 6SM 09/07 A3018 RMK SLP220 T00870067 52002 IEM_DS3505
ZGSZ,2009-01-27 04:00,ZGSZ 270400Z AUTO 01006KT 7SM 09/07 A3015 RMK T00900070 IEM_DS3505
ZGSZ,2009-01-27 05:00,ZGSZ 270500Z AUTO 36010KT 7SM 10/07 A3012 RMK T01000070 IEM_DS3505
ZGSZ,2009-01-27 06:00,ZGSZ 270600Z AUTO 34004KT 4SM 10/07 A3009 RMK 60000 SLP190 T00960070 57029 IEM_DS3505
ZGSZ,2009-01-27 07:00,ZGSZ 270700Z AUTO 01010KT 3SM 09/07 A3009 RMK T00900070 IEM_DS3505
ZGSZ,2009-01-27 08:00,ZGSZ 270800Z AUTO 02008KT 4SM 09/08 A3009 RMK T00900080 IEM_DS3505
ZGSZ,2009-01-27 09:00,ZGSZ 270900Z AUTO 02002KT 3SM 09/07 A3009 RMK SLP193 T00860071 52002 IEM_DS3505
ZGSZ,2009-01-27 10:00,ZGSZ 271000Z AUTO 03006KT 7SM 10/07 A3009 RMK T01000070 IEM_DS3505
ZGSZ,2009-01-27 11:00,ZGSZ 271100Z AUTO 01008KT 7SM 09/07 A3009 RMK T00900070 IEM_DS3505
ZGSZ,2009-01-27 12:00,ZGSZ 271200Z AUTO 02004KT 6SM 09/07 A3009 RMK 60000 SLP198 T00900068 52005 IEM_DS3505
ZGSZ,2009-01-27 13:00,ZGSZ 271300Z AUTO 01008KT 7SM 09/07 A3009 RMK T00900070 IEM_DS3505
ZGSZ,2009-01-27 14:00,ZGSZ 271400Z AUTO 02006KT 7SM 10/07 A3009 RMK T01000070 IEM_DS3505
ZGSZ,2009-01-27 15:00,ZGSZ 271500Z AUTO 02004KT 6SM 10/07 A3009 RMK SLP195 T00960067 57003 IEM_DS3505
ZGSZ,2009-01-27 16:00,ZGSZ 271600Z AUTO 01006KT 7SM 10/07 A3009 RMK T01000070 IEM_DS3505
ZGSZ,2009-01-27 17:00,ZGSZ 271700Z AUTO 01008KT 7SM 09/07 A3009 RMK T00900070 IEM_DS3505
ZGSZ,2009-01-27 18:00,ZGSZ 271800Z AUTO 36002KT 6SM 09/07 A3009 RMK SLP195 T00940072 52001 IEM_DS3505
ZGSZ,2009-01-27 19:00,ZGSZ 271900Z AUTO 02004KT 7SM 09/07 A3009 RMK T00900070 IEM_DS3505
ZGSZ,2009-01-27 20:00,ZGSZ 272000Z AUTO 36004KT 7SM 10/07 A3009 RMK T01000070 IEM_DS3505
ZGSZ,2009-01-27 21:00,ZGSZ 272100Z AUTO 02002KT 6SM 10/07 A3006 RMK 70001 SLP186 T00990072 57009 IEM_DS3505
ZGSZ,2009-01-27 22:00,ZGSZ 272200Z AUTO 01008KT 7SM 10/07 A3009 RMK T01000070 IEM_DS3505
ZGSZ,2009-01-27 23:00,ZGSZ 272300Z AUTO 7SM 10/07 A3006 RMK T01000070 IEM_DS3505
ZGSZ,2009-01-28 00:00,ZGSZ 280000Z AUTO 02002KT 7SM 11/08 A3009 RMK 70001 SLP189 T01060077 52003 IEM_DS3505
ZGSZ,2009-01-28 01:00,ZGSZ 280100Z AUTO 35004KT 7SM 11/08 A3012 RMK T01100080 IEM_DS3505
ZGSZ,2009-01-28 02:00,ZGSZ 280200Z AUTO 35004KT 7SM 12/08 A3012 RMK T01200080 IEM_DS3505
ZGSZ,2009-01-28 03:00,ZGSZ 280300Z AUTO 04004KT 8SM 14/09 A3009 RMK SLP196 T01350094 52007 IEM_DS3505
ZGSZ,2009-01-28 04:00,ZGSZ 280400Z AUTO 02004KT 7SM 14/09 A3006 RMK T01400090 IEM_DS3505
ZGSZ,2009-01-28 05:00,ZGSZ 280500Z AUTO 10006KT 7SM 17/11 A3000 RMK T01700110 IEM_DS3505
ZGSZ,2009-01-28 06:00,ZGSZ 280600Z AUTO 07004KT 10SM 18/11 A3000 RMK SLP159 T01750113 57036 IEM_DS3505
ZGSZ,2009-01-28 07:00,ZGSZ 280700Z AUTO 31010KT 4SM 15/10 A3000 RMK T01500100 IEM_DS3505
ZGSZ,2009-01-28 08:00,ZGSZ 280800Z AUTO 31012KT 4SM 15/10 A2997 RMK T01500100 IEM_DS3505
ZGSZ,2009-01-28 09:00,ZGSZ 280900Z AUTO 18002KT 6SM 17/11 A3000 RMK SLP164 T01700106 52005 IEM_DS3505
ZGSZ,2009-01-28 10:00,ZGSZ 281000Z AUTO 31008KT 3SM 14/10 A3003 RMK T01400100 IEM_DS3505
ZGSZ,2009-01-28 11:00,ZGSZ 281100Z AUTO 31006KT 3SM 14/10 A3003 RMK T01400100 IEM_DS3505
ZGSZ,2009-01-28 12:00,ZGSZ 281200Z AUTO 32002KT 5SM 15/10 A3003 RMK SLP174 T01470103 52010 IEM_DS3505
ZGSZ,2009-01-28 13:00,ZGSZ 281300Z AUTO 33004KT 3SM 14/11 A3003 RMK T01400110 IEM_DS3505
ZGSZ,2009-01-28 14:00,ZGSZ 281400Z AUTO 30004KT 2 1/2SM 14/11 A3003 RMK T01400110 IEM_DS3505
ZGSZ,2009-01-28 15:00,ZGSZ 281500Z AUTO 04004KT 5SM 15/12 A3003 RMK SLP174 T01510115 54000 IEM_DS3505
ZGSZ,2009-01-28 16:00,ZGSZ 281600Z AUTO 2SM 13/11 A3003 RMK T01300110 IEM_DS3505
ZGSZ,2009-01-28 17:00,ZGSZ 281700Z AUTO 4SM 14/11 A3000 RMK T01400110 IEM_DS3505
ZGSZ,2009-01-28 18:00,ZGSZ 281800Z AUTO 07008KT 9SM 15/12 A3000 RMK SLP165 T01530119 57008 IEM_DS3505
ZGSZ,2009-01-28 19:00,ZGSZ 281900Z AUTO 32004KT 1 1/2SM 12/11 A3000 RMK T01200110 IEM_DS3505
ZGSZ,2009-01-28 20:00,ZGSZ 282000Z AUTO 33004KT 1 1/4SM 12/10 A3000 RMK T01200100 IEM_DS3505
ZGSZ,2009-01-28 21:00,ZGSZ 282100Z AUTO 07006KT 9SM 15/12 A3000 RMK SLP157 T01480118 57008 IEM_DS3505
ZGSZ,2009-01-28 22:00,ZGSZ 282200Z AUTO 31004KT 2SM 13/11 A3000 RMK T01300110 IEM_DS3505
ZGSZ,2009-01-28 23:00,ZGSZ 282300Z AUTO 33006KT 1 1/2SM 13/11 A3003 RMK T01300110 IEM_DS3505
ZGSZ,2009-01-29 00:00,ZGSZ 290000Z AUTO 22002KT 5SM 13/11 A3003 RMK SLP175 T01340109 52017 IEM_DS3505
ZGSZ,2009-01-29 01:00,ZGSZ 290100Z AUTO 31006KT 2 1/2SM 14/11 A3006 RMK T01400110 IEM_DS3505
ZGSZ,2009-01-29 02:00,ZGSZ 290200Z AUTO 32008KT 3SM 14/12 A3006 RMK T01400120 IEM_DS3505
ZGSZ,2009-01-29 03:00,ZGSZ 290300Z AUTO 27002KT 3SM 17/12 A3006 RMK SLP178 T01680119 52003 IEM_DS3505
ZGSZ,2009-01-29 04:00,ZGSZ 290400Z AUTO 30010KT 2 1/2SM 16/13 A3003 RMK T01600130 IEM_DS3505
ZGSZ,2009-01-29 05:00,ZGSZ 290500Z AUTO 32006KT 2SM 16/13 A3000 RMK T01600130 IEM_DS3505
ZGSZ,2009-01-29 06:00,ZGSZ 290600Z AUTO 18004KT 2 1/2SM 18/12 A2997 RMK SLP153 T01810121 57024 IEM_DS3505
ZGSZ,2009-01-29 07:00,ZGSZ 290700Z AUTO 31010KT 2 1/2SM 16/13 A2997 RMK T01600130 IEM_DS3505
ZGSZ,2009-01-29 08:00,ZGSZ 290800Z AUTO 33008KT 2SM 16/13 A2997 RMK T01600130 IEM_DS3505
ZGSZ,2009-01-29 09:00,ZGSZ 290900Z AUTO 32006KT 2 1/2SM 17/12 A3000 RMK SLP155 T01680121 52002 IEM_DS3505
ZGSZ,2009-01-29 10:00,ZGSZ 291000Z AUTO 32010KT 1 1/2SM 15/12 A3000 RMK T01500120 IEM_DS3505
ZGSZ,2009-01-29 11:00,ZGSZ 291100Z AUTO 32008KT 1 1/2SM 15/12 A3000 RMK T01500120 IEM_DS3505
ZGSZ,2009-01-29 12:00,ZGSZ 291200Z AUTO 36002KT 2 1/2SM 15/12 RMK SLP166 T01500120 52010 IEM_DS3505
ZGSZ,2009-01-29 15:00,ZGSZ 291500Z AUTO 27002KT 2SM 14/11 RMK SLP166 T01410114 54000 IEM_DS3505
ZGSZ,2009-01-29 18:00,ZGSZ 291800Z AUTO 32002KT 5SM 13/10 RMK SLP162 T01330103 57004 IEM_DS3505
ZGSZ,2009-01-29 21:00,ZGSZ 292100Z AUTO 29002KT 6SM 13/10 RMK SLP159 T01280098 57003 IEM_DS3505
ZGSZ,2009-01-29 22:00,ZGSZ 292200Z AUTO 33008KT 7SM 13/10 A3000 RMK T01300100 IEM_DS3505
ZGSZ,2009-01-29 23:00,ZGSZ 292300Z AUTO 34010KT 7SM 13/10 A3003 RMK T01300100 IEM_DS3505
ZGSZ,2009-01-30 00:00,ZGSZ 300000Z AUTO 36004KT 7SM 13/10 A3003 RMK SLP176 T01310101 52017 IEM_DS3505
ZGSZ,2009-01-30 01:00,ZGSZ 300100Z AUTO 36006KT 7SM 15/10 A3006 RMK T01500100 IEM_DS3505
ZGSZ,2009-01-30 02:00,ZGSZ 300200Z AUTO 36008KT 7SM 17/10 A3006 RMK T01700100 IEM_DS3505
ZGSZ,2009-01-30 03:00,ZGSZ 300300Z AUTO 36006KT 10SM 17/10 A3006 RMK SLP181 T01710100 52005 IEM_DS3505
ZGSZ,2009-01-30 04:00,ZGSZ 300400Z AUTO 36012KT 6SM 19/09 A3003 RMK T01900090 IEM_DS3505
ZGSZ,2009-01-30 05:00,ZGSZ 300500Z AUTO 35010KT 6SM 20/09 A2997 RMK T02000090 IEM_DS3505
ZGSZ,2009-01-30 06:00,ZGSZ 300600Z AUTO 32002KT 9SM 20/09 A2994 RMK SLP146 T02030089 57034 IEM_DS3505
ZGSZ,2009-01-30 07:00,ZGSZ 300700Z AUTO 29012KT 6SM 19/11 A2994 RMK T01900110 IEM_DS3505
ZGSZ,2009-01-30 08:00,ZGSZ 300800Z AUTO 31010KT 6SM 20/11 A2994 RMK T02000110 IEM_DS3505
ZGSZ,2009-01-30 09:00,ZGSZ 300900Z AUTO 36008KT 11SM 20/08 A2994 RMK SLP143 T02040081 57003 IEM_DS3505
ZGSZ,2009-01-30 10:00,ZGSZ 301000Z AUTO 36008KT 6SM 20/09 A2997 RMK T02000090 IEM_DS3505
ZGSZ,2009-01-30 11:00,ZGSZ 301100Z AUTO 04006KT 6SM 19/08 A2997 RMK T01900080 IEM_DS3505
ZGSZ,2009-01-30 12:00,ZGSZ 301200Z AUTO 36006KT 16SM 17/08 A3000 RMK SLP162 T01690078 52018 IEM_DS3505
ZGSZ,2009-01-30 13:00,ZGSZ 301300Z AUTO 01010KT 6SM 17/08 A3000 RMK T01700080 IEM_DS3505
ZGSZ,2009-01-30 14:00,ZGSZ 301400Z AUTO 03008KT 6SM 15/08 A3000 RMK T01500080 IEM_DS3505
ZGSZ,2009-01-30 15:00,ZGSZ 301500Z AUTO 02008KT 12SM 14/07 A3003 RMK SLP166 T01430069 52004 IEM_DS3505
ZGSZ,2009-01-30 16:00,ZGSZ 301600Z AUTO 02010KT 6SM 14/07 A3003 RMK T01400070 IEM_DS3505
ZGSZ,2009-01-30 17:00,ZGSZ 301700Z AUTO 03010KT 6SM 13/07 A3006 RMK T01300070 IEM_DS3505
ZGSZ,2009-01-30 18:00,ZGSZ 301800Z AUTO 04006KT 14SM 13/06 A3006 RMK SLP177 T01270065 52012 IEM_DS3505
ZGSZ,2009-01-30 19:00,ZGSZ 301900Z AUTO 05008KT 6SM 13/07 A3006 RMK T01300070 IEM_DS3505
ZGSZ,2009-01-30 20:00,ZGSZ 302000Z AUTO 01004KT 6SM 12/07 A3006 RMK T01200070 IEM_DS3505
ZGSZ,2009-01-30 21:00,ZGSZ 302100Z AUTO 09006KT 16SM 12/06 A3006 RMK SLP178 T01220065 52001 IEM_DS3505
ZGSZ,2009-01-30 23:00,ZGSZ 302300Z AUTO 01004KT 6SM 10/07 A3009 RMK T01000070 IEM_DS3505
ZGSZ,2009-01-31 00:00,ZGSZ 310000Z AUTO 04006KT 12SM 12/07 A3012 RMK SLP199 T01250070 52020 IEM_DS3505
ZGSZ,2009-01-31 01:00,ZGSZ 310100Z AUTO 03004KT 6SM 15/08 A3012 RMK T01500080 IEM_DS3505
ZGSZ,2009-01-31 02:00,ZGSZ 310200Z AUTO 03006KT 6SM 17/08 A3012 RMK T01700080 IEM_DS3505
ZGSZ,2009-01-31 03:00,ZGSZ 310300Z AUTO 04006KT 11SM 17/09 A3012 RMK SLP199 T01700089 54000 IEM_DS3505
ZGSZ,2009-01-31 04:00,ZGSZ 310400Z AUTO 09006KT 6SM 20/09 A3006 RMK T02000090 IEM_DS3505
ZGSZ,2009-01-31 05:00,ZGSZ 310500Z AUTO 13006KT 6SM 21/09 A3003 RMK T02100090 IEM_DS3505
ZGSZ,2009-01-31 06:00,ZGSZ 310600Z AUTO 09006KT 16SM 20/08 A3000 RMK SLP164 T02050085 57034 IEM_DS3505
ZGSZ,2009-01-31 07:00,ZGSZ 310700Z AUTO 26008KT 6SM 21/12 A3000 RMK T02100120 IEM_DS3505
ZGSZ,2009-01-31 08:00,ZGSZ 310800Z AUTO 24006KT 6SM 21/11 A3000 RMK T02100110 IEM_DS3505
ZGSZ,2009-01-31 09:00,ZGSZ 310900Z AUTO 29002KT 14SM 20/09 A3000 RMK SLP167 T02030092 52003 IEM_DS3505
ZGSZ,2009-01-31 10:00,ZGSZ 311000Z AUTO 19002KT 6SM 18/11 A3003 RMK T01800110 IEM_DS3505
ZGSZ,2009-01-31 11:00,ZGSZ 311100Z AUTO 17002KT 4SM 17/11 A3003 RMK T01700110 IEM_DS3505
ZGSZ,2009-01-31 12:00,ZGSZ 311200Z AUTO 09004KT 14SM 16/11 A3006 RMK SLP186 T01650108 52018 IEM_DS3505
ZGSZ,2009-01-31 13:00,ZGSZ 311300Z AUTO 13006KT 4SM 15/11 A3006 RMK T01500110 IEM_DS3505
ZGSZ,2009-01-31 14:00,ZGSZ 311400Z AUTO 12008KT 6SM 17/11 A3006 RMK T01700110 IEM_DS3505
ZGSZ,2009-01-31 15:00,ZGSZ 311500Z AUTO 09004KT 14SM 15/11 A3006 RMK SLP190 T01540112 52004 IEM_DS3505
ZGSZ,2009-01-31 16:00,ZGSZ 311600Z AUTO 12004KT 6SM 16/11 A3006 RMK T01600110 IEM_DS3505
ZGSZ,2009-01-31 17:00,ZGSZ 311700Z AUTO 00000KT 6SM 15/11 A3009 RMK T01500110 IEM_DS3505
ZGSZ,2009-01-31 18:00,ZGSZ 311800Z AUTO 04002KT 14SM 15/11 A3009 RMK SLP196 T01540106 52007 IEM_DS3505
ZGSZ,2009-01-31 19:00,ZGSZ 311900Z AUTO 04004KT 6SM 14/11 A3009 RMK T01400110 IEM_DS3505
ZGSZ,2009-01-31 20:00,ZGSZ 312000Z AUTO 02004KT 6SM 15/11 A3012 RMK T01500110 IEM_DS3505
ZGSZ,2009-01-31 21:00,ZGSZ 312100Z AUTO 09002KT 12SM 15/10 A3012 RMK SLP200 T01530103 52004 IEM_DS3505
ZGSZ,2009-01-31 22:00,ZGSZ 312200Z AUTO 7SM 15/11 A3012 RMK T01500110 IEM_DS3505
ZGSZ,2009-01-31 23:00,ZGSZ 312300Z AUTO 00000KT 7SM 15/11 A3012 RMK T01500110 IEM_DS3505
ZGSZ,2009-02-01 00:00,ZGSZ 010000Z AUTO 07004KT 9SM 16/11 A3015 RMK SLP211 T01570107 52010 IEM_DS3505
ZGSZ,2009-02-01 01:00,ZGSZ 010100Z AUTO 26004KT 6SM 18/12 A3015 RMK T01800120 IEM_DS3505
ZGSZ,2009-02-01 02:00,ZGSZ 010200Z AUTO 26004KT 6SM 19/12 A3018 RMK T01900120 IEM_DS3505
ZGSZ,2009-02-01 03:00,ZGSZ 010300Z AUTO 04006KT 11SM 20/11 A3015 RMK SLP215 T01980113 52005 IEM_DS3505
ZGSZ,2009-02-01 04:00,ZGSZ 010400Z AUTO 22006KT 6SM 20/12 A3012 RMK T02000120 IEM_DS3505
ZGSZ,2009-02-01 05:00,ZGSZ 010500Z AUTO 24006KT 7SM 21/12 A3009 RMK T02100120 IEM_DS3505
ZGSZ,2009-02-01 06:00,ZGSZ 010600Z AUTO 04004KT 16SM 22/12 A3006 RMK SLP186 T02200120 57029 IEM_DS3505
ZGSZ,2009-02-01 07:00,ZGSZ 010700Z AUTO 23006KT 7SM 21/12 A3006 RMK T02100120 IEM_DS3505
ZGSZ,2009-02-01 08:00,ZGSZ 010800Z AUTO 21004KT 7SM 21/13 A3006 RMK T02100130 IEM_DS3505
ZGSZ,2009-02-01 09:00,ZGSZ 010900Z AUTO 07008KT 14SM 21/12 A3006 RMK SLP189 T02060115 52003 IEM_DS3505
ZGSZ,2009-02-01 10:00,ZGSZ 011000Z AUTO 20004KT 7SM 19/13 A3006 RMK T01900130 IEM_DS3505
ZGSZ,2009-02-01 11:00,ZGSZ 011100Z AUTO 7SM 18/14 A3009 RMK T01800140 IEM_DS3505
ZGSZ,2009-02-01 12:00,ZGSZ 011200Z AUTO 11004KT 12SM 18/12 A3009 RMK SLP197 T01790115 52008 IEM_DS3505
ZGSZ,2009-02-01 13:00,ZGSZ 011300Z AUTO 23004KT 6SM 18/15 A3012 RMK T01800150 IEM_DS3505
ZGSZ,2009-02-01 14:00,ZGSZ 011400Z AUTO 17002KT 6SM 18/14 A3012 RMK T01800140 IEM_DS3505
ZGSZ,2009-02-01 15:00,ZGSZ 011500Z AUTO 09004KT 14SM 17/11 A3012 RMK SLP204 T01670110 52007 IEM_DS3505
ZGSZ,2009-02-01 16:00,ZGSZ 011600Z AUTO 13006KT 6SM 18/12 A3012 RMK T01800120 IEM_DS3505
ZGSZ,2009-02-01 17:00,ZGSZ 011700Z AUTO 09006KT 6SM 19/11 A3009 RMK T01900110 IEM_DS3505
ZGSZ,2009-02-01 18:00,ZGSZ 011800Z AUTO 09004KT 12SM 17/10 A3009 RMK SLP196 T01660105 57008 IEM_DS3505
ZGSZ,2009-02-01 19:00,ZGSZ 011900Z AUTO 25004KT 6SM 17/12 A3009 RMK T01700120 IEM_DS3505
ZGSZ,2009-02-01 20:00,ZGSZ 012000Z AUTO 6SM 16/11 A3009 RMK T01600110 IEM_DS3505
ZGSZ,2009-02-01 21:00,ZGSZ 012100Z AUTO 04002KT 12SM 16/11 A3009 RMK SLP194 T01610111 57002 IEM_DS3505
ZGSZ,2009-02-01 22:00,ZGSZ 012200Z AUTO 06006KT 5SM 17/12 A3009 RMK T01700120 IEM_DS3505
ZGSZ,2009-02-01 23:00,ZGSZ 012300Z AUTO 5SM 16/12 A3012 RMK T01600120 IEM_DS3505
ZGSZ,2009-02-02 00:00,ZGSZ 020000Z AUTO 04004KT 11SM 16/11 A3012 RMK SLP205 T01650108 52011 IEM_DS3505
ZGSZ,2009-02-02 01:00,ZGSZ 020100Z AUTO 6SM 18/12 A3015 RMK T01800120 IEM_DS3505
ZGSZ,2009-02-02 02:00,ZGSZ 020200Z AUTO 01004KT 4SM 19/12 A3015 RMK T01900120 IEM_DS3505
ZGSZ,2009-02-02 03:00,ZGSZ 020300Z AUTO 07002KT 11SM 22/11 A3012 RMK SLP207 T02150107 52002 IEM_DS3505
ZGSZ,2009-02-02 04:00,ZGSZ 020400Z AUTO 29008KT 4SM 21/12 A3012 RMK T02100120 IEM_DS3505
ZGSZ,2009-02-02 05:00,ZGSZ 020500Z AUTO 29008KT 5SM 22/12 A3006 RMK T02200120 IEM_DS3505
ZGSZ,2009-02-02 06:00,ZGSZ 020600Z AUTO 18006KT 12SM 24/11 A3003 RMK SLP174 T02360113 57032 IEM_DS3505
ZGSZ,2009-02-02 07:00,ZGSZ 020700Z AUTO 24006KT 6SM 22/12 A3003 RMK T02200120 IEM_DS3505
ZGSZ,2009-02-02 08:00,ZGSZ 020800Z AUTO 23004KT 6SM 22/12 A3000 RMK T02200120 IEM_DS3505
ZGSZ,2009-02-02 09:00,ZGSZ 020900Z AUTO 18004KT 10SM 23/12 A3000 RMK SLP166 T02300117 57009 IEM_DS3505
ZGSZ,2009-02-02 10:00,ZGSZ 021000Z AUTO 17004KT 6SM 19/13 A3000 RMK T01900130 IEM_DS3505
ZGSZ,2009-02-02 11:00,ZGSZ 021100Z AUTO 30004KT 6SM 19/13 A3003 RMK T01900130 IEM_DS3505
ZGSZ,2009-02-02 12:00,ZGSZ 021200Z AUTO 00000KT 12SM 20/12 A3003 RMK SLP180 T01950115 52014 IEM_DS3505
ZGSZ,2009-02-02 13:00,ZGSZ 021300Z AUTO 09004KT 6SM 19/13 A3006 RMK T01900130 IEM_DS3505
ZGSZ,2009-02-02 14:00,ZGSZ 021400Z AUTO 13004KT 6SM 18/13 A3006 RMK T01800130 IEM_DS3505
ZGSZ,2009-02-02 15:00,ZGSZ 021500Z AUTO 16002KT 10SM 18/14 A3006 RMK SLP185 T01760137 52005 IEM_DS3505
ZGSZ,2009-02-02 16:00,ZGSZ 021600Z AUTO 6SM 18/13 A3006 RMK T01800130 IEM_DS3505
ZGSZ,2009-02-02 17:00,ZGSZ 021700Z AUTO 12004KT 6SM 17/13 A3006 RMK T01700130 IEM_DS3505
ZGSZ,2009-02-02 18:00,ZGSZ 021800Z AUTO 07004KT 10SM 17/11 A3006 RMK SLP182 T01700108 57002 IEM_DS3505
ZGSZ,2009-02-02 19:00,ZGSZ 021900Z AUTO 00000KT 6SM 15/13 A3006 RMK T01500130 IEM_DS3505
ZGSZ,2009-02-02 20:00,ZGSZ 022000Z AUTO 00000KT 5SM 14/13 A3006 RMK T01400130 IEM_DS3505
ZGSZ,2009-02-02 21:00,ZGSZ 022100Z AUTO 04004KT 10SM 16/10 A3006 RMK SLP179 T01640103 57004 IEM_DS3505
ZGSZ,2009-02-02 22:00,ZGSZ 022200Z AUTO 00000KT 5SM 14/13 A3006 RMK T01400130 IEM_DS3505
ZGSZ,2009-02-02 23:00,ZGSZ 022300Z AUTO 00000KT 4SM 14/13 A3006 RMK T01400130 IEM_DS3505
ZGSZ,2009-02-03 00:00,ZGSZ 030000Z AUTO 02002KT 11SM 16/11 A3009 RMK SLP191 T01640109 52012 IEM_DS3505
ZGSZ,2009-02-03 01:00,ZGSZ 030100Z AUTO 3SM 18/14 A3009 RMK T01800140 IEM_DS3505
ZGSZ,2009-02-03 02:00,ZGSZ 030200Z AUTO 4SM 20/13 A3009 RMK T02000130 IEM_DS3505
ZGSZ,2009-02-03 03:00,ZGSZ 030300Z AUTO 36002KT 7SM 24/12 A3009 RMK SLP188 T02350122 57002 IEM_DS3505
ZGSZ,2009-02-03 04:00,ZGSZ 030400Z AUTO 27008KT 4SM 22/13 A3006 RMK T02200130 IEM_DS3505
ZGSZ,2009-02-03 05:00,ZGSZ 030500Z AUTO 26008KT 3SM 23/13 A3003 RMK T02300130 IEM_DS3505
ZGSZ,2009-02-03 06:00,ZGSZ 030600Z AUTO 20008KT 7SM 23/11 A3000 RMK SLP159 T02320113 57029 IEM_DS3505
ZGSZ,2009-02-03 07:00,ZGSZ 030700Z AUTO 19006KT 6SM 22/14 A2997 RMK T02200140 IEM_DS3505
ZGSZ,2009-02-03 08:00,ZGSZ 030800Z AUTO 17010KT 6SM 22/13 A2997 RMK T02200130 IEM_DS3505
ZGSZ,2009-02-03 09:00,ZGSZ 030900Z AUTO 22004KT 7SM 22/12 A2997 RMK SLP153 T02230117 57006 IEM_DS3505
ZGSZ,2009-02-03 10:00,ZGSZ 031000Z AUTO 15006KT 6SM 20/15 A2997 RMK T02000150 IEM_DS3505
ZGSZ,2009-02-03 11:00,ZGSZ 031100Z AUTO 15006KT 6SM 18/16 A3000 RMK T01800160 IEM_DS3505
ZGSZ,2009-02-03 12:00,ZGSZ 031200Z AUTO 16004KT 9SM 20/12 A3000 RMK SLP167 T01980116 52013 IEM_DS3505
ZGSZ,2009-02-03 13:00,ZGSZ 031300Z AUTO 15006KT 6SM 18/16 A3003 RMK T01800160 IEM_DS3505
ZGSZ,2009-02-03 14:00,ZGSZ 031400Z AUTO 17002KT 4SM 17/16 A3003 RMK T01700160 IEM_DS3505
ZGSZ,2009-02-03 15:00,ZGSZ 031500Z AUTO 07004KT 11SM 19/13 A3003 RMK SLP176 T01900127 52010 IEM_DS3505
ZGSZ,2009-02-03 16:00,ZGSZ 031600Z AUTO 15002KT 4SM 17/16 A3003 RMK T01700160 IEM_DS3505
ZGSZ,2009-02-03 17:00,ZGSZ 031700Z AUTO 16002KT 3SM 16/15 A3003 RMK T01600150 IEM_DS3505
ZGSZ,2009-02-03 18:00,ZGSZ 031800Z AUTO 07004KT 9SM 18/13 A3003 RMK SLP171 T01790134 57005 IEM_DS3505
ZGSZ,2009-02-03 19:00,ZGSZ 031900Z AUTO 17002KT 6SM 15/14 A3000 RMK T01500140 IEM_DS3505
ZGSZ,2009-02-03 20:00,ZGSZ 032000Z AUTO 00000KT 6SM 16/14 A3000 RMK T01600140 IEM_DS3505
ZGSZ,2009-02-03 21:00,ZGSZ 032100Z AUTO 04004KT 8SM 16/14 A3000 RMK SLP166 T01650142 57006 IEM_DS3505
ZGSZ,2009-02-03 22:00,ZGSZ 032200Z AUTO 00000KT 4SM 16/14 A3003 RMK T01600140 IEM_DS3505
ZGSZ,2009-02-03 23:00,ZGSZ 032300Z AUTO 4SM 15/13 A3003 RMK T01500130 IEM_DS3505
ZGSZ,2009-02-04 00:00,ZGSZ 040000Z AUTO 09004KT 7SM 16/13 A3006 RMK SLP185 T01610128 52019 IEM_DS3505
ZGSZ,2009-02-04 01:00,ZGSZ 040100Z AUTO 12006KT 4SM 18/14 A3006 RMK T01800140 IEM_DS3505
ZGSZ,2009-02-04 02:00,ZGSZ 040200Z AUTO 15006KT 4SM 20/14 A3009 RMK T02000140 IEM_DS3505
ZGSZ,2009-02-04 03:00,ZGSZ 040300Z AUTO 09008KT 6SM 19/12 A3009 RMK SLP195 T01910121 52010 IEM_DS3505
ZGSZ,2009-02-04 04:00,ZGSZ 040400Z AUTO 25008KT 4SM 20/14 A3006 RMK T02000140 IEM_DS3505
ZGSZ,2009-02-04 05:00,ZGSZ 040500Z AUTO 26006KT 5SM 21/14 A3003 RMK T02100140 IEM_DS3505
ZGSZ,2009-02-04 06:00,ZGSZ 040600Z AUTO 04004KT 6SM 22/11 A3003 RMK SLP167 T02230114 57027 IEM_DS3505
ZGSZ,2009-02-04 07:00,ZGSZ 040700Z AUTO 22006KT 5SM 22/14 A3000 RMK T02200140 IEM_DS3505
ZGSZ,2009-02-04 08:00,ZGSZ 040800Z AUTO 18006KT 5SM 22/15 A2997 RMK T02200150 IEM_DS3505
ZGSZ,2009-02-04 09:00,ZGSZ 040900Z AUTO 22006KT 6SM 22/12 A3000 RMK SLP159 T02220125 57009 IEM_DS3505
ZGSZ,2009-02-04 10:00,ZGSZ 041000Z AUTO 18008KT 4SM 19/15 A3000 RMK T01900150 IEM_DS3505
ZGSZ,2009-02-04 11:00,ZGSZ 041100Z AUTO 15004KT 4SM 17/14 A3000 RMK T01700140 IEM_DS3505
ZGSZ,2009-02-04 12:00,ZGSZ 041200Z AUTO 07004KT 7SM 18/12 A3003 RMK SLP171 T01820120 52012 IEM_DS3505
ZGSZ,2009-02-04 13:00,ZGSZ 041300Z AUTO 12006KT 5SM 19/13 A3003 RMK T01900130 IEM_DS3505
ZGSZ,2009-02-04 14:00,ZGSZ 041400Z AUTO 11006KT 6SM 19/12 A3003 RMK T01900120 IEM_DS3505
ZGSZ,2009-02-04 15:00,ZGSZ 041500Z AUTO 07002KT 6SM 17/13 A3006 RMK SLP182 T01720129 52011 IEM_DS3505
ZGSZ,2009-02-04 16:00,ZGSZ 041600Z AUTO 11004KT 6SM 18/13 A3006 RMK T01800130 IEM_DS3505
ZGSZ,2009-02-04 17:00,ZGSZ 041700Z AUTO 4SM 16/13 A3006 RMK T01600130 IEM_DS3505
ZGSZ,2009-02-04 18:00,ZGSZ 041800Z AUTO 07004KT 7SM 17/13 A3003 RMK SLP177 T01670132 57005 IEM_DS3505
ZGSZ,2009-02-04 19:00,ZGSZ 041900Z AUTO 36004KT 4SM 16/13 A3003 RMK T01600130 IEM_DS3505
ZGSZ,2009-02-04 20:00,ZGSZ 042000Z AUTO 00000KT 4SM 17/13 A3003 RMK T01700130 IEM_DS3505
ZGSZ,2009-02-04 21:00,ZGSZ 042100Z AUTO 07004KT 7SM 17/13 A3003 RMK SLP173 T01670130 57004 IEM_DS3505
ZGSZ,2009-02-04 22:00,ZGSZ 042200Z AUTO 01004KT 2 1/2SM 16/14 A3003 RMK T01600140 IEM_DS3505
ZGSZ,2009-02-04 23:00,ZGSZ 042300Z AUTO 00000KT 3SM 14/12 A3006 RMK T01400120 IEM_DS3505
ZGSZ,2009-02-05 00:00,ZGSZ 050000Z AUTO 04002KT 6SM 17/13 A3009 RMK SLP190 T01680129 52017 IEM_DS3505
ZGSZ,2009-02-05 01:00,ZGSZ 050100Z AUTO 3SM 19/14 A3009 RMK T01900140 IEM_DS3505
ZGSZ,2009-02-05 02:00,ZGSZ 050200Z AUTO 36004KT 3SM 21/14 A3009 RMK T02100140 IEM_DS3505
ZGSZ,2009-02-05 03:00,ZGSZ 050300Z AUTO 09002KT 7SM 22/13 A3009 RMK SLP191 T02240132 52001 IEM_DS3505
ZGSZ,2009-02-05 04:00,ZGSZ 050400Z AUTO 29008KT 3SM 23/14 A3006 RMK T02300140 IEM_DS3505
ZGSZ,2009-02-05 05:00,ZGSZ 050500Z AUTO 28008KT 3SM 24/14 A3003 RMK T02400140 IEM_DS3505
ZGSZ,2009-02-05 06:00,ZGSZ 050600Z AUTO 20008KT 5SM 24/14 A3000 RMK SLP166 T02420137 57024 IEM_DS3505
ZGSZ,2009-02-05 07:00,ZGSZ 050700Z AUTO 18008KT 3SM 24/14 A3000 RMK T02400140 IEM_DS3505
ZGSZ,2009-02-05 08:00,ZGSZ 050800Z AUTO 17010KT 3SM 21/16 A3000 RMK T02100160 IEM_DS3505
ZGSZ,2009-02-05 09:00,ZGSZ 050900Z AUTO 22006KT 4SM 22/14 A3000 RMK SLP165 T02210140 57002 IEM_DS3505
ZGSZ,2009-02-05 10:00,ZGSZ 051000Z AUTO 16006KT 3SM 20/15 A3000 RMK T02000150 IEM_DS3505
ZGSZ,2009-02-05 11:00,ZGSZ 051100Z AUTO 16006KT 2 1/2SM 19/16 A3003 RMK T01900160 IEM_DS3505
ZGSZ,2009-02-05 12:00,ZGSZ 051200Z AUTO 09004KT 4SM 19/15 A3003 RMK SLP183 T01890146 52018 IEM_DS3505
ZGSZ,2009-02-05 13:00,ZGSZ 051300Z AUTO 12010KT 3SM 20/16 A3006 RMK T02000160 IEM_DS3505
ZGSZ,2009-02-05 14:00,ZGSZ 051400Z AUTO 10012KT 3SM 20/15 A3009 RMK T02000150 IEM_DS3505
ZGSZ,2009-02-05 15:00,ZGSZ 051500Z AUTO 09004KT 4SM 18/15 A3009 RMK SLP196 T01840149 52013 IEM_DS3505
ZGSZ,2009-02-05 16:00,ZGSZ 051600Z AUTO 11008KT 5SM 20/15 A3009 RMK T02000150 IEM_DS3505
ZGSZ,2009-02-05 17:00,ZGSZ 051700Z AUTO 11006KT 6SM 19/15 A3009 RMK T01900150 IEM_DS3505
ZGSZ,2009-02-05 18:00,ZGSZ 051800Z AUTO 09006KT 8SM 18/14 A3009 RMK SLP190 T01790142 57005 IEM_DS3505
ZGSZ,2009-02-05 19:00,ZGSZ 051900Z AUTO 09006KT 6SM 19/15 A3009 RMK T01900150 IEM_DS3505
ZGSZ,2009-02-05 20:00,ZGSZ 052000Z AUTO 11004KT 6SM 18/15 A3009 RMK T01800150 IEM_DS3505
ZGSZ,2009-02-05 21:00,ZGSZ 052100Z AUTO 09004KT 8SM 18/13 A3009 RMK SLP192 T01750134 52001 IEM_DS3505
ZGSZ,2009-02-05 22:00,ZGSZ 052200Z AUTO 10004KT 6SM 18/14 A3009 RMK T01800140 IEM_DS3505
ZGSZ,2009-02-05 23:00,ZGSZ 052300Z AUTO 01002KT 7SM 17/14 A3012 RMK T01700140 IEM_DS3505
ZGSZ,2009-02-06 00:00,ZGSZ 060000Z AUTO 09002KT 8SM 18/14 A3015 RMK SLP211 T01770138 52019 IEM_DS3505
ZGSZ,2009-02-06 01:00,ZGSZ 060100Z AUTO 4SM 19/15 A3015 RMK T01900150 IEM_DS3505
ZGSZ,2009-02-06 02:00,ZGSZ 060200Z AUTO 26004KT 4SM 20/16 A3015 RMK T02000160 IEM_DS3505
ZGSZ,2009-02-06 03:00,ZGSZ 060300Z AUTO 04004KT 6SM 21/14 A3015 RMK SLP213 T02070137 52002 IEM_DS3505
ZGSZ,2009-02-06 04:00,ZGSZ 060400Z AUTO 26006KT 3SM 21/15 A3012 RMK T02100150 IEM_DS3505
ZGSZ,2009-02-06 05:00,ZGSZ 060500Z AUTO 26008KT 3SM 22/16 A3009 RMK T02200160 IEM_DS3505
ZGSZ,2009-02-06 06:00,ZGSZ 060600Z AUTO 25004KT 5SM 22/14 A3006 RMK SLP184 T02210145 57029 IEM_DS3505
ZGSZ,2009-02-06 07:00,ZGSZ 060700Z AUTO 22006KT 3SM 21/16 A3003 RMK T02100160 IEM_DS3505
ZGSZ,2009-02-06 08:00,ZGSZ 060800Z AUTO 18008KT 4SM 21/16 A3003 RMK T02100160 IEM_DS3505
ZGSZ,2009-02-06 09:00,ZGSZ 060900Z AUTO 20006KT 4SM 20/14 A3003 RMK SLP170 T02040143 57014 IEM_DS3505
ZGSZ,2009-02-06 10:00,ZGSZ 061000Z AUTO 17006KT 4SM 20/16 A3003 RMK T02000160 IEM_DS3505
ZGSZ,2009-02-06 11:00,ZGSZ 061100Z AUTO 17006KT 4SM 19/15 A3003 RMK T01900150 IEM_DS3505
ZGSZ,2009-02-06 12:00,ZGSZ 061200Z AUTO 09004KT 4SM 19/14 A3003 RMK SLP179 T01860143 52009 IEM_DS3505
ZGSZ,2009-02-06 13:00,ZGSZ 061300Z AUTO 16004KT 2 1/2SM 18/15 A3006 RMK T01800150 IEM_DS3505
ZGSZ,2009-02-06 14:00,ZGSZ 061400Z AUTO 13004KT 3SM 18/16 A3006 RMK T01800160 IEM_DS3505
ZGSZ,2009-02-06 15:00,ZGSZ 061500Z AUTO 09004KT 7SM 18/14 A3009 RMK SLP192 T01770138 52013 IEM_DS3505
ZGSZ,2009-02-06 16:00,ZGSZ 061600Z AUTO 12008KT 3SM 18/15 A3009 RMK T01800150 IEM_DS3505
ZGSZ,2009-02-06 17:00,ZGSZ 061700Z AUTO 12006KT 4SM 18/14 A3009 RMK T01800140 IEM_DS3505
ZGSZ,2009-02-06 18:00,ZGSZ 061800Z AUTO 07004KT 10SM 17/13 A3006 RMK SLP187 T01670130 57005 IEM_DS3505
ZGSZ,2009-02-06 19:00,ZGSZ 061900Z AUTO 11006KT 4SM 17/14 A3006 RMK T01700140 IEM_DS3505
ZGSZ,2009-02-06 20:00,ZGSZ 062000Z AUTO 10004KT 5SM 18/14 A3006 RMK T01800140 IEM_DS3505
ZGSZ,2009-02-06 21:00,ZGSZ 062100Z AUTO 09004KT 9SM 17/13 A3003 RMK SLP179 T01710128 57008 IEM_DS3505
ZGSZ,2009-02-06 22:00,ZGSZ 062200Z AUTO 14002KT 4SM 18/14 A3006 RMK T01800140 IEM_DS3505
ZGSZ,2009-02-06 23:00,ZGSZ 062300Z AUTO 33002KT 4SM 18/15 A3009 RMK T01800150 IEM_DS3505
ZGSZ,2009-02-07 00:00,ZGSZ 070000Z AUTO 07002KT 7SM 17/13 A3009 RMK SLP197 T01680127 52018 IEM_DS3505
ZGSZ,2009-02-07 01:00,ZGSZ 070100Z AUTO 4SM 20/13 A3012 RMK T02000130 IEM_DS3505
ZGSZ,2009-02-07 02:00,ZGSZ 070200Z AUTO 36004KT 4SM 21/14 A3012 RMK T02100140 IEM_DS3505
ZGSZ,2009-02-07 03:00,ZGSZ 070300Z AUTO 07004KT 4SM 21/13 A3012 RMK SLP205 T02130130 52008 IEM_DS3505
ZGSZ,2009-02-07 04:00,ZGSZ 070400Z AUTO 25006KT 3SM 21/14 A3009 RMK T02100140 IEM_DS3505
ZGSZ,2009-02-07 05:00,ZGSZ 070500Z AUTO 26006KT 2 1/2SM 22/15 A3006 RMK T02200150 IEM_DS3505
ZGSZ,2009-02-07 06:00,ZGSZ 070600Z AUTO 22010KT 5SM 24/13 A3003 RMK SLP170 T02420134 57034 IEM_DS3505
ZGSZ,2009-02-07 07:00,ZGSZ 070700Z AUTO 19010KT 2SM 23/16 A3000 RMK T02300160 IEM_DS3505
ZGSZ,2009-02-07 08:00,ZGSZ 070800Z AUTO 18010KT 3SM 21/16 A3000 RMK T02100160 IEM_DS3505
ZGSZ,2009-02-07 09:00,ZGSZ 070900Z AUTO 20004KT 5SM 23/14 A3000 RMK SLP161 T02280138 57009 IEM_DS3505
ZGSZ,2009-02-07 10:00,ZGSZ 071000Z AUTO 15008KT 4SM 20/16 A3000 RMK T02000160 IEM_DS3505
ZGSZ,2009-02-07 11:00,ZGSZ 071100Z AUTO 14006KT 4SM 19/15 A3003 RMK T01900150 IEM_DS3505
ZGSZ,2009-02-07 12:00,ZGSZ 071200Z AUTO 09004KT 7SM 19/13 A3003 RMK SLP178 T01900132 52016 IEM_DS3505
ZGSZ,2009-02-07 13:00,ZGSZ 071300Z AUTO 15006KT 4SM 18/15 A3006 RMK T01800150 IEM_DS3505
ZGSZ,2009-02-07 14:00,ZGSZ 071400Z AUTO 14008KT 6SM 19/13 A3006 RMK T01900130 IEM_DS3505
ZGSZ,2009-02-07 15:00,ZGSZ 071500Z AUTO 09004KT 14SM 18/13 A3006 RMK SLP190 T01800131 52012 IEM_DS3505
ZGSZ,2009-02-07 16:00,ZGSZ 071600Z AUTO 12006KT 7SM 19/13 A3006 RMK T01900130 IEM_DS3505
ZGSZ,2009-02-07 17:00,ZGSZ 071700Z AUTO 12004KT 7SM 18/13 A3006 RMK T01800130 IEM_DS3505
ZGSZ,2009-02-07 18:00,ZGSZ 071800Z AUTO 07004KT 14SM 18/13 A3006 RMK SLP183 T01770130 57006 IEM_DS3505
ZGSZ,2009-02-07 19:00,ZGSZ 071900Z AUTO 6SM 18/13 A3006 RMK T01800130 IEM_DS3505
ZGSZ,2009-02-07 20:00,ZGSZ 072000Z AUTO 04002KT 4SM 17/13 A3006 RMK T01700130 IEM_DS3505
ZGSZ,2009-02-07 21:00,ZGSZ 072100Z AUTO 07004KT 11SM 18/12 A3006 RMK SLP177 T01780123 57006 IEM_DS3505
ZGSZ,2009-02-07 22:00,ZGSZ 072200Z AUTO 36004KT 4SM 18/14 A3006 RMK T01800140 IEM_DS3505
ZGSZ,2009-02-07 23:00,ZGSZ 072300Z AUTO 4SM 18/13 A3009 RMK T01800130 IEM_DS3505
ZGSZ,2009-02-08 00:00,ZGSZ 080000Z AUTO 16002KT 7SM 18/13 A3009 RMK SLP199 T01850127 52021 IEM_DS3505
ZGSZ,2009-02-08 01:00,ZGSZ 080100Z AUTO 6SM 21/13 A3012 RMK T02100130 IEM_DS3505
ZGSZ,2009-02-08 02:00,ZGSZ 080200Z AUTO 24006KT 4SM 22/15 A3012 RMK T02200150 IEM_DS3505
ZGSZ,2009-02-08 03:00,ZGSZ 080300Z AUTO 14004KT 8SM 23/12 A3012 RMK SLP207 T02260120 52008 IEM_DS3505
ZGSZ,2009-02-08 04:00,ZGSZ 080400Z AUTO 25006KT 3SM 23/14 A3012 RMK T02300140 IEM_DS3505
ZGSZ,2009-02-08 05:00,ZGSZ 080500Z AUTO 21008KT 3SM 23/14 A3009 RMK T02300140 IEM_DS3505
ZGSZ,2009-02-08 06:00,ZGSZ 080600Z AUTO 22004KT 11SM 26/12 A3003 RMK SLP177 T02570118 57029 IEM_DS3505
ZGSZ,2009-02-08 07:00,ZGSZ 080700Z AUTO 18008KT 4SM 24/14 A3003 RMK T02400140 IEM_DS3505
ZGSZ,2009-02-08 08:00,ZGSZ 080800Z AUTO 20008KT 6SM 24/14 A3003 RMK T02400140 IEM_DS3505
ZGSZ,2009-02-08 09:00,ZGSZ 080900Z AUTO 22008KT 12SM 23/14 A3003 RMK SLP170 T02300135 57007 IEM_DS3505
ZGSZ,2009-02-08 10:00,ZGSZ 081000Z AUTO 17006KT 6SM 20/17 A3003 RMK T02000170 IEM_DS3505
ZGSZ,2009-02-08 11:00,ZGSZ 081100Z AUTO 17004KT 6SM 19/16 A3003 RMK T01900160 IEM_DS3505
ZGSZ,2009-02-08 12:00,ZGSZ 081200Z AUTO 07004KT 9SM 20/13 A3003 RMK SLP180 T01950132 52009 IEM_DS3505
ZGSZ,2009-02-08 13:00,ZGSZ 081300Z AUTO 12008KT 6SM 21/14 A3006 RMK T02100140 IEM_DS3505
ZGSZ,2009-02-08 14:00,ZGSZ 081400Z AUTO 13008KT 6SM 20/14 A3006 RMK T02000140 IEM_DS3505
ZGSZ,2009-02-08 15:00,ZGSZ 081500Z AUTO 07006KT 9SM 19/14 A3009 RMK SLP191 T01870136 52012 IEM_DS3505
ZGSZ,2009-02-08 16:00,ZGSZ 081600Z AUTO 12004KT 6SM 20/14 A3009 RMK T02000140 IEM_DS3505
ZGSZ,2009-02-08 17:00,ZGSZ 081700Z AUTO 10004KT 6SM 20/14 A3009 RMK T02000140 IEM_DS3505
ZGSZ,2009-02-08 18:00,ZGSZ 081800Z AUTO 07006KT 11SM 19/13 A3009 RMK SLP193 T01920132 52002 IEM_DS3505
ZGSZ,2009-02-08 19:00,ZGSZ 081900Z AUTO 36004KT 6SM 19/15 A3009 RMK T01900150 IEM_DS3505
ZGSZ,2009-02-08 20:00,ZGSZ 082000Z AUTO 6SM 20/14 A3006 RMK T02000140 IEM_DS3505
ZGSZ,2009-02-08 21:00,ZGSZ 082100Z AUTO 11002KT 10SM 19/13 A3006 RMK SLP185 T01870131 57008 IEM_DS3505
ZGSZ,2009-02-08 22:00,ZGSZ 082200Z AUTO 00000KT 6SM 17/13 A3006 RMK T01700130 IEM_DS3505
ZGSZ,2009-02-08 23:00,ZGSZ 082300Z AUTO 00000KT 6SM 17/13 A3009 RMK T01700130 IEM_DS3505
ZGSZ,2009-02-09 00:00,ZGSZ 090000Z AUTO 07002KT 9SM 19/13 A3009 RMK SLP198 T01880134 52012 IEM_DS3505
ZGSZ,2009-02-09 01:00,ZGSZ 090100Z AUTO 3SM 20/15 A3012 RMK T02000150 IEM_DS3505
ZGSZ,2009-02-09 02:00,ZGSZ 090200Z AUTO 24006KT 3SM 22/15 A3012 RMK T02200150 IEM_DS3505
ZGSZ,2009-02-09 03:00,ZGSZ 090300Z AUTO 04006KT 10SM 24/12 A3012 RMK SLP200 T02350125 52003 IEM_DS3505
ZGSZ,2009-02-09 04:00,ZGSZ 090400Z AUTO 24006KT 3SM 24/15 A3009 RMK T02400150 IEM_DS3505
ZGSZ,2009-02-09 05:00,ZGSZ 090500Z AUTO 27006KT 3SM 24/15 A3006 RMK T02400150 IEM_DS3505
ZGSZ,2009-02-09 06:00,ZGSZ 090600Z AUTO 20006KT 7SM 25/15 A3003 RMK SLP170 T02520147 57030 IEM_DS3505
ZGSZ,2009-02-09 07:00,ZGSZ 090700Z AUTO 21006KT 3SM 24/14 A3000 RMK T02400140 IEM_DS3505
ZGSZ,2009-02-09 08:00,ZGSZ 090800Z AUTO 18008KT 3SM 23/17 A3000 RMK T02300170 IEM_DS3505
ZGSZ,2009-02-09 09:00,ZGSZ 090900Z AUTO 22004KT 6SM 24/15 A2997 RMK SLP156 T02400147 57014 IEM_DS3505
ZGSZ,2009-02-09 10:00,ZGSZ 091000Z AUTO 15006KT 4SM 21/16 A2997 RMK T02100160 IEM_DS3505
ZGSZ,2009-02-09 11:00,ZGSZ 091100Z AUTO 15008KT 4SM 19/17 A2997 RMK T01900170 IEM_DS3505
ZGSZ,2009-02-09 12:00,ZGSZ 091200Z AUTO 00000KT 7SM 21/14 A3000 RMK SLP163 T02060138 52007 IEM_DS3505
ZGSZ,2009-02-09 13:00,ZGSZ 091300Z AUTO 16004KT 3SM 19/16 A3003 RMK T01900160 IEM_DS3505
ZGSZ,2009-02-09 14:00,ZGSZ 091400Z AUTO 15006KT 3SM 19/17 A3003 RMK T01900170 IEM_DS3505
ZGSZ,2009-02-09 15:00,ZGSZ 091500Z AUTO 00000KT 7SM 20/15 A3003 RMK SLP172 T01950152 52009 IEM_DS3505
ZGSZ,2009-02-09 16:00,ZGSZ 091600Z AUTO 17004KT 3SM 18/16 A3003 RMK T01800160 IEM_DS3505
ZGSZ,2009-02-09 17:00,ZGSZ 091700Z AUTO 2 1/2SM 19/16 A3003 RMK T01900160 IEM_DS3505
ZGSZ,2009-02-09 18:00,ZGSZ 091800Z AUTO 16002KT 3SM 18/17 A3003 RMK SLP172 T01840166 54000 IEM_DS3505
ZGSZ,2009-02-09 19:00,ZGSZ 091900Z AUTO 00000KT 2SM 18/16 A3003 RMK T01800160 IEM_DS3505
ZGSZ,2009-02-09 20:00,ZGSZ 092000Z AUTO 00000KT 2 1/2SM 18/16 A3000 RMK T01800160 IEM_DS3505
ZGSZ,2009-02-09 21:00,ZGSZ 092100Z AUTO 34002KT 4SM 18/15 A3000 RMK SLP166 T01760151 57006 IEM_DS3505
ZGSZ,2009-02-09 22:00,ZGSZ 092200Z AUTO 34002KT 2 1/2SM 17/16 A3003 RMK T01700160 IEM_DS3505
ZGSZ,2009-02-09 23:00,ZGSZ 092300Z AUTO 03002KT 1 1/2SM 17/15 A3003 RMK T01700150 IEM_DS3505
ZGSZ,2009-02-10 00:00,ZGSZ 100000Z AUTO 14002KT 3SM 18/15 A3006 RMK SLP178 T01800151 52011 IEM_DS3505
ZGSZ,2009-02-10 01:00,ZGSZ 100100Z AUTO 2SM 20/16 A3006 RMK T02000160 IEM_DS3505
ZGSZ,2009-02-10 02:00,ZGSZ 100200Z AUTO 01004KT 2SM 22/16 A3006 RMK T02200160 IEM_DS3505
ZGSZ,2009-02-10 03:00,ZGSZ 100300Z AUTO 14004KT 2 1/2SM 24/13 A3006 RMK SLP183 T02360132 52006 IEM_DS3505
ZGSZ,2009-02-10 04:00,ZGSZ 100400Z AUTO 28006KT 2SM 23/16 A3003 RMK T02300160 IEM_DS3505
ZGSZ,2009-02-10 05:00,ZGSZ 100500Z AUTO 25006KT 2SM 25/15 A3000 RMK T02500150 IEM_DS3505
ZGSZ,2009-02-10 06:00,ZGSZ 100600Z AUTO 07004KT 4SM 26/13 A2997 RMK SLP156 T02560131 57027 IEM_DS3505
ZGSZ,2009-02-10 07:00,ZGSZ 100700Z AUTO 19010KT 3SM 23/17 A2997 RMK T02300170 IEM_DS3505
ZGSZ,2009-02-10 08:00,ZGSZ 100800Z AUTO 19010KT 2 1/2SM 22/17 A2994 RMK T02200170 IEM_DS3505
ZGSZ,2009-02-10 09:00,ZGSZ 100900Z AUTO 07006KT 4SM 24/14 A2997 RMK SLP150 T02360140 57006 IEM_DS3505
ZGSZ,2009-02-10 10:00,ZGSZ 101000Z AUTO 15006KT 2 1/2SM 21/16 A2997 RMK T02100160 IEM_DS3505
ZGSZ,2009-02-10 11:00,ZGSZ 101100Z AUTO 15004KT 2 1/2SM 19/15 A2997 RMK T01900150 IEM_DS3505
ZGSZ,2009-02-10 12:00,ZGSZ 101200Z AUTO 09004KT 5SM 19/14 A2997 RMK SLP160 T01930137 52009 IEM_DS3505
ZGSZ,2009-02-10 13:00,ZGSZ 101300Z AUTO 19006KT 2 1/2SM 19/17 A3000 RMK T01900170 IEM_DS3505
ZGSZ,2009-02-10 14:00,ZGSZ 101400Z AUTO 13006KT 3SM 20/15 A3000 RMK T02000150 IEM_DS3505
ZGSZ,2009-02-10 15:00,ZGSZ 101500Z AUTO 07004KT 4SM 18/14 A3000 RMK SLP165 T01820137 52006 IEM_DS3505
ZGSZ,2009-02-10 16:00,ZGSZ 101600Z AUTO 13004KT 3SM 18/14 A3000 RMK T01800140 IEM_DS3505
ZGSZ,2009-02-10 17:00,ZGSZ 101700Z AUTO 16004KT 3SM 18/14 A2997 RMK T01800140 IEM_DS3505
ZGSZ,2009-02-10 18:00,ZGSZ 101800Z AUTO 09004KT 3SM 17/15 A2997 RMK SLP157 T01730148 57008 IEM_DS3505
ZGSZ,2009-02-10 19:00,ZGSZ 101900Z AUTO 00000KT 2 1/2SM 17/14 A2997 RMK T01700140 IEM_DS3505
ZGSZ,2009-02-10 20:00,ZGSZ 102000Z AUTO 00000KT 2 1/2SM 16/14 A2997 RMK T01600140 IEM_DS3505
ZGSZ,2009-02-10 21:00,ZGSZ 102100Z AUTO 09004KT 3SM 17/14 A2997 RMK SLP156 T01680144 57001 IEM_DS3505
ZGSZ,2009-02-10 22:00,ZGSZ 102200Z AUTO 11004KT 2SM 17/14 A3000 RMK T01700140 IEM_DS3505
ZGSZ,2009-02-10 23:00,ZGSZ 102300Z AUTO 13002KT 1 1/2SM 17/14 A3000 RMK T01700140 IEM_DS3505
ZGSZ,2009-02-11 00:00,ZGSZ 110000Z AUTO 20002KT 2 1/2SM 18/15 A3003 RMK SLP169 T01750146 52012 IEM_DS3505
ZGSZ,2009-02-11 01:00,ZGSZ 110100Z AUTO 00000KT 2SM 19/15 A3003 RMK T01900150 IEM_DS3505
ZGSZ,2009-02-11 02:00,ZGSZ 110200Z AUTO 14004KT 2SM 21/16 A3003 RMK T02100160 IEM_DS3505
ZGSZ,2009-02-11 03:00,ZGSZ 110300Z AUTO 14004KT 3SM 22/15 A3000 RMK SLP163 T02220146 57005 IEM_DS3505
ZGSZ,2009-02-11 04:00,ZGSZ 110400Z 24003MPS 210V280 3400 BR SKC 22/16 Q1015 NOSIG
ZGSZ,2009-02-11 05:00,ZGSZ 110500Z AUTO 24006KT 2 1/2SM 23/17 A2994 RMK T02300170 IEM_DS3505
ZGSZ,2009-02-11 06:00,ZGSZ 110600Z AUTO 22006KT 5SM 26/13 A2991 RMK SLP131 T02650129 57032 IEM_DS3505
ZGSZ,2009-02-11 07:00,ZGSZ 110700Z AUTO 22006KT 3SM 24/17 A2988 RMK T02400170 IEM_DS3505
ZGSZ,2009-02-11 08:00,ZGSZ 110800Z AUTO 21006KT 3SM 23/17 A2985 RMK T02300170 IEM_DS3505
ZGSZ,2009-02-11 09:00,ZGSZ 110900Z AUTO 22006KT 5SM 24/14 A2985 RMK SLP114 T02390140 57017 IEM_DS3505
ZGSZ,2009-02-11 10:00,ZGSZ 111000Z AUTO 17008KT 3SM 21/17 A2985 RMK T02100170 IEM_DS3505
ZGSZ,2009-02-11 11:00,ZGSZ 111100Z AUTO 17004KT 2 1/2SM 20/17 A2985 RMK T02000170 IEM_DS3505
ZGSZ,2009-02-11 12:00,ZGSZ 111200Z AUTO 16004KT 4SM 20/15 A2985 RMK SLP112 T01970149 57002 IEM_DS3505
ZGSZ,2009-02-11 13:00,ZGSZ 111300Z AUTO 18008KT 2 1/2SM 20/16 A2985 RMK T02000160 IEM_DS3505
ZGSZ,2009-02-11 14:00,ZGSZ 111400Z AUTO 17004KT 2 1/2SM 19/16 A2985 RMK T01900160 IEM_DS3505
ZGSZ,2009-02-11 15:00,ZGSZ 111500Z AUTO 07002KT 2 1/2SM 18/15 A2985 RMK SLP119 T01850154 52007 IEM_DS3505
ZGSZ,2009-02-11 16:00,ZGSZ 111600Z AUTO 17004KT 2SM 18/16 A2985 RMK T01800160 IEM_DS3505
ZGSZ,2009-02-11 17:00,ZGSZ 111700Z AUTO 14004KT 2SM 18/16 A2985 RMK T01800160 IEM_DS3505
ZGSZ,2009-02-11 18:00,ZGSZ 111800Z AUTO 34002KT 3SM 18/15 A2985 RMK SLP114 T01800153 57004 IEM_DS3505
ZGSZ,2009-02-11 19:00,ZGSZ 111900Z AUTO 11004KT 2SM 19/16 A2985 RMK T01900160 IEM_DS3505
ZGSZ,2009-02-11 20:00,ZGSZ 112000Z AUTO 11004KT 2SM 19/16 A2983 RMK T01900160 IEM_DS3505
ZGSZ,2009-02-11 21:00,ZGSZ 112100Z AUTO 02002KT 2 1/2SM 18/15 A2983 RMK SLP105 T01790150 57010 IEM_DS3505
ZGSZ,2009-02-11 22:00,ZGSZ 112200Z AUTO 11004KT 2 1/2SM 19/16 A2983 RMK T01900160 IEM_DS3505
ZGSZ,2009-02-11 23:00,ZGSZ 112300Z AUTO 11006KT 2 1/2SM 19/16 A2983 RMK T01900160 IEM_DS3505
ZGSZ,2009-02-12 00:00,ZGSZ 120000Z AUTO 07004KT 3SM 18/16 A2983 RMK SLP107 T01850156 52002 IEM_DS3505
ZGSZ,2009-02-12 01:00,ZGSZ 120100Z AUTO 13008KT 3SM 22/17 A2983 RMK T02200170 IEM_DS3505
ZGSZ,2009-02-12 02:00,ZGSZ 120200Z AUTO 15010KT 3SM 24/18 A2983 RMK T02400180 IEM_DS3505
ZGSZ,2009-02-12 03:00,ZGSZ 120300Z AUTO 16006KT 5SM 24/16 A2983 RMK SLP105 T02390159 57002 IEM_DS3505
ZGSZ,2009-02-12 04:00,ZGSZ 120400Z AUTO 17014KT 6SM 25/17 A2980 RMK T02500170 IEM_DS3505
ZGSZ,2009-02-12 05:00,ZGSZ 120500Z AUTO 19014KT 6SM 25/18 A2980 RMK T02500180 IEM_DS3505
ZGSZ,2009-02-12 06:00,ZGSZ 120600Z AUTO 20004KT 9SM 25/16 RMK SLP081 T02460161 57023 IEM_DS3505
ZGSZ,2009-02-12 07:00,ZGSZ 120700Z AUTO 18016KT 6SM 25/18 A2974 RMK T02500180 IEM_DS3505
ZGSZ,2009-02-12 08:00,ZGSZ 120800Z AUTO 17014KT 7SM 25/18 A2974 RMK T02500180 IEM_DS3505
ZGSZ,2009-02-12 09:00,ZGSZ 120900Z AUTO 16004KT 7SM 23/17 A2974 RMK SLP072 T02300172 57010 IEM_DS3505
ZGSZ,2009-02-12 10:00,ZGSZ 121000Z AUTO 16012KT 7SM 23/18 A2974 RMK T02300180 IEM_DS3505
ZGSZ,2009-02-12 11:00,ZGSZ 121100Z AUTO 16010KT 7SM 22/18 A2971 RMK T02200180 IEM_DS3505
ZGSZ,2009-02-12 12:00,ZGSZ 121200Z AUTO 16004KT 7SM 21/18 A2974 RMK SLP075 T02120178 52003 IEM_DS3505
ZGSZ,2009-02-12 13:00,ZGSZ 121300Z AUTO 16010KT 7SM 22/19 A2974 RMK T02200190 IEM_DS3505
ZGSZ,2009-02-12 14:00,ZGSZ 121400Z AUTO 15008KT 7SM 22/19 A2974 RMK T02200190 IEM_DS3505
ZGSZ,2009-02-12 15:00,ZGSZ 121500Z AUTO 32002KT 7SM 21/18 A2974 RMK SLP080 T02090183 52006 IEM_DS3505
ZGSZ,2009-02-12 16:00,ZGSZ 121600Z AUTO 16008KT 3SM 21/19 A2977 RMK T02100190 IEM_DS3505
ZGSZ,2009-02-12 17:00,ZGSZ 121700Z AUTO 16006KT 3SM 21/19 A2977 RMK T02100190 IEM_DS3505
ZGSZ,2009-02-12 18:00,ZGSZ 121800Z AUTO 07002KT 7SM 21/18 A2974 RMK SLP079 T02080184 57001 IEM_DS3505
ZGSZ,2009-02-12 19:00,ZGSZ 121900Z AUTO 15008KT 3SM 21/19 A2974 RMK T02100190 IEM_DS3505
ZGSZ,2009-02-12 20:00,ZGSZ 122000Z AUTO 16010KT 4SM 22/20 A2971 RMK T02200200 IEM_DS3505
ZGSZ,2009-02-12 21:00,ZGSZ 122100Z AUTO 14002KT 10SM 22/18 A2971 RMK SLP067 T02160184 57012 IEM_DS3505
ZGSZ,2009-02-12 22:00,ZGSZ 122200Z AUTO 16008KT 7SM 22/20 A2971 RMK T02200200 IEM_DS3505
ZGSZ,2009-02-12 23:00,ZGSZ 122300Z AUTO 16006KT 7SM 22/20 A2974 RMK T02200200 IEM_DS3505
ZGSZ,2009-02-13 00:00,ZGSZ 130000Z AUTO 25002KT 10SM 22/19 A2977 RMK SLP081 T02230187 52014 IEM_DS3505
ZGSZ,2009-02-13 01:00,ZGSZ 130100Z AUTO 15010KT 7SM 23/20 A2974 RMK T02300200 IEM_DS3505
ZGSZ,2009-02-13 02:00,ZGSZ 130200Z AUTO 16012KT 7SM 24/20 A2977 RMK T02400200 IEM_DS3505
ZGSZ,2009-02-13 03:00,ZGSZ 130300Z AUTO 22004KT 16SM 24/19 A2974 RMK SLP081 T02430194 54000 IEM_DS3505
ZGSZ,2009-02-13 04:00,ZGSZ 130400Z AUTO 17014KT 7SM 26/21 A2974 RMK T02600210 IEM_DS3505
ZGSZ,2009-02-13 05:00,ZGSZ 130500Z AUTO 16014KT 7SM 24/21 A2971 RMK T02400210 IEM_DS3505
ZGSZ,2009-02-13 06:00,ZGSZ 130600Z AUTO 22014KT 14SM 24/20 A2968 RMK SLP062 T02410200 57019 IEM_DS3505
ZGSZ,2009-02-13 07:00,ZGSZ 130700Z AUTO 16014KT 7SM 25/21 A2968 RMK T02500210 IEM_DS3505
ZGSZ,2009-02-13 08:00,ZGSZ 130800Z AUTO 16014KT 7SM 25/21 A2968 RMK T02500210 IEM_DS3505
ZGSZ,2009-02-13 09:00,ZGSZ 130900Z AUTO 25004KT 12SM 24/20 A2968 RMK SLP057 T02370204 57005 IEM_DS3505
ZGSZ,2009-02-13 10:00,ZGSZ 131000Z AUTO 16012KT 6SM 24/21 A2968 RMK T02400210 IEM_DS3505
ZGSZ,2009-02-13 11:00,ZGSZ 131100Z AUTO 14010KT 7SM 23/21 A2971 RMK T02300210 IEM_DS3505
ZGSZ,2009-02-13 12:00,ZGSZ 131200Z AUTO 22006KT 12SM 24/20 A2971 RMK SLP066 T02380203 52009 IEM_DS3505
ZGSZ,2009-02-13 13:00,ZGSZ 131300Z AUTO 15006KT 7SM 23/21 A2971 RMK T02300210 IEM_DS3505
ZGSZ,2009-02-13 14:00,ZGSZ 131400Z AUTO 16008KT 7SM 23/21 A2974 RMK T02300210 IEM_DS3505
ZGSZ,2009-02-13 15:00,ZGSZ 131500Z AUTO 18004KT 12SM 23/20 A2974 RMK SLP077 T02300203 52011 IEM_DS3505
ZGSZ,2009-02-13 16:00,ZGSZ 131600Z AUTO 15010KT 7SM 23/21 A2974 RMK T02300210 IEM_DS3505
ZGSZ,2009-02-13 17:00,ZGSZ 131700Z AUTO 14006KT 7SM 23/21 A2977 RMK T02300210 IEM_DS3505
ZGSZ,2009-02-13 18:00,ZGSZ 131800Z AUTO 09002KT 10SM 23/20 A2977 RMK SLP086 T02290204 52009 IEM_DS3505
ZGSZ,2009-02-13 19:00,ZGSZ 131900Z AUTO 15008KT 7SM 24/21 A2977 RMK T02400210 IEM_DS3505
ZGSZ,2009-02-13 20:00,ZGSZ 132000Z AUTO 16006KT 7SM 24/21 A2977 RMK T02400210 IEM_DS3505
ZGSZ,2009-02-13 21:00,ZGSZ 132100Z AUTO 14002KT 9SM 23/20 A2977 RMK SLP085 T02300205 57001 IEM_DS3505
ZGSZ,2009-02-13 22:00,ZGSZ 132200Z AUTO 12004KT 7SM 24/21 A2980 RMK T02400210 IEM_DS3505
ZGSZ,2009-02-14 00:00,ZGSZ 140000Z AUTO 07004KT 9SM 23/20 RMK SLP097 T02290199 52012 IEM_DS3505
ZGSZ,2009-02-14 02:00,ZGSZ 140200Z AUTO 7SM 25/21 A2985 RMK T02500210 IEM_DS3505
ZGSZ,2009-02-14 03:00,ZGSZ 140300Z AUTO 22002KT 6SM 24/21 A2985 RMK SLP115 T02420207 52018 IEM_DS3505
ZGSZ,2009-02-14 04:00,ZGSZ 140400Z AUTO 20004KT 3SM 24/22 A2985 RMK T02400220 IEM_DS3505
ZGSZ,2009-02-14 05:00,ZGSZ 140500Z AUTO 15004KT 5SM 26/22 A2983 RMK T02600220 IEM_DS3505
ZGSZ,2009-02-14 06:00,ZGSZ 140600Z AUTO 22002KT 6SM 25/21 A2980 RMK 60000 SLP092 T02500211 57023 IEM_DS3505
ZGSZ,2009-02-14 07:00,ZGSZ 140700Z AUTO 16010KT 5SM 27/23 A2977 RMK T02700230 IEM_DS3505
ZGSZ,2009-02-14 08:00,ZGSZ 140800Z AUTO 16010KT 5SM 26/22 A2977 RMK T02600220 IEM_DS3505
ZGSZ,2009-02-14 09:00,ZGSZ 140900Z AUTO 16004KT 5SM 23/21 A2977 RMK SLP089 T02320213 57003 IEM_DS3505
ZGSZ,2009-02-14 10:00,ZGSZ 141000Z AUTO 15008KT 7SM 24/22 A2977 RMK T02400220 IEM_DS3505
ZGSZ,2009-02-14 11:00,ZGSZ 141100Z AUTO 16010KT 4SM 24/22 A2977 RMK T02400220 IEM_DS3505
ZGSZ,2009-02-14 12:00,ZGSZ 141200Z AUTO 20002KT 4SM 23/21 A2980 RMK 60004 SLP098 T02290210 52009 IEM_DS3505
ZGSZ,2009-02-14 13:00,ZGSZ 141300Z AUTO 16006KT 3SM 23/21 A2983 RMK T02300210 IEM_DS3505
ZGSZ,2009-02-14 14:00,ZGSZ 141400Z AUTO 18004KT 3SM 24/21 A2983 RMK T02400210 IEM_DS3505
ZGSZ,2009-02-14 15:00,ZGSZ 141500Z AUTO 16002KT 5SM 23/21 A2983 RMK SLP109 T02300209 52011 IEM_DS3505
ZGSZ,2009-02-14 16:00,ZGSZ 141600Z AUTO 15004KT 4SM 24/22 A2983 RMK T02400220 IEM_DS3505
ZGSZ,2009-02-14 17:00,ZGSZ 141700Z AUTO 15004KT 5SM 24/22 A2983 RMK T02400220 IEM_DS3505
ZGSZ,2009-02-14 18:00,ZGSZ 141800Z AUTO 16002KT 4SM 23/21 A2983 RMK SLP108 T02280209 57001 IEM_DS3505
ZGSZ,2009-02-14 19:00,ZGSZ 141900Z AUTO 16004KT 3SM 22/21 A2983 RMK T02200210 IEM_DS3505
ZGSZ,2009-02-14 20:00,ZGSZ 142000Z AUTO 15004KT 2 1/2SM 22/21 A2983 RMK T02200210 IEM_DS3505
ZGSZ,2009-02-14 21:00,ZGSZ 142100Z AUTO 14002KT 4SM 22/21 A2985 RMK 70004 SLP111 T02250208 52003 IEM_DS3505
ZGSZ,2009-02-14 22:00,ZGSZ 142200Z AUTO 12004KT 3SM 23/21 A2985 RMK T02300210 IEM_DS3505
ZGSZ,2009-02-14 23:00,ZGSZ 142300Z AUTO 12004KT 2 1/2SM 23/21 A2988 RMK T02300210 IEM_DS3505
ZGSZ,2009-02-15 00:00,ZGSZ 150000Z AUTO 04002KT 5SM 22/21 A2991 RMK 70004 SLP130 T02250206 52019 IEM_DS3505
ZGSZ,2009-02-15 01:00,ZGSZ 150100Z AUTO 28004KT 3SM 23/21 A2991 RMK T02300210 IEM_DS3505
ZGSZ,2009-02-15 02:00,ZGSZ 150200Z AUTO 00000KT 3SM 24/22 A2994 RMK T02400220 IEM_DS3505
ZGSZ,2009-02-15 03:00,ZGSZ 150300Z AUTO 04002KT 7SM 25/21 A2994 RMK SLP142 T02490208 52012 IEM_DS3505
ZGSZ,2009-02-15 04:00,ZGSZ 150400Z AUTO 20008KT 3SM 25/22 A2991 RMK T02500220 IEM_DS3505
ZGSZ,2009-02-15 05:00,ZGSZ 150500Z AUTO 19006KT 7SM 26/22 A2988 RMK T02600220 IEM_DS3505
ZGSZ,2009-02-15 06:00,ZGSZ 150600Z AUTO 07006KT 12SM 25/21 A2988 RMK SLP120 T02540209 57022 IEM_DS3505
ZGSZ,2009-02-15 07:00,ZGSZ 150700Z AUTO 18010KT 7SM 26/21 A2985 RMK T02600210 IEM_DS3505
ZGSZ,2009-02-15 08:00,ZGSZ 150800Z AUTO 19010KT 7SM 27/22 A2983 RMK T02700220 IEM_DS3505
ZGSZ,2009-02-15 09:00,ZGSZ 150900Z AUTO 09004KT 5SM 23/19 A2983 RMK SLP112 T02280194 57008 IEM_DS3505
ZGSZ,2009-02-15 10:00,ZGSZ 151000Z AUTO 15012KT 5SM 25/21 A2985 RMK T02500210 IEM_DS3505
ZGSZ,2009-02-15 11:00,ZGSZ 151100Z AUTO 13008KT 4SM 24/20 A2985 RMK T02400200 IEM_DS3505
ZGSZ,2009-02-15 12:00,ZGSZ 151200Z AUTO 09006KT 3SM 21/19 A2985 RMK SLP122 T02090188 52009 IEM_DS3505
ZGSZ,2009-02-15 13:00,ZGSZ 151300Z AUTO 10008KT 3SM 23/20 A2988 RMK T02300200 IEM_DS3505
ZGSZ,2009-02-15 14:00,ZGSZ 151400Z AUTO 11008KT 3SM 23/20 A2991 RMK T02300200 IEM_DS3505
ZGSZ,2009-02-15 15:00,ZGSZ 151500Z AUTO 09008KT 3SM 21/19 A2991 RMK SLP135 T02070188 52014 IEM_DS3505
ZGSZ,2009-02-15 16:00,ZGSZ 151600Z AUTO 09006KT 7SM 22/20 A2991 RMK T02200200 IEM_DS3505
ZGSZ,2009-02-15 17:00,ZGSZ 151700Z AUTO 09006KT 7SM 22/20 A2991 RMK T02200200 IEM_DS3505
ZGSZ,2009-02-15 18:00,ZGSZ 151800Z AUTO 09004KT 4SM 20/19 A2991 RMK SLP137 T02050186 52002 IEM_DS3505
ZGSZ,2009-02-15 19:00,ZGSZ 151900Z AUTO 10004KT 7SM 22/19 A2991 RMK T02200190 IEM_DS3505
ZGSZ,2009-02-15 20:00,ZGSZ 152000Z AUTO 10006KT 7SM 23/19 A2991 RMK T02300190 IEM_DS3505
ZGSZ,2009-02-15 21:00,ZGSZ 152100Z AUTO 07006KT 3SM 21/18 A2991 RMK SLP142 T02070185 52004 IEM_DS3505
ZGSZ,2009-02-15 22:00,ZGSZ 152200Z AUTO 06004KT 6SM 23/19 A2994 RMK T02300190 IEM_DS3505
ZGSZ,2009-02-15 23:00,ZGSZ 152300Z AUTO 11008KT 4SM 22/19 A2997 RMK T02200190 IEM_DS3505
ZGSZ,2009-02-16 00:00,ZGSZ 160000Z AUTO 09008KT 3SM 21/18 A3000 RMK SLP162 T02070183 52020 IEM_DS3505
ZGSZ,2009-02-16 01:00,ZGSZ 160100Z AUTO 09006KT 4SM 24/19 A3000 RMK T02400190 IEM_DS3505
ZGSZ,2009-02-16 02:00,ZGSZ 160200Z AUTO 10010KT 5SM 24/19 A3000 RMK T02400190 IEM_DS3505
ZGSZ,2009-02-16 03:00,ZGSZ 160300Z AUTO 09010KT 4SM 22/18 A3000 RMK SLP172 T02200182 52010 IEM_DS3505
ZGSZ,2009-02-16 04:00,ZGSZ 160400Z AUTO 10012KT 7SM 27/19 A3000 RMK T02700190 IEM_DS3505
ZGSZ,2009-02-16 05:00,ZGSZ 160500Z AUTO 10008KT 7SM 27/18 A2997 RMK T02700180 IEM_DS3505
ZGSZ,2009-02-16 06:00,ZGSZ 160600Z AUTO 09010KT 6SM 22/17 A2994 RMK SLP153 T02220167 57019 IEM_DS3505
ZGSZ,2009-02-16 07:00,ZGSZ 160700Z AUTO 11014KT 6SM 26/18 A2991 RMK T02600180 IEM_DS3505
ZGSZ,2009-02-16 08:00,ZGSZ 160800Z AUTO 11010KT 6SM 26/18 A2991 RMK T02600180 IEM_DS3505
ZGSZ,2009-02-16 09:00,ZGSZ 160900Z AUTO 09008KT 10SM 21/16 A2994 RMK SLP147 T02100160 57006 IEM_DS3505
ZGSZ,2009-02-16 10:00,ZGSZ 161000Z AUTO 11012KT 6SM 23/17 A2994 RMK T02300170 IEM_DS3505
ZGSZ,2009-02-16 11:00,ZGSZ 161100Z AUTO 10010KT 7SM 22/16 A2997 RMK T02200160 IEM_DS3505
ZGSZ,2009-02-16 12:00,ZGSZ 161200Z AUTO 09008KT 9SM 19/16 A2997 RMK SLP164 T01890156 52017 IEM_DS3505
ZGSZ,2009-02-16 13:00,ZGSZ 161300Z AUTO 11014KT 6SM 20/16 A3000 RMK T02000160 IEM_DS3505
ZGSZ,2009-02-16 14:00,ZGSZ 161400Z AUTO 11012KT 6SM 20/16 A3003 RMK T02000160 IEM_DS3505
ZGSZ,2009-02-16 15:00,ZGSZ 161500Z AUTO 09006KT 11SM 18/15 A3003 RMK SLP175 T01820147 52011 IEM_DS3505
ZGSZ,2009-02-16 16:00,ZGSZ 161600Z AUTO 10012KT 6SM 19/15 A3003 RMK T01900150 IEM_DS3505
ZGSZ,2009-02-16 17:00,ZGSZ 161700Z AUTO 10010KT 6SM 19/15 A3003 RMK T01900150 IEM_DS3505
ZGSZ,2009-02-16 18:00,ZGSZ 161800Z AUTO 11006KT 9SM 17/14 A3003 RMK SLP175 T01730140 57001 IEM_DS3505
ZGSZ,2009-02-16 19:00,ZGSZ 161900Z AUTO 10010KT 7SM 18/15 A3003 RMK T01800150 IEM_DS3505
ZGSZ,2009-02-16 20:00,ZGSZ 162000Z AUTO 10006KT 7SM 18/15 A3003 RMK T01800150 IEM_DS3505
ZGSZ,2009-02-16 21:00,ZGSZ 162100Z AUTO 11006KT 9SM 17/14 A3003 RMK SLP176 T01730138 52001 IEM_DS3505
ZGSZ,2009-02-16 22:00,ZGSZ 162200Z AUTO 10006KT 7SM 18/15 A3006 RMK T01800150 IEM_DS3505
ZGSZ,2009-02-16 23:00,ZGSZ 162300Z AUTO 08006KT 7SM 19/15 A3009 RMK T01900150 IEM_DS3505
ZGSZ,2009-02-17 00:00,ZGSZ 170000Z AUTO 11004KT 7SM 18/14 A3009 RMK SLP196 T01750138 52020 IEM_DS3505
ZGSZ,2009-02-17 01:00,ZGSZ 170100Z AUTO 09004KT 4SM 19/15 A3012 RMK T01900150 IEM_DS3505
ZGSZ,2009-02-17 02:00,ZGSZ 170200Z AUTO 16004KT 4SM 20/15 A3012 RMK T02000150 IEM_DS3505
ZGSZ,2009-02-17 03:00,ZGSZ 170300Z AUTO 07006KT 6SM 19/14 A3012 RMK SLP201 T01940142 52005 IEM_DS3505
ZGSZ,2009-02-17 04:00,ZGSZ 170400Z AUTO 23006KT 5SM 21/16 A3009 RMK T02100160 IEM_DS3505
ZGSZ,2009-02-17 05:00,ZGSZ 170500Z AUTO 23006KT 7SM 22/16 A3006 RMK T02200160 IEM_DS3505
ZGSZ,2009-02-17 06:00,ZGSZ 170600Z AUTO 09004KT 9SM 21/14 A3003 RMK SLP177 T02110138 57024 IEM_DS3505
ZGSZ,2009-02-17 07:00,ZGSZ 170700Z AUTO 22006KT 7SM 21/16 A3003 RMK T02100160 IEM_DS3505
ZGSZ,2009-02-17 08:00,ZGSZ 170800Z AUTO 21006KT 7SM 21/16 A3000 RMK T02100160 IEM_DS3505
ZGSZ,2009-02-17 09:00,ZGSZ 170900Z AUTO 09004KT 7SM 19/14 A3000 RMK SLP173 T01880137 57004 IEM_DS3505
ZGSZ,2009-02-17 10:00,ZGSZ 171000Z AUTO 10010KT 7SM 21/15 A3000 RMK T02100150 IEM_DS3505
ZGSZ,2009-02-17 11:00,ZGSZ 171100Z AUTO 11010KT 7SM 20/15 A3003 RMK T02000150 IEM_DS3505
ZGSZ,2009-02-17 12:00,ZGSZ 171200Z AUTO 09006KT 7SM 17/13 A3003 RMK SLP178 T01730134 52005 IEM_DS3505
ZGSZ,2009-02-17 13:00,ZGSZ 171300Z AUTO 12010KT 7SM 19/14 A3006 RMK T01900140 IEM_DS3505
ZGSZ,2009-02-17 14:00,ZGSZ 171400Z AUTO 10008KT 7SM 19/14 A3006 RMK T01900140 IEM_DS3505
ZGSZ,2009-02-17 15:00,ZGSZ 171500Z AUTO 07008KT 11SM 18/13 A3006 RMK SLP183 T01750132 52005 IEM_DS3505
ZGSZ,2009-02-17 16:00,ZGSZ 171600Z AUTO 10004KT 7SM 19/14 A3006 RMK T01900140 IEM_DS3505
ZGSZ,2009-02-17 17:00,ZGSZ 171700Z AUTO 11004KT 7SM 19/14 A3006 RMK T01900140 IEM_DS3505
ZGSZ,2009-02-17 18:00,ZGSZ 171800Z AUTO 07006KT 14SM 17/13 A3003 RMK SLP175 T01740129 57008 IEM_DS3505
ZGSZ,2009-02-17 19:00,ZGSZ 171900Z AUTO 03006KT 7SM 19/14 A3003 RMK T01900140 IEM_DS3505
ZGSZ,2009-02-17 20:00,ZGSZ 172000Z AUTO 04006KT 7SM 18/14 A3003 RMK T01800140 IEM_DS3505
ZGSZ,2009-02-17 21:00,ZGSZ 172100Z AUTO 07002KT 14SM 18/13 A3003 RMK SLP176 T01750132 52001 IEM_DS3505
ZGSZ,2009-02-17 22:00,ZGSZ 172200Z AUTO 00000KT 7SM 19/14 A3003 RMK T01900140 IEM_DS3505
ZGSZ,2009-02-17 23:00,ZGSZ 172300Z AUTO 05004KT 6SM 18/14 A3006 RMK T01800140 IEM_DS3505
ZGSZ,2009-02-18 00:00,ZGSZ 180000Z AUTO 04002KT 9SM 18/13 A3006 RMK SLP186 T01810134 52010 IEM_DS3505
ZGSZ,2009-02-18 01:00,ZGSZ 180100Z AUTO 03006KT 7SM 19/14 A3009 RMK T01900140 IEM_DS3505
ZGSZ,2009-02-18 02:00,ZGSZ 180200Z AUTO 7SM 21/14 A3009 RMK T02100140 IEM_DS3505
ZGSZ,2009-02-18 03:00,ZGSZ 180300Z AUTO 16004KT 9SM 22/14 A3006 RMK SLP185 T02160138 57001 IEM_DS3505
ZGSZ,2009-02-18 04:00,ZGSZ 180400Z AUTO 22008KT 3SM 22/15 A3003 RMK T02200150 IEM_DS3505
ZGSZ,2009-02-18 05:00,ZGSZ 180500Z AUTO 21008KT 4SM 23/15 A3000 RMK T02300150 IEM_DS3505
ZGSZ,2009-02-18 06:00,ZGSZ 180600Z AUTO 22008KT 8SM 23/15 A2997 RMK SLP150 T02290150 57034 IEM_DS3505
ZGSZ,2009-02-18 07:00,ZGSZ 180700Z AUTO 19010KT 7SM 22/17 A2994 RMK T02200170 IEM_DS3505
ZGSZ,2009-02-18 08:00,ZGSZ 180800Z AUTO 20008KT 7SM 22/16 A2991 RMK T02200160 IEM_DS3505
ZGSZ,2009-02-18 09:00,ZGSZ 180900Z AUTO 11006KT 16SM 22/14 A2991 RMK SLP136 T02250136 57014 IEM_DS3505
ZGSZ,2009-02-18 10:00,ZGSZ 181000Z AUTO 20008KT 7SM 22/17 A2991 RMK T02200170 IEM_DS3505
ZGSZ,2009-02-18 11:00,ZGSZ 181100Z AUTO 16004KT 7SM 22/17 A2991 RMK T02200170 IEM_DS3505
ZGSZ,2009-02-18 12:00,ZGSZ 181200Z AUTO 09006KT 16SM 20/13 A2994 RMK SLP146 T01970134 52009 IEM_DS3505
ZGSZ,2009-02-18 13:00,ZGSZ 181300Z AUTO 11010KT 7SM 22/14 A2994 RMK T02200140 IEM_DS3505
ZGSZ,2009-02-18 14:00,ZGSZ 181400Z AUTO 12008KT 7SM 21/15 A2994 RMK T02100150 IEM_DS3505
ZGSZ,2009-02-18 15:00,ZGSZ 181500Z AUTO 09006KT 12SM 19/16 A2994 RMK SLP150 T01930158 52005 IEM_DS3505
ZGSZ,2009-02-18 16:00,ZGSZ 181600Z AUTO 12008KT 7SM 21/17 A2994 RMK T02100170 IEM_DS3505
ZGSZ,2009-02-18 17:00,ZGSZ 181700Z AUTO 13008KT 7SM 20/17 A2994 RMK T02000170 IEM_DS3505
ZGSZ,2009-02-18 18:00,ZGSZ 181800Z AUTO 09006KT 16SM 18/16 A2994 RMK SLP144 T01840155 57006 IEM_DS3505
ZGSZ,2009-02-18 19:00,ZGSZ 181900Z AUTO 11008KT 7SM 20/16 A2991 RMK T02000160 IEM_DS3505
ZGSZ,2009-02-18 20:00,ZGSZ 182000Z AUTO 10006KT 7SM 20/16 A2991 RMK T02000160 IEM_DS3505
ZGSZ,2009-02-18 21:00,ZGSZ 182100Z AUTO 09008KT 16SM 18/15 A2991 RMK SLP137 T01790153 57007 IEM_DS3505
ZGSZ,2009-02-18 22:00,ZGSZ 182200Z AUTO 10006KT 7SM 20/16 A2994 RMK T02000160 IEM_DS3505
ZGSZ,2009-02-18 23:00,ZGSZ 182300Z AUTO 07004KT 7SM 19/17 A2997 RMK T01900170 IEM_DS3505
ZGSZ,2009-02-19 00:00,ZGSZ 190000Z AUTO 09004KT 5SM 18/16 A2997 RMK 60000 70000 SLP158 T01800160 52020 IEM_DS3505
ZGSZ,2009-02-19 01:00,ZGSZ 190100Z AUTO 3SM 20/17 A3000 RMK T02000170 IEM_DS3505
ZGSZ,2009-02-19 02:00,ZGSZ 190200Z AUTO 36004KT 4SM 21/17 A3000 RMK T02100170 IEM_DS3505
ZGSZ,2009-02-19 03:00,ZGSZ 190300Z AUTO 07004KT 4SM 20/16 A3000 RMK SLP166 T01980163 52008 IEM_DS3505
ZGSZ,2009-02-19 04:00,ZGSZ 190400Z AUTO 3SM 21/18 A2997 RMK T02100180 IEM_DS3505
ZGSZ,2009-02-19 05:00,ZGSZ 190500Z AUTO 17008KT 3SM 24/18 A2994 RMK T02400180 IEM_DS3505
ZGSZ,2009-02-19 06:00,ZGSZ 190600Z AUTO 18004KT 7SM 23/17 A2991 RMK 60000 SLP135 T02340172 57030 IEM_DS3505
ZGSZ,2009-02-19 07:00,ZGSZ 190700Z AUTO 20012KT 3SM 23/19 A2988 RMK T02300190 IEM_DS3505
ZGSZ,2009-02-19 08:00,ZGSZ 190800Z AUTO 20010KT 3SM 22/18 A2988 RMK T02200180 IEM_DS3505
ZGSZ,2009-02-19 09:00,ZGSZ 190900Z AUTO 20006KT 12SM 24/18 A2988 RMK SLP123 T02430178 57012 IEM_DS3505
ZGSZ,2009-02-19 10:00,ZGSZ 191000Z AUTO 20008KT 6SM 21/18 A2991 RMK T02100180 IEM_DS3505
ZGSZ,2009-02-19 11:00,ZGSZ 191100Z AUTO 16004KT 6SM 21/18 A2991 RMK T02100180 IEM_DS3505
ZGSZ,2009-02-19 12:00,ZGSZ 191200Z AUTO 32002KT 10SM 21/18 A2991 RMK SLP136 T02140176 52013 IEM_DS3505
ZGSZ,2009-02-19 13:00,ZGSZ 191300Z AUTO 18006KT 4SM 21/19 A2994 RMK T02100190 IEM_DS3505
ZGSZ,2009-02-19 14:00,ZGSZ 191400Z AUTO 16004KT 4SM 20/18 A2994 RMK T02000180 IEM_DS3505
ZGSZ,2009-02-19 15:00,ZGSZ 191500Z AUTO 09002KT 11SM 20/17 A2994 RMK SLP146 T02010171 52010 IEM_DS3505
ZGSZ,2009-02-19 16:00,ZGSZ 191600Z AUTO 2 1/2SM 20/18 A2994 RMK T02000180 IEM_DS3505
ZGSZ,2009-02-19 17:00,ZGSZ 191700Z AUTO 2 1/2SM 20/18 A2997 RMK T02000180 IEM_DS3505
ZGSZ,2009-02-19 18:00,ZGSZ 191800Z AUTO 25002KT 8SM 19/17 A2997 RMK SLP148 T01940174 52002 IEM_DS3505
ZGSZ,2009-02-19 19:00,ZGSZ 191900Z AUTO 00000KT 3SM 20/19 A2994 RMK T02000190 IEM_DS3505
ZGSZ,2009-02-19 20:00,ZGSZ 192000Z AUTO 23002KT 1 1/2SM 20/18 A2997 RMK T02000180 IEM_DS3505
ZGSZ,2009-02-19 21:00,ZGSZ 192100Z AUTO 00000KT 2 1/2SM 19/17 A2997 RMK 70000 SLP153 T01870172 52005 IEM_DS3505
ZGSZ,2009-02-19 22:00,ZGSZ 192200Z AUTO 33002KT 1 1/4SM 20/19 A3000 RMK T02000190 IEM_DS3505
ZGSZ,2009-02-19 23:00,ZGSZ 192300Z AUTO 1 1/4SM 19/18 A3000 RMK T01900180 IEM_DS3505
ZGSZ,2009-02-20 00:00,ZGSZ 200000Z AUTO 20002KT 2SM 20/18 A3003 RMK 70000 SLP171 T01950176 52018 IEM_DS3505
ZGSZ,2009-02-20 01:00,ZGSZ 200100Z AUTO 34008KT 2 1/2SM 20/16 A3006 RMK T02000160 IEM_DS3505
ZGSZ,2009-02-20 02:00,ZGSZ 200200Z AUTO 03016G25KT 4SM 20/14 A3009 RMK T02000140 IEM_DS3505
ZGSZ,2009-02-20 03:00,ZGSZ 200300Z AUTO 04006KT 4SM 20/13 A3009 RMK SLP194 T01960131 52022 IEM_DS3505
ZGSZ,2009-02-20 04:00,ZGSZ 200400Z AUTO 03008G17KT 4SM 22/13 A3009 RMK T02200130 IEM_DS3505
ZGSZ,2009-02-20 05:00,ZGSZ 200500Z AUTO 36012KT 5SM 22/12 A3006 RMK T02200120 IEM_DS3505
ZGSZ,2009-02-20 06:00,ZGSZ 200600Z AUTO 07006KT 6SM 23/12 A3003 RMK SLP169 T02280121 57024 IEM_DS3505
ZGSZ,2009-02-20 07:00,ZGSZ 200700Z AUTO 01010KT 6SM 23/12 A3000 RMK T02300120 IEM_DS3505
ZGSZ,2009-02-20 08:00,ZGSZ 200800Z AUTO 36008KT 6SM 24/12 A3000 RMK T02400120 IEM_DS3505
ZGSZ,2009-02-20 09:00,ZGSZ 200900Z AUTO 36006KT 7SM 22/12 A2997 RMK SLP154 T02240118 57015 IEM_DS3505
ZGSZ,2009-02-20 10:00,ZGSZ 201000Z AUTO 35008KT 6SM 22/12 A3000 RMK T02200120 IEM_DS3505
ZGSZ,2009-02-20 11:00,ZGSZ 201100Z AUTO 34008KT 5SM 21/12 A3000 RMK T02100120 IEM_DS3505
ZGSZ,2009-02-20 12:00,ZGSZ 201200Z AUTO 36004KT 8SM 20/11 A3003 RMK SLP169 T02020106 52015 IEM_DS3505
ZGSZ,2009-02-20 13:00,ZGSZ 201300Z AUTO 32008KT 5SM 19/12 A3003 RMK T01900120 IEM_DS3505
ZGSZ,2009-02-20 14:00,ZGSZ 201400Z AUTO 32008KT 4SM 19/11 A3003 RMK T01900110 IEM_DS3505
ZGSZ,2009-02-20 15:00,ZGSZ 201500Z AUTO 22002KT 7SM 19/12 A3003 RMK SLP179 T01900123 52009 IEM_DS3505
ZGSZ,2009-02-20 16:00,ZGSZ 201600Z AUTO 31004KT 4SM 18/12 A3006 RMK T01800120 IEM_DS3505
ZGSZ,2009-02-20 17:00,ZGSZ 201700Z AUTO 30004KT 4SM 19/11 A3006 RMK T01900110 IEM_DS3505
ZGSZ,2009-02-20 18:00,ZGSZ 201800Z AUTO 09006KT 5SM 19/16 A3003 RMK SLP176 T01860157 57002 IEM_DS3505
ZGSZ,2009-02-20 19:00,ZGSZ 201900Z AUTO 09004KT 3SM 19/16 A3003 RMK T01900160 IEM_DS3505
ZGSZ,2009-02-20 20:00,ZGSZ 202000Z AUTO 12012KT 7SM 19/15 A3003 RMK T01900150 IEM_DS3505
ZGSZ,2009-02-20 21:00,ZGSZ 202100Z AUTO 07010KT 7SM 18/12 A3003 RMK SLP171 T01750122 57005 IEM_DS3505
ZGSZ,2009-02-20 22:00,ZGSZ 202200Z AUTO 11010KT 7SM 19/13 A3003 RMK T01900130 IEM_DS3505
ZGSZ,2009-02-20 23:00,ZGSZ 202300Z AUTO 11010KT 7SM 19/13 A3003 RMK T01900130 IEM_DS3505
ZGSZ,2009-02-21 00:00,ZGSZ 210000Z AUTO 09010KT 9SM 17/12 A3003 RMK SLP173 T01720119 52001 IEM_DS3505
ZGSZ,2009-02-21 01:00,ZGSZ 210100Z AUTO 11010KT 6SM 20/13 A3003 RMK T02000130 IEM_DS3505
ZGSZ,2009-02-21 02:00,ZGSZ 210200Z AUTO 11006KT 6SM 22/13 A3003 RMK T02200130 IEM_DS3505
ZGSZ,2009-02-21 03:00,ZGSZ 210300Z AUTO 14008KT 9SM 21/12 A3000 RMK SLP166 T02080122 57006 IEM_DS3505
ZGSZ,2009-02-21 04:00,ZGSZ 210400Z AUTO 21008KT 4SM 23/15 A2997 RMK T02300150 IEM_DS3505
ZGSZ,2009-02-21 05:00,ZGSZ 210500Z AUTO 23008KT 5SM 23/15 A2994 RMK T02300150 IEM_DS3505
ZGSZ,2009-02-21 06:00,ZGSZ 210600Z AUTO 07008KT 9SM 21/13 A2991 RMK SLP136 T02100134 57030 IEM_DS3505
ZGSZ,2009-02-21 07:00,ZGSZ 210700Z AUTO 12010KT 4SM 24/15 A2988 RMK T02400150 IEM_DS3505
ZGSZ,2009-02-21 08:00,ZGSZ 210800Z AUTO 14012KT 5SM 23/15 A2985 RMK T02300150 IEM_DS3505
ZGSZ,2009-02-21 09:00,ZGSZ 210900Z AUTO 07004KT 7SM 19/14 A2985 RMK SLP116 T01920142 57020 IEM_DS3505
ZGSZ,2009-02-21 10:00,ZGSZ 211000Z AUTO 13008KT 4SM 21/15 A2985 RMK T02100150 IEM_DS3505
ZGSZ,2009-02-21 11:00,ZGSZ 211100Z AUTO 10006KT 3SM 20/16 A2988 RMK T02000160 IEM_DS3505
ZGSZ,2009-02-21 12:00,ZGSZ 211200Z AUTO 07004KT 3SM 18/15 A2988 RMK SLP129 T01840151 52012 IEM_DS3505
ZGSZ,2009-02-21 13:00,ZGSZ 211300Z AUTO 10008KT 3SM 20/16 A2988 RMK T02000160 IEM_DS3505
ZGSZ,2009-02-21 14:00,ZGSZ 211400Z AUTO 12012KT 4SM 20/16 A2988 RMK T02000160 IEM_DS3505
ZGSZ,2009-02-21 15:00,ZGSZ 211500Z AUTO 07006KT 3SM 18/16 A2988 RMK SLP126 T01810155 57002 IEM_DS3505
ZGSZ,2009-02-21 16:00,ZGSZ 211600Z AUTO 11006KT 3SM 20/17 A2988 RMK T02000170 IEM_DS3505
ZGSZ,2009-02-21 17:00,ZGSZ 211700Z AUTO 11006KT 3SM 20/17 A2988 RMK T02000170 IEM_DS3505
ZGSZ,2009-02-21 18:00,ZGSZ 211800Z AUTO 09008KT 3SM 19/16 A2985 RMK SLP114 T01890163 57012 IEM_DS3505
ZGSZ,2009-02-21 19:00,ZGSZ 211900Z AUTO 12008KT 3SM 21/17 A2983 RMK T02100170 IEM_DS3505
ZGSZ,2009-02-21 20:00,ZGSZ 212000Z AUTO 12008KT 3SM 21/18 A2983 RMK T02100180 IEM_DS3505
ZGSZ,2009-02-21 21:00,ZGSZ 212100Z AUTO 09006KT 2 1/2SM 19/17 A2983 RMK SLP111 T01940170 57003 IEM_DS3505
ZGSZ,2009-02-21 22:00,ZGSZ 212200Z AUTO 12004KT 2 1/2SM 21/18 A2985 RMK T02100180 IEM_DS3505
ZGSZ,2009-02-21 23:00,ZGSZ 212300Z AUTO 12008KT 3SM 22/18 A2985 RMK T02200180 IEM_DS3505
ZGSZ,2009-02-22 00:00,ZGSZ 220000Z AUTO 07006KT 3SM 20/18 A2985 RMK SLP122 T02040178 52011 IEM_DS3505
ZGSZ,2009-02-22 01:00,ZGSZ 220100Z AUTO 13012KT 2 1/2SM 24/19 A2988 RMK T02400190 IEM_DS3505
ZGSZ,2009-02-22 02:00,ZGSZ 220200Z AUTO 13010KT 4SM 26/20 A2988 RMK T02600200 IEM_DS3505
ZGSZ,2009-02-22 03:00,ZGSZ 220300Z AUTO 07004KT 5SM 24/18 A2985 RMK SLP122 T02380182 54000 IEM_DS3505
ZGSZ,2009-02-22 04:00,ZGSZ 220400Z AUTO 16016KT 7SM 27/20 A2983 RMK T02700200 IEM_DS3505
ZGSZ,2009-02-22 05:00,ZGSZ 220500Z AUTO 16014KT 7SM 28/20 A2983 RMK T02800200 IEM_DS3505
ZGSZ,2009-02-22 06:00,ZGSZ 220600Z AUTO 16002KT 6SM 26/19 A2980 RMK SLP094 T02610188 57027 IEM_DS3505
ZGSZ,2009-02-22 07:00,ZGSZ 220700Z AUTO 18012KT 7SM 25/20 A2980 RMK T02500200 IEM_DS3505
ZGSZ,2009-02-22 08:00,ZGSZ 220800Z AUTO 16010KT 7SM 25/20 A2977 RMK T02500200 IEM_DS3505
ZGSZ,2009-02-22 09:00,ZGSZ 220900Z AUTO 18002KT 6SM 24/19 A2977 RMK SLP088 T02420188 57006 IEM_DS3505
ZGSZ,2009-02-22 10:00,ZGSZ 221000Z AUTO 15010KT 7SM 25/20 A2977 RMK T02500200 IEM_DS3505
ZGSZ,2009-02-22 11:00,ZGSZ 221100Z AUTO 15008KT 7SM 24/20 A2977 RMK T02400200 IEM_DS3505
ZGSZ,2009-02-22 12:00,ZGSZ 221200Z AUTO 04004KT 5SM 23/19 A2980 RMK SLP097 T02260186 52008 IEM_DS3505
ZGSZ,2009-02-22 13:00,ZGSZ 221300Z AUTO 19006KT 7SM 23/20 A2983 RMK T02300200 IEM_DS3505
ZGSZ,2009-02-22 14:00,ZGSZ 221400Z AUTO 16004KT 7SM 23/20 A2983 RMK T02300200 IEM_DS3505
ZGSZ,2009-02-22 15:00,ZGSZ 221500Z AUTO 09002KT 6SM 22/19 A2983 RMK SLP105 T02240188 52009 IEM_DS3505
ZGSZ,2009-02-22 16:00,ZGSZ 221600Z AUTO 14006KT 5SM 24/20 A2983 RMK T02400200 IEM_DS3505
ZGSZ,2009-02-22 17:00,ZGSZ 221700Z AUTO 25002KT 4SM 23/20 A2983 RMK T02300200 IEM_DS3505
ZGSZ,2009-02-22 18:00,ZGSZ 221800Z AUTO 07004KT 6SM 22/19 A2983 RMK SLP106 T02230191 52001 IEM_DS3505
ZGSZ,2009-02-22 19:00,ZGSZ 221900Z AUTO 00000KT 3SM 22/20 A2983 RMK T02200200 IEM_DS3505
ZGSZ,2009-02-22 20:00,ZGSZ 222000Z AUTO 27002KT 3SM 22/20 A2983 RMK T02200200 IEM_DS3505
ZGSZ,2009-02-22 21:00,ZGSZ 222100Z AUTO 09004KT 6SM 22/19 A2983 RMK SLP106 T02210193 54000 IEM_DS3505
ZGSZ,2009-02-22 22:00,ZGSZ 222200Z AUTO 12002KT 4SM 23/20 A2983 RMK T02300200 IEM_DS3505
ZGSZ,2009-02-22 23:00,ZGSZ 222300Z AUTO 13006KT 5SM 24/20 A2985 RMK T02400200 IEM_DS3505
ZGSZ,2009-02-23 00:00,ZGSZ 230000Z AUTO 07004KT 4SM 22/20 A2988 RMK SLP121 T02220196 52015 IEM_DS3505
ZGSZ,2009-02-23 01:00,ZGSZ 230100Z AUTO 13006KT 7SM 25/21 A2988 RMK T02500210 IEM_DS3505
ZGSZ,2009-02-23 02:00,ZGSZ 230200Z AUTO 15008KT 7SM 26/21 A2991 RMK T02600210 IEM_DS3505
ZGSZ,2009-02-23 03:00,ZGSZ 230300Z AUTO 11006KT 4SM 25/20 A2991 RMK SLP135 T02500196 52014 IEM_DS3505
ZGSZ,2009-02-23 04:00,ZGSZ 230400Z AUTO 16010KT 7SM 28/20 A2988 RMK T02800200 IEM_DS3505
ZGSZ,2009-02-23 05:00,ZGSZ 230500Z AUTO 16012KT 7SM 28/20 A2985 RMK T02800200 IEM_DS3505
ZGSZ,2009-02-23 06:00,ZGSZ 230600Z AUTO 22006KT 16SM 27/19 A2985 RMK SLP114 T02740190 57021 IEM_DS3505
ZGSZ,2009-02-23 07:00,ZGSZ 230700Z AUTO 16012KT 7SM 28/20 A2983 RMK T02800200 IEM_DS3505
ZGSZ,2009-02-23 08:00,ZGSZ 230800Z AUTO 16014KT 7SM 27/20 A2980 RMK T02700200 IEM_DS3505
ZGSZ,2009-02-23 09:00,ZGSZ 230900Z AUTO 20004KT 19SM 26/19 A2980 RMK SLP096 T02650189 57018 IEM_DS3505
ZGSZ,2009-02-23 10:00,ZGSZ 231000Z AUTO 16008KT 7SM 26/20 A2983 RMK T02600200 IEM_DS3505
ZGSZ,2009-02-23 11:00,ZGSZ 231100Z AUTO 19008KT 7SM 24/21 A2983 RMK T02400210 IEM_DS3505
ZGSZ,2009-02-23 12:00,ZGSZ 231200Z AUTO 09002KT 10SM 24/20 A2985 RMK SLP114 T02390196 52018 IEM_DS3505
ZGSZ,2009-02-23 13:00,ZGSZ 231300Z AUTO 14006KT 7SM 25/21 A2985 RMK T02500210 IEM_DS3505
ZGSZ,2009-02-23 14:00,ZGSZ 231400Z AUTO 15008KT 7SM 25/21 A2985 RMK T02500210 IEM_DS3505
ZGSZ,2009-02-23 15:00,ZGSZ 231500Z AUTO 09004KT 7SM 23/20 A2988 RMK SLP123 T02310199 52009 IEM_DS3505
ZGSZ,2009-02-23 16:00,ZGSZ 231600Z AUTO 14006KT 7SM 25/21 A2988 RMK T02500210 IEM_DS3505
ZGSZ,2009-02-23 17:00,ZGSZ 231700Z AUTO 22008KT 7SM 23/21 A2985 RMK T02300210 IEM_DS3505
ZGSZ,2009-02-23 18:00,ZGSZ 231800Z AUTO 16002KT 7SM 23/20 A2985 RMK SLP116 T02290201 57007 IEM_DS3505
ZGSZ,2009-02-23 19:00,ZGSZ 231900Z AUTO 17006KT 7SM 23/21 A2985 RMK T02300210 IEM_DS3505
ZGSZ,2009-02-23 20:00,ZGSZ 232000Z AUTO 19004KT 7SM 23/21 A2985 RMK T02300210 IEM_DS3505
ZGSZ,2009-02-23 21:00,ZGSZ 232100Z AUTO 09002KT 7SM 23/20 A2983 RMK SLP112 T02300202 57004 IEM_DS3505
ZGSZ,2009-02-23 22:00,ZGSZ 232200Z AUTO 7SM 24/21 A2985 RMK T02400210 IEM_DS3505
ZGSZ,2009-02-23 23:00,ZGSZ 232300Z AUTO 13006KT 7SM 24/21 A2988 RMK T02400210 IEM_DS3505
ZGSZ,2009-02-24 00:00,ZGSZ 240000Z AUTO 04004KT 7SM 23/20 A2988 RMK SLP129 T02310202 52017 IEM_DS3505
ZGSZ,2009-02-24 01:00,ZGSZ 240100Z AUTO 14008KT 7SM 26/21 A2991 RMK T02600210 IEM_DS3505
ZGSZ,2009-02-24 03:00,ZGSZ 240300Z AUTO 14002KT 16SM 27/20 A2991 RMK SLP139 T02730199 52010 IEM_DS3505
ZGSZ,2009-02-24 04:00,ZGSZ 240400Z AUTO 16010KT 7SM 28/20 A2991 RMK T02800200 IEM_DS3505
ZGSZ,2009-02-24 05:00,ZGSZ 240500Z AUTO 19006KT 7SM 27/21 A2988 RMK T02700210 IEM_DS3505
ZGSZ,2009-02-24 06:00,ZGSZ 240600Z AUTO 18006KT 19SM 29/19 A2985 RMK SLP117 T02930190 57022 IEM_DS3505
ZGSZ,2009-02-24 07:00,ZGSZ 240700Z AUTO 17012KT 7SM 29/20 A2983 RMK T02900200 IEM_DS3505
ZGSZ,2009-02-24 08:00,ZGSZ 240800Z AUTO 15008KT 7SM 29/20 A2983 RMK T02900200 IEM_DS3505
ZGSZ,2009-02-24 09:00,ZGSZ 240900Z AUTO 22004KT 19SM 27/19 A2983 RMK SLP110 T02700188 57007 IEM_DS3505
ZGSZ,2009-02-24 10:00,ZGSZ 241000Z AUTO 17008KT 6SM 27/20 A2985 RMK T02700200 IEM_DS3505
ZGSZ,2009-02-24 11:00,ZGSZ 241100Z AUTO 17006KT 7SM 25/21 A2985 RMK T02500210 IEM_DS3505
ZGSZ,2009-02-24 12:00,ZGSZ 241200Z AUTO 11004KT 17SM 23/20 A2985 RMK SLP122 T02340198 52012 IEM_DS3505
ZGSZ,2009-02-24 13:00,ZGSZ 241300Z AUTO 14008KT 6SM 24/20 A2988 RMK T02400200 IEM_DS3505
ZGSZ,2009-02-24 14:00,ZGSZ 241400Z AUTO 12008KT 6SM 24/20 A2988 RMK T02400200 IEM_DS3505
ZGSZ,2009-02-24 15:00,ZGSZ 241500Z AUTO 07004KT 12SM 22/19 A2988 RMK SLP130 T02200194 52008 IEM_DS3505
ZGSZ,2009-02-24 16:00,ZGSZ 241600Z AUTO 11008KT 6SM 23/20 A2988 RMK T02300200 IEM_DS3505
ZGSZ,2009-02-24 17:00,ZGSZ 241700Z AUTO 13004KT 6SM 22/20 A2988 RMK T02200200 IEM_DS3505
ZGSZ,2009-02-24 18:00,ZGSZ 241800Z AUTO 09004KT 12SM 21/19 A2988 RMK SLP125 T02140191 57005 IEM_DS3505
ZGSZ,2009-02-24 19:00,ZGSZ 241900Z AUTO 11006KT 7SM 23/20 A2985 RMK T02300200 IEM_DS3505
ZGSZ,2009-02-24 20:00,ZGSZ 242000Z AUTO 15004KT 7SM 22/20 A2985 RMK T02200200 IEM_DS3505
ZGSZ,2009-02-24 21:00,ZGSZ 242100Z AUTO 07004KT 11SM 21/19 A2985 RMK SLP115 T02110189 57010 IEM_DS3505
ZGSZ,2009-02-24 22:00,ZGSZ 242200Z AUTO 04002KT 7SM 23/20 A2988 RMK T02300200 IEM_DS3505
ZGSZ,2009-02-24 23:00,ZGSZ 242300Z AUTO 7SM 23/20 A2991 RMK T02300200 IEM_DS3505
ZGSZ,2009-02-25 00:00,ZGSZ 250000Z AUTO 07006KT 8SM 22/19 A2991 RMK SLP136 T02230191 52021 IEM_DS3505
ZGSZ,2009-02-25 01:00,ZGSZ 250100Z AUTO 11006KT 7SM 25/20 A2994 RMK T02500200 IEM_DS3505
ZGSZ,2009-02-25 02:00,ZGSZ 250200Z AUTO 12006KT 7SM 26/20 A2994 RMK T02600200 IEM_DS3505
ZGSZ,2009-02-25 03:00,ZGSZ 250300Z AUTO 22004KT 8SM 26/19 A2994 RMK SLP143 T02630189 52007 IEM_DS3505
ZGSZ,2009-02-25 04:00,ZGSZ 250400Z AUTO 21006KT 7SM 27/20 A2991 RMK T02700200 IEM_DS3505
ZGSZ,2009-02-25 05:00,ZGSZ 250500Z AUTO 16006KT 7SM 28/20 A2991 RMK T02800200 IEM_DS3505
ZGSZ,2009-02-25 06:00,ZGSZ 250600Z AUTO 16004KT 16SM 28/19 A2988 RMK SLP119 T02850189 57024 IEM_DS3505
ZGSZ,2009-02-25 07:00,ZGSZ 250700Z AUTO 23006KT 7SM 28/21 A2985 RMK T02800210 IEM_DS3505
ZGSZ,2009-02-25 08:00,ZGSZ 250800Z AUTO 19008KT 6SM 28/21 A2983 RMK T02800210 IEM_DS3505
ZGSZ,2009-02-25 09:00,ZGSZ 250900Z AUTO 22006KT 16SM 28/19 A2983 RMK SLP102 T02850192 57017 IEM_DS3505
ZGSZ,2009-02-25 10:00,ZGSZ 251000Z AUTO 19006KT 6SM 26/21 A2983 RMK T02600210 IEM_DS3505
ZGSZ,2009-02-25 11:00,ZGSZ 251100Z AUTO 18004KT 6SM 24/21 A2983 RMK T02400210 IEM_DS3505
ZGSZ,2009-02-25 12:00,ZGSZ 251200Z AUTO 09004KT 17SM 24/19 A2985 RMK SLP113 T02430192 52011 IEM_DS3505
ZGSZ,2009-02-25 13:00,ZGSZ 251300Z AUTO 19006KT 6SM 23/21 A2985 RMK T02300210 IEM_DS3505
ZGSZ,2009-02-25 14:00,ZGSZ 251400Z AUTO 18008KT 6SM 23/21 A2988 RMK T02300210 IEM_DS3505
ZGSZ,2009-02-25 15:00,ZGSZ 251500Z AUTO 07002KT 17SM 23/19 A2988 RMK SLP127 T02300188 52014 IEM_DS3505
ZGSZ,2009-02-25 16:00,ZGSZ 251600Z AUTO 22006KT 6SM 22/21 A2991 RMK T02200210 IEM_DS3505
ZGSZ,2009-02-25 17:00,ZGSZ 251700Z AUTO 21008KT 2SM 22/21 A2991 RMK T02200210 IEM_DS3505
ZGSZ,2009-02-25 18:00,ZGSZ 251800Z AUTO 11004KT 14SM 22/19 A2991 RMK SLP132 T02170191 52005 IEM_DS3505
ZGSZ,2009-02-25 19:00,ZGSZ 251900Z AUTO 3SM 22/21 A2991 RMK T02200210 IEM_DS3505
ZGSZ,2009-02-25 20:00,ZGSZ 252000Z AUTO 20002KT 7SM 22/21 A2991 RMK T02200210 IEM_DS3505
ZGSZ,2009-02-25 21:00,ZGSZ 252100Z AUTO 11004KT 16SM 22/19 A2991 RMK SLP134 T02230193 52002 IEM_DS3505
ZGSZ,2009-02-25 22:00,ZGSZ 252200Z AUTO 7SM 22/21 A2994 RMK T02200210 IEM_DS3505
ZGSZ,2009-02-25 23:00,ZGSZ 252300Z AUTO 00000KT 7SM 22/20 A2994 RMK T02200200 IEM_DS3505
ZGSZ,2009-02-26 00:00,ZGSZ 260000Z AUTO 11004KT 16SM 24/20 A2997 RMK SLP151 T02360197 52017 IEM_DS3505
ZGSZ,2009-02-26 01:00,ZGSZ 260100Z AUTO 12008KT 7SM 26/21 A2997 RMK T02600210 IEM_DS3505
ZGSZ,2009-02-26 02:00,ZGSZ 260200Z AUTO 7SM 26/21 A3000 RMK T02600210 IEM_DS3505
ZGSZ,2009-02-26 03:00,ZGSZ 260300Z AUTO 09006KT 16SM 24/20 A2997 RMK SLP159 T02410196 52008 IEM_DS3505
ZGSZ,2009-02-26 04:00,ZGSZ 260400Z AUTO 22006KT 7SM 26/21 A2997 RMK T02600210 IEM_DS3505
ZGSZ,2009-02-26 05:00,ZGSZ 260500Z AUTO 21008KT 7SM 28/21 A2994 RMK T02800210 IEM_DS3505
ZGSZ,2009-02-26 06:00,ZGSZ 260600Z AUTO 09008KT 6SM 24/19 A2991 RMK 60000 SLP141 T02350190 57019 IEM_DS3505
ZGSZ,2009-02-26 07:00,ZGSZ 260700Z AUTO 14008KT 7SM 29/20 A2988 RMK T02900200 IEM_DS3505
ZGSZ,2009-02-26 08:00,ZGSZ 260800Z AUTO 12010KT 7SM 28/20 A2988 RMK T02800200 IEM_DS3505
ZGSZ,2009-02-26 09:00,ZGSZ 260900Z AUTO 07004KT 11SM 24/19 A2988 RMK SLP129 T02350186 57011 IEM_DS3505
ZGSZ,2009-02-26 10:00,ZGSZ 261000Z AUTO 12010KT 7SM 26/20 A2988 RMK T02600200 IEM_DS3505
ZGSZ,2009-02-26 11:00,ZGSZ 261100Z AUTO 11010KT 7SM 24/20 A2991 RMK T02400200 IEM_DS3505
ZGSZ,2009-02-26 12:00,ZGSZ 261200Z AUTO 09006KT 7SM 21/18 A2991 RMK SLP143 T02090179 52013 IEM_DS3505
ZGSZ,2009-02-26 13:00,ZGSZ 261300Z AUTO 11010KT 7SM 23/19 A2994 RMK T02300190 IEM_DS3505
ZGSZ,2009-02-26 14:00,ZGSZ 261400Z AUTO 10010KT 7SM 22/19 A2994 RMK T02200190 IEM_DS3505
ZGSZ,2009-02-26 15:00,ZGSZ 261500Z AUTO 07008KT 7SM 20/18 A2994 RMK SLP148 T02030179 52005 IEM_DS3505
ZGSZ,2009-02-26 16:00,ZGSZ 261600Z AUTO 11010KT 7SM 22/19 A2997 RMK T02200190 IEM_DS3505
ZGSZ,2009-02-26 17:00,ZGSZ 261700Z AUTO 10008KT 7SM 22/19 A2994 RMK T02200190 IEM_DS3505
ZGSZ,2009-02-26 18:00,ZGSZ 261800Z AUTO 09004KT 7SM 20/18 A2994 RMK SLP146 T02050177 57002 IEM_DS3505
ZGSZ,2009-02-26 19:00,ZGSZ 261900Z AUTO 10006KT 7SM 22/19 A2994 RMK T02200190 IEM_DS3505
ZGSZ,2009-02-26 20:00,ZGSZ 262000Z AUTO 10008KT 7SM 22/19 A2994 RMK T02200190 IEM_DS3505
ZGSZ,2009-02-26 21:00,ZGSZ 262100Z AUTO 04006KT 7SM 20/18 A2991 RMK 70000 SLP141 T02010177 57005 IEM_DS3505
ZGSZ,2009-02-26 22:00,ZGSZ 262200Z AUTO 09006KT 7SM 22/18 A2994 RMK T02200180 IEM_DS3505
ZGSZ,2009-02-26 23:00,ZGSZ 262300Z AUTO 7SM 22/19 A2994 RMK T02200190 IEM_DS3505
ZGSZ,2009-02-27 00:00,ZGSZ 270000Z AUTO 09006KT 5SM 21/18 A2997 RMK 70000 SLP155 T02080176 52014 IEM_DS3505
ZGSZ,2009-02-27 01:00,ZGSZ 270100Z AUTO 09004KT 7SM 24/19 A2997 RMK T02400190 IEM_DS3505
ZGSZ,2009-02-27 02:00,ZGSZ 270200Z AUTO 7SM 25/19 A3000 RMK T02500190 IEM_DS3505
ZGSZ,2009-02-27 03:00,ZGSZ 270300Z AUTO 07006KT 8SM 25/18 A3000 RMK SLP165 T02460176 52010 IEM_DS3505
ZGSZ,2009-02-27 04:00,ZGSZ 270400Z AUTO 25008KT 7SM 24/19 A2997 RMK T02400190 IEM_DS3505
ZGSZ,2009-02-27 05:00,ZGSZ 270500Z AUTO 23006KT 7SM 26/20 A2997 RMK T02600200 IEM_DS3505
ZGSZ,2009-02-27 06:00,ZGSZ 270600Z AUTO 14006KT 16SM 26/18 A2994 RMK SLP138 T02650178 57026 IEM_DS3505
ZGSZ,2009-02-27 07:00,ZGSZ 270700Z AUTO 22006KT 7SM 26/20 A2991 RMK T02600200 IEM_DS3505
ZGSZ,2009-02-27 08:00,ZGSZ 270800Z AUTO 21006KT 6SM 27/20 A2988 RMK T02700200 IEM_DS3505
ZGSZ,2009-02-27 09:00,ZGSZ 270900Z AUTO 22006KT 16SM 27/19 A2988 RMK SLP125 T02690187 57013 IEM_DS3505
ZGSZ,2009-02-27 10:00,ZGSZ 271000Z AUTO 19006KT 6SM 24/20 A2988 RMK T02400200 IEM_DS3505
ZGSZ,2009-02-27 11:00,ZGSZ 271100Z AUTO 17006KT 6SM 23/20 A2991 RMK T02300200 IEM_DS3505
ZGSZ,2009-02-27 12:00,ZGSZ 271200Z AUTO 09008KT 9SM 22/18 A2991 RMK SLP135 T02210179 52009 IEM_DS3505
ZGSZ,2009-02-27 13:00,ZGSZ 271300Z AUTO 12008KT 6SM 24/19 A2994 RMK T02400190 IEM_DS3505
ZGSZ,2009-02-27 14:00,ZGSZ 271400Z AUTO 11008KT 6SM 23/19 A2994 RMK T02300190 IEM_DS3505
ZGSZ,2009-02-27 15:00,ZGSZ 271500Z AUTO 09006KT 7SM 21/18 A2994 RMK SLP148 T02130183 52013 IEM_DS3505
ZGSZ,2009-02-27 16:00,ZGSZ 271600Z AUTO 11008KT 7SM 22/19 A2994 RMK T02200190 IEM_DS3505
ZGSZ,2009-02-27 17:00,ZGSZ 271700Z AUTO 11008KT 7SM 22/19 A2997 RMK T02200190 IEM_DS3505
ZGSZ,2009-02-27 18:00,ZGSZ 271800Z AUTO 09004KT 7SM 21/18 A2994 RMK SLP149 T02080178 52002 IEM_DS3505
ZGSZ,2009-02-27 19:00,ZGSZ 271900Z AUTO 07006KT 7SM 22/19 A2994 RMK T02200190 IEM_DS3505
ZGSZ,2009-02-27 20:00,ZGSZ 272000Z AUTO 10008KT 7SM 22/19 A2994 RMK T02200190 IEM_DS3505
ZGSZ,2009-02-27 21:00,ZGSZ 272100Z AUTO 09006KT 7SM 20/17 A2994 RMK SLP145 T02010171 57004 IEM_DS3505
ZGSZ,2009-02-27 22:00,ZGSZ 272200Z AUTO 13004KT 4SM 22/19 A2997 RMK T02200190 IEM_DS3505
ZGSZ,2009-02-27 23:00,ZGSZ 272300Z AUTO 10004KT 4SM 22/18 A3000 RMK T02200180 IEM_DS3505
ZGSZ,2009-02-28 00:00,ZGSZ 280000Z AUTO 09008KT 6SM 20/17 A3000 RMK SLP168 T01990171 52022 IEM_DS3505
ZGSZ,2009-02-28 01:00,ZGSZ 280100Z AUTO 12004KT 7SM 22/18 A3003 RMK T02200180 IEM_DS3505
ZGSZ,2009-02-28 02:00,ZGSZ 280200Z AUTO 08004KT 5SM 23/18 A3003 RMK T02300180 IEM_DS3505
ZGSZ,2009-02-28 03:00,ZGSZ 280300Z AUTO 09004KT 6SM 21/17 A3006 RMK SLP181 T02130173 52013 IEM_DS3505
ZGSZ,2009-02-28 04:00,ZGSZ 280400Z AUTO 10006KT 4SM 22/19 A3003 RMK T02200190 IEM_DS3505
ZGSZ,2009-02-28 05:00,ZGSZ 280500Z AUTO 11008KT 4SM 24/18 A3000 RMK T02400180 IEM_DS3505
ZGSZ,2009-02-28 06:00,ZGSZ 280600Z AUTO 09006KT 7SM 22/17 A3000 RMK SLP160 T02250168 57021 IEM_DS3505
ZGSZ,2009-02-28 07:00,ZGSZ 280700Z AUTO 25004KT 7SM 23/18 A2997 RMK T02300180 IEM_DS3505
ZGSZ,2009-02-28 08:00,ZGSZ 280800Z AUTO 29006KT 1 1/2SM 22/19 A2997 RMK T02200190 IEM_DS3505
ZGSZ,2009-02-28 09:00,ZGSZ 280900Z AUTO 11004KT 7SM 22/17 A2997 RMK SLP155 T02180174 57005 IEM_DS3505
ZGSZ,2009-02-28 10:00,ZGSZ 281000Z AUTO 22004KT 1 1/2SM 22/19 A2997 RMK T02200190 IEM_DS3505
ZGSZ,2009-02-28 11:00,ZGSZ 281100Z AUTO 29004KT 1 1/2SM 22/19 A3000 RMK T02200190 IEM_DS3505
ZGSZ,2009-02-28 12:00,ZGSZ 281200Z AUTO 07006KT 7SM 21/17 A3000 RMK SLP167 T02100172 52012 IEM_DS3505
ZGSZ,2009-02-28 13:00,ZGSZ 281300Z AUTO 2SM 22/17 A3003 RMK T02200170 IEM_DS3505
ZGSZ,2009-02-28 14:00,ZGSZ 281400Z AUTO 28004KT 2 1/2SM 21/17 A3003 RMK T02100170 IEM_DS3505
ZGSZ,2009-02-28 15:00,ZGSZ 281500Z AUTO 09004KT 6SM 20/17 A3006 RMK SLP177 T02030171 52010 IEM_DS3505
ZGSZ,2009-02-28 16:00,ZGSZ 281600Z AUTO 32004KT 1SM 20/18 A3006 RMK T02000180 IEM_DS3505
ZGSZ,2009-02-28 17:00,ZGSZ 281700Z AUTO 36008KT 1SM 19/17 A3006 RMK T01900170 IEM_DS3505
ZGSZ,2009-02-28 18:00,ZGSZ 281800Z AUTO 14004KT 2 1/2SM 19/18 A3006 RMK 60004 SLP178 T01900175 52001 IEM_DS3505
ZGSZ,2009-02-28 19:00,ZGSZ 281900Z AUTO 01008KT 2 1/2SM 18/16 A3003 RMK T01800160 IEM_DS3505
ZGSZ,2009-02-28 20:00,ZGSZ 282000Z AUTO 01010KT 3SM 18/16 A3003 RMK T01800160 IEM_DS3505
ZGSZ,2009-02-28 21:00,ZGSZ 282100Z AUTO 02004KT 3SM 17/15 A3003 RMK 70007 SLP173 T01710153 57006 IEM_DS3505
ZGSZ,2009-02-28 22:00,ZGSZ 282200Z AUTO 07006KT 2 1/2SM 18/16 A3003 RMK T01800160 IEM_DS3505
ZGSZ,2009-02-28 23:00,ZGSZ 282300Z AUTO 06006KT 3SM 18/15 A3006 RMK T01800150 IEM_DS3505
ZGSZ,2009-03-01 00:00,ZGSZ 010000Z AUTO 02004KT 4SM 17/15 RMK 60003 70007 SLP191 T01720147 52018 IEM_DS3505
ZGSZ,2009-03-01 01:00,ZGSZ 010100Z AUTO 03008KT 3SM 17/15 A3009 RMK T01700150 IEM_DS3505
ZGSZ,2009-03-01 02:00,ZGSZ 010200Z AUTO 02010KT 3SM 17/14 A3012 RMK T01700140 IEM_DS3505
ZGSZ,2009-03-01 03:00,ZGSZ 010300Z AUTO 02004KT 4SM 18/14 A3012 RMK SLP201 T01750136 52010 IEM_DS3505
ZGSZ,2009-03-01 04:00,ZGSZ 010400Z AUTO 02008KT 3SM 19/14 A3009 RMK T01900140 IEM_DS3505
ZGSZ,2009-03-01 05:00,ZGSZ 010500Z AUTO 06006KT 3SM 19/14 A3006 RMK T01900140 IEM_DS3505
ZGSZ,2009-03-01 06:00,ZGSZ 010600Z AUTO 34002KT 3SM 19/14 A3006 RMK SLP180 T01880143 57021 IEM_DS3505
ZGSZ,2009-03-01 07:00,ZGSZ 010700Z AUTO 36008KT 3SM 20/13 A3003 RMK T02000130 IEM_DS3505
ZGSZ,2009-03-01 08:00,ZGSZ 010800Z AUTO 02008KT 4SM 19/12 A3003 RMK T01900120 IEM_DS3505
ZGSZ,2009-03-01 09:00,ZGSZ 010900Z AUTO 04004KT 3SM 19/14 A3003 RMK SLP176 T01920136 57004 IEM_DS3505
ZGSZ,2009-03-01 10:00,ZGSZ 011000Z AUTO 04008KT 4SM 20/13 A3003 RMK T02000130 IEM_DS3505
ZGSZ,2009-03-01 11:00,ZGSZ 011100Z AUTO 03008KT 4SM 19/13 A3006 RMK T01900130 IEM_DS3505
ZGSZ,2009-03-01 12:00,ZGSZ 011200Z AUTO 04004KT 4SM 18/12 A3006 RMK SLP183 T01810119 52007 IEM_DS3505
ZGSZ,2009-03-01 13:00,ZGSZ 011300Z AUTO 01010KT 4SM 18/12 A3006 RMK T01800120 IEM_DS3505
ZGSZ,2009-03-01 14:00,ZGSZ 011400Z AUTO 01008KT 4SM 18/12 A3009 RMK T01800120 IEM_DS3505
ZGSZ,2009-03-01 15:00,ZGSZ 011500Z AUTO 04006KT 6SM 17/12 A3009 RMK SLP191 T01730118 52008 IEM_DS3505
ZGSZ,2009-03-01 16:00,ZGSZ 011600Z AUTO 01006KT 7SM 17/12 A3009 RMK T01700120 IEM_DS3505
ZGSZ,2009-03-01 17:00,ZGSZ 011700Z AUTO 01006KT 7SM 17/11 A3009 RMK T01700110 IEM_DS3505
ZGSZ,2009-03-01 18:00,ZGSZ 011800Z AUTO 07004KT 6SM 16/14 A3009 RMK SLP188 T01610136 57003 IEM_DS3505
ZGSZ,2009-03-01 19:00,ZGSZ 011900Z AUTO 03006KT 4SM 16/12 A3006 RMK T01600120 IEM_DS3505
ZGSZ,2009-03-01 20:00,ZGSZ 012000Z AUTO 02010KT 4SM 16/11 A3006 RMK T01600110 IEM_DS3505
ZGSZ,2009-03-01 21:00,ZGSZ 012100Z AUTO 02004KT 5SM 15/13 A3006 RMK SLP178 T01530128 57010 IEM_DS3505
ZGSZ,2009-03-01 22:00,ZGSZ 012200Z AUTO 02004KT 4SM 15/12 A3009 RMK T01500120 IEM_DS3505
ZGSZ,2009-03-01 23:00,ZGSZ 012300Z AUTO 02008KT 3SM 15/12 A3009 RMK T01500120 IEM_DS3505
ZGSZ,2009-03-02 00:00,ZGSZ 020000Z AUTO 04004KT 3SM 15/12 A3009 RMK SLP196 T01540123 52018 IEM_DS3505
ZGSZ,2009-03-02 01:00,ZGSZ 020100Z AUTO 01008KT 3SM 16/12 A3012 RMK T01600120 IEM_DS3505
ZGSZ,2009-03-02 02:00,ZGSZ 020200Z AUTO 04006KT 3SM 17/12 A3012 RMK T01700120 IEM_DS3505
ZGSZ,2009-03-02 03:00,ZGSZ 020300Z AUTO 04004KT 2 1/2SM 16/12 A3012 RMK SLP199 T01600120 52002 IEM_DS3505
ZGSZ,2009-03-02 04:00,ZGSZ 020400Z AUTO 04006KT 3SM 19/13 A3009 RMK T01900130 IEM_DS3505
ZGSZ,2009-03-02 05:00,ZGSZ 020500Z AUTO 3SM 21/13 A3006 RMK T02100130 IEM_DS3505
ZGSZ,2009-03-02 06:00,ZGSZ 020600Z AUTO 32002KT 2 1/2SM 20/12 A3003 RMK SLP175 T01950123 57023 IEM_DS3505
ZGSZ,2009-03-02 07:00,ZGSZ 020700Z AUTO 31010KT 2 1/2SM 20/13 A3003 RMK T02000130 IEM_DS3505
ZGSZ,2009-03-02 08:00,ZGSZ 020800Z AUTO 36008KT 3SM 20/12 A3000 RMK T02000120 IEM_DS3505
ZGSZ,2009-03-02 09:00,ZGSZ 020900Z AUTO 07004KT 2SM 19/12 A3003 RMK SLP168 T01920125 57007 IEM_DS3505
ZGSZ,2009-03-02 10:00,ZGSZ 021000Z AUTO 03008KT 3SM 19/13 A3003 RMK T01900130 IEM_DS3505
ZGSZ,2009-03-02 11:00,ZGSZ 021100Z AUTO 02008KT 4SM 19/12 A3003 RMK T01900120 IEM_DS3505
ZGSZ,2009-03-02 12:00,ZGSZ 021200Z AUTO 36006KT 2 1/2SM 18/11 A3006 RMK SLP177 T01780114 52009 IEM_DS3505
ZGSZ,2009-03-02 13:00,ZGSZ 021300Z AUTO 03008KT 4SM 18/11 A3006 RMK T01800110 IEM_DS3505
ZGSZ,2009-03-02 14:00,ZGSZ 021400Z AUTO 01008KT 4SM 17/11 A3009 RMK T01700110 IEM_DS3505
ZGSZ,2009-03-02 20:00,ZGSZ 022000Z AUTO 36006KT 7SM 16/11 A3003 RMK T01600110 IEM_DS3505
ZGSZ,2009-03-02 21:00,ZGSZ 022100Z AUTO 09006KT 10SM 16/10 A3006 RMK SLP174 T01550101 57008 IEM_DS3505
ZGSZ,2009-03-02 22:00,ZGSZ 022200Z AUTO 03004KT 7SM 16/11 A3006 RMK T01600110 IEM_DS3505
ZGSZ,2009-03-02 23:00,ZGSZ 022300Z AUTO 06004KT 7SM 16/11 A3003 RMK T01600110 IEM_DS3505
ZGSZ,2009-03-03 00:00,ZGSZ 030000Z AUTO 07004KT 6SM 16/10 A3006 RMK SLP182 T01590104 52008 IEM_DS3505
ZGSZ,2009-03-03 01:00,ZGSZ 030100Z AUTO 06004KT 7SM 17/11 A3006 RMK T01700110 IEM_DS3505
ZGSZ,2009-03-03 02:00,ZGSZ 030200Z AUTO 6SM 20/12 A3006 RMK T02000120 IEM_DS3505
ZGSZ,2009-03-03 03:00,ZGSZ 030300Z AUTO 14004KT 5SM 20/13 A3003 RMK SLP177 T02000130 57005 IEM_DS3505
ZGSZ,2009-03-03 04:00,ZGSZ 030400Z AUTO 30008KT 4SM 20/12 A3000 RMK T02000120 IEM_DS3505
ZGSZ,2009-03-03 05:00,ZGSZ 030500Z AUTO 31012KT 4SM 20/13 A2997 RMK T02000130 IEM_DS3505
ZGSZ,2009-03-03 06:00,ZGSZ 030600Z AUTO 09004KT 4SM 19/14 A2997 RMK SLP149 T01940142 57028 IEM_DS3505
ZGSZ,2009-03-03 07:00,ZGSZ 030700Z AUTO 4SM 21/13 A2991 RMK T02100130 IEM_DS3505
ZGSZ,2009-03-03 08:00,ZGSZ 030800Z AUTO 06006KT 4SM 21/13 A2991 RMK T02100130 IEM_DS3505
ZGSZ,2009-03-03 09:00,ZGSZ 030900Z AUTO 07002KT 4SM 19/14 A2994 RMK SLP143 T01930143 57006 IEM_DS3505
ZGSZ,2009-03-03 10:00,ZGSZ 031000Z AUTO 29006KT 3SM 20/14 A2994 RMK T02000140 IEM_DS3505
ZGSZ,2009-03-03 11:00,ZGSZ 031100Z AUTO 10006KT 3SM 20/14 A2994 RMK T02000140 IEM_DS3505
ZGSZ,2009-03-03 12:00,ZGSZ 031200Z AUTO 11006KT 4SM 19/14 A2994 RMK SLP148 T01870142 52005 IEM_DS3505
ZGSZ,2009-03-03 13:00,ZGSZ 031300Z AUTO 07004KT 3SM 20/15 A2997 RMK T02000150 IEM_DS3505
ZGSZ,2009-03-03 14:00,ZGSZ 031400Z AUTO 05006KT 3SM 20/14 A3000 RMK T02000140 IEM_DS3505
ZGSZ,2009-03-03 15:00,ZGSZ 031500Z AUTO 07006KT 5SM 18/13 A3000 RMK SLP160 T01830130 52012 IEM_DS3505
ZGSZ,2009-03-03 16:00,ZGSZ 031600Z AUTO 03006KT 3SM 19/13 A3000 RMK T01900130 IEM_DS3505
ZGSZ,2009-03-03 17:00,ZGSZ 031700Z AUTO 01006KT 4SM 18/12 A3000 RMK T01800120 IEM_DS3505
ZGSZ,2009-03-03 18:00,ZGSZ 031800Z AUTO 02004KT 5SM 18/13 A2997 RMK SLP156 T01780129 57004 IEM_DS3505
ZGSZ,2009-03-03 19:00,ZGSZ 031900Z AUTO 06006KT 4SM 18/12 A2994 RMK T01800120 IEM_DS3505
ZGSZ,2009-03-03 20:00,ZGSZ 032000Z AUTO 08004KT 4SM 18/13 A2994 RMK T01800130 IEM_DS3505
ZGSZ,2009-03-03 21:00,ZGSZ 032100Z AUTO 09004KT 4SM 18/14 A2994 RMK SLP141 T01750142 57015 IEM_DS3505
ZGSZ,2009-03-03 22:00,ZGSZ 032200Z AUTO 09004KT 4SM 18/14 A2994 RMK T01800140 IEM_DS3505
ZGSZ,2009-03-03 23:00,ZGSZ 032300Z AUTO 33008KT 4SM 17/12 A2997 RMK T01700120 IEM_DS3505
ZGSZ,2009-03-04 00:00,ZGSZ 040000Z AUTO 11008KT 6SM 18/14 A2997 RMK SLP149 T01780143 52008 IEM_DS3505
ZGSZ,2009-03-04 01:00,ZGSZ 040100Z AUTO 00000KT 3SM 18/13 A2994 RMK T01800130 IEM_DS3505
ZGSZ,2009-03-04 02:00,ZGSZ 040200Z AUTO 28006KT 4SM 18/13 A2997 RMK T01800130 IEM_DS3505
ZGSZ,2009-03-04 03:00,ZGSZ 040300Z AUTO 09004KT 6SM 19/15 A2997 RMK SLP147 T01890154 57002 IEM_DS3505
ZGSZ,2009-03-04 04:00,ZGSZ 040400Z AUTO 36006KT 2SM 19/13 A2994 RMK T01900130 IEM_DS3505
ZGSZ,2009-03-04 05:00,ZGSZ 040500Z AUTO 2SM 19/15 A2988 RMK T01900150 IEM_DS3505
ZGSZ,2009-03-04 06:00,ZGSZ 040600Z AUTO 07004KT 4SM 19/16 A2985 RMK 60000 SLP118 T01860158 57029 IEM_DS3505
ZGSZ,2009-03-04 07:00,ZGSZ 040700Z AUTO 11008KT 5SM 21/17 A2983 RMK T02100170 IEM_DS3505
ZGSZ,2009-03-04 08:00,ZGSZ 040800Z AUTO 11006KT 7SM 22/17 A2980 RMK T02200170 IEM_DS3505
ZGSZ,2009-03-04 09:00,ZGSZ 040900Z AUTO 09004KT 8SM 19/16 A2983 RMK SLP103 T01940161 57014 IEM_DS3505
ZGSZ,2009-03-04 10:00,ZGSZ 041000Z AUTO 05004KT 3SM 20/17 A2983 RMK T02000170 IEM_DS3505
ZGSZ,2009-03-04 11:00,ZGSZ 041100Z AUTO 10008KT 2SM 20/18 A2985 RMK T02000180 IEM_DS3505
ZGSZ,2009-03-04 12:00,ZGSZ 041200Z AUTO 09010KT 6SM 18/16 A2985 RMK 60001 SLP117 T01820164 52013 IEM_DS3505
ZGSZ,2009-03-04 13:00,ZGSZ 041300Z AUTO 11012KT 6SM 20/17 A2985 RMK T02000170 IEM_DS3505
ZGSZ,2009-03-04 14:00,ZGSZ 041400Z AUTO 7SM 20/17 A2988 RMK T02000170 IEM_DS3505
ZGSZ,2009-03-04 15:00,ZGSZ 041500Z AUTO 07010KT 6SM 19/16 A2988 RMK SLP124 T01900164 52008 IEM_DS3505
ZGSZ,2009-03-04 16:00,ZGSZ 041600Z AUTO 12010KT 3SM 20/18 A2988 RMK T02000180 IEM_DS3505
ZGSZ,2009-03-04 17:00,ZGSZ 041700Z AUTO 10006KT 4SM 20/18 A2988 RMK T02000180 IEM_DS3505
ZGSZ,2009-03-04 18:00,ZGSZ 041800Z AUTO 09006KT 6SM 19/16 A2985 RMK 60000 SLP117 T01910165 57007 IEM_DS3505
ZGSZ,2009-03-04 19:00,ZGSZ 041900Z AUTO 11004KT 4SM 20/18 A2985 RMK T02000180 IEM_DS3505
ZGSZ,2009-03-04 20:00,ZGSZ 042000Z AUTO 11006KT 4SM 20/18 A2983 RMK T02000180 IEM_DS3505
ZGSZ,2009-03-04 21:00,ZGSZ 042100Z AUTO 09008KT 6SM 19/16 A2983 RMK 70002 SLP110 T01870165 57007 IEM_DS3505
ZGSZ,2009-03-04 22:00,ZGSZ 042200Z AUTO 12010KT 4SM 20/17 A2983 RMK T02000170 IEM_DS3505
ZGSZ,2009-03-04 23:00,ZGSZ 042300Z AUTO 12010KT 4SM 20/17 A2983 RMK T02000170 IEM_DS3505
ZGSZ,2009-03-05 00:00,ZGSZ 050000Z AUTO 09006KT 7SM 20/17 A2980 RMK 70002 SLP110 T01950171 54000 IEM_DS3505
ZGSZ,2009-03-05 01:00,ZGSZ 050100Z AUTO 13012KT 7SM 23/19 A2983 RMK T02300190 IEM_DS3505
ZGSZ,2009-03-05 02:00,ZGSZ 050200Z AUTO 12010KT 7SM 25/20 A2983 RMK T02500200 IEM_DS3505
ZGSZ,2009-03-05 03:00,ZGSZ 050300Z AUTO 07004KT 12SM 22/18 A2983 RMK SLP104 T02230185 57006 IEM_DS3505
ZGSZ,2009-03-05 04:00,ZGSZ 050400Z AUTO 17010KT 7SM 25/20 A2983 RMK T02500200 IEM_DS3505
ZGSZ,2009-03-05 05:00,ZGSZ 050500Z AUTO 16006KT 7SM 23/21 A2980 RMK T02300210 IEM_DS3505
ZGSZ,2009-03-05 06:00,ZGSZ 050600Z AUTO 09004KT 1 1/4SM 19/18 A2980 RMK 60091 SLP103 T01920177 57001 IEM_DS3505
ZGSZ,2009-03-05 07:00,ZGSZ 050700Z AUTO 01008KT 7SM 21/19 A2980 RMK T02100190 IEM_DS3505
ZGSZ,2009-03-05 08:00,ZGSZ 050800Z AUTO 7SM 21/18 A2977 RMK T02100180 IEM_DS3505
ZGSZ,2009-03-05 09:00,ZGSZ 050900Z AUTO 07002KT 6SM 20/19 A2980 RMK SLP087 T02020189 57016 IEM_DS3505
ZGSZ,2009-03-05 10:00,ZGSZ 051000Z AUTO 31012KT 4SM 21/18 A2980 RMK T02100180 IEM_DS3505
ZGSZ,2009-03-05 11:00,ZGSZ 051100Z AUTO 36004KT 1 1/2SM 21/18 A2983 RMK T02100180 IEM_DS3505
ZGSZ,2009-03-05 12:00,ZGSZ 051200Z AUTO 04004KT 2 1/2SM 20/18 A2985 RMK 60020 SLP110 T02020183 52023 IEM_DS3505
ZGSZ,2009-03-05 13:00,ZGSZ 051300Z AUTO 36008KT 1 1/2SM 20/18 A2988 RMK T02000180 IEM_DS3505
ZGSZ,2009-03-05 14:00,ZGSZ 051400Z AUTO 33006KT 2SM 19/18 A2988 RMK T01900180 IEM_DS3505
ZGSZ,2009-03-05 15:00,ZGSZ 051500Z AUTO 36006KT 2 1/2SM 19/18 A2988 RMK SLP126 T01890177 52016 IEM_DS3505
ZGSZ,2009-03-05 16:00,ZGSZ 051600Z AUTO 36010KT 1 1/2SM 18/17 A2991 RMK T01800170 IEM_DS3505
ZGSZ,2009-03-05 17:00,ZGSZ 051700Z AUTO 35010KT 4SM 17/16 A2991 RMK T01700160 IEM_DS3505
ZGSZ,2009-03-05 18:00,ZGSZ 051800Z AUTO 36006KT 4SM 18/16 A2991 RMK 60079 SLP130 T01770162 52003 IEM_DS3505
ZGSZ,2009-03-05 19:00,ZGSZ 051900Z AUTO 01014KT 7SM 16/13 A2991 RMK T01600130 IEM_DS3505
ZGSZ,2009-03-05 20:00,ZGSZ 052000Z AUTO 03010KT 7SM 15/13 A2991 RMK T01500130 IEM_DS3505
ZGSZ,2009-03-05 21:00,ZGSZ 052100Z AUTO 04008KT 6SM 15/13 A2991 RMK 70191 SLP128 T01500130 57002 IEM_DS3505
ZGSZ,2009-03-05 22:00,ZGSZ 052200Z AUTO 01010KT 7SM 15/13 A2991 RMK T01500130 IEM_DS3505
ZGSZ,2009-03-05 23:00,ZGSZ 052300Z AUTO 36010KT 7SM 14/13 A2994 RMK T01400130 IEM_DS3505
ZGSZ,2009-03-06 00:00,ZGSZ 060000Z AUTO 07006KT 12SM 14/12 A2997 RMK 60002 70191 SLP144 T01430115 52016 IEM_DS3505
ZGSZ,2009-03-06 01:00,ZGSZ 060100Z AUTO 33012KT 7SM 14/11 A3003 RMK T01400110 IEM_DS3505
ZGSZ,2009-03-06 02:00,ZGSZ 060200Z AUTO 35010KT 1 1/2SM 13/12 A3003 RMK T01300120 IEM_DS3505
ZGSZ,2009-03-06 03:00,ZGSZ 060300Z AUTO 36006KT 5SM 13/11 A3003 RMK SLP172 T01270111 52027 IEM_DS3505
ZGSZ,2009-03-06 04:00,ZGSZ 060400Z AUTO 35006KT 3SM 13/12 A3006 RMK T01300120 IEM_DS3505
ZGSZ,2009-03-06 05:00,ZGSZ 060500Z AUTO 02012KT 7SM 14/11 A3003 RMK T01400110 IEM_DS3505
ZGSZ,2009-03-06 06:00,ZGSZ 060600Z AUTO 04004KT 5SM 13/11 A3000 RMK 60106 SLP160 T01310110 57012 IEM_DS3505
ZGSZ,2009-03-06 07:00,ZGSZ 060700Z AUTO 02010KT 7SM 15/11 A2997 RMK T01500110 IEM_DS3505
ZGSZ,2009-03-06 08:00,ZGSZ 060800Z AUTO 02010KT 7SM 15/11 A2994 RMK T01500110 IEM_DS3505
ZGSZ,2009-03-06 09:00,ZGSZ 060900Z AUTO 02006KT 6SM 13/11 A2997 RMK SLP147 T01310108 57013 IEM_DS3505
ZGSZ,2009-03-06 10:00,ZGSZ 061000Z AUTO 02012KT 7SM 13/11 A2997 RMK T01300110 IEM_DS3505
ZGSZ,2009-03-06 11:00,ZGSZ 061100Z AUTO 01008KT 7SM 14/10 A3000 RMK T01400100 IEM_DS3505
ZGSZ,2009-03-06 12:00,ZGSZ 061200Z AUTO 04004KT 12SM 13/10 A3000 RMK 60004 SLP156 T01300098 52009 IEM_DS3505
ZGSZ,2009-03-06 13:00,ZGSZ 061300Z AUTO 03008KT 2 1/2SM 12/11 A3006 RMK T01200110 IEM_DS3505
ZGSZ,2009-03-06 14:00,ZGSZ 061400Z AUTO 03010KT 7SM 12/10 A3003 RMK T01200100 IEM_DS3505
ZGSZ,2009-03-06 15:00,ZGSZ 061500Z AUTO 02004KT 11SM 12/10 A3006 RMK SLP188 T01180097 52031 IEM_DS3505
ZGSZ,2009-03-06 16:00,ZGSZ 061600Z AUTO 02012KT 7SM 12/10 A3003 RMK T01200100 IEM_DS3505
ZGSZ,2009-03-06 17:00,ZGSZ 061700Z AUTO 03010KT 2 1/2SM 12/10 A3003 RMK T01200100 IEM_DS3505
ZGSZ,2009-03-06 18:00,ZGSZ 061800Z AUTO 02008KT 11SM 12/09 A3003 RMK 60020 SLP177 T01170094 57011 IEM_DS3505
ZGSZ,2009-03-06 19:00,ZGSZ 061900Z AUTO 02008KT 7SM 12/10 A3006 RMK T01200100 IEM_DS3505
ZGSZ,2009-03-06 20:00,ZGSZ 062000Z AUTO 04008KT 7SM 12/10 A3003 RMK T01200100 IEM_DS3505
ZGSZ,2009-03-06 21:00,ZGSZ 062100Z AUTO 02006KT 7SM 11/10 A3003 RMK 70134 SLP175 T01120095 57002 IEM_DS3505
ZGSZ,2009-03-06 22:00,ZGSZ 062200Z AUTO 03008KT 7SM 12/09 A3006 RMK T01200090 IEM_DS3505
ZGSZ,2009-03-06 23:00,ZGSZ 062300Z AUTO 03006KT 7SM 12/09 A3006 RMK T01200090 IEM_DS3505
ZGSZ,2009-03-07 00:00,ZGSZ 070000Z AUTO 02006KT 7SM 11/09 A3009 RMK 60004 70134 SLP195 T01120088 52020 IEM_DS3505
ZGSZ,2009-03-07 01:00,ZGSZ 070100Z AUTO 02008KT 7SM 12/09 A3012 RMK T01200090 IEM_DS3505
ZGSZ,2009-03-07 02:00,ZGSZ 070200Z AUTO 01010KT 7SM 12/10 A3012 RMK T01200100 IEM_DS3505
ZGSZ,2009-03-07 03:00,ZGSZ 070300Z AUTO 07006KT 4SM 12/09 A3009 RMK SLP201 T01180092 52006 IEM_DS3505
ZGSZ,2009-03-07 04:00,ZGSZ 070400Z AUTO 03004KT 7SM 14/10 A3006 RMK T01400100 IEM_DS3505
ZGSZ,2009-03-07 05:00,ZGSZ 070500Z AUTO 01006KT 7SM 14/10 A3003 RMK T01400100 IEM_DS3505
ZGSZ,2009-03-07 06:00,ZGSZ 070600Z AUTO 36006KT 7SM 13/10 A3000 RMK 60000 SLP160 T01300096 57040 IEM_DS3505
ZGSZ,2009-03-07 07:00,ZGSZ 070700Z AUTO 01008KT 3SM 13/11 A3000 RMK T01300110 IEM_DS3505
ZGSZ,2009-03-07 08:00,ZGSZ 070800Z AUTO 03008KT 2 1/2SM 13/11 A2997 RMK T01300110 IEM_DS3505
ZGSZ,2009-03-07 09:00,ZGSZ 070900Z AUTO 36004KT 4SM 12/10 A2997 RMK SLP155 T01250104 57005 IEM_DS3505
ZGSZ,2009-03-07 10:00,ZGSZ 071000Z AUTO 03006KT 4SM 13/11 A3000 RMK T01300110 IEM_DS3505
ZGSZ,2009-03-07 11:00,ZGSZ 071100Z AUTO 01006KT 3SM 13/11 A2997 RMK T01300110 IEM_DS3505
ZGSZ,2009-03-07 12:00,ZGSZ 071200Z AUTO 04006KT 4SM 12/10 A3000 RMK 60002 SLP161 T01250102 52005 IEM_DS3505
ZGSZ,2009-03-07 13:00,ZGSZ 071300Z AUTO 04006KT 3SM 13/11 A3000 RMK T01300110 IEM_DS3505
ZGSZ,2009-03-07 14:00,ZGSZ 071400Z AUTO 03006KT 4SM 13/11 A3000 RMK T01300110 IEM_DS3505
ZGSZ,2009-03-07 15:00,ZGSZ 071500Z AUTO 04006KT 8SM 13/10 A3003 RMK SLP171 T01290099 52011 IEM_DS3505
ZGSZ,2009-03-07 16:00,ZGSZ 071600Z AUTO 02008KT 7SM 13/11 A3003 RMK T01300110 IEM_DS3505
ZGSZ,2009-03-07 17:00,ZGSZ 071700Z AUTO 03004KT 7SM 13/11 A3000 RMK T01300110 IEM_DS3505
ZGSZ,2009-03-07 18:00,ZGSZ 071800Z AUTO 34004KT 2 1/2SM 12/11 A3000 RMK 60016 SLP164 T01250106 57007 IEM_DS3505
ZGSZ,2009-03-07 19:00,ZGSZ 071900Z AUTO 05006KT 7SM 13/11 A2997 RMK T01300110 IEM_DS3505
ZGSZ,2009-03-07 20:00,ZGSZ 072000Z AUTO 35006KT 7SM 13/11 A2997 RMK T01300110 IEM_DS3505
ZGSZ,2009-03-07 21:00,ZGSZ 072100Z AUTO 02004KT 9SM 12/11 A2997 RMK 70024 SLP150 T01220106 57014 IEM_DS3505
ZGSZ,2009-03-07 22:00,ZGSZ 072200Z AUTO 02006KT 7SM 13/11 A2997 RMK T01300110 IEM_DS3505
ZGSZ,2009-03-07 23:00,ZGSZ 072300Z AUTO 02004KT 7SM 13/10 A3000 RMK T01300100 IEM_DS3505
ZGSZ,2009-03-08 00:00,ZGSZ 080000Z AUTO 36004KT 4SM 13/11 A3003 RMK 60008 70024 SLP172 T01260108 52022 IEM_DS3505
ZGSZ,2009-03-08 01:00,ZGSZ 080100Z AUTO 05006KT 4SM 13/11 A3003 RMK T01300110 IEM_DS3505
ZGSZ,2009-03-08 02:00,ZGSZ 080200Z AUTO 05004KT 4SM 14/11 A3003 RMK T01400110 IEM_DS3505
ZGSZ,2009-03-08 03:00,ZGSZ 080300Z AUTO 04002KT 2SM 14/12 A3003 RMK SLP173 T01350116 52001 IEM_DS3505
ZGSZ,2009-03-08 04:00,ZGSZ 080400Z AUTO 03004KT 2 1/2SM 14/12 A3000 RMK T01400120 IEM_DS3505
ZGSZ,2009-03-08 05:00,ZGSZ 080500Z AUTO 03006KT 2 1/2SM 14/12 A2997 RMK T01400120 IEM_DS3505
ZGSZ,2009-03-08 06:00,ZGSZ 080600Z AUTO 04004KT 1 1/4SM 14/12 A2994 RMK 60000 SLP144 T01400122 57029 IEM_DS3505
ZGSZ,2009-03-08 07:00,ZGSZ 080700Z AUTO 01006KT 2 1/2SM 14/12 A2991 RMK T01400120 IEM_DS3505
ZGSZ,2009-03-08 08:00,ZGSZ 080800Z AUTO 01008KT 3SM 15/12 A2991 RMK T01500120 IEM_DS3505
ZGSZ,2009-03-08 09:00,ZGSZ 080900Z AUTO 04006KT 1SM 14/12 A2991 RMK SLP136 T01380120 57008 IEM_DS3505
ZGSZ,2009-03-08 10:00,ZGSZ 081000Z AUTO 02008KT 2 1/2SM 14/12 A2994 RMK T01400120 IEM_DS3505
ZGSZ,2009-03-08 11:00,ZGSZ 081100Z AUTO 36006KT 2 1/2SM 14/12 A2997 RMK T01400120 IEM_DS3505
ZGSZ,2009-03-08 12:00,ZGSZ 081200Z AUTO 04002KT 1 1/4SM 14/12 A2997 RMK SLP156 T01390118 52020 IEM_DS3505
ZGSZ,2009-03-08 13:00,ZGSZ 081300Z AUTO 36010KT 2 1/2SM 14/12 A3003 RMK T01400120 IEM_DS3505
ZGSZ,2009-03-08 14:00,ZGSZ 081400Z AUTO 01010KT 2 1/2SM 14/12 A3006 RMK T01400120 IEM_DS3505
ZGSZ,2009-03-08 15:00,ZGSZ 081500Z AUTO 02002KT 1 1/4SM 13/12 A3003 RMK SLP180 T01340118 52024 IEM_DS3505
ZGSZ,2009-03-08 16:00,ZGSZ 081600Z AUTO 03004KT 3SM 14/12 A3006 RMK T01400120 IEM_DS3505
ZGSZ,2009-03-08 17:00,ZGSZ 081700Z AUTO 01006KT 2SM 14/12 A3006 RMK T01400120 IEM_DS3505
ZGSZ,2009-03-08 18:00,ZGSZ 081800Z AUTO 22002KT 3SM 13/12 A3003 RMK 60004 SLP176 T01340120 57004 IEM_DS3505
ZGSZ,2009-03-08 19:00,ZGSZ 081900Z AUTO 36006KT 3SM 14/12 A3003 RMK T01400120 IEM_DS3505
ZGSZ,2009-03-08 20:00,ZGSZ 082000Z AUTO 36008KT 3SM 14/12 A3003 RMK T01400120 IEM_DS3505
ZGSZ,2009-03-08 21:00,ZGSZ 082100Z AUTO 04004KT 2 1/2SM 13/12 A3003 RMK 70005 SLP169 T01330119 57007 IEM_DS3505
ZGSZ,2009-03-08 22:00,ZGSZ 082200Z AUTO 01006KT 3SM 14/12 A3003 RMK T01400120 IEM_DS3505
ZGSZ,2009-03-08 23:00,ZGSZ 082300Z AUTO 36008KT 7SM 14/12 A3006 RMK T01400120 IEM_DS3505
ZGSZ,2009-03-09 00:00,ZGSZ 090000Z AUTO 02002KT 6SM 14/11 A3006 RMK 60000 70005 SLP183 T01390114 52014 IEM_DS3505
ZGSZ,2009-03-09 01:00,ZGSZ 090100Z AUTO 01012KT 7SM 15/11 A3009 RMK T01500110 IEM_DS3505
ZGSZ,2009-03-09 02:00,ZGSZ 090200Z AUTO 01012KT 7SM 16/11 A3009 RMK T01600110 IEM_DS3505
ZGSZ,2009-03-09 03:00,ZGSZ 090300Z AUTO 36006KT 9SM 16/10 A3009 RMK SLP192 T01600103 52009 IEM_DS3505
ZGSZ,2009-03-09 04:00,ZGSZ 090400Z AUTO 36010KT 7SM 17/10 A3006 RMK T01700100 IEM_DS3505
ZGSZ,2009-03-09 05:00,ZGSZ 090500Z AUTO 36012KT 7SM 17/11 A3003 RMK T01700110 IEM_DS3505
ZGSZ,2009-03-09 06:00,ZGSZ 090600Z AUTO 02004KT 9SM 18/10 A3000 RMK SLP164 T01750099 57028 IEM_DS3505
ZGSZ,2009-03-09 07:00,ZGSZ 090700Z AUTO 01008KT 7SM 19/09 A2997 RMK T01900090 IEM_DS3505
ZGSZ,2009-03-09 08:00,ZGSZ 090800Z AUTO 03006KT 7SM 19/09 A2997 RMK T01900090 IEM_DS3505
ZGSZ,2009-03-09 09:00,ZGSZ 090900Z AUTO 02004KT 9SM 18/08 A2997 RMK SLP155 T01790076 57008 IEM_DS3505
ZGSZ,2009-03-09 10:00,ZGSZ 091000Z AUTO 09004KT 6SM 19/10 A2997 RMK T01900100 IEM_DS3505
ZGSZ,2009-03-09 11:00,ZGSZ 091100Z AUTO 6SM 18/10 A3000 RMK T01800100 IEM_DS3505
ZGSZ,2009-03-09 12:00,ZGSZ 091200Z AUTO 04002KT 10SM 17/10 A3000 RMK SLP166 T01700097 52010 IEM_DS3505
ZGSZ,2009-03-09 13:00,ZGSZ 091300Z AUTO 7SM 17/11 A3003 RMK T01700110 IEM_DS3505
ZGSZ,2009-03-09 14:00,ZGSZ 091400Z AUTO 6SM 17/11 A3003 RMK T01700110 IEM_DS3505
ZGSZ,2009-03-09 15:00,ZGSZ 091500Z AUTO 07004KT 12SM 17/12 A3003 RMK SLP172 T01700117 52007 IEM_DS3505
ZGSZ,2009-03-09 16:00,ZGSZ 091600Z AUTO 14004KT 7SM 17/13 A3003 RMK T01700130 IEM_DS3505
ZGSZ,2009-03-09 17:00,ZGSZ 091700Z AUTO 09004KT 7SM 18/14 A3003 RMK T01800140 IEM_DS3505
ZGSZ,2009-03-09 18:00,ZGSZ 091800Z AUTO 09008KT 12SM 17/13 A3000 RMK SLP165 T01690132 57007 IEM_DS3505
ZGSZ,2009-03-09 19:00,ZGSZ 091900Z AUTO 02004KT 4SM 17/14 A3000 RMK T01700140 IEM_DS3505
ZGSZ,2009-03-09 20:00,ZGSZ 092000Z AUTO 04004KT 4SM 17/14 A3000 RMK T01700140 IEM_DS3505
ZGSZ,2009-03-09 21:00,ZGSZ 092100Z AUTO 07006KT 16SM 16/11 A3000 RMK SLP166 T01640111 52001 IEM_DS3505
ZGSZ,2009-03-09 22:00,ZGSZ 092200Z AUTO 10006KT 7SM 17/12 A3000 RMK T01700120 IEM_DS3505
ZGSZ,2009-03-09 23:00,ZGSZ 092300Z AUTO 7SM 18/12 A3003 RMK T01800120 IEM_DS3505
ZGSZ,2009-03-10 00:00,ZGSZ 100000Z AUTO 09006KT 12SM 17/10 A3003 RMK SLP177 T01710105 52011 IEM_DS3505
ZGSZ,2009-03-10 01:00,ZGSZ 100100Z AUTO 11010KT 7SM 19/11 A3006 RMK T01900110 IEM_DS3505
ZGSZ,2009-03-10 02:00,ZGSZ 100200Z AUTO 11008KT 7SM 19/10 A3006 RMK T01900100 IEM_DS3505
ZGSZ,2009-03-10 03:00,ZGSZ 100300Z AUTO 11006KT 16SM 18/10 A3006 RMK SLP187 T01790100 52010 IEM_DS3505
ZGSZ,2009-03-10 04:00,ZGSZ 100400Z AUTO 09010KT 7SM 20/11 A3003 RMK T02000110 IEM_DS3505
ZGSZ,2009-03-10 05:00,ZGSZ 100500Z AUTO 10006KT 7SM 20/12 A3000 RMK T02000120 IEM_DS3505
ZGSZ,2009-03-10 06:00,ZGSZ 100600Z AUTO 09004KT 14SM 19/13 A2997 RMK SLP150 T01910133 57037 IEM_DS3505
ZGSZ,2009-03-10 07:00,ZGSZ 100700Z AUTO 07006KT 7SM 21/14 A2991 RMK T02100140 IEM_DS3505
ZGSZ,2009-03-10 08:00,ZGSZ 100800Z AUTO 12008KT 7SM 21/14 A2991 RMK T02100140 IEM_DS3505
ZGSZ,2009-03-10 09:00,ZGSZ 100900Z AUTO 09006KT 12SM 18/13 A2991 RMK SLP137 T01840131 57013 IEM_DS3505
ZGSZ,2009-03-10 10:00,ZGSZ 101000Z AUTO 09006KT 7SM 20/14 A2991 RMK T02000140 IEM_DS3505
ZGSZ,2009-03-10 11:00,ZGSZ 101100Z AUTO 10010KT 7SM 19/14 A2991 RMK T01900140 IEM_DS3505
ZGSZ,2009-03-10 12:00,ZGSZ 101200Z AUTO 09006KT 12SM 18/13 A2994 RMK SLP147 T01800127 52010 IEM_DS3505
ZGSZ,2009-03-10 13:00,ZGSZ 101300Z AUTO 10010KT 7SM 19/14 A2994 RMK T01900140 IEM_DS3505
ZGSZ,2009-03-10 14:00,ZGSZ 101400Z AUTO 08006KT 7SM 19/14 A2997 RMK T01900140 IEM_DS3505
ZGSZ,2009-03-10 15:00,ZGSZ 101500Z AUTO 07004KT 11SM 18/14 A2997 RMK SLP151 T01820137 52004 IEM_DS3505
ZGSZ,2009-03-10 16:00,ZGSZ 101600Z AUTO 07006KT 7SM 19/15 A2997 RMK T01900150 IEM_DS3505
ZGSZ,2009-03-10 17:00,ZGSZ 101700Z AUTO 07004KT 7SM 19/15 A2997 RMK T01900150 IEM_DS3505
ZGSZ,2009-03-10 18:00,ZGSZ 101800Z AUTO 07008KT 11SM 18/15 A2994 RMK SLP146 T01790146 57005 IEM_DS3505
ZGSZ,2009-03-10 19:00,ZGSZ 101900Z AUTO 09006KT 7SM 19/15 A2994 RMK T01900150 IEM_DS3505
ZGSZ,2009-03-10 20:00,ZGSZ 102000Z AUTO 07004KT 7SM 19/15 A2994 RMK T01900150 IEM_DS3505
ZGSZ,2009-03-10 21:00,ZGSZ 102100Z AUTO 07008KT 10SM 18/14 A2994 RMK SLP141 T01780145 57005 IEM_DS3505
ZGSZ,2009-03-10 22:00,ZGSZ 102200Z AUTO 7SM 19/15 A2994 RMK T01900150 IEM_DS3505
ZGSZ,2009-03-10 23:00,ZGSZ 102300Z AUTO 09006KT 7SM 19/15 A2997 RMK T01900150 IEM_DS3505
ZGSZ,2009-03-11 00:00,ZGSZ 110000Z AUTO 07006KT 8SM 19/15 A3000 RMK SLP156 T01870148 52015 IEM_DS3505
ZGSZ,2009-03-11 01:00,ZGSZ 110100Z AUTO 11006KT 5SM 21/16 A3000 RMK T02100160 IEM_DS3505
ZGSZ,2009-03-11 02:00,ZGSZ 110200Z AUTO 12008KT 5SM 23/17 A3000 RMK T02300170 IEM_DS3505
ZGSZ,2009-03-11 03:00,ZGSZ 110300Z AUTO 07006KT 9SM 22/16 A2997 RMK SLP158 T02230161 52003 IEM_DS3505
ZGSZ,2009-03-11 04:00,ZGSZ 110400Z AUTO 15006KT 7SM 25/19 A2994 RMK T02500190 IEM_DS3505
ZGSZ,2009-03-11 05:00,ZGSZ 110500Z AUTO 11010KT 7SM 25/18 A2991 RMK T02500180 IEM_DS3505
ZGSZ,2009-03-11 06:00,ZGSZ 110600Z AUTO 09006KT 7SM 22/16 A2988 RMK SLP130 T02190162 57028 IEM_DS3505
ZGSZ,2009-03-11 07:00,ZGSZ 110700Z AUTO 10006KT 7SM 24/17 A2988 RMK T02400170 IEM_DS3505
ZGSZ,2009-03-11 08:00,ZGSZ 110800Z AUTO 10006KT 7SM 24/18 A2988 RMK T02400180 IEM_DS3505
ZGSZ,2009-03-11 09:00,ZGSZ 110900Z AUTO 09008KT 5SM 20/16 A2988 RMK SLP125 T02010161 57005 IEM_DS3505
ZGSZ,2009-03-11 10:00,ZGSZ 111000Z AUTO 10010KT 5SM 22/18 A2988 RMK T02200180 IEM_DS3505
ZGSZ,2009-03-11 11:00,ZGSZ 111100Z AUTO 10010KT 4SM 22/18 A2988 RMK T02200180 IEM_DS3505
ZGSZ,2009-03-11 12:00,ZGSZ 111200Z AUTO 09008KT 4SM 19/16 A2991 RMK SLP137 T01930165 52012 IEM_DS3505
ZGSZ,2009-03-11 13:00,ZGSZ 111300Z AUTO 10010KT 4SM 21/17 A2994 RMK T02100170 IEM_DS3505
ZGSZ,2009-03-11 14:00,ZGSZ 111400Z AUTO 10008KT 4SM 21/17 A2994 RMK T02100170 IEM_DS3505
ZGSZ,2009-03-11 15:00,ZGSZ 111500Z AUTO 09004KT 4SM 19/16 A2994 RMK SLP150 T01900164 52013 IEM_DS3505
ZGSZ,2009-03-11 16:00,ZGSZ 111600Z AUTO 11010KT 4SM 21/17 A2994 RMK T02100170 IEM_DS3505
ZGSZ,2009-03-11 17:00,ZGSZ 111700Z AUTO 11012KT 3SM 20/17 A2994 RMK T02000170 IEM_DS3505
ZGSZ,2009-03-11 18:00,ZGSZ 111800Z AUTO 07006KT 4SM 19/16 A2994 RMK SLP146 T01870158 57004 IEM_DS3505
ZGSZ,2009-03-11 19:00,ZGSZ 111900Z AUTO 10008KT 5SM 20/17 A2994 RMK T02000170 IEM_DS3505
ZGSZ,2009-03-11 20:00,ZGSZ 112000Z AUTO 10006KT 4SM 20/17 A2994 RMK T02000170 IEM_DS3505
ZGSZ,2009-03-11 21:00,ZGSZ 112100Z AUTO 09006KT 4SM 19/16 A2994 RMK SLP139 T01860157 57007 IEM_DS3505
ZGSZ,2009-03-11 22:00,ZGSZ 112200Z AUTO 10008KT 5SM 20/17 A2994 RMK T02000170 IEM_DS3505
ZGSZ,2009-03-11 23:00,ZGSZ 112300Z AUTO 11008KT 5SM 20/17 A2997 RMK T02000170 IEM_DS3505
ZGSZ,2009-03-12 00:00,ZGSZ 120000Z AUTO 09010KT 5SM 19/15 A3000 RMK SLP161 T01900153 52021 IEM_DS3505
ZGSZ,2009-03-12 01:00,ZGSZ 120100Z AUTO 12010KT 5SM 22/17 A3000 RMK T02200170 IEM_DS3505
ZGSZ,2009-03-12 02:00,ZGSZ 120200Z AUTO 12010KT 6SM 23/17 A3000 RMK T02300170 IEM_DS3505
ZGSZ,2009-03-12 03:00,ZGSZ 120300Z AUTO 07008KT 5SM 22/16 A3000 RMK SLP159 T02230163 57001 IEM_DS3505
ZGSZ,2009-03-12 04:00,ZGSZ 120400Z AUTO 11008KT 7SM 26/18 A2997 RMK T02600180 IEM_DS3505
ZGSZ,2009-03-12 05:00,ZGSZ 120500Z AUTO 13010KT 6SM 26/18 A2994 RMK T02600180 IEM_DS3505
ZGSZ,2009-03-12 06:00,ZGSZ 120600Z AUTO 14006KT 7SM 24/17 A2991 RMK SLP135 T02380173 57024 IEM_DS3505
ZGSZ,2009-03-12 07:00,ZGSZ 120700Z AUTO 14010KT 6SM 27/19 A2988 RMK T02700190 IEM_DS3505
ZGSZ,2009-03-12 08:00,ZGSZ 120800Z AUTO 14010KT 6SM 27/19 A2988 RMK T02700190 IEM_DS3505
ZGSZ,2009-03-12 09:00,ZGSZ 120900Z AUTO 07006KT 6SM 23/18 A2988 RMK SLP126 T02280177 57009 IEM_DS3505
ZGSZ,2009-03-12 10:00,ZGSZ 121000Z AUTO 10008KT 6SM 25/19 A2988 RMK T02500190 IEM_DS3505
ZGSZ,2009-03-12 11:00,ZGSZ 121100Z AUTO 11008KT 6SM 24/19 A2991 RMK T02400190 IEM_DS3505
ZGSZ,2009-03-12 12:00,ZGSZ 121200Z AUTO 07006KT 6SM 21/17 A2991 RMK SLP140 T02100174 52014 IEM_DS3505
ZGSZ,2009-03-12 13:00,ZGSZ 121300Z AUTO 11004KT 4SM 23/19 A2994 RMK T02300190 IEM_DS3505
ZGSZ,2009-03-12 14:00,ZGSZ 121400Z AUTO 10008KT 4SM 23/19 A2994 RMK T02300190 IEM_DS3505
ZGSZ,2009-03-12 15:00,ZGSZ 121500Z AUTO 04004KT 4SM 21/18 A2997 RMK SLP154 T02080178 52014 IEM_DS3505
ZGSZ,2009-03-12 16:00,ZGSZ 121600Z AUTO 11006KT 3SM 22/19 A2997 RMK T02200190 IEM_DS3505
ZGSZ,2009-03-12 17:00,ZGSZ 121700Z AUTO 11004KT 3SM 23/19 A2997 RMK T02300190 IEM_DS3505
ZGSZ,2009-03-12 18:00,ZGSZ 121800Z AUTO 09004KT 3SM 21/18 A2994 RMK SLP147 T02060184 57007 IEM_DS3505
ZGSZ,2009-03-12 19:00,ZGSZ 121900Z AUTO 3SM 22/20 A2994 RMK T02200200 IEM_DS3505
ZGSZ,2009-03-12 20:00,ZGSZ 122000Z AUTO 12004KT 3SM 22/20 A2991 RMK T02200200 IEM_DS3505
ZGSZ,2009-03-12 21:00,ZGSZ 122100Z AUTO 04004KT 2 1/2SM 21/19 A2991 RMK SLP139 T02070190 57008 IEM_DS3505
ZGSZ,2009-03-12 22:00,ZGSZ 122200Z AUTO 13006KT 3SM 22/20 A2994 RMK T02200200 IEM_DS3505
ZGSZ,2009-03-12 23:00,ZGSZ 122300Z AUTO 12006KT 2 1/2SM 22/20 A2994 RMK T02200200 IEM_DS3505
ZGSZ,2009-03-13 00:00,ZGSZ 130000Z AUTO 11002KT 3SM 21/19 A2997 RMK SLP151 T02110192 52012 IEM_DS3505
ZGSZ,2009-03-13 01:00,ZGSZ 130100Z AUTO 29004KT 2SM 22/20 A2997 RMK T02200200 IEM_DS3505
ZGSZ,2009-03-13 02:00,ZGSZ 130200Z AUTO 28004KT 2 1/2SM 23/20 A2997 RMK T02300200 IEM_DS3505
ZGSZ,2009-03-13 03:00,ZGSZ 130300Z AUTO 14002KT 5SM 25/19 A2997 RMK SLP155 T02500194 52004 IEM_DS3505
ZGSZ,2009-03-13 04:00,ZGSZ 130400Z AUTO 31008KT 3SM 24/20 A2997 RMK T02400200 IEM_DS3505
ZGSZ,2009-03-13 05:00,ZGSZ 130500Z AUTO 31008KT 3SM 24/20 A2997 RMK T02400200 IEM_DS3505
ZGSZ,2009-03-13 06:00,ZGSZ 130600Z AUTO 32006KT 6SM 25/20 A2994 RMK SLP147 T02510195 57008 IEM_DS3505
ZGSZ,2009-03-13 07:00,ZGSZ 130700Z AUTO 32023KT 4SM 21/16 A2997 RMK T02100160 IEM_DS3505
ZGSZ,2009-03-13 08:00,ZGSZ 130800Z AUTO 33019KT 5SM 16/14 A3003 RMK T01600140 IEM_DS3505
ZGSZ,2009-03-13 09:00,ZGSZ 130900Z AUTO 29006G25KT 6SM 17/13 A3006 RMK SLP179 T01710126 52031 IEM_DS3505
ZGSZ,2009-03-13 10:00,ZGSZ 131000Z AUTO 35016KT 7SM 14/11 A3015 RMK T01400110 IEM_DS3505
ZGSZ,2009-03-13 11:00,ZGSZ 131100Z AUTO 36019G29KT 7SM 14/10 A3018 RMK T01400100 IEM_DS3505
ZGSZ,2009-03-13 12:00,ZGSZ 131200Z AUTO 36016KT 16SM 13/09 A3021 RMK 60000 SLP227 T01330092 52047 IEM_DS3505
ZGSZ,2009-03-13 13:00,ZGSZ 131300Z AUTO 01017G27KT 7SM 13/09 A3024 RMK T01300090 IEM_DS3505
ZGSZ,2009-03-13 14:00,ZGSZ 131400Z AUTO 01016G27KT 7SM 13/09 A3024 RMK T01300090 IEM_DS3505
ZGSZ,2009-03-13 15:00,ZGSZ 131500Z AUTO 36010KT 16SM 12/08 A3024 RMK SLP233 T01250080 52007 IEM_DS3505
ZGSZ,2009-03-13 16:00,ZGSZ 131600Z AUTO 01017KT 7SM 13/07 A3024 RMK T01300070 IEM_DS3505
ZGSZ,2009-03-13 17:00,ZGSZ 131700Z AUTO 01016G27KT 7SM 13/07 A3021 RMK T01300070 IEM_DS3505
ZGSZ,2009-03-13 18:00,ZGSZ 131800Z AUTO 02008G25KT 14SM 12/07 A3018 RMK 60000 SLP222 T01200067 57011 IEM_DS3505
ZGSZ,2009-03-13 19:00,ZGSZ 131900Z AUTO 01016KT 6SM 13/06 A3018 RMK T01300060 IEM_DS3505
ZGSZ,2009-03-13 20:00,ZGSZ 132000Z AUTO 02012G21KT 6SM 13/05 A3018 RMK T01300050 IEM_DS3505
ZGSZ,2009-03-13 21:00,ZGSZ 132100Z AUTO 36010KT 14SM 11/05 A3021 RMK 70000 SLP225 T01130047 52002 IEM_DS3505
ZGSZ,2009-03-13 22:00,ZGSZ 132200Z AUTO 02017KT 6SM 12/05 A3021 RMK T01200050 IEM_DS3505
ZGSZ,2009-03-13 23:00,ZGSZ 132300Z AUTO 03012KT 6SM 11/05 A3024 RMK T01100050 IEM_DS3505
ZGSZ,2009-03-14 00:00,ZGSZ 140000Z AUTO 36006G23KT 16SM 11/04 A3027 RMK 70000 SLP250 T01140037 52024 IEM_DS3505
ZGSZ,2009-03-14 01:00,ZGSZ 140100Z AUTO 03014G23KT 6SM 13/03 A3027 RMK T01300030 IEM_DS3505
ZGSZ,2009-03-14 02:00,ZGSZ 140200Z AUTO 01014KT 6SM 15/03 A3027 RMK T01500030 IEM_DS3505
ZGSZ,2009-03-14 03:00,ZGSZ 140300Z AUTO 02010KT 12SM 15/M01 A3027 RMK SLP248 T01541012 57002 IEM_DS3505
ZGSZ,2009-03-14 04:00,ZGSZ 140400Z AUTO 03012KT 6SM 17/01 A3024 RMK T01700010 IEM_DS3505
ZGSZ,2009-03-14 05:00,ZGSZ 140500Z AUTO 03010G19KT 6SM 19/00 A3021 RMK T01900000 IEM_DS3505
ZGSZ,2009-03-14 06:00,ZGSZ 140600Z AUTO 14006KT 11SM 19/01 A3018 RMK SLP218 T01900006 57029 IEM_DS3505
ZGSZ,2009-03-14 07:00,ZGSZ 140700Z AUTO 35008KT 6SM 21/02 A3015 RMK T02100020 IEM_DS3505
ZGSZ,2009-03-14 08:00,ZGSZ 140800Z AUTO 01008KT 6SM 21/00 A3012 RMK T02100000 IEM_DS3505
ZGSZ,2009-03-14 09:00,ZGSZ 140900Z AUTO 32004KT 9SM 20/01 A3012 RMK SLP201 T01990009 57017 IEM_DS3505
ZGSZ,2009-03-14 10:00,ZGSZ 141000Z AUTO 04006KT 6SM 20/00 A3012 RMK T02000000 IEM_DS3505
ZGSZ,2009-03-14 11:00,ZGSZ 141100Z AUTO 04006KT 6SM 19/01 A3012 RMK T01900010 IEM_DS3505
ZGSZ,2009-03-14 12:00,ZGSZ 141200Z AUTO 18006KT 9SM 16/07 A3012 RMK SLP212 T01610068 52011 IEM_DS3505
ZGSZ,2009-03-14 13:00,ZGSZ 141300Z AUTO 07004KT 6SM 17/01 A3015 RMK T01700010 IEM_DS3505
ZGSZ,2009-03-14 14:00,ZGSZ 141400Z AUTO 11004KT 6SM 16/05 A3018 RMK T01600050 IEM_DS3505
ZGSZ,2009-03-14 15:00,ZGSZ 141500Z AUTO 09004KT 9SM 15/07 A3018 RMK SLP222 T01490070 52010 IEM_DS3505
ZGSZ,2009-03-14 16:00,ZGSZ 141600Z AUTO 11004KT 6SM 16/08 A3018 RMK T01600080 IEM_DS3505
ZGSZ,2009-03-14 17:00,ZGSZ 141700Z AUTO 08002KT 6SM 14/08 A3015 RMK T01400080 IEM_DS3505
ZGSZ,2009-03-14 18:00,ZGSZ 141800Z AUTO 09002KT 9SM 14/08 A3015 RMK SLP213 T01410083 57009 IEM_DS3505
ZGSZ,2009-03-14 19:00,ZGSZ 141900Z AUTO 13002KT 6SM 13/09 A3015 RMK T01300090 IEM_DS3505
ZGSZ,2009-03-14 20:00,ZGSZ 142000Z AUTO 00000KT 4SM 13/09 A3012 RMK T01300090 IEM_DS3505
ZGSZ,2009-03-14 21:00,ZGSZ 142100Z AUTO 07004KT 9SM 14/10 A3015 RMK SLP210 T01360098 57003 IEM_DS3505
ZGSZ,2009-03-14 22:00,ZGSZ 142200Z AUTO 00000KT 4SM 12/09 A3015 RMK T01200090 IEM_DS3505
ZGSZ,2009-03-14 23:00,ZGSZ 142300Z AUTO 00000KT 4SM 12/09 A3015 RMK T01200090 IEM_DS3505
ZGSZ,2009-03-15 00:00,ZGSZ 150000Z AUTO 09004KT 6SM 15/10 A3015 RMK SLP219 T01480104 52009 IEM_DS3505
ZGSZ,2009-03-15 01:00,ZGSZ 150100Z AUTO 03004KT 5SM 17/10 A3018 RMK T01700100 IEM_DS3505
ZGSZ,2009-03-15 02:00,ZGSZ 150200Z AUTO 6SM 20/10 A3018 RMK T02000100 IEM_DS3505
ZGSZ,2009-03-15 03:00,ZGSZ 150300Z AUTO 14006KT 8SM 20/08 A3015 RMK SLP215 T02010075 57003 IEM_DS3505
ZGSZ,2009-03-15 04:00,ZGSZ 150400Z AUTO 34006KT 6SM 22/09 A3012 RMK T02200090 IEM_DS3505
ZGSZ,2009-03-15 05:00,ZGSZ 150500Z AUTO 30010KT 6SM 21/09 A3009 RMK T02100090 IEM_DS3505
ZGSZ,2009-03-15 06:00,ZGSZ 150600Z AUTO 22006KT 7SM 22/09 A3006 RMK SLP182 T02190088 57033 IEM_DS3505
ZGSZ,2009-03-15 07:00,ZGSZ 150700Z AUTO 26008KT 6SM 21/10 A3003 RMK T02100100 IEM_DS3505
ZGSZ,2009-03-15 08:00,ZGSZ 150800Z AUTO 27004KT 6SM 22/07 A3000 RMK T02200070 IEM_DS3505
ZGSZ,2009-03-15 09:00,ZGSZ 150900Z AUTO 20006KT 7SM 22/10 A3000 RMK SLP160 T02180097 57022 IEM_DS3505
ZGSZ,2009-03-15 10:00,ZGSZ 151000Z AUTO 20004KT 6SM 21/10 A3000 RMK T02100100 IEM_DS3505
ZGSZ,2009-03-15 11:00,ZGSZ 151100Z AUTO 18006KT 6SM 20/12 A3000 RMK T02000120 IEM_DS3505
ZGSZ,2009-03-15 12:00,ZGSZ 151200Z AUTO 09004KT 8SM 18/09 A3003 RMK SLP172 T01850090 52012 IEM_DS3505
ZGSZ,2009-03-15 13:00,ZGSZ 151300Z AUTO 17004KT 6SM 18/13 A3003 RMK T01800130 IEM_DS3505
ZGSZ,2009-03-15 14:00,ZGSZ 151400Z AUTO 13006KT 6SM 18/11 A3006 RMK T01800110 IEM_DS3505
ZGSZ,2009-03-15 15:00,ZGSZ 151500Z AUTO 04004KT 10SM 17/10 A3006 RMK SLP186 T01730097 52014 IEM_DS3505
ZGSZ,2009-03-15 16:00,ZGSZ 151600Z AUTO 13004KT 6SM 17/10 A3006 RMK T01700100 IEM_DS3505
ZGSZ,2009-03-15 17:00,ZGSZ 151700Z AUTO 12006KT 6SM 17/11 A3006 RMK T01700110 IEM_DS3505
ZGSZ,2009-03-15 18:00,ZGSZ 151800Z AUTO 07002KT 10SM 17/12 A3003 RMK SLP176 T01690116 57010 IEM_DS3505
ZGSZ,2009-03-15 19:00,ZGSZ 151900Z AUTO 00000KT 6SM 16/12 A3003 RMK T01600120 IEM_DS3505
ZGSZ,2009-03-15 20:00,ZGSZ 152000Z AUTO 01002KT 6SM 16/13 A3000 RMK T01600130 IEM_DS3505
ZGSZ,2009-03-15 21:00,ZGSZ 152100Z AUTO 09002KT 10SM 16/12 A3003 RMK SLP173 T01640124 57003 IEM_DS3505
ZGSZ,2009-03-15 22:00,ZGSZ 152200Z AUTO 02006KT 6SM 16/12 A3006 RMK T01600120 IEM_DS3505
ZGSZ,2009-03-15 23:00,ZGSZ 152300Z AUTO 03004KT 7SM 16/12 A3006 RMK T01600120 IEM_DS3505
ZGSZ,2009-03-16 00:00,ZGSZ 160000Z AUTO 04002KT 7SM 18/13 A3009 RMK SLP189 T01750130 52016 IEM_DS3505
ZGSZ,2009-03-16 01:00,ZGSZ 160100Z AUTO 01004KT 6SM 21/14 A3009 RMK T02100140 IEM_DS3505
ZGSZ,2009-03-16 02:00,ZGSZ 160200Z AUTO 22006KT 4SM 21/14 A3009 RMK T02100140 IEM_DS3505
ZGSZ,2009-03-16 03:00,ZGSZ 160300Z AUTO 02002KT 7SM 24/14 A3006 RMK SLP186 T02350145 57002 IEM_DS3505
ZGSZ,2009-03-16 04:00,ZGSZ 160400Z AUTO 26006KT 2 1/2SM 23/15 A3006 RMK T02300150 IEM_DS3505
ZGSZ,2009-03-16 05:00,ZGSZ 160500Z AUTO 25006KT 4SM 24/16 A3003 RMK T02400160 IEM_DS3505
ZGSZ,2009-03-16 06:00,ZGSZ 160600Z AUTO 20008KT 7SM 24/14 A2997 RMK SLP157 T02440145 57029 IEM_DS3505
ZGSZ,2009-03-16 07:00,ZGSZ 160700Z AUTO 20006KT 4SM 24/17 A2994 RMK T02400170 IEM_DS3505
ZGSZ,2009-03-16 08:00,ZGSZ 160800Z AUTO 21008KT 4SM 23/18 A2994 RMK T02300180 IEM_DS3505
ZGSZ,2009-03-16 09:00,ZGSZ 160900Z AUTO 22006KT 9SM 23/14 A2994 RMK SLP140 T02330138 57017 IEM_DS3505
ZGSZ,2009-03-16 10:00,ZGSZ 161000Z AUTO 20006KT 6SM 22/17 A2994 RMK T02200170 IEM_DS3505
ZGSZ,2009-03-16 11:00,ZGSZ 161100Z AUTO 19006KT 6SM 21/18 A2994 RMK T02100180 IEM_DS3505
ZGSZ,2009-03-16 12:00,ZGSZ 161200Z AUTO 22002KT 7SM 21/15 A2997 RMK SLP148 T02100149 52008 IEM_DS3505
ZGSZ,2009-03-16 13:00,ZGSZ 161300Z AUTO 18006KT 5SM 20/17 A2997 RMK T02000170 IEM_DS3505
ZGSZ,2009-03-16 14:00,ZGSZ 161400Z AUTO 15004KT 5SM 19/17 A3000 RMK T01900170 IEM_DS3505
ZGSZ,2009-03-16 15:00,ZGSZ 161500Z AUTO 16002KT 6SM 19/16 A3000 RMK SLP159 T01930158 52011 IEM_DS3505
ZGSZ,2009-03-16 16:00,ZGSZ 161600Z AUTO 15004KT 2 1/2SM 18/17 A2997 RMK T01800170 IEM_DS3505
ZGSZ,2009-03-16 17:00,ZGSZ 161700Z AUTO 2SM 19/17 A2997 RMK T01900170 IEM_DS3505
ZGSZ,2009-03-16 18:00,ZGSZ 161800Z AUTO 11002KT 6SM 19/16 A2994 RMK SLP147 T01860157 57012 IEM_DS3505
ZGSZ,2009-03-16 19:00,ZGSZ 161900Z AUTO 16004KT 2SM 18/17 A2994 RMK T01800170 IEM_DS3505
ZGSZ,2009-03-16 20:00,ZGSZ 162000Z AUTO 18002KT 1 1/4SM 18/17 A2994 RMK T01800170 IEM_DS3505
ZGSZ,2009-03-16 21:00,ZGSZ 162100Z AUTO 02002KT 5SM 18/15 A2994 RMK SLP145 T01780152 57002 IEM_DS3505
ZGSZ,2009-03-16 22:00,ZGSZ 162200Z AUTO 11002KT 1 1/4SM 18/16 A2994 RMK T01800160 IEM_DS3505
ZGSZ,2009-03-16 23:00,ZGSZ 162300Z AUTO 12002KT 1 1/4SM 19/17 A2997 RMK T01900170 IEM_DS3505
ZGSZ,2009-03-17 00:00,ZGSZ 170000Z AUTO 04004KT 4SM 19/15 A2997 RMK SLP156 T01890154 52011 IEM_DS3505
ZGSZ,2009-03-17 01:00,ZGSZ 170100Z AUTO 3SM 21/17 A3000 RMK T02100170 IEM_DS3505
ZGSZ,2009-03-17 02:00,ZGSZ 170200Z AUTO 24004KT 3SM 22/17 A2997 RMK T02200170 IEM_DS3505
ZGSZ,2009-03-17 03:00,ZGSZ 170300Z AUTO 20004KT 6SM 25/15 A2997 RMK SLP152 T02460147 57004 IEM_DS3505
ZGSZ,2009-03-17 04:00,ZGSZ 170400Z AUTO 22004KT 4SM 25/18 A2994 RMK T02500180 IEM_DS3505
ZGSZ,2009-03-17 05:00,ZGSZ 170500Z AUTO 20008KT 6SM 25/17 A2991 RMK T02500170 IEM_DS3505
ZGSZ,2009-03-17 06:00,ZGSZ 170600Z AUTO 22008KT 11SM 26/14 A2988 RMK SLP119 T02620143 57032 IEM_DS3505
ZGSZ,2009-03-17 07:00,ZGSZ 170700Z AUTO 20012KT 5SM 24/17 A2985 RMK T02400170 IEM_DS3505
ZGSZ,2009-03-17 08:00,ZGSZ 170800Z AUTO 20012KT 6SM 24/17 A2983 RMK T02400170 IEM_DS3505
ZGSZ,2009-03-17 09:00,ZGSZ 170900Z AUTO 18002KT 12SM 25/14 A2983 RMK SLP109 T02490144 57011 IEM_DS3505
ZGSZ,2009-03-17 10:00,ZGSZ 171000Z AUTO 19010KT 6SM 23/18 A2985 RMK T02300180 IEM_DS3505
ZGSZ,2009-03-17 11:00,ZGSZ 171100Z AUTO 19008KT 6SM 22/18 A2985 RMK T02200180 IEM_DS3505
ZGSZ,2009-03-17 12:00,ZGSZ 171200Z AUTO 16004KT 12SM 22/16 A2988 RMK SLP125 T02150156 52016 IEM_DS3505
ZGSZ,2009-03-17 13:00,ZGSZ 171300Z AUTO 17004KT 6SM 22/16 A2988 RMK T02200160 IEM_DS3505
ZGSZ,2009-03-17 14:00,ZGSZ 171400Z AUTO 20004KT 4SM 21/18 A2991 RMK T02100180 IEM_DS3505
ZGSZ,2009-03-17 15:00,ZGSZ 171500Z AUTO 07002KT 9SM 20/17 A2991 RMK SLP134 T02050169 52009 IEM_DS3505
ZGSZ,2009-03-17 16:00,ZGSZ 171600Z AUTO 21004KT 1 1/2SM 20/19 A2991 RMK T02000190 IEM_DS3505
ZGSZ,2009-03-17 17:00,ZGSZ 171700Z AUTO 00000KT 1SM 20/19 A2991 RMK T02000190 IEM_DS3505
ZGSZ,2009-03-17 18:00,ZGSZ 171800Z AUTO 36002KT 7SM 20/17 A2988 RMK SLP127 T01990173 57006 IEM_DS3505
ZGSZ,2009-03-17 19:00,ZGSZ 171900Z AUTO 00000KT 2SM 19/18 A2988 RMK T01900180 IEM_DS3505
ZGSZ,2009-03-17 20:00,ZGSZ 172000Z AUTO 00000KT 2 1/2SM 19/18 A2985 RMK T01900180 IEM_DS3505
ZGSZ,2009-03-17 21:00,ZGSZ 172100Z AUTO 07004KT 4SM 19/17 A2985 RMK SLP113 T01940172 57014 IEM_DS3505
ZGSZ,2009-03-17 22:00,ZGSZ 172200Z AUTO 00000KT 4SM 19/18 A2988 RMK T01900180 IEM_DS3505
ZGSZ,2009-03-17 23:00,ZGSZ 172300Z AUTO 13004KT 4SM 20/19 A2991 RMK T02000190 IEM_DS3505
ZGSZ,2009-03-18 00:00,ZGSZ 180000Z AUTO 07002KT 4SM 20/17 A2991 RMK SLP138 T02040174 52024 IEM_DS3505
ZGSZ,2009-03-18 01:00,ZGSZ 180100Z AUTO 15004KT 5SM 24/19 A2994 RMK T02400190 IEM_DS3505
ZGSZ,2009-03-18 02:00,ZGSZ 180200Z AUTO 17006KT 7SM 25/19 A2994 RMK T02500190 IEM_DS3505
ZGSZ,2009-03-18 03:00,ZGSZ 180300Z AUTO 18006KT 7SM 25/18 A2991 RMK SLP136 T02520179 57001 IEM_DS3505
ZGSZ,2009-03-18 04:00,ZGSZ 180400Z AUTO 19008KT 7SM 26/19 A2991 RMK T02600190 IEM_DS3505
ZGSZ,2009-03-18 05:00,ZGSZ 180500Z AUTO 17008KT 7SM 26/19 A2988 RMK T02600190 IEM_DS3505
ZGSZ,2009-03-18 06:00,ZGSZ 180600Z AUTO 22008KT 14SM 26/18 A2985 RMK SLP114 T02590181 57022 IEM_DS3505
ZGSZ,2009-03-18 07:00,ZGSZ 180700Z AUTO 17012KT 6SM 26/19 A2983 RMK T02600190 IEM_DS3505
ZGSZ,2009-03-18 08:00,ZGSZ 180800Z AUTO 17012KT 6SM 26/19 A2983 RMK T02600190 IEM_DS3505
ZGSZ,2009-03-18 09:00,ZGSZ 180900Z AUTO 22006KT 16SM 26/18 A2983 RMK SLP106 T02550177 57008 IEM_DS3505
ZGSZ,2009-03-18 10:00,ZGSZ 181000Z AUTO 16010KT 7SM 24/20 A2983 RMK T02400200 IEM_DS3505
ZGSZ,2009-03-18 11:00,ZGSZ 181100Z AUTO 16008KT 7SM 23/19 A2983 RMK T02300190 IEM_DS3505
ZGSZ,2009-03-18 12:00,ZGSZ 181200Z AUTO 18004KT 12SM 22/19 A2985 RMK SLP114 T02230189 52007 IEM_DS3505
ZGSZ,2009-03-18 13:00,ZGSZ 181300Z AUTO 15006KT 7SM 23/19 A2985 RMK T02300190 IEM_DS3505
ZGSZ,2009-03-18 14:00,ZGSZ 181400Z AUTO 16004KT 6SM 22/19 A2988 RMK T02200190 IEM_DS3505
ZGSZ,2009-03-18 15:00,ZGSZ 181500Z AUTO 18004KT 12SM 22/19 A2988 RMK SLP121 T02160188 52008 IEM_DS3505
ZGSZ,2009-03-18 16:00,ZGSZ 181600Z AUTO 17004KT 6SM 22/19 A2988 RMK T02200190 IEM_DS3505
ZGSZ,2009-03-18 17:00,ZGSZ 181700Z AUTO 18002KT 4SM 21/19 A2985 RMK T02100190 IEM_DS3505
ZGSZ,2009-03-18 18:00,ZGSZ 181800Z AUTO 04002KT 9SM 21/19 A2985 RMK SLP111 T02080186 57010 IEM_DS3505
ZGSZ,2009-03-18 19:00,ZGSZ 181900Z AUTO 19004KT 1SM 21/20 A2983 RMK T02100200 IEM_DS3505
ZGSZ,2009-03-18 20:00,ZGSZ 182000Z AUTO 19004KT 1 1/4SM 21/20 A2983 RMK T02100200 IEM_DS3505
ZGSZ,2009-03-18 21:00,ZGSZ 182100Z AUTO 04002KT 6SM 20/18 A2983 RMK SLP106 T02030182 57005 IEM_DS3505
ZGSZ,2009-03-18 22:00,ZGSZ 182200Z AUTO 19006KT 2SM 21/20 A2985 RMK T02100200 IEM_DS3505
ZGSZ,2009-03-18 23:00,ZGSZ 182300Z AUTO 17004KT 2SM 21/20 A2988 RMK T02100200 IEM_DS3505
ZGSZ,2009-03-19 00:00,ZGSZ 190000Z AUTO 20002KT 2 1/2SM 21/19 A2991 RMK SLP134 T02060191 52027 IEM_DS3505
ZGSZ,2009-03-19 01:00,ZGSZ 190100Z AUTO 15006KT 2 1/2SM 22/20 A2994 RMK T02200200 IEM_DS3505
ZGSZ,2009-03-19 02:00,ZGSZ 190200Z AUTO 14006KT 4SM 24/20 A2994 RMK T02400200 IEM_DS3505
ZGSZ,2009-03-19 03:00,ZGSZ 190300Z AUTO 25004KT 3SM 23/20 A2991 RMK SLP140 T02280201 52006 IEM_DS3505
ZGSZ,2009-03-19 04:00,ZGSZ 190400Z AUTO 19006KT 7SM 24/20 A2991 RMK T02400200 IEM_DS3505
ZGSZ,2009-03-19 05:00,ZGSZ 190500Z AUTO 17006KT 7SM 25/21 A2988 RMK T02500210 IEM_DS3505
ZGSZ,2009-03-19 06:00,ZGSZ 190600Z AUTO 20008KT 9SM 25/20 A2985 RMK SLP116 T02500203 57023 IEM_DS3505
ZGSZ,2009-03-19 07:00,ZGSZ 190700Z AUTO 18006KT 7SM 24/21 A2985 RMK T02400210 IEM_DS3505
ZGSZ,2009-03-19 08:00,ZGSZ 190800Z AUTO 18006KT 7SM 25/21 A2985 RMK T02500210 IEM_DS3505
ZGSZ,2009-03-19 09:00,ZGSZ 190900Z AUTO 20004KT 8SM 25/20 A2985 RMK SLP109 T02520202 57007 IEM_DS3505
ZGSZ,2009-03-19 10:00,ZGSZ 191000Z AUTO 18006KT 7SM 24/21 A2985 RMK T02400210 IEM_DS3505
ZGSZ,2009-03-19 11:00,ZGSZ 191100Z AUTO 16004KT 7SM 24/21 A2985 RMK T02400210 IEM_DS3505
ZGSZ,2009-03-19 12:00,ZGSZ 191200Z AUTO 22004KT 7SM 23/20 A2988 RMK SLP122 T02290202 52012 IEM_DS3505
ZGSZ,2009-03-19 13:00,ZGSZ 191300Z AUTO 15006KT 5SM 22/21 A2988 RMK T02200210 IEM_DS3505
ZGSZ,2009-03-19 14:00,ZGSZ 191400Z AUTO 16004KT 4SM 23/21 A2988 RMK T02300210 IEM_DS3505
ZGSZ,2009-03-19 15:00,ZGSZ 191500Z AUTO 22002KT 4SM 22/21 A2991 RMK SLP130 T02220207 52008 IEM_DS3505
ZGSZ,2009-03-19 16:00,ZGSZ 191600Z AUTO 16004KT 2SM 22/21 A2988 RMK T02200210 IEM_DS3505
ZGSZ,2009-03-19 17:00,ZGSZ 191700Z AUTO 14006KT 1 1/2SM 22/21 A2988 RMK T02200210 IEM_DS3505
ZGSZ,2009-03-19 18:00,ZGSZ 191800Z AUTO 27002KT 3SM 22/20 A2988 RMK SLP120 T02160204 57009 IEM_DS3505
ZGSZ,2009-03-19 19:00,ZGSZ 191900Z AUTO 16004KT 3SM 23/21 A2985 RMK T02300210 IEM_DS3505
ZGSZ,2009-03-19 20:00,ZGSZ 192000Z AUTO 18004KT 2SM 22/21 A2985 RMK T02200210 IEM_DS3505
ZGSZ,2009-03-19 21:00,ZGSZ 192100Z AUTO 27002KT 2 1/2SM 22/20 A2988 RMK SLP118 T02200203 57002 IEM_DS3505
ZGSZ,2009-03-19 22:00,ZGSZ 192200Z AUTO 00000KT 2SM 22/21 A2988 RMK T02200210 IEM_DS3505
ZGSZ,2009-03-19 23:00,ZGSZ 192300Z AUTO 00000KT 2SM 22/21 A2988 RMK T02200210 IEM_DS3505
ZGSZ,2009-03-20 00:00,ZGSZ 200000Z AUTO 22002KT 1 1/2SM 22/20 A2991 RMK 60000 70000 SLP134 T02190204 52015 IEM_DS3505
ZGSZ,2009-03-20 01:00,ZGSZ 200100Z AUTO 29002KT 3/8SM 22/21 A2994 RMK T02200210 IEM_DS3505
ZGSZ,2009-03-20 03:00,ZGSZ 200300Z AUTO 25002KT 1 1/2SM 23/21 A2994 RMK SLP141 T02300207 52007 IEM_DS3505
ZGSZ,2009-03-20 04:00,ZGSZ 200400Z AUTO 21004KT 3SM 26/22 A2991 RMK T02600220 IEM_DS3505
ZGSZ,2009-03-20 05:00,ZGSZ 200500Z AUTO 22006KT 4SM 26/21 A2988 RMK T02600210 IEM_DS3505
ZGSZ,2009-03-20 06:00,ZGSZ 200600Z AUTO 18004KT 1 1/4SM 27/21 A2985 RMK 60000 SLP114 T02720208 57026 IEM_DS3505
ZGSZ,2009-03-20 07:00,ZGSZ 200700Z AUTO 20008KT 5SM 27/21 A2983 RMK T02700210 IEM_DS3505
ZGSZ,2009-03-20 08:00,ZGSZ 200800Z AUTO 20008KT 3SM 25/21 A2983 RMK T02500210 IEM_DS3505
ZGSZ,2009-03-20 09:00,ZGSZ 200900Z AUTO 22006KT 4SM 25/20 A2983 RMK SLP106 T02520202 57008 IEM_DS3505
ZGSZ,2009-03-20 10:00,ZGSZ 201000Z AUTO 16006KT 4SM 24/21 A2983 RMK T02400210 IEM_DS3505
ZGSZ,2009-03-20 11:00,ZGSZ 201100Z AUTO 17006KT 7SM 25/21 A2985 RMK T02500210 IEM_DS3505
ZGSZ,2009-03-20 12:00,ZGSZ 201200Z AUTO 20002KT 4SM 24/21 A2985 RMK SLP116 T02390206 52010 IEM_DS3505
ZGSZ,2009-03-20 13:00,ZGSZ 201300Z AUTO 16008KT 6SM 24/22 A2988 RMK T02400220 IEM_DS3505
ZGSZ,2009-03-20 14:00,ZGSZ 201400Z AUTO 15008KT 7SM 23/21 A2988 RMK T02300210 IEM_DS3505
ZGSZ,2009-03-20 15:00,ZGSZ 201500Z AUTO 22002KT 6SM 23/20 A2988 RMK SLP127 T02320205 52011 IEM_DS3505
ZGSZ,2009-03-20 16:00,ZGSZ 201600Z AUTO 15006KT 6SM 24/21 A2988 RMK T02400210 IEM_DS3505
ZGSZ,2009-03-20 17:00,ZGSZ 201700Z AUTO 12006KT 6SM 23/21 A2985 RMK T02300210 IEM_DS3505
ZGSZ,2009-03-20 18:00,ZGSZ 201800Z AUTO 09004KT 6SM 22/20 A2985 RMK SLP115 T02240203 57012 IEM_DS3505
ZGSZ,2009-03-20 19:00,ZGSZ 201900Z AUTO 13008KT 4SM 24/21 A2983 RMK T02400210 IEM_DS3505
ZGSZ,2009-03-20 20:00,ZGSZ 202000Z AUTO 12006KT 3SM 24/21 A2983 RMK T02400210 IEM_DS3505
ZGSZ,2009-03-20 21:00,ZGSZ 202100Z AUTO 09004KT 4SM 22/20 A2983 RMK 70000 SLP109 T02190196 57006 IEM_DS3505
ZGSZ,2009-03-20 22:00,ZGSZ 202200Z AUTO 12010KT 2 1/2SM 23/20 A2985 RMK T02300200 IEM_DS3505
ZGSZ,2009-03-20 23:00,ZGSZ 202300Z AUTO 12010KT 2 1/2SM 23/20 A2985 RMK T02300200 IEM_DS3505
ZGSZ,2009-03-21 00:00,ZGSZ 210000Z AUTO 07008KT 2 1/2SM 22/19 A2985 RMK 70000 SLP121 T02170193 52012 IEM_DS3505
ZGSZ,2009-03-21 01:00,ZGSZ 210100Z AUTO 13006KT 3SM 24/20 A2988 RMK T02400200 IEM_DS3505
ZGSZ,2009-03-21 02:00,ZGSZ 210200Z AUTO 13008KT 3SM 27/21 A2988 RMK T02700210 IEM_DS3505
ZGSZ,2009-03-21 03:00,ZGSZ 210300Z AUTO 11006KT 3SM 23/20 A2988 RMK SLP123 T02320198 52002 IEM_DS3505
ZGSZ,2009-03-21 04:00,ZGSZ 210400Z AUTO 13010KT 4SM 26/21 A2985 RMK T02600210 IEM_DS3505
ZGSZ,2009-03-21 05:00,ZGSZ 210500Z AUTO 14010KT 4SM 27/21 A2983 RMK T02700210 IEM_DS3505
ZGSZ,2009-03-21 06:00,ZGSZ 210600Z AUTO 11004KT 4SM 24/20 A2980 RMK SLP095 T02450204 57028 IEM_DS3505
ZGSZ,2009-03-21 07:00,ZGSZ 210700Z AUTO 17008KT 4SM 27/22 A2977 RMK T02700220 IEM_DS3505
ZGSZ,2009-03-21 08:00,ZGSZ 210800Z AUTO 16014KT 7SM 27/21 A2974 RMK T02700210 IEM_DS3505
ZGSZ,2009-03-21 09:00,ZGSZ 210900Z AUTO 22004KT 4SM 26/21 A2977 RMK SLP084 T02560206 57011 IEM_DS3505
ZGSZ,2009-03-21 10:00,ZGSZ 211000Z AUTO 16010KT 7SM 25/21 A2977 RMK T02500210 IEM_DS3505
ZGSZ,2009-03-21 11:00,ZGSZ 211100Z AUTO 15008KT 7SM 25/21 A2980 RMK T02500210 IEM_DS3505
ZGSZ,2009-03-21 12:00,ZGSZ 211200Z AUTO 18004KT 4SM 24/21 A2980 RMK SLP098 T02380211 52014 IEM_DS3505
ZGSZ,2009-03-21 13:00,ZGSZ 211300Z AUTO 15006KT 7SM 24/21 A2983 RMK T02400210 IEM_DS3505
ZGSZ,2009-03-21 14:00,ZGSZ 211400Z AUTO 15008KT 7SM 24/22 A2983 RMK T02400220 IEM_DS3505
ZGSZ,2009-03-21 15:00,ZGSZ 211500Z AUTO 15006KT 7SM 25/22 A2983 RMK T02500220 IEM_DS3505
ZGSZ,2009-03-21 16:00,ZGSZ 211600Z AUTO 15008KT 7SM 25/22 A2983 RMK T02500220 IEM_DS3505
ZGSZ,2009-03-21 17:00,ZGSZ 211700Z AUTO 15008KT 7SM 25/22 A2983 RMK T02500220 IEM_DS3505
ZGSZ,2009-03-21 18:00,ZGSZ 211800Z AUTO 18002KT 4SM 24/22 A2980 RMK SLP098 T02380217 57006 IEM_DS3505
ZGSZ,2009-03-21 19:00,ZGSZ 211900Z AUTO 14008KT 7SM 24/22 A2980 RMK T02400220 IEM_DS3505
ZGSZ,2009-03-21 20:00,ZGSZ 212000Z AUTO 15006KT 7SM 24/22 A2980 RMK T02400220 IEM_DS3505
ZGSZ,2009-03-21 21:00,ZGSZ 212100Z AUTO 11002KT 5SM 24/22 A2980 RMK 70000 SLP096 T02380219 57002 IEM_DS3505
ZGSZ,2009-03-21 22:00,ZGSZ 212200Z AUTO 15006KT 7SM 24/22 A2980 RMK T02400220 IEM_DS3505
ZGSZ,2009-03-21 23:00,ZGSZ 212300Z AUTO 15006KT 7SM 24/22 A2983 RMK T02400220 IEM_DS3505
ZGSZ,2009-03-22 00:00,ZGSZ 220000Z AUTO 22002KT 7SM 24/22 A2985 RMK 60000 70000 SLP112 T02450220 52016 IEM_DS3505
ZGSZ,2009-03-22 01:00,ZGSZ 220100Z AUTO 18010KT 7SM 26/23 A2985 RMK T02600230 IEM_DS3505
ZGSZ,2009-03-22 02:00,ZGSZ 220200Z AUTO 17010KT 7SM 26/23 A2985 RMK T02600230 IEM_DS3505
ZGSZ,2009-03-22 03:00,ZGSZ 220300Z AUTO 22006KT 11SM 27/22 A2985 RMK SLP117 T02700224 52005 IEM_DS3505
ZGSZ,2009-03-22 04:00,ZGSZ 220400Z AUTO 17008KT 7SM 27/23 A2985 RMK T02700230 IEM_DS3505
ZGSZ,2009-03-22 05:00,ZGSZ 220500Z AUTO 17010KT 7SM 27/23 A2983 RMK T02700230 IEM_DS3505
ZGSZ,2009-03-22 06:00,ZGSZ 220600Z AUTO 22006KT 16SM 27/22 A2983 RMK SLP100 T02680218 57017 IEM_DS3505
ZGSZ,2009-03-22 07:00,ZGSZ 220700Z AUTO 17010KT 7SM 27/23 A2980 RMK T02700230 IEM_DS3505
ZGSZ,2009-03-22 08:00,ZGSZ 220800Z AUTO 16010KT 7SM 27/23 A2977 RMK T02700230 IEM_DS3505
ZGSZ,2009-03-22 09:00,ZGSZ 220900Z AUTO 22004KT 14SM 26/22 A2977 RMK SLP090 T02610222 57010 IEM_DS3505
ZGSZ,2009-03-22 10:00,ZGSZ 221000Z AUTO 16010KT 6SM 26/23 A2980 RMK T02600230 IEM_DS3505
ZGSZ,2009-03-22 11:00,ZGSZ 221100Z AUTO 15010KT 6SM 25/23 A2980 RMK T02500230 IEM_DS3505
ZGSZ,2009-03-22 12:00,ZGSZ 221200Z AUTO 16004KT 12SM 25/22 A2980 RMK SLP100 T02480223 52010 IEM_DS3505
ZGSZ,2009-03-22 13:00,ZGSZ 221300Z AUTO 16008KT 7SM 25/23 A2983 RMK T02500230 IEM_DS3505
ZGSZ,2009-03-22 14:00,ZGSZ 221400Z AUTO 16006KT 7SM 25/23 A2983 RMK T02500230 IEM_DS3505
ZGSZ,2009-03-22 15:00,ZGSZ 221500Z AUTO 14002KT 7SM 24/22 A2985 RMK SLP113 T02420223 52013 IEM_DS3505
ZGSZ,2009-03-22 16:00,ZGSZ 221600Z AUTO 17004KT 7SM 25/23 A2985 RMK T02500230 IEM_DS3505
ZGSZ,2009-03-22 17:00,ZGSZ 221700Z AUTO 22002KT 7SM 24/22 A2985 RMK T02400220 IEM_DS3505
ZGSZ,2009-03-22 18:00,ZGSZ 221800Z AUTO 16002KT 6SM 24/22 A2983 RMK SLP110 T02420225 57003 IEM_DS3505
ZGSZ,2009-03-22 19:00,ZGSZ 221900Z AUTO 14006KT 4SM 24/23 A2983 RMK T02400230 IEM_DS3505
ZGSZ,2009-03-22 20:00,ZGSZ 222000Z AUTO 7SM 24/23 A2983 RMK T02400230 IEM_DS3505
ZGSZ,2009-03-22 21:00,ZGSZ 222100Z AUTO 09002KT 6SM 24/22 A2983 RMK SLP108 T02370221 57002 IEM_DS3505
ZGSZ,2009-03-22 22:00,ZGSZ 222200Z AUTO 15004KT 7SM 25/23 A2985 RMK T02500230 IEM_DS3505
ZGSZ,2009-03-22 23:00,ZGSZ 222300Z AUTO 15004KT 7SM 25/23 A2988 RMK T02500230 IEM_DS3505
ZGSZ,2009-03-23 00:00,ZGSZ 230000Z AUTO 07004KT 6SM 24/22 A2988 RMK SLP128 T02430220 52020 IEM_DS3505
ZGSZ,2009-03-23 01:00,ZGSZ 230100Z AUTO 14006KT 7SM 27/23 A2991 RMK T02700230 IEM_DS3505
ZGSZ,2009-03-23 02:00,ZGSZ 230200Z AUTO 16008KT 7SM 28/23 A2991 RMK T02800230 IEM_DS3505
ZGSZ,2009-03-23 03:00,ZGSZ 230300Z AUTO 16004KT 7SM 27/23 A2991 RMK SLP134 T02730227 52006 IEM_DS3505
ZGSZ,2009-03-23 04:00,ZGSZ 230400Z AUTO 17010KT 7SM 28/23 A2988 RMK T02800230 IEM_DS3505
ZGSZ,2009-03-23 05:00,ZGSZ 230500Z AUTO 16014KT 7SM 30/23 A2985 RMK T03000230 IEM_DS3505
ZGSZ,2009-03-23 06:00,ZGSZ 230600Z AUTO 11004KT 9SM 28/22 A2983 RMK SLP110 T02830225 57023 IEM_DS3505
ZGSZ,2009-03-23 07:00,ZGSZ 230700Z AUTO 17012KT 7SM 27/23 A2983 RMK T02700230 IEM_DS3505
ZGSZ,2009-03-23 08:00,ZGSZ 230800Z AUTO 16012KT 7SM 27/23 A2980 RMK T02700230 IEM_DS3505
ZGSZ,2009-03-23 09:00,ZGSZ 230900Z AUTO 09008KT 3SM 24/20 A2980 RMK SLP103 T02350196 57008 IEM_DS3505
ZGSZ,2009-03-23 10:00,ZGSZ 231000Z AUTO 13012KT 4SM 26/21 A2980 RMK T02600210 IEM_DS3505
ZGSZ,2009-03-23 11:00,ZGSZ 231100Z AUTO 12010KT 3SM 25/21 A2983 RMK T02500210 IEM_DS3505
ZGSZ,2009-03-23 12:00,ZGSZ 231200Z AUTO 11004KT 2 1/2SM 22/19 A2983 RMK SLP109 T02180194 52006 IEM_DS3505
ZGSZ,2009-03-23 13:00,ZGSZ 231300Z AUTO 12010KT 3SM 24/20 A2985 RMK T02400200 IEM_DS3505
ZGSZ,2009-03-23 14:00,ZGSZ 231400Z AUTO 12012KT 2 1/2SM 24/20 A2985 RMK T02400200 IEM_DS3505
ZGSZ,2009-03-23 15:00,ZGSZ 231500Z AUTO 04004KT 2SM 22/20 A2985 RMK SLP121 T02190198 52012 IEM_DS3505
ZGSZ,2009-03-23 16:00,ZGSZ 231600Z AUTO 13010KT 2 1/2SM 24/21 A2985 RMK T02400210 IEM_DS3505
ZGSZ,2009-03-23 17:00,ZGSZ 231700Z AUTO 13008KT 2 1/2SM 24/21 A2985 RMK T02400210 IEM_DS3505
ZGSZ,2009-03-23 18:00,ZGSZ 231800Z AUTO 07004KT 1SM 22/20 A2983 RMK SLP108 T02190200 57013 IEM_DS3505
ZGSZ,2009-03-23 19:00,ZGSZ 231900Z AUTO 12008KT 2 1/2SM 24/21 A2983 RMK T02400210 IEM_DS3505
ZGSZ,2009-03-23 20:00,ZGSZ 232000Z AUTO 15004KT 2SM 24/22 A2983 RMK T02400220 IEM_DS3505
ZGSZ,2009-03-23 21:00,ZGSZ 232100Z AUTO 07004KT 1 1/4SM 22/20 A2983 RMK 70000 SLP105 T02170198 57003 IEM_DS3505
ZGSZ,2009-03-23 22:00,ZGSZ 232200Z AUTO 07004KT 2SM 24/22 A2985 RMK T02400220 IEM_DS3505
ZGSZ,2009-03-23 23:00,ZGSZ 232300Z AUTO 08010G19KT 2 1/2SM 23/20 A2985 RMK T02300200 IEM_DS3505
ZGSZ,2009-03-24 00:00,ZGSZ 240000Z AUTO 04012KT 1 1/2SM 19/18 A2991 RMK 60059 70057 SLP131 T01940181 52025 IEM_DS3505
ZGSZ,2009-03-24 01:00,ZGSZ 240100Z AUTO 03008KT 7SM 20/17 A2994 RMK T02000170 IEM_DS3505
ZGSZ,2009-03-24 02:00,ZGSZ 240200Z AUTO 04006KT 7SM 21/17 A2997 RMK T02100170 IEM_DS3505
ZGSZ,2009-03-24 03:00,ZGSZ 240300Z AUTO 04006KT 12SM 21/16 A2994 RMK SLP148 T02060164 52017 IEM_DS3505
ZGSZ,2009-03-24 04:00,ZGSZ 240400Z AUTO 02006KT 7SM 22/17 A2994 RMK T02200170 IEM_DS3505
ZGSZ,2009-03-24 05:00,ZGSZ 240500Z AUTO 04004KT 7SM 23/16 A2991 RMK T02300160 IEM_DS3505
ZGSZ,2009-03-24 06:00,ZGSZ 240600Z AUTO 11004KT 7SM 21/17 A2991 RMK 60001 SLP132 T02090171 57016 IEM_DS3505
ZGSZ,2009-03-24 07:00,ZGSZ 240700Z AUTO 04006KT 7SM 23/16 A2988 RMK T02300160 IEM_DS3505
ZGSZ,2009-03-24 08:00,ZGSZ 240800Z AUTO 02006KT 7SM 22/16 A2988 RMK T02200160 IEM_DS3505
ZGSZ,2009-03-24 09:00,ZGSZ 240900Z AUTO 09004KT 5SM 21/18 A2988 RMK SLP121 T02070177 57011 IEM_DS3505
ZGSZ,2009-03-24 10:00,ZGSZ 241000Z AUTO 06004KT 7SM 22/17 A2988 RMK T02200170 IEM_DS3505
ZGSZ,2009-03-24 11:00,ZGSZ 241100Z AUTO 7SM 22/17 A2991 RMK T02200170 IEM_DS3505
ZGSZ,2009-03-24 12:00,ZGSZ 241200Z AUTO 04004KT 7SM 20/18 A2991 RMK 60003 SLP140 T01950175 52019 IEM_DS3505
ZGSZ,2009-03-24 13:00,ZGSZ 241300Z AUTO 08004KT 7SM 22/18 A2994 RMK T02200180 IEM_DS3505
ZGSZ,2009-03-24 14:00,ZGSZ 241400Z AUTO 08004KT 3SM 21/19 A2997 RMK T02100190 IEM_DS3505
ZGSZ,2009-03-24 15:00,ZGSZ 241500Z AUTO 07006KT 6SM 20/18 A2997 RMK SLP156 T01970175 52016 IEM_DS3505
ZGSZ,2009-03-24 16:00,ZGSZ 241600Z AUTO 03004KT 2 1/2SM 20/18 A2997 RMK T02000180 IEM_DS3505
ZGSZ,2009-03-24 17:00,ZGSZ 241700Z AUTO 03004KT 7SM 20/17 A2997 RMK T02000170 IEM_DS3505
ZGSZ,2009-03-24 18:00,ZGSZ 241800Z AUTO 07004KT 7SM 19/15 A2997 RMK 60004 SLP152 T01870154 57004 IEM_DS3505
ZGSZ,2009-03-24 19:00,ZGSZ 241900Z AUTO 7SM 20/16 A2994 RMK T02000160 IEM_DS3505
ZGSZ,2009-03-24 20:00,ZGSZ 242000Z AUTO 03004KT 4SM 19/16 A2997 RMK T01900160 IEM_DS3505
ZGSZ,2009-03-24 21:00,ZGSZ 242100Z AUTO 09006KT 5SM 17/15 A2994 RMK 70080 SLP152 T01680150 57001 IEM_DS3505
ZGSZ,2009-03-24 22:00,ZGSZ 242200Z AUTO 01004KT 4SM 17/16 A2997 RMK T01700160 IEM_DS3505
ZGSZ,2009-03-24 23:00,ZGSZ 242300Z AUTO 04006KT 7SM 18/15 A3000 RMK T01800150 IEM_DS3505
ZGSZ,2009-03-25 00:00,ZGSZ 250000Z AUTO 07006KT 6SM 17/14 A3003 RMK 60043 70049 SLP170 T01690144 52018 IEM_DS3505
ZGSZ,2009-03-25 01:00,ZGSZ 250100Z AUTO 01006KT 7SM 19/15 A3006 RMK T01900150 IEM_DS3505
ZGSZ,2009-03-25 02:00,ZGSZ 250200Z AUTO 05004KT 7SM 19/15 A3006 RMK T01900150 IEM_DS3505
ZGSZ,2009-03-25 03:00,ZGSZ 250300Z AUTO 36006KT 6SM 19/15 A3009 RMK SLP189 T01880147 52019 IEM_DS3505
ZGSZ,2009-03-25 04:00,ZGSZ 250400Z AUTO 01010KT 5SM 19/14 A3009 RMK T01900140 IEM_DS3505
ZGSZ,2009-03-25 05:00,ZGSZ 250500Z AUTO 02006KT 6SM 17/13 A3006 RMK T01700130 IEM_DS3505
ZGSZ,2009-03-25 06:00,ZGSZ 250600Z AUTO 02002KT 5SM 17/15 A3003 RMK 60016 SLP173 T01690151 57016 IEM_DS3505
ZGSZ,2009-03-25 07:00,ZGSZ 250700Z AUTO 04006KT 7SM 18/13 A3000 RMK T01800130 IEM_DS3505
ZGSZ,2009-03-25 08:00,ZGSZ 250800Z AUTO 06004KT 7SM 18/13 A2997 RMK T01800130 IEM_DS3505
ZGSZ,2009-03-25 09:00,ZGSZ 250900Z AUTO 07004KT 6SM 18/15 A3000 RMK SLP158 T01750150 57015 IEM_DS3505
ZGSZ,2009-03-25 10:00,ZGSZ 251000Z AUTO 02006KT 4SM 18/14 A3000 RMK T01800140 IEM_DS3505
ZGSZ,2009-03-25 11:00,ZGSZ 251100Z AUTO 03006KT 4SM 18/14 A3000 RMK T01800140 IEM_DS3505
ZGSZ,2009-03-25 12:00,ZGSZ 251200Z AUTO 02002KT 2 1/2SM 18/15 A3003 RMK 60004 SLP169 T01760149 52011 IEM_DS3505
ZGSZ,2009-03-25 13:00,ZGSZ 251300Z AUTO 4SM 18/14 A3003 RMK T01800140 IEM_DS3505
ZGSZ,2009-03-25 14:00,ZGSZ 251400Z AUTO 4SM 18/15 A3006 RMK T01800150 IEM_DS3505
ZGSZ,2009-03-25 15:00,ZGSZ 251500Z AUTO 07004KT 3SM 18/15 A3006 RMK SLP184 T01810146 52015 IEM_DS3505
ZGSZ,2009-03-25 16:00,ZGSZ 251600Z AUTO 06004KT 4SM 18/15 A3003 RMK T01800150 IEM_DS3505
ZGSZ,2009-03-25 17:00,ZGSZ 251700Z AUTO 05004KT 4SM 18/15 A3000 RMK T01800150 IEM_DS3505
ZGSZ,2009-03-25 18:00,ZGSZ 251800Z AUTO 02004KT 3SM 17/14 A2997 RMK SLP157 T01730140 57027 IEM_DS3505
ZGSZ,2009-03-25 19:00,ZGSZ 251900Z AUTO 05006KT 4SM 18/14 A2997 RMK T01800140 IEM_DS3505
ZGSZ,2009-03-25 20:00,ZGSZ 252000Z AUTO 06006KT 4SM 18/14 A2994 RMK T01800140 IEM_DS3505
ZGSZ,2009-03-25 21:00,ZGSZ 252100Z AUTO 04002KT 4SM 17/14 A2994 RMK 70047 SLP148 T01720135 57009 IEM_DS3505
ZGSZ,2009-03-25 22:00,ZGSZ 252200Z AUTO 05004KT 7SM 18/13 A2997 RMK T01800130 IEM_DS3505
ZGSZ,2009-03-25 23:00,ZGSZ 252300Z AUTO 09004KT 7SM 19/13 A3000 RMK T01900130 IEM_DS3505
ZGSZ,2009-03-26 00:00,ZGSZ 260000Z AUTO 09006KT 6SM 18/11 A3003 RMK 70020 SLP172 T01820108 52024 IEM_DS3505
ZGSZ,2009-03-26 01:00,ZGSZ 260100Z AUTO 08008KT 7SM 19/12 A3003 RMK T01900120 IEM_DS3505
ZGSZ,2009-03-26 02:00,ZGSZ 260200Z AUTO 05004KT 4SM 19/14 A3006 RMK T01900140 IEM_DS3505
ZGSZ,2009-03-26 03:00,ZGSZ 260300Z AUTO 07006KT 5SM 18/13 A3006 RMK SLP179 T01760131 52007 IEM_DS3505
ZGSZ,2009-03-26 04:00,ZGSZ 260400Z AUTO 10006KT 4SM 19/14 A3003 RMK T01900140 IEM_DS3505
ZGSZ,2009-03-26 05:00,ZGSZ 260500Z AUTO 01004KT 4SM 19/14 A3003 RMK T01900140 IEM_DS3505
ZGSZ,2009-03-26 06:00,ZGSZ 260600Z AUTO 07008KT 4SM 18/14 A2997 RMK 60000 SLP158 T01820141 57021 IEM_DS3505
ZGSZ,2009-03-26 07:00,ZGSZ 260700Z AUTO 3SM 20/15 A2994 RMK T02000150 IEM_DS3505
ZGSZ,2009-03-26 08:00,ZGSZ 260800Z AUTO 3SM 20/15 A2994 RMK T02000150 IEM_DS3505
ZGSZ,2009-03-26 09:00,ZGSZ 260900Z AUTO 09004KT 4SM 19/14 A2994 RMK SLP143 T01860145 57015 IEM_DS3505
ZGSZ,2009-03-26 10:00,ZGSZ 261000Z AUTO 05004KT 3SM 20/15 A2994 RMK T02000150 IEM_DS3505
ZGSZ,2009-03-26 11:00,ZGSZ 261100Z AUTO 3SM 20/15 A2994 RMK T02000150 IEM_DS3505
ZGSZ,2009-03-26 12:00,ZGSZ 261200Z AUTO 09006KT 4SM 18/15 A2994 RMK 60000 SLP146 T01840153 52003 IEM_DS3505
ZGSZ,2009-03-26 13:00,ZGSZ 261300Z AUTO 12006KT 2 1/2SM 20/16 A2997 RMK T02000160 IEM_DS3505
ZGSZ,2009-03-26 14:00,ZGSZ 261400Z AUTO 10008KT 3SM 20/16 A2997 RMK T02000160 IEM_DS3505
ZGSZ,2009-03-26 15:00,ZGSZ 261500Z AUTO 07006KT 4SM 19/16 A2997 RMK SLP151 T01870159 52005 IEM_DS3505
ZGSZ,2009-03-26 16:00,ZGSZ 261600Z AUTO 09006KT 3SM 20/17 A2997 RMK T02000170 IEM_DS3505
ZGSZ,2009-03-26 17:00,ZGSZ 261700Z AUTO 11010KT 2 1/2SM 20/17 A2997 RMK T02000170 IEM_DS3505
ZGSZ,2009-03-26 18:00,ZGSZ 261800Z AUTO 07006KT 2 1/2SM 19/16 A2994 RMK 60000 SLP142 T01860164 57009 IEM_DS3505
ZGSZ,2009-03-26 19:00,ZGSZ 261900Z AUTO 10006KT 3SM 20/17 A2991 RMK T02000170 IEM_DS3505
ZGSZ,2009-03-26 20:00,ZGSZ 262000Z AUTO 10004KT 4SM 20/17 A2991 RMK T02000170 IEM_DS3505
ZGSZ,2009-03-26 21:00,ZGSZ 262100Z AUTO 04006KT 2 1/2SM 19/17 A2991 RMK 70000 SLP137 T01880166 57005 IEM_DS3505
ZGSZ,2009-03-26 22:00,ZGSZ 262200Z AUTO 09006KT 3SM 21/18 A2991 RMK T02100180 IEM_DS3505
ZGSZ,2009-03-26 23:00,ZGSZ 262300Z AUTO 09004KT 2 1/2SM 20/18 A2994 RMK T02000180 IEM_DS3505
ZGSZ,2009-03-27 00:00,ZGSZ 270000Z AUTO 09008KT 3SM 19/17 A2997 RMK 60000 70001 SLP151 T01920170 52014 IEM_DS3505
ZGSZ,2009-03-27 01:00,ZGSZ 270100Z AUTO 13004KT 3SM 21/18 A2997 RMK T02100180 IEM_DS3505
ZGSZ,2009-03-27 02:00,ZGSZ 270200Z AUTO 10008KT 3SM 23/20 A2997 RMK T02300200 IEM_DS3505
ZGSZ,2009-03-27 03:00,ZGSZ 270300Z AUTO 04006KT 2 1/2SM 22/18 A2997 RMK SLP154 T02150185 52004 IEM_DS3505
ZGSZ,2009-03-27 04:00,ZGSZ 270400Z AUTO 12008KT 3SM 23/20 A2994 RMK T02300200 IEM_DS3505
ZGSZ,2009-03-27 05:00,ZGSZ 270500Z AUTO 10006KT 3SM 23/19 A2991 RMK T02300190 IEM_DS3505
ZGSZ,2009-03-27 06:00,ZGSZ 270600Z AUTO 07004KT 1 1/2SM 20/19 A2991 RMK 60020 SLP135 T02010188 57019 IEM_DS3505
ZGSZ,2009-03-27 07:00,ZGSZ 270700Z AUTO 34004KT 1 1/4SM 21/20 A2991 RMK T02100200 IEM_DS3505
ZGSZ,2009-03-27 08:00,ZGSZ 270800Z AUTO 00000KT 1 1/4SM 21/20 A2988 RMK T02100200 IEM_DS3505
ZGSZ,2009-03-27 09:00,ZGSZ 270900Z AUTO 09004KT 2 1/2SM 21/20 A2985 RMK SLP122 T02070195 57013 IEM_DS3505
ZGSZ,2009-03-27 10:00,ZGSZ 271000Z AUTO 4SM 23/21 A2988 RMK T02300210 IEM_DS3505
ZGSZ,2009-03-27 11:00,ZGSZ 271100Z AUTO 13006KT 3SM 23/20 A2988 RMK T02300200 IEM_DS3505
ZGSZ,2009-03-27 12:00,ZGSZ 271200Z AUTO 07004KT 4SM 21/19 A2991 RMK 60020 SLP132 T02080193 52010 IEM_DS3505
ZGSZ,2009-03-27 13:00,ZGSZ 271300Z AUTO 2SM 22/20 A2991 RMK T02200200 IEM_DS3505
ZGSZ,2009-03-27 14:00,ZGSZ 271400Z AUTO 3SM 22/20 A2991 RMK T02200200 IEM_DS3505
ZGSZ,2009-03-27 15:00,ZGSZ 271500Z AUTO 07004KT 2SM 21/19 A2991 RMK SLP137 T02060193 52005 IEM_DS3505
ZGSZ,2009-03-27 16:00,ZGSZ 271600Z AUTO 09004KT 2SM 22/20 A2991 RMK T02200200 IEM_DS3505
ZGSZ,2009-03-27 17:00,ZGSZ 271700Z AUTO 12004KT 2SM 22/20 A2991 RMK T02200200 IEM_DS3505
ZGSZ,2009-03-27 18:00,ZGSZ 271800Z AUTO 07006KT 2SM 20/19 A2991 RMK SLP132 T02050192 57005 IEM_DS3505
ZGSZ,2009-03-27 19:00,ZGSZ 271900Z AUTO 1 1/4SM 22/20 A2988 RMK T02200200 IEM_DS3505
ZGSZ,2009-03-27 20:00,ZGSZ 272000Z AUTO 12004KT 2SM 22/20 A2985 RMK T02200200 IEM_DS3505
ZGSZ,2009-03-27 21:00,ZGSZ 272100Z AUTO 04004KT 1 1/2SM 20/19 A2985 RMK 70042 SLP116 T02010189 57016 IEM_DS3505
ZGSZ,2009-03-27 22:00,ZGSZ 272200Z AUTO 00000KT 2SM 21/20 A2985 RMK T02100200 IEM_DS3505
ZGSZ,2009-03-27 23:00,ZGSZ 272300Z AUTO 32002KT 1SM 22/20 A2988 RMK T02200200 IEM_DS3505
ZGSZ,2009-03-28 00:00,ZGSZ 280000Z AUTO 07004KT 1 1/2SM 21/19 A2991 RMK 70041 SLP132 T02070194 52016 IEM_DS3505
ZGSZ,2009-03-28 01:00,ZGSZ 280100Z AUTO 12006KT 2 1/2SM 24/21 A2991 RMK T02400210 IEM_DS3505
ZGSZ,2009-03-28 02:00,ZGSZ 280200Z AUTO 19004KT 2 1/2SM 23/21 A2991 RMK T02300210 IEM_DS3505
ZGSZ,2009-03-28 03:00,ZGSZ 280300Z AUTO 09002KT 3SM 24/21 A2991 RMK SLP133 T02450208 52001 IEM_DS3505
ZGSZ,2009-03-28 04:00,ZGSZ 280400Z AUTO 19006KT 3SM 25/21 A2988 RMK T02500210 IEM_DS3505
ZGSZ,2009-03-28 05:00,ZGSZ 280500Z AUTO 23006KT 2 1/2SM 25/21 A2985 RMK T02500210 IEM_DS3505
ZGSZ,2009-03-28 06:00,ZGSZ 280600Z AUTO 16002KT 4SM 27/21 A2985 RMK SLP110 T02720210 57022 IEM_DS3505
ZGSZ,2009-03-28 07:00,ZGSZ 280700Z AUTO 18008KT 3SM 27/22 A2983 RMK T02700220 IEM_DS3505
ZGSZ,2009-03-28 08:00,ZGSZ 280800Z AUTO 17008KT 5SM 27/23 A2980 RMK T02700230 IEM_DS3505
ZGSZ,2009-03-28 09:00,ZGSZ 280900Z AUTO 07004KT 2 1/2SM 25/20 A2977 RMK SLP091 T02460205 57019 IEM_DS3505
ZGSZ,2009-03-28 10:00,ZGSZ 281000Z AUTO 17010KT 3SM 25/22 A2980 RMK T02500220 IEM_DS3505
ZGSZ,2009-03-28 11:00,ZGSZ 281100Z AUTO 14012KT 3SM 26/22 A2980 RMK T02600220 IEM_DS3505
ZGSZ,2009-03-28 12:00,ZGSZ 281200Z AUTO 07006KT 2 1/2SM 22/20 A2983 RMK SLP110 T02170196 52018 IEM_DS3505
ZGSZ,2009-03-28 13:00,ZGSZ 281300Z AUTO 12008KT 3SM 25/21 A2985 RMK T02500210 IEM_DS3505
ZGSZ,2009-03-28 14:00,ZGSZ 281400Z AUTO 11008KT 3SM 24/21 A2988 RMK T02400210 IEM_DS3505
ZGSZ,2009-03-28 15:00,ZGSZ 281500Z AUTO 09008KT 4SM 21/20 A2985 RMK SLP122 T02100197 52013 IEM_DS3505
ZGSZ,2009-03-28 16:00,ZGSZ 281600Z AUTO 10004KT 4SM 24/20 A2985 RMK T02400200 IEM_DS3505
ZGSZ,2009-03-28 17:00,ZGSZ 281700Z AUTO 12006KT 5SM 23/20 A2985 RMK T02300200 IEM_DS3505
ZGSZ,2009-03-28 18:00,ZGSZ 281800Z AUTO 07010KT 3SM 20/19 A2985 RMK 60012 SLP115 T01960186 57007 IEM_DS3505
ZGSZ,2009-03-28 19:00,ZGSZ 281900Z AUTO 13004KT 7SM 22/19 A2985 RMK T02200190 IEM_DS3505
ZGSZ,2009-03-28 20:00,ZGSZ 282000Z AUTO 13006KT 7SM 22/19 A2985 RMK T02200190 IEM_DS3505
ZGSZ,2009-03-28 21:00,ZGSZ 282100Z AUTO 04004KT 7SM 19/18 A2985 RMK 70081 SLP112 T01880176 57004 IEM_DS3505
ZGSZ,2009-03-28 22:00,ZGSZ 282200Z AUTO 12008KT 7SM 21/18 A2985 RMK T02100180 IEM_DS3505
ZGSZ,2009-03-28 23:00,ZGSZ 282300Z AUTO 01008KT 3SM 21/19 A2991 RMK T02100190 IEM_DS3505
ZGSZ,2009-03-29 00:00,ZGSZ 290000Z AUTO 11002KT 4SM 19/18 A2994 RMK 60142 70154 SLP148 T01880178 52036 IEM_DS3505
ZGSZ,2009-03-29 01:00,ZGSZ 290100Z AUTO 08006KT 4SM 21/19 A2997 RMK T02100190 IEM_DS3505
ZGSZ,2009-03-29 02:00,ZGSZ 290200Z AUTO 10008KT 7SM 21/19 A2997 RMK T02100190 IEM_DS3505
ZGSZ,2009-03-29 03:00,ZGSZ 290300Z AUTO 07006KT 12SM 20/18 A3000 RMK SLP159 T02010175 52011 IEM_DS3505
ZGSZ,2009-03-29 04:00,ZGSZ 290400Z AUTO 04006KT 7SM 22/18 A3000 RMK T02200180 IEM_DS3505
ZGSZ,2009-03-29 05:00,ZGSZ 290500Z AUTO 03010KT 7SM 21/17 A2997 RMK T02100170 IEM_DS3505
ZGSZ,2009-03-29 06:00,ZGSZ 290600Z AUTO 04008KT 9SM 20/16 A2997 RMK SLP149 T02030159 57010 IEM_DS3505
ZGSZ,2009-03-29 07:00,ZGSZ 290700Z AUTO 02008KT 7SM 21/16 A2994 RMK T02100160 IEM_DS3505
ZGSZ,2009-03-29 08:00,ZGSZ 290800Z AUTO 03008KT 7SM 21/15 A2994 RMK T02100150 IEM_DS3505
ZGSZ,2009-03-29 09:00,ZGSZ 290900Z AUTO 04004KT 10SM 20/15 A2997 RMK SLP148 T01960146 57001 IEM_DS3505
ZGSZ,2009-03-29 10:00,ZGSZ 291000Z AUTO 03008KT 7SM 20/15 A2997 RMK T02000150 IEM_DS3505
ZGSZ,2009-03-29 11:00,ZGSZ 291100Z AUTO 03008KT 7SM 20/15 A2997 RMK T02000150 IEM_DS3505
ZGSZ,2009-03-29 12:00,ZGSZ 291200Z AUTO 04006KT 11SM 19/14 A3000 RMK 60000 SLP163 T01900141 52014 IEM_DS3505
ZGSZ,2009-03-29 13:00,ZGSZ 291300Z AUTO 03008KT 7SM 20/14 A3003 RMK T02000140 IEM_DS3505
ZGSZ,2009-03-29 14:00,ZGSZ 291400Z AUTO 05006KT 7SM 20/14 A3003 RMK T02000140 IEM_DS3505
ZGSZ,2009-03-29 15:00,ZGSZ 291500Z AUTO 04004KT 11SM 19/13 A3003 RMK SLP178 T01890131 52015 IEM_DS3505
ZGSZ,2009-03-29 16:00,ZGSZ 291600Z AUTO 04004KT 7SM 19/13 A3003 RMK T01900130 IEM_DS3505
ZGSZ,2009-03-29 17:00,ZGSZ 291700Z AUTO 02010KT 7SM 19/13 A3003 RMK T01900130 IEM_DS3505
ZGSZ,2009-03-29 18:00,ZGSZ 291800Z AUTO 07008KT 12SM 18/13 A3003 RMK 60000 SLP172 T01770126 57006 IEM_DS3505
ZGSZ,2009-03-29 19:00,ZGSZ 291900Z AUTO 04004KT 7SM 18/13 A3000 RMK T01800130 IEM_DS3505
ZGSZ,2009-03-29 20:00,ZGSZ 292000Z AUTO 36006KT 7SM 18/13 A3003 RMK T01800130 IEM_DS3505
ZGSZ,2009-03-29 21:00,ZGSZ 292100Z AUTO 07006KT 12SM 17/12 A3003 RMK 70073 SLP172 T01700125 54000 IEM_DS3505
ZGSZ,2009-03-29 22:00,ZGSZ 292200Z AUTO 05008KT 7SM 17/14 A3003 RMK T01700140 IEM_DS3505
ZGSZ,2009-03-29 23:00,ZGSZ 292300Z AUTO 03006KT 4SM 16/14 A3006 RMK T01600140 IEM_DS3505
ZGSZ,2009-03-30 00:00,ZGSZ 300000Z AUTO 07008KT 6SM 16/13 A3006 RMK 60000 70000 SLP187 T01590134 52015 IEM_DS3505
ZGSZ,2009-03-30 01:00,ZGSZ 300100Z AUTO 06008KT 5SM 17/14 A3009 RMK T01700140 IEM_DS3505
ZGSZ,2009-03-30 02:00,ZGSZ 300200Z AUTO 08006KT 7SM 18/14 A3009 RMK T01800140 IEM_DS3505
ZGSZ,2009-03-30 03:00,ZGSZ 300300Z AUTO 09008KT 5SM 19/14 A3009 RMK SLP189 T01860145 52002 IEM_DS3505
ZGSZ,2009-03-30 04:00,ZGSZ 300400Z AUTO 04008KT 7SM 19/14 A3006 RMK T01900140 IEM_DS3505
ZGSZ,2009-03-30 05:00,ZGSZ 300500Z AUTO 03008KT 5SM 20/15 A3003 RMK T02000150 IEM_DS3505
ZGSZ,2009-03-30 06:00,ZGSZ 300600Z AUTO 02004KT 6SM 20/14 A3000 RMK 60000 SLP169 T02000144 57020 IEM_DS3505
ZGSZ,2009-03-30 07:00,ZGSZ 300700Z AUTO 02008KT 5SM 20/15 A3000 RMK T02000150 IEM_DS3505
ZGSZ,2009-03-30 08:00,ZGSZ 300800Z AUTO 01006KT 5SM 20/15 A3000 RMK T02000150 IEM_DS3505
ZGSZ,2009-03-30 09:00,ZGSZ 300900Z AUTO 09004KT 4SM 20/15 A3000 RMK SLP162 T01980146 57007 IEM_DS3505
ZGSZ,2009-03-30 10:00,ZGSZ 301000Z AUTO 36010KT 4SM 20/14 A3000 RMK T02000140 IEM_DS3505
ZGSZ,2009-03-30 11:00,ZGSZ 301100Z AUTO 03008KT 5SM 20/14 A3003 RMK T02000140 IEM_DS3505
ZGSZ,2009-03-30 12:00,ZGSZ 301200Z AUTO 02006KT 4SM 19/14 A3006 RMK SLP182 T01920140 52020 IEM_DS3505
ZGSZ,2009-03-30 13:00,ZGSZ 301300Z AUTO 04008KT 5SM 19/14 A3006 RMK T01900140 IEM_DS3505
ZGSZ,2009-03-30 14:00,ZGSZ 301400Z AUTO 03006KT 5SM 19/13 A3009 RMK T01900130 IEM_DS3505
ZGSZ,2009-03-30 15:00,ZGSZ 301500Z AUTO 07004KT 4SM 18/13 A3012 RMK SLP198 T01780131 52016 IEM_DS3505
ZGSZ,2009-03-30 16:00,ZGSZ 301600Z AUTO 04008KT 5SM 18/14 A3012 RMK T01800140 IEM_DS3505
ZGSZ,2009-03-30 17:00,ZGSZ 301700Z AUTO 05006KT 5SM 18/14 A3009 RMK T01800140 IEM_DS3505
ZGSZ,2009-03-30 18:00,ZGSZ 301800Z AUTO 02004KT 4SM 16/14 A3009 RMK 60000 SLP191 T01610136 57007 IEM_DS3505
ZGSZ,2009-03-30 20:00,ZGSZ 302000Z AUTO 02008KT 3SM 16/13 A3006 RMK T01600130 IEM_DS3505
ZGSZ,2009-03-30 21:00,ZGSZ 302100Z AUTO 04010KT 4SM 16/12 A3006 RMK 70000 SLP184 T01570123 57007 IEM_DS3505
ZGSZ,2009-03-30 22:00,ZGSZ 302200Z AUTO 03006KT 5SM 17/13 A3009 RMK T01700130 IEM_DS3505
ZGSZ,2009-03-30 23:00,ZGSZ 302300Z AUTO 6SM 17/13 A3009 RMK T01700130 IEM_DS3505
ZGSZ,2009-03-31 00:00,ZGSZ 310000Z AUTO 04006KT 6SM 17/12 A3012 RMK 60000 70000 SLP200 T01690122 52016 IEM_DS3505
ZGSZ,2009-03-31 01:00,ZGSZ 310100Z AUTO 07008KT 7SM 19/12 A3009 RMK T01900120 IEM_DS3505
ZGSZ,2009-03-31 02:00,ZGSZ 310200Z AUTO 36008KT 7SM 20/13 A3012 RMK T02000130 IEM_DS3505
ZGSZ,2009-03-31 03:00,ZGSZ 310300Z AUTO 02006KT 6SM 20/13 A3012 RMK SLP202 T01990129 52002 IEM_DS3505
ZGSZ,2009-03-31 04:00,ZGSZ 310400Z AUTO 36008KT 7SM 22/14 A3009 RMK T02200140 IEM_DS3505
ZGSZ,2009-03-31 05:00,ZGSZ 310500Z AUTO 35010KT 7SM 23/14 A3006 RMK T02300140 IEM_DS3505
ZGSZ,2009-03-31 06:00,ZGSZ 310600Z AUTO 22008KT 6SM 23/14 A3003 RMK SLP175 T02320139 57027 IEM_DS3505
ZGSZ,2009-03-31 07:00,ZGSZ 310700Z AUTO 29012KT 6SM 23/15 A3000 RMK T02300150 IEM_DS3505
ZGSZ,2009-03-31 08:00,ZGSZ 310800Z AUTO 29012KT 6SM 22/15 A2997 RMK T02200150 IEM_DS3505
ZGSZ,2009-03-31 09:00,ZGSZ 310900Z AUTO 22002KT 4SM 23/15 A3000 RMK SLP161 T02310147 57014 IEM_DS3505
ZGSZ,2009-03-31 10:00,ZGSZ 311000Z AUTO 31012KT 6SM 22/15 A3000 RMK T02200150 IEM_DS3505
ZGSZ,2009-03-31 11:00,ZGSZ 311100Z AUTO 31014KT 7SM 20/15 A3003 RMK T02000150 IEM_DS3505
ZGSZ,2009-03-31 12:00,ZGSZ 311200Z AUTO 07004KT 4SM 20/16 A3003 RMK SLP181 T02050157 52020 IEM_DS3505
ZGSZ,2009-03-31 13:00,ZGSZ 311300Z AUTO 31006KT 4SM 20/15 A3009 RMK T02000150 IEM_DS3505
ZGSZ,2009-03-31 14:00,ZGSZ 311400Z AUTO 00000KT 4SM 20/15 A3009 RMK T02000150 IEM_DS3505
ZGSZ,2009-03-31 15:00,ZGSZ 311500Z AUTO 07004KT 4SM 19/15 A3009 RMK SLP200 T01940153 52019 IEM_DS3505
ZGSZ,2009-03-31 16:00,ZGSZ 311600Z AUTO 12006KT 5SM 20/16 A3012 RMK T02000160 IEM_DS3505
ZGSZ,2009-03-31 17:00,ZGSZ 311700Z AUTO 10008KT 4SM 20/16 A3009 RMK T02000160 IEM_DS3505
ZGSZ,2009-03-31 18:00,ZGSZ 311800Z AUTO 14006KT 4SM 18/15 A3009 RMK SLP195 T01830150 57004 IEM_DS3505
ZGSZ,2009-03-31 19:00,ZGSZ 311900Z AUTO 07006KT 2 1/2SM 19/16 A3009 RMK T01900160 IEM_DS3505
ZGSZ,2009-03-31 20:00,ZGSZ 312000Z AUTO 06006KT 3SM 19/15 A3006 RMK T01900150 IEM_DS3505
ZGSZ,2009-03-31 21:00,ZGSZ 312100Z AUTO 04006KT 6SM 18/13 A3006 RMK SLP188 T01840131 57007 IEM_DS3505
ZGSZ,2009-03-31 22:00,ZGSZ 312200Z AUTO 06006KT 5SM 19/14 A3009 RMK T01900140 IEM_DS3505
ZGSZ,2009-03-31 23:00,ZGSZ 312300Z AUTO 05004KT 5SM 19/14 A3012 RMK T01900140 IEM_DS3505
ZGSZ,2009-04-01 00:00,ZGSZ 010000Z AUTO 02004KT 4SM 18/13 A3012 RMK SLP208 T01810130 52019 IEM_DS3505
ZGSZ,2009-04-01 01:00,ZGSZ 010100Z AUTO 01006KT 5SM 20/13 A3015 RMK T02000130 IEM_DS3505
ZGSZ,2009-04-01 02:00,ZGSZ 010200Z AUTO 03006KT 5SM 21/14 A3015 RMK T02100140 IEM_DS3505
ZGSZ,2009-04-01 03:00,ZGSZ 010300Z AUTO 02008KT 2 1/2SM 22/14 A3012 RMK SLP207 T02230136 57001 IEM_DS3505
ZGSZ,2009-04-01 04:00,ZGSZ 010400Z AUTO 06004KT 5SM 24/14 A3012 RMK T02400140 IEM_DS3505
ZGSZ,2009-04-01 05:00,ZGSZ 010500Z AUTO 5SM 24/14 A3009 RMK T02400140 IEM_DS3505
ZGSZ,2009-04-01 06:00,ZGSZ 010600Z AUTO 25004KT 4SM 24/13 A3006 RMK SLP185 T02390129 57021 IEM_DS3505
ZGSZ,2009-04-01 07:00,ZGSZ 010700Z AUTO 29010KT 3SM 23/15 A3003 RMK T02300150 IEM_DS3505
ZGSZ,2009-04-01 08:00,ZGSZ 010800Z AUTO 31010KT 3SM 23/16 A3003 RMK T02300160 IEM_DS3505
ZGSZ,2009-04-01 09:00,ZGSZ 010900Z AUTO 22002KT 3SM 22/15 A3003 RMK SLP179 T02250151 57006 IEM_DS3505
ZGSZ,2009-04-01 10:00,ZGSZ 011000Z AUTO 03008KT 7SM 23/14 A3006 RMK T02300140 IEM_DS3505
ZGSZ,2009-04-01 11:00,ZGSZ 011100Z AUTO 08004KT 7SM 23/14 A3009 RMK T02300140 IEM_DS3505
ZGSZ,2009-04-01 12:00,ZGSZ 011200Z AUTO 07006KT 4SM 20/13 A3012 RMK SLP205 T01960133 52025 IEM_DS3505
ZGSZ,2009-04-01 13:00,ZGSZ 011300Z AUTO 11010KT 4SM 21/14 A3012 RMK T02100140 IEM_DS3505
ZGSZ,2009-04-01 14:00,ZGSZ 011400Z AUTO 11010KT 4SM 21/14 A3015 RMK T02100140 IEM_DS3505
ZGSZ,2009-04-01 15:00,ZGSZ 011500Z AUTO 07004KT 4SM 19/13 A3015 RMK SLP213 T01870127 52008 IEM_DS3505
ZGSZ,2009-04-01 16:00,ZGSZ 011600Z AUTO 10006KT 4SM 20/13 A3012 RMK T02000130 IEM_DS3505
ZGSZ,2009-04-01 17:00,ZGSZ 011700Z AUTO 09008KT 4SM 19/13 A3012 RMK T01900130 IEM_DS3505
ZGSZ,2009-04-01 18:00,ZGSZ 011800Z AUTO 09006KT 4SM 18/12 A3012 RMK SLP198 T01780116 57014 IEM_DS3505
ZGSZ,2009-04-01 19:00,ZGSZ 011900Z AUTO 10004KT 4SM 19/13 A3009 RMK T01900130 IEM_DS3505
ZGSZ,2009-04-01 20:00,ZGSZ 012000Z AUTO 11010KT 4SM 19/11 A3009 RMK T01900110 IEM_DS3505
ZGSZ,2009-04-01 21:00,ZGSZ 012100Z AUTO 09006KT 4SM 18/09 A3009 RMK SLP192 T01770086 57007 IEM_DS3505
ZGSZ,2009-04-01 22:00,ZGSZ 012200Z AUTO 05006KT 4SM 19/11 A3009 RMK T01900110 IEM_DS3505
ZGSZ,2009-04-01 23:00,ZGSZ 012300Z AUTO 10004KT 5SM 19/11 A3012 RMK T01900110 IEM_DS3505
ZGSZ,2009-04-02 00:00,ZGSZ 020000Z AUTO 11010KT 4SM 18/09 A3015 RMK SLP210 T01750092 52018 IEM_DS3505
ZGSZ,2009-04-02 01:00,ZGSZ 020100Z AUTO 14006KT 4SM 19/10 A3015 RMK T01900100 IEM_DS3505
ZGSZ,2009-04-02 02:00,ZGSZ 020200Z AUTO 09006KT 4SM 20/10 A3015 RMK T02000100 IEM_DS3505
ZGSZ,2009-04-02 03:00,ZGSZ 020300Z AUTO 11004KT 4SM 19/11 A3015 RMK SLP216 T01870110 52006 IEM_DS3505
ZGSZ,2009-04-02 04:00,ZGSZ 020400Z AUTO 07004KT 4SM 22/10 A3012 RMK T02200100 IEM_DS3505
ZGSZ,2009-04-02 05:00,ZGSZ 020500Z AUTO 09010KT 4SM 23/10 A3009 RMK T02300100 IEM_DS3505
ZGSZ,2009-04-02 06:00,ZGSZ 020600Z AUTO 09008KT 4SM 21/10 A3006 RMK SLP181 T02070105 57035 IEM_DS3505
ZGSZ,2009-04-02 07:00,ZGSZ 020700Z AUTO 11006KT 5SM 23/11 A3003 RMK T02300110 IEM_DS3505
ZGSZ,2009-04-02 08:00,ZGSZ 020800Z AUTO 11008KT 7SM 23/12 A3003 RMK T02300120 IEM_DS3505
ZGSZ,2009-04-02 09:00,ZGSZ 020900Z AUTO 11004KT 5SM 19/11 A3003 RMK SLP180 T01930108 57001 IEM_DS3505
ZGSZ,2009-04-02 10:00,ZGSZ 021000Z AUTO 12008KT 5SM 22/13 A3006 RMK T02200130 IEM_DS3505
ZGSZ,2009-04-02 11:00,ZGSZ 021100Z AUTO 13008KT 4SM 20/12 A3006 RMK T02000120 IEM_DS3505
ZGSZ,2009-04-02 12:00,ZGSZ 021200Z AUTO 09006KT 5SM 18/12 A3009 RMK SLP191 T01830121 52011 IEM_DS3505
ZGSZ,2009-04-02 13:00,ZGSZ 021300Z AUTO 11008KT 4SM 20/13 A3009 RMK T02000130 IEM_DS3505
ZGSZ,2009-04-02 14:00,ZGSZ 021400Z AUTO 12008KT 4SM 20/13 A3009 RMK T02000130 IEM_DS3505
ZGSZ,2009-04-02 15:00,ZGSZ 021500Z AUTO 11008KT 7SM 18/13 A3009 RMK SLP195 T01840126 52004 IEM_DS3505
ZGSZ,2009-04-02 16:00,ZGSZ 021600Z AUTO 11010KT 7SM 19/13 A3009 RMK T01900130 IEM_DS3505
ZGSZ,2009-04-02 17:00,ZGSZ 021700Z AUTO 12008KT 7SM 19/14 A3006 RMK T01900140 IEM_DS3505
ZGSZ,2009-04-02 18:00,ZGSZ 021800Z AUTO 09006KT 7SM 17/13 A3003 RMK SLP183 T01720133 57012 IEM_DS3505
ZGSZ,2009-04-02 19:00,ZGSZ 021900Z AUTO 11006KT 7SM 19/13 A3003 RMK T01900130 IEM_DS3505
ZGSZ,2009-04-02 20:00,ZGSZ 022000Z AUTO 07004KT 6SM 19/14 A3003 RMK T01900140 IEM_DS3505
ZGSZ,2009-04-02 21:00,ZGSZ 022100Z AUTO 07008KT 7SM 18/13 A3000 RMK SLP169 T01750128 57014 IEM_DS3505
ZGSZ,2009-04-02 22:00,ZGSZ 022200Z AUTO 7SM 18/14 A3006 RMK T01800140 IEM_DS3505
ZGSZ,2009-04-02 23:00,ZGSZ 022300Z AUTO 07004KT 4SM 19/14 A3006 RMK T01900140 IEM_DS3505
ZGSZ,2009-04-03 00:00,ZGSZ 030000Z AUTO 04006KT 7SM 19/14 A3006 RMK SLP182 T01870136 52013 IEM_DS3505
ZGSZ,2009-04-03 01:00,ZGSZ 030100Z AUTO 12008KT 7SM 21/14 A3006 RMK T02100140 IEM_DS3505
ZGSZ,2009-04-03 02:00,ZGSZ 030200Z AUTO 12008KT 7SM 22/15 A3009 RMK T02200150 IEM_DS3505
ZGSZ,2009-04-03 03:00,ZGSZ 030300Z AUTO 11004KT 9SM 22/15 A3006 RMK SLP187 T02190150 52005 IEM_DS3505
ZGSZ,2009-04-03 04:00,ZGSZ 030400Z AUTO 09006KT 7SM 23/16 A3006 RMK T02300160 IEM_DS3505
ZGSZ,2009-04-03 05:00,ZGSZ 030500Z AUTO 11010KT 7SM 24/16 A3003 RMK T02400160 IEM_DS3505
ZGSZ,2009-04-03 06:00,ZGSZ 030600Z AUTO 09006KT 7SM 21/15 A3000 RMK SLP167 T02130149 57020 IEM_DS3505
ZGSZ,2009-04-03 07:00,ZGSZ 030700Z AUTO 11010KT 7SM 24/16 A2997 RMK T02400160 IEM_DS3505
ZGSZ,2009-04-03 08:00,ZGSZ 030800Z AUTO 12010KT 7SM 23/16 A2997 RMK T02300160 IEM_DS3505
ZGSZ,2009-04-03 09:00,ZGSZ 030900Z AUTO 09006KT 6SM 21/16 A3000 RMK SLP163 T02060156 57004 IEM_DS3505
ZGSZ,2009-04-03 10:00,ZGSZ 031000Z AUTO 09010KT 7SM 22/16 A3000 RMK T02200160 IEM_DS3505
ZGSZ,2009-04-03 11:00,ZGSZ 031100Z AUTO 11010KT 7SM 22/16 A3000 RMK T02200160 IEM_DS3505
ZGSZ,2009-04-03 12:00,ZGSZ 031200Z AUTO 09008KT 6SM 20/16 A3000 RMK SLP169 T01990162 52006 IEM_DS3505
ZGSZ,2009-04-03 13:00,ZGSZ 031300Z AUTO 11010KT 7SM 21/17 A3003 RMK T02100170 IEM_DS3505
ZGSZ,2009-04-03 14:00,ZGSZ 031400Z AUTO 12010KT 7SM 21/17 A3003 RMK T02100170 IEM_DS3505
ZGSZ,2009-04-03 15:00,ZGSZ 031500Z AUTO 11006KT 6SM 20/17 A3003 RMK SLP177 T02000168 52009 IEM_DS3505
ZGSZ,2009-04-03 16:00,ZGSZ 031600Z AUTO 11008G19KT 4SM 21/18 A3003 RMK T02100180 IEM_DS3505
ZGSZ,2009-04-03 17:00,ZGSZ 031700Z AUTO 10006KT 5SM 22/18 A3000 RMK T02200180 IEM_DS3505
ZGSZ,2009-04-03 18:00,ZGSZ 031800Z AUTO 09004KT 7SM 20/17 A3000 RMK SLP162 T02030169 57015 IEM_DS3505
ZGSZ,2009-04-03 19:00,ZGSZ 031900Z AUTO 00000KT 4SM 22/18 A3000 RMK T02200180 IEM_DS3505
ZGSZ,2009-04-03 20:00,ZGSZ 032000Z AUTO 4SM 22/18 A3000 RMK T02200180 IEM_DS3505
ZGSZ,2009-04-03 21:00,ZGSZ 032100Z AUTO 07006KT 7SM 20/17 A3000 RMK SLP166 T02050171 52004 IEM_DS3505
ZGSZ,2009-04-03 22:00,ZGSZ 032200Z AUTO 08004KT 3SM 21/18 A3000 RMK T02100180 IEM_DS3505
ZGSZ,2009-04-03 23:00,ZGSZ 032300Z AUTO 4SM 21/18 A3003 RMK T02100180 IEM_DS3505
ZGSZ,2009-04-04 00:00,ZGSZ 040000Z AUTO 07008KT 5SM 21/18 A3003 RMK 60000 70000 SLP177 T02120176 52011 IEM_DS3505
ZGSZ,2009-04-04 01:00,ZGSZ 040100Z AUTO 11008KT 5SM 24/19 A3003 RMK T02400190 IEM_DS3505
ZGSZ,2009-04-04 02:00,ZGSZ 040200Z AUTO 11012KT 7SM 25/19 A3003 RMK T02500190 IEM_DS3505
ZGSZ,2009-04-04 03:00,ZGSZ 040300Z AUTO 14006KT 6SM 25/18 A3003 RMK SLP178 T02520184 52001 IEM_DS3505
ZGSZ,2009-04-04 04:00,ZGSZ 040400Z AUTO 12006KT 7SM 27/19 A3000 RMK T02700190 IEM_DS3505
ZGSZ,2009-04-04 05:00,ZGSZ 040500Z AUTO 18008KT 7SM 27/20 A2997 RMK T02700200 IEM_DS3505
ZGSZ,2009-04-04 06:00,ZGSZ 040600Z AUTO 07006KT 7SM 26/18 A2994 RMK SLP146 T02590183 57031 IEM_DS3505
ZGSZ,2009-04-04 07:00,ZGSZ 040700Z AUTO 18008KT 7SM 26/20 A2994 RMK T02600200 IEM_DS3505
ZGSZ,2009-04-04 08:00,ZGSZ 040800Z AUTO 14006KT 7SM 27/19 A2991 RMK T02700190 IEM_DS3505
ZGSZ,2009-04-04 09:00,ZGSZ 040900Z AUTO 09006KT 7SM 24/19 A2991 RMK SLP140 T02440186 57007 IEM_DS3505
ZGSZ,2009-04-04 10:00,ZGSZ 041000Z AUTO 11008KT 7SM 26/19 A2991 RMK T02600190 IEM_DS3505
ZGSZ,2009-04-04 11:00,ZGSZ 041100Z AUTO 11008KT 7SM 25/19 A2994 RMK T02500190 IEM_DS3505
ZGSZ,2009-04-04 12:00,ZGSZ 041200Z AUTO 09006KT 9SM 22/18 A2994 RMK 60000 SLP151 T02230181 52011 IEM_DS3505
ZGSZ,2009-04-04 13:00,ZGSZ 041300Z AUTO 11006KT 6SM 24/19 A2997 RMK T02400190 IEM_DS3505
ZGSZ,2009-04-04 14:00,ZGSZ 041400Z AUTO 08004KT 7SM 24/19 A3000 RMK T02400190 IEM_DS3505
ZGSZ,2009-04-04 15:00,ZGSZ 041500Z AUTO 07002KT 7SM 22/19 A3000 RMK SLP163 T02200190 52013 IEM_DS3505
ZGSZ,2009-04-04 16:00,ZGSZ 041600Z AUTO 13004KT 6SM 23/19 A2997 RMK T02300190 IEM_DS3505
ZGSZ,2009-04-04 17:00,ZGSZ 041700Z AUTO 00000KT 7SM 23/19 A2997 RMK T02300190 IEM_DS3505
ZGSZ,2009-04-04 18:00,ZGSZ 041800Z AUTO 02004KT 5SM 22/19 A2994 RMK 60000 SLP145 T02170189 57018 IEM_DS3505
ZGSZ,2009-04-04 19:00,ZGSZ 041900Z AUTO 7SM 23/20 A2991 RMK T02300200 IEM_DS3505
ZGSZ,2009-04-04 20:00,ZGSZ 042000Z AUTO 13004KT 7SM 23/20 A2991 RMK T02300200 IEM_DS3505
ZGSZ,2009-04-04 21:00,ZGSZ 042100Z AUTO 09004KT 4SM 22/19 A2991 RMK 70000 SLP134 T02160188 57011 IEM_DS3505
ZGSZ,2009-04-04 22:00,ZGSZ 042200Z AUTO 29004KT 2SM 22/20 A2994 RMK T02200200 IEM_DS3505
ZGSZ,2009-04-04 23:00,ZGSZ 042300Z AUTO 00000KT 2SM 23/20 A2994 RMK T02300200 IEM_DS3505
ZGSZ,2009-04-05 00:00,ZGSZ 050000Z AUTO 02002KT 3SM 22/20 A2997 RMK 60000 70001 SLP155 T02220201 52020 IEM_DS3505
ZGSZ,2009-04-05 01:00,ZGSZ 050100Z AUTO 1SM 23/21 A3000 RMK T02300210 IEM_DS3505
ZGSZ,2009-04-05 02:00,ZGSZ 050200Z AUTO 30006KT 1 1/4SM 25/21 A3000 RMK T02500210 IEM_DS3505
ZGSZ,2009-04-05 03:00,ZGSZ 050300Z AUTO 29002KT 3SM 26/21 A3000 RMK SLP159 T02580206 52005 IEM_DS3505
ZGSZ,2009-04-05 04:00,ZGSZ 050400Z AUTO 02010KT 1 1/4SM 24/20 A2997 RMK T02400200 IEM_DS3505
ZGSZ,2009-04-05 05:00,ZGSZ 050500Z AUTO 36010KT 4SM 26/20 A2997 RMK T02600200 IEM_DS3505
ZGSZ,2009-04-05 06:00,ZGSZ 050600Z AUTO 29004KT 3SM 26/20 A2994 RMK SLP138 T02650204 57021 IEM_DS3505
ZGSZ,2009-04-05 07:00,ZGSZ 050700Z AUTO 30012KT 5SM 25/20 A2991 RMK T02500200 IEM_DS3505
ZGSZ,2009-04-05 08:00,ZGSZ 050800Z AUTO 31014KT 7SM 26/19 A2988 RMK T02600190 IEM_DS3505
ZGSZ,2009-04-05 09:00,ZGSZ 050900Z AUTO 36006KT 7SM 26/19 A2991 RMK SLP129 T02600189 57009 IEM_DS3505
ZGSZ,2009-04-05 10:00,ZGSZ 051000Z AUTO 31012KT 7SM 24/19 A2991 RMK T02400190 IEM_DS3505
ZGSZ,2009-04-05 11:00,ZGSZ 051100Z AUTO 01012KT 7SM 24/18 A2994 RMK T02400180 IEM_DS3505
ZGSZ,2009-04-05 12:00,ZGSZ 051200Z AUTO 02010KT 6SM 23/17 A2997 RMK SLP154 T02280166 52024 IEM_DS3505
ZGSZ,2009-04-05 13:00,ZGSZ 051300Z AUTO 04010KT 7SM 22/16 A3000 RMK T02200160 IEM_DS3505
ZGSZ,2009-04-05 14:00,ZGSZ 051400Z AUTO 02010KT 7SM 21/15 A3000 RMK T02100150 IEM_DS3505
ZGSZ,2009-04-05 15:00,ZGSZ 051500Z AUTO 02008KT 10SM 21/13 A3003 RMK SLP167 T02080128 52013 IEM_DS3505
ZGSZ,2009-04-05 16:00,ZGSZ 051600Z AUTO 01010KT 7SM 21/15 A3000 RMK T02100150 IEM_DS3505
ZGSZ,2009-04-05 17:00,ZGSZ 051700Z AUTO 05008KT 7SM 20/14 A2997 RMK T02000140 IEM_DS3505
ZGSZ,2009-04-05 18:00,ZGSZ 051800Z AUTO 07008KT 12SM 19/12 A2997 RMK SLP148 T01940119 57019 IEM_DS3505
ZGSZ,2009-04-05 19:00,ZGSZ 051900Z AUTO 01008KT 7SM 20/13 A2997 RMK T02000130 IEM_DS3505
ZGSZ,2009-04-05 20:00,ZGSZ 052000Z AUTO 03006KT 7SM 19/13 A2994 RMK T01900130 IEM_DS3505
ZGSZ,2009-04-05 21:00,ZGSZ 052100Z AUTO 04006KT 12SM 18/13 A2994 RMK 70001 SLP144 T01840126 57004 IEM_DS3505
ZGSZ,2009-04-05 22:00,ZGSZ 052200Z AUTO 02010KT 7SM 19/13 A2997 RMK T01900130 IEM_DS3505
ZGSZ,2009-04-05 23:00,ZGSZ 052300Z AUTO 02010KT 4SM 17/14 A3000 RMK T01700140 IEM_DS3505
ZGSZ,2009-04-06 00:00,ZGSZ 060000Z AUTO 36002KT 4SM 16/14 A3003 RMK 60003 70003 SLP175 T01590139 52030 IEM_DS3505
ZGSZ,2009-04-06 01:00,ZGSZ 060100Z AUTO 01006KT 3SM 16/14 A3006 RMK T01600140 IEM_DS3505
ZGSZ,2009-04-06 02:00,ZGSZ 060200Z AUTO 04004KT 4SM 17/15 A3003 RMK T01700150 IEM_DS3505
ZGSZ,2009-04-06 03:00,ZGSZ 060300Z AUTO 02008KT 5SM 17/14 A3003 RMK SLP174 T01680144 57001 IEM_DS3505
ZGSZ,2009-04-06 04:00,ZGSZ 060400Z AUTO 01006KT 4SM 18/15 A3003 RMK T01800150 IEM_DS3505
ZGSZ,2009-04-06 05:00,ZGSZ 060500Z AUTO 03006KT 5SM 19/14 A3000 RMK T01900140 IEM_DS3505
ZGSZ,2009-04-06 06:00,ZGSZ 060600Z AUTO 02008KT 5SM 18/14 A2997 RMK 60020 SLP155 T01800141 57019 IEM_DS3505
ZGSZ,2009-04-06 07:00,ZGSZ 060700Z AUTO 02006KT 7SM 20/14 A2997 RMK T02000140 IEM_DS3505
ZGSZ,2009-04-06 08:00,ZGSZ 060800Z AUTO 02006KT 7SM 20/14 A2994 RMK T02000140 IEM_DS3505
ZGSZ,2009-04-06 09:00,ZGSZ 060900Z AUTO 09002KT 5SM 19/14 A2994 RMK SLP147 T01870142 57008 IEM_DS3505
ZGSZ,2009-04-06 10:00,ZGSZ 061000Z AUTO 4SM 20/15 A2994 RMK T02000150 IEM_DS3505
ZGSZ,2009-04-06 11:00,ZGSZ 061100Z AUTO 06004KT 4SM 20/15 A2997 RMK T02000150 IEM_DS3505
ZGSZ,2009-04-06 12:00,ZGSZ 061200Z AUTO 04004KT 9SM 19/14 A3000 RMK SLP161 T01870142 52014 IEM_DS3505
ZGSZ,2009-04-06 13:00,ZGSZ 061300Z AUTO 5SM 20/15 A3003 RMK T02000150 IEM_DS3505
ZGSZ,2009-04-06 14:00,ZGSZ 061400Z AUTO 4SM 20/15 A3003 RMK T02000150 IEM_DS3505
ZGSZ,2009-04-06 15:00,ZGSZ 061500Z AUTO 09004KT 9SM 18/16 A3003 RMK SLP173 T01780156 52012 IEM_DS3505
ZGSZ,2009-04-06 16:00,ZGSZ 061600Z AUTO 07006KT 3SM 18/15 A3003 RMK T01800150 IEM_DS3505
ZGSZ,2009-04-06 17:00,ZGSZ 061700Z AUTO 08004KT 3SM 18/16 A3003 RMK T01800160 IEM_DS3505
ZGSZ,2009-04-06 18:00,ZGSZ 061800Z AUTO 07004KT 4SM 16/14 A3000 RMK 60028 SLP165 T01560138 57008 IEM_DS3505
ZGSZ,2009-04-06 19:00,ZGSZ 061900Z AUTO 12004KT 7SM 18/14 A3000 RMK T01800140 IEM_DS3505
ZGSZ,2009-04-06 20:00,ZGSZ 062000Z AUTO 09006KT 7SM 17/13 A2997 RMK T01700130 IEM_DS3505
ZGSZ,2009-04-06 21:00,ZGSZ 062100Z AUTO 07008KT 4SM 16/14 A2997 RMK 70050 SLP157 T01610136 57008 IEM_DS3505
ZGSZ,2009-04-06 22:00,ZGSZ 062200Z AUTO 3SM 18/14 A3000 RMK T01800140 IEM_DS3505
ZGSZ,2009-04-06 23:00,ZGSZ 062300Z AUTO 03004KT 3SM 17/14 A3003 RMK T01700140 IEM_DS3505
ZGSZ,2009-04-07 00:00,ZGSZ 070000Z AUTO 04004KT 6SM 16/10 RMK 60000 70047 SLP180 T01620101 52023 IEM_DS3505
ZGSZ,2009-04-07 01:00,ZGSZ 070100Z AUTO 07004KT 7SM 17/12 A3006 RMK T01700120 IEM_DS3505
ZGSZ,2009-04-07 02:00,ZGSZ 070200Z AUTO 05004KT 7SM 18/11 A3006 RMK T01800110 IEM_DS3505
ZGSZ,2009-04-07 03:00,ZGSZ 070300Z AUTO 09006KT 5SM 17/12 A3006 RMK SLP181 T01740121 52001 IEM_DS3505
ZGSZ,2009-04-07 04:00,ZGSZ 070400Z AUTO 24004KT 7SM 20/13 A3003 RMK T02000130 IEM_DS3505
ZGSZ,2009-04-07 05:00,ZGSZ 070500Z AUTO 24006KT 4SM 20/14 A3000 RMK T02000140 IEM_DS3505
ZGSZ,2009-04-07 06:00,ZGSZ 070600Z AUTO 20002KT 8SM 20/12 A2997 RMK 60004 SLP159 T01960116 57022 IEM_DS3505
ZGSZ,2009-04-07 07:00,ZGSZ 070700Z AUTO 21004KT 4SM 20/14 A2997 RMK T02000140 IEM_DS3505
ZGSZ,2009-04-07 08:00,ZGSZ 070800Z AUTO 19006KT 7SM 20/14 A2994 RMK T02000140 IEM_DS3505
ZGSZ,2009-04-07 09:00,ZGSZ 070900Z AUTO 02004KT 11SM 19/10 A2997 RMK SLP150 T01930100 57009 IEM_DS3505
ZGSZ,2009-04-07 10:00,ZGSZ 071000Z AUTO 7SM 20/13 A2997 RMK T02000130 IEM_DS3505
ZGSZ,2009-04-07 11:00,ZGSZ 071100Z AUTO 17004KT 7SM 20/14 A2997 RMK T02000140 IEM_DS3505
ZGSZ,2009-04-07 12:00,ZGSZ 071200Z AUTO 14004KT 11SM 19/12 A2997 RMK SLP160 T01870120 52010 IEM_DS3505
ZGSZ,2009-04-07 13:00,ZGSZ 071300Z AUTO 7SM 20/13 A3000 RMK T02000130 IEM_DS3505
ZGSZ,2009-04-07 14:00,ZGSZ 071400Z AUTO 14004KT 7SM 20/14 A3000 RMK T02000140 IEM_DS3505
ZGSZ,2009-04-07 15:00,ZGSZ 071500Z AUTO 09006KT 9SM 18/14 A3003 RMK SLP172 T01850140 52012 IEM_DS3505
ZGSZ,2009-04-07 16:00,ZGSZ 071600Z AUTO 10004KT 7SM 20/14 A3000 RMK T02000140 IEM_DS3505
ZGSZ,2009-04-07 17:00,ZGSZ 071700Z AUTO 00000KT 7SM 20/15 A3000 RMK T02000150 IEM_DS3505
ZGSZ,2009-04-07 18:00,ZGSZ 071800Z AUTO 07004KT 9SM 18/15 A3000 RMK SLP164 T01840149 57008 IEM_DS3505
ZGSZ,2009-04-07 19:00,ZGSZ 071900Z AUTO 4SM 19/16 A3000 RMK T01900160 IEM_DS3505
ZGSZ,2009-04-07 20:00,ZGSZ 072000Z AUTO 06004KT 4SM 19/15 A3000 RMK T01900150 IEM_DS3505
ZGSZ,2009-04-07 21:00,ZGSZ 072100Z AUTO 04004KT 9SM 18/15 A3000 RMK 70005 SLP163 T01820153 57001 IEM_DS3505
ZGSZ,2009-04-07 22:00,ZGSZ 072200Z AUTO 05004KT 4SM 19/16 A3000 RMK T01900160 IEM_DS3505
ZGSZ,2009-04-07 23:00,ZGSZ 072300Z AUTO 06002KT 3SM 19/16 A3000 RMK T01900160 IEM_DS3505
ZGSZ,2009-04-08 00:00,ZGSZ 080000Z AUTO 09002KT 4SM 19/16 A3003 RMK 70005 SLP176 T01860155 52013 IEM_DS3505
ZGSZ,2009-04-08 01:00,ZGSZ 080100Z AUTO 05006KT 3SM 21/16 A3003 RMK T02100160 IEM_DS3505
ZGSZ,2009-04-08 02:00,ZGSZ 080200Z AUTO 01004KT 3SM 22/16 A3006 RMK T02200160 IEM_DS3505
ZGSZ,2009-04-08 03:00,ZGSZ 080300Z AUTO 02004KT 6SM 22/16 A3006 RMK SLP180 T02240155 52005 IEM_DS3505
ZGSZ,2009-04-08 04:00,ZGSZ 080400Z AUTO 6SM 25/15 A3003 RMK T02500150 IEM_DS3505
ZGSZ,2009-04-08 05:00,ZGSZ 080500Z AUTO 4SM 25/17 A3000 RMK T02500170 IEM_DS3505
ZGSZ,2009-04-08 06:00,ZGSZ 080600Z AUTO 16002KT 5SM 25/15 A2997 RMK SLP150 T02510146 57030 IEM_DS3505
ZGSZ,2009-04-08 07:00,ZGSZ 080700Z AUTO 22008KT 4SM 25/16 A2994 RMK T02500160 IEM_DS3505
ZGSZ,2009-04-08 08:00,ZGSZ 080800Z AUTO 18010KT 3SM 24/17 A2994 RMK T02400170 IEM_DS3505
ZGSZ,2009-04-08 09:00,ZGSZ 080900Z AUTO 22002KT 4SM 24/17 A2994 RMK SLP140 T02360171 57010 IEM_DS3505
ZGSZ,2009-04-08 10:00,ZGSZ 081000Z AUTO 20008KT 3SM 22/18 A2994 RMK T02200180 IEM_DS3505
ZGSZ,2009-04-08 11:00,ZGSZ 081100Z AUTO 19008KT 4SM 22/17 A2997 RMK T02200170 IEM_DS3505
ZGSZ,2009-04-08 12:00,ZGSZ 081200Z AUTO 09004KT 6SM 21/15 A2997 RMK SLP161 T02140148 52021 IEM_DS3505
ZGSZ,2009-04-08 13:00,ZGSZ 081300Z AUTO 15004KT 4SM 22/18 A3000 RMK T02200180 IEM_DS3505
ZGSZ,2009-04-08 14:00,ZGSZ 081400Z AUTO 12006KT 5SM 22/16 A3000 RMK T02200160 IEM_DS3505
ZGSZ,2009-04-08 15:00,ZGSZ 081500Z AUTO 07004KT 7SM 20/15 A3000 RMK SLP173 T01990151 52012 IEM_DS3505
ZGSZ,2009-04-08 16:00,ZGSZ 081600Z AUTO 11004KT 4SM 21/16 A3003 RMK T02100160 IEM_DS3505
ZGSZ,2009-04-08 17:00,ZGSZ 081700Z AUTO 11006KT 4SM 21/15 A3000 RMK T02100150 IEM_DS3505
ZGSZ,2009-04-08 18:00,ZGSZ 081800Z AUTO 09008KT 7SM 20/10 A3000 RMK SLP165 T01980102 57008 IEM_DS3505
ZGSZ,2009-04-08 19:00,ZGSZ 081900Z AUTO 10008KT 6SM 20/12 A2997 RMK T02000120 IEM_DS3505
ZGSZ,2009-04-08 20:00,ZGSZ 082000Z AUTO 07006KT 6SM 21/11 A3000 RMK T02100110 IEM_DS3505
ZGSZ,2009-04-08 21:00,ZGSZ 082100Z AUTO 09004KT 7SM 20/09 A3000 RMK SLP165 T01970090 54000 IEM_DS3505
ZGSZ,2009-04-08 22:00,ZGSZ 082200Z AUTO 6SM 20/11 A3003 RMK T02000110 IEM_DS3505
ZGSZ,2009-04-08 23:00,ZGSZ 082300Z AUTO 09006KT 6SM 20/11 A3003 RMK T02000110 IEM_DS3505
ZGSZ,2009-04-09 00:00,ZGSZ 090000Z AUTO 07006KT 8SM 20/07 A3006 RMK SLP178 T01990066 52013 IEM_DS3505
ZGSZ,2009-04-09 01:00,ZGSZ 090100Z AUTO 08004KT 6SM 22/10 A3006 RMK T02200100 IEM_DS3505
ZGSZ,2009-04-09 02:00,ZGSZ 090200Z AUTO 05004KT 6SM 22/12 A3006 RMK T02200120 IEM_DS3505
ZGSZ,2009-04-09 03:00,ZGSZ 090300Z AUTO 09004KT 8SM 22/08 A3003 RMK SLP180 T02210079 52002 IEM_DS3505
ZGSZ,2009-04-09 04:00,ZGSZ 090400Z AUTO 02004KT 6SM 25/13 A3003 RMK T02500130 IEM_DS3505
ZGSZ,2009-04-09 05:00,ZGSZ 090500Z AUTO 36006KT 5SM 25/13 A3000 RMK T02500130 IEM_DS3505
ZGSZ,2009-04-09 06:00,ZGSZ 090600Z AUTO 09002KT 8SM 25/09 A2997 RMK SLP159 T02460086 57021 IEM_DS3505
ZGSZ,2009-04-09 07:00,ZGSZ 090700Z AUTO 26008KT 3SM 24/12 A2997 RMK T02400120 IEM_DS3505
ZGSZ,2009-04-09 08:00,ZGSZ 090800Z AUTO 23004KT 4SM 24/11 A2994 RMK T02400110 IEM_DS3505
ZGSZ,2009-04-09 09:00,ZGSZ 090900Z AUTO 07004KT 8SM 23/10 A2994 RMK SLP148 T02340105 57011 IEM_DS3505
ZGSZ,2009-04-09 10:00,ZGSZ 091000Z AUTO 23004KT 5SM 23/14 A2994 RMK T02300140 IEM_DS3505
ZGSZ,2009-04-09 11:00,ZGSZ 091100Z AUTO 00000KT 4SM 22/14 A2997 RMK T02200140 IEM_DS3505
ZGSZ,2009-04-09 12:00,ZGSZ 091200Z AUTO 09004KT 6SM 20/13 A3000 RMK SLP163 T02020127 52015 IEM_DS3505
ZGSZ,2009-04-09 13:00,ZGSZ 091300Z AUTO 09008KT 6SM 22/13 A3003 RMK T02200130 IEM_DS3505
ZGSZ,2009-04-09 14:00,ZGSZ 091400Z AUTO 09004KT 5SM 21/13 A3003 RMK T02100130 IEM_DS3505
ZGSZ,2009-04-09 15:00,ZGSZ 091500Z AUTO 09004KT 4SM 19/13 A3003 RMK SLP177 T01940133 52014 IEM_DS3505
ZGSZ,2009-04-09 16:00,ZGSZ 091600Z AUTO 10004KT 4SM 21/14 A3003 RMK T02100140 IEM_DS3505
ZGSZ,2009-04-09 17:00,ZGSZ 091700Z AUTO 08002KT 4SM 20/14 A3003 RMK T02000140 IEM_DS3505
ZGSZ,2009-04-09 18:00,ZGSZ 091800Z AUTO 09004KT 5SM 19/14 A3000 RMK SLP163 T01890135 57014 IEM_DS3505
ZGSZ,2009-04-09 19:00,ZGSZ 091900Z AUTO 11004KT 3SM 20/14 A2997 RMK T02000140 IEM_DS3505
ZGSZ,2009-04-09 20:00,ZGSZ 092000Z AUTO 12006KT 4SM 19/14 A2994 RMK T01900140 IEM_DS3505
ZGSZ,2009-04-09 21:00,ZGSZ 092100Z AUTO 09004KT 7SM 19/12 A2997 RMK SLP148 T01870115 57015 IEM_DS3505
ZGSZ,2009-04-09 22:00,ZGSZ 092200Z AUTO 05002KT 5SM 20/13 A2997 RMK T02000130 IEM_DS3505
ZGSZ,2009-04-09 23:00,ZGSZ 092300Z AUTO 04006KT 3SM 20/14 A3000 RMK T02000140 IEM_DS3505
ZGSZ,2009-04-10 00:00,ZGSZ 100000Z AUTO 07010KT 9SM 20/10 A3003 RMK SLP174 T01970101 52026 IEM_DS3505
ZGSZ,2009-04-10 01:00,ZGSZ 100100Z AUTO 05006KT 4SM 21/12 A3006 RMK T02100120 IEM_DS3505
ZGSZ,2009-04-10 02:00,ZGSZ 100200Z AUTO 05006KT 7SM 23/11 A3006 RMK T02300110 IEM_DS3505
ZGSZ,2009-04-10 03:00,ZGSZ 100300Z AUTO 09006KT 10SM 22/08 A3003 RMK SLP178 T02220080 52004 IEM_DS3505
ZGSZ,2009-04-10 04:00,ZGSZ 100400Z AUTO 12006KT 7SM 25/09 A3003 RMK T02500090 IEM_DS3505
ZGSZ,2009-04-10 05:00,ZGSZ 100500Z AUTO 22008KT 7SM 23/13 A3000 RMK T02300130 IEM_DS3505
ZGSZ,2009-04-10 06:00,ZGSZ 100600Z AUTO 07004KT 16SM 23/08 A2997 RMK SLP148 T02300083 57030 IEM_DS3505
ZGSZ,2009-04-10 07:00,ZGSZ 100700Z AUTO 25008KT 7SM 24/14 A2994 RMK T02400140 IEM_DS3505
ZGSZ,2009-04-10 08:00,ZGSZ 100800Z AUTO 25006KT 6SM 24/14 A2991 RMK T02400140 IEM_DS3505
ZGSZ,2009-04-10 09:00,ZGSZ 100900Z AUTO 11004KT 16SM 25/08 A2991 RMK SLP137 T02470078 57011 IEM_DS3505
ZGSZ,2009-04-10 10:00,ZGSZ 101000Z AUTO 20006KT 6SM 23/14 A2994 RMK T02300140 IEM_DS3505
ZGSZ,2009-04-10 11:00,ZGSZ 101100Z AUTO 17004KT 6SM 22/14 A2994 RMK T02200140 IEM_DS3505
ZGSZ,2009-04-10 12:00,ZGSZ 101200Z AUTO 09004KT 12SM 21/12 A2994 RMK SLP148 T02140120 52011 IEM_DS3505
ZGSZ,2009-04-10 13:00,ZGSZ 101300Z AUTO 15004KT 6SM 21/16 A2997 RMK T02100160 IEM_DS3505
ZGSZ,2009-04-10 14:00,ZGSZ 101400Z AUTO 10006KT 6SM 22/13 A2997 RMK T02200130 IEM_DS3505
ZGSZ,2009-04-10 15:00,ZGSZ 101500Z AUTO 09006KT 10SM 20/14 A2997 RMK SLP159 T02040143 52011 IEM_DS3505
ZGSZ,2009-04-10 16:00,ZGSZ 101600Z AUTO 11006KT 6SM 21/14 A3000 RMK T02100140 IEM_DS3505
ZGSZ,2009-04-10 17:00,ZGSZ 101700Z AUTO 11006KT 6SM 21/15 A2997 RMK T02100150 IEM_DS3505
ZGSZ,2009-04-10 18:00,ZGSZ 101800Z AUTO 09006KT 7SM 20/15 A2997 RMK SLP153 T01970147 57006 IEM_DS3505
ZGSZ,2009-04-10 19:00,ZGSZ 101900Z AUTO 10004KT 6SM 20/15 A2994 RMK T02000150 IEM_DS3505
ZGSZ,2009-04-10 20:00,ZGSZ 102000Z AUTO 10002KT 6SM 20/15 A2994 RMK T02000150 IEM_DS3505
ZGSZ,2009-04-10 21:00,ZGSZ 102100Z AUTO 07004KT 10SM 19/14 A2994 RMK SLP147 T01910135 57006 IEM_DS3505
ZGSZ,2009-04-10 22:00,ZGSZ 102200Z AUTO 11002KT 6SM 20/14 A2997 RMK T02000140 IEM_DS3505
ZGSZ,2009-04-10 23:00,ZGSZ 102300Z AUTO 12006KT 6SM 21/14 A2997 RMK T02100140 IEM_DS3505
ZGSZ,2009-04-11 00:00,ZGSZ 110000Z AUTO 09004KT 9SM 20/15 A2997 RMK SLP158 T02010147 52011 IEM_DS3505
ZGSZ,2009-04-11 01:00,ZGSZ 110100Z AUTO 11010KT 6SM 23/14 A2997 RMK T02300140 IEM_DS3505
ZGSZ,2009-04-11 02:00,ZGSZ 110200Z AUTO 11008KT 6SM 25/14 A2997 RMK T02500140 IEM_DS3505
ZGSZ,2009-04-11 03:00,ZGSZ 110300Z AUTO 14010KT 10SM 23/15 A2997 RMK SLP157 T02340149 57001 IEM_DS3505
ZGSZ,2009-04-11 04:00,ZGSZ 110400Z AUTO 21008KT 6SM 25/17 A2994 RMK T02500170 IEM_DS3505
ZGSZ,2009-04-11 05:00,ZGSZ 110500Z AUTO 6SM 27/15 A2994 RMK T02700150 IEM_DS3505
ZGSZ,2009-04-11 06:00,ZGSZ 110600Z AUTO 09006KT 9SM 26/16 A2991 RMK SLP135 T02560159 57022 IEM_DS3505
ZGSZ,2009-04-11 07:00,ZGSZ 110700Z AUTO 19010KT 6SM 26/17 A2988 RMK T02600170 IEM_DS3505
ZGSZ,2009-04-11 08:00,ZGSZ 110800Z AUTO 19012KT 6SM 26/18 A2985 RMK T02600180 IEM_DS3505
ZGSZ,2009-04-11 09:00,ZGSZ 110900Z AUTO 14006KT 9SM 24/14 A2988 RMK SLP124 T02430138 57011 IEM_DS3505
ZGSZ,2009-04-11 10:00,ZGSZ 111000Z AUTO 20010KT 4SM 23/18 A2988 RMK T02300180 IEM_DS3505
ZGSZ,2009-04-11 11:00,ZGSZ 111100Z AUTO 10008KT 6SM 24/15 A2988 RMK T02400150 IEM_DS3505
ZGSZ,2009-04-11 12:00,ZGSZ 111200Z AUTO 07008KT 9SM 21/16 A2991 RMK SLP133 T02130161 52009 IEM_DS3505
ZGSZ,2009-04-11 13:00,ZGSZ 111300Z AUTO 09004KT 6SM 23/15 A2991 RMK T02300150 IEM_DS3505
ZGSZ,2009-04-11 14:00,ZGSZ 111400Z AUTO 13010KT 6SM 22/16 A2991 RMK T02200160 IEM_DS3505
ZGSZ,2009-04-11 15:00,ZGSZ 111500Z AUTO 09004KT 8SM 20/16 A2991 RMK SLP141 T02020164 52008 IEM_DS3505
ZGSZ,2009-04-11 16:00,ZGSZ 111600Z AUTO 12008KT 6SM 21/15 A2991 RMK T02100150 IEM_DS3505
ZGSZ,2009-04-11 17:00,ZGSZ 111700Z AUTO 10008KT 6SM 21/16 A2988 RMK T02100160 IEM_DS3505
ZGSZ,2009-04-11 18:00,ZGSZ 111800Z AUTO 09004KT 6SM 20/17 A2988 RMK SLP122 T02000172 57018 IEM_DS3505
ZGSZ,2009-04-11 19:00,ZGSZ 111900Z AUTO 05004KT 6SM 21/16 A2988 RMK T02100160 IEM_DS3505
ZGSZ,2009-04-11 20:00,ZGSZ 112000Z AUTO 00000KT 6SM 20/16 A2985 RMK T02000160 IEM_DS3505
ZGSZ,2009-04-11 21:00,ZGSZ 112100Z AUTO 09004KT 4SM 20/18 A2985 RMK SLP120 T02020178 57003 IEM_DS3505
ZGSZ,2009-04-11 22:00,ZGSZ 112200Z AUTO 15004KT 3SM 21/17 A2988 RMK T02100170 IEM_DS3505
ZGSZ,2009-04-11 23:00,ZGSZ 112300Z AUTO 12004KT 4SM 22/18 A2991 RMK T02200180 IEM_DS3505
ZGSZ,2009-04-12 00:00,ZGSZ 120000Z AUTO 09004KT 5SM 22/19 A2991 RMK SLP132 T02190187 52012 IEM_DS3505
ZGSZ,2009-04-12 01:00,ZGSZ 120100Z AUTO 4SM 23/19 A2994 RMK T02300190 IEM_DS3505
ZGSZ,2009-04-12 02:00,ZGSZ 120200Z AUTO 26004KT 3SM 24/19 A2994 RMK T02400190 IEM_DS3505
ZGSZ,2009-04-12 03:00,ZGSZ 120300Z AUTO 11002KT 6SM 25/19 A2994 RMK SLP137 T02500189 52005 IEM_DS3505
ZGSZ,2009-04-12 04:00,ZGSZ 120400Z AUTO 28006KT 2 1/2SM 25/20 A2991 RMK T02500200 IEM_DS3505
ZGSZ,2009-04-12 05:00,ZGSZ 120500Z AUTO 25004KT 3SM 25/20 A2988 RMK T02500200 IEM_DS3505
ZGSZ,2009-04-12 06:00,ZGSZ 120600Z AUTO 18004KT 7SM 26/19 A2983 RMK SLP109 T02570186 57027 IEM_DS3505
ZGSZ,2009-04-12 07:00,ZGSZ 120700Z AUTO 25008KT 3SM 24/20 A2983 RMK T02400200 IEM_DS3505
ZGSZ,2009-04-12 08:00,ZGSZ 120800Z AUTO 22006KT 4SM 24/20 A2980 RMK T02400200 IEM_DS3505
ZGSZ,2009-04-12 09:00,ZGSZ 120900Z AUTO 20004KT 7SM 24/20 A2980 RMK SLP094 T02410196 57015 IEM_DS3505
ZGSZ,2009-04-12 10:00,ZGSZ 121000Z AUTO 15006KT 2 1/2SM 23/20 A2977 RMK T02300200 IEM_DS3505
ZGSZ,2009-04-12 11:00,ZGSZ 121100Z AUTO 16006KT 2SM 23/21 A2977 RMK T02300210 IEM_DS3505
ZGSZ,2009-04-12 12:00,ZGSZ 121200Z AUTO 07002KT 6SM 22/19 A2980 RMK 60000 SLP087 T02240194 57007 IEM_DS3505
ZGSZ,2009-04-12 13:00,ZGSZ 121300Z AUTO 36004KT 3SM 23/21 A2980 RMK T02300210 IEM_DS3505
ZGSZ,2009-04-12 14:00,ZGSZ 121400Z AUTO 30008KT 2SM 23/21 A2983 RMK T02300210 IEM_DS3505
ZGSZ,2009-04-12 15:00,ZGSZ 121500Z AUTO 2 1/2SM 23/21 A2985 RMK T02300210 IEM_DS3505
ZGSZ,2009-04-12 16:00,ZGSZ 121600Z AUTO 15004KT 2SM 23/21 A2983 RMK T02300210 IEM_DS3505
ZGSZ,2009-04-12 17:00,ZGSZ 121700Z AUTO 18006KT 2SM 22/21 A2983 RMK T02200210 IEM_DS3505
ZGSZ,2009-04-12 18:00,ZGSZ 121800Z AUTO 21004KT 1 1/2SM 22/21 A2980 RMK T02200210 IEM_DS3505
ZGSZ,2009-04-12 19:00,ZGSZ 121900Z AUTO 19002KT 2SM 22/21 A2977 RMK T02200210 IEM_DS3505
ZGSZ,2009-04-12 20:00,ZGSZ 122000Z AUTO 16004KT 2SM 22/20 A2974 RMK T02200200 IEM_DS3505
ZGSZ,2009-04-12 21:00,ZGSZ 122100Z AUTO 36002KT 4SM 21/20 A2974 RMK 70002 SLP078 T02080196 57019 IEM_DS3505
ZGSZ,2009-04-12 22:00,ZGSZ 122200Z AUTO 00000KT 1 1/2SM 22/20 A2977 RMK T02200200 IEM_DS3505
ZGSZ,2009-04-12 23:00,ZGSZ 122300Z AUTO 32002KT 2SM 22/21 A2977 RMK T02200210 IEM_DS3505
ZGSZ,2009-04-13 00:00,ZGSZ 130000Z AUTO 04002KT 2 1/2SM 23/20 A2980 RMK 70002 SLP090 T02260205 52012 IEM_DS3505
ZGSZ,2009-04-13 01:00,ZGSZ 130100Z AUTO 2 1/2SM 25/21 A2980 RMK T02500210 IEM_DS3505
ZGSZ,2009-04-13 02:00,ZGSZ 130200Z AUTO 4SM 26/22 A2980 RMK T02600220 IEM_DS3505
ZGSZ,2009-04-13 03:00,ZGSZ 130300Z AUTO 25004KT 4SM 26/22 A2977 RMK SLP085 T02650215 57005 IEM_DS3505
ZGSZ,2009-04-13 04:00,ZGSZ 130400Z AUTO 16004KT 6SM 28/22 A2977 RMK T02800220 IEM_DS3505
ZGSZ,2009-04-13 05:00,ZGSZ 130500Z AUTO 17008KT 6SM 29/21 A2971 RMK T02900210 IEM_DS3505
ZGSZ,2009-04-13 06:00,ZGSZ 130600Z AUTO 22004KT 9SM 28/20 A2968 RMK SLP057 T02750201 57028 IEM_DS3505
ZGSZ,2009-04-13 07:00,ZGSZ 130700Z AUTO 18006KT 4SM 25/22 A2968 RMK T02500220 IEM_DS3505
ZGSZ,2009-04-13 08:00,ZGSZ 130800Z AUTO 7SM 22/20 A2968 RMK T02200200 IEM_DS3505
ZGSZ,2009-04-13 09:00,ZGSZ 130900Z AUTO 25004KT 6SM 24/22 A2971 RMK SLP058 T02380215 52001 IEM_DS3505
ZGSZ,2009-04-13 10:00,ZGSZ 131000Z AUTO 15004KT 7SM 24/21 A2971 RMK T02400210 IEM_DS3505
ZGSZ,2009-04-13 11:00,ZGSZ 131100Z AUTO 7SM 24/21 A2971 RMK T02400210 IEM_DS3505
ZGSZ,2009-04-13 12:00,ZGSZ 131200Z AUTO 20002KT 11SM 23/20 A2974 RMK 60012 SLP072 T02330197 52014 IEM_DS3505
ZGSZ,2009-04-13 13:00,ZGSZ 131300Z AUTO 7SM 24/21 A2974 RMK T02400210 IEM_DS3505
ZGSZ,2009-04-13 14:00,ZGSZ 131400Z AUTO 16002KT 6SM 23/21 A2977 RMK T02300210 IEM_DS3505
ZGSZ,2009-04-13 15:00,ZGSZ 131500Z AUTO 00000KT 9SM 22/20 A2977 RMK SLP081 T02230198 52009 IEM_DS3505
ZGSZ,2009-04-13 16:00,ZGSZ 131600Z AUTO 22002KT 4SM 22/21 A2977 RMK T02200210 IEM_DS3505
ZGSZ,2009-04-13 17:00,ZGSZ 131700Z AUTO 15002KT 4SM 22/20 A2977 RMK T02200200 IEM_DS3505
ZGSZ,2009-04-13 18:00,ZGSZ 131800Z AUTO 07002KT 7SM 22/20 A2974 RMK SLP077 T02240205 57004 IEM_DS3505
ZGSZ,2009-04-13 19:00,ZGSZ 131900Z AUTO 16004KT 3SM 23/21 A2974 RMK T02300210 IEM_DS3505
ZGSZ,2009-04-13 20:00,ZGSZ 132000Z AUTO 00000KT 4SM 22/21 A2971 RMK T02200210 IEM_DS3505
ZGSZ,2009-04-13 21:00,ZGSZ 132100Z AUTO 18002KT 4SM 22/21 A2971 RMK 70011 SLP070 T02180206 57007 IEM_DS3505
ZGSZ,2009-04-13 22:00,ZGSZ 132200Z AUTO 00000KT 3SM 22/21 A2974 RMK T02200210 IEM_DS3505
ZGSZ,2009-04-13 23:00,ZGSZ 132300Z AUTO 36004KT 1 1/2SM 22/21 A2977 RMK T02200210 IEM_DS3505
ZGSZ,2009-04-14 00:00,ZGSZ 140000Z AUTO 22004KT 4SM 23/21 A2977 RMK 70011 SLP087 T02340209 52017 IEM_DS3505
ZGSZ,2009-04-14 01:00,ZGSZ 140100Z AUTO 01004KT 1 1/4SM 24/21 A2980 RMK T02400210 IEM_DS3505
ZGSZ,2009-04-14 02:00,ZGSZ 140200Z AUTO 2SM 26/22 A2980 RMK T02600220 IEM_DS3505
ZGSZ,2009-04-14 03:00,ZGSZ 140300Z AUTO 11002KT 4SM 28/20 A2980 RMK SLP091 T02770203 52004 IEM_DS3505
ZGSZ,2009-04-14 04:00,ZGSZ 140400Z AUTO 27006KT 2SM 27/22 A2980 RMK T02700220 IEM_DS3505
ZGSZ,2009-04-14 05:00,ZGSZ 140500Z AUTO 28008KT 2 1/2SM 28/22 A2977 RMK T02800220 IEM_DS3505
ZGSZ,2009-04-14 06:00,ZGSZ 140600Z AUTO 22004KT 2 1/2SM 28/21 A2974 RMK SLP072 T02750211 57018 IEM_DS3505
ZGSZ,2009-04-14 07:00,ZGSZ 140700Z AUTO 24006KT 3SM 29/21 A2971 RMK T02900210 IEM_DS3505
ZGSZ,2009-04-14 08:00,ZGSZ 140800Z AUTO 22004KT 3SM 29/21 A2971 RMK T02900210 IEM_DS3505
ZGSZ,2009-04-14 09:00,ZGSZ 140900Z AUTO 22004KT 2SM 29/20 A2968 RMK SLP059 T02880203 57013 IEM_DS3505
ZGSZ,2009-04-14 10:00,ZGSZ 141000Z AUTO 18006KT 2 1/2SM 28/21 A2968 RMK T02800210 IEM_DS3505
ZGSZ,2009-04-14 11:00,ZGSZ 141100Z AUTO 16006KT 1 1/4SM 26/22 A2971 RMK T02600220 IEM_DS3505
ZGSZ,2009-04-14 12:00,ZGSZ 141200Z AUTO 20004KT 2 1/2SM 25/21 A2974 RMK SLP077 T02490208 52017 IEM_DS3505
ZGSZ,2009-04-14 13:00,ZGSZ 141300Z AUTO 19004KT 2SM 24/22 A2977 RMK T02400220 IEM_DS3505
ZGSZ,2009-04-14 14:00,ZGSZ 141400Z AUTO 17004KT 1 1/4SM 24/22 A2977 RMK T02400220 IEM_DS3505
ZGSZ,2009-04-14 15:00,ZGSZ 141500Z AUTO 07004KT 3SM 24/20 A2980 RMK SLP094 T02450196 52018 IEM_DS3505
ZGSZ,2009-04-14 16:00,ZGSZ 141600Z AUTO 14002KT 1 1/2SM 23/22 A2980 RMK T02300220 IEM_DS3505
ZGSZ,2009-04-14 17:00,ZGSZ 141700Z AUTO 17002KT 1 1/2SM 23/22 A2980 RMK T02300220 IEM_DS3505
ZGSZ,2009-04-14 18:00,ZGSZ 141800Z AUTO 07004KT 4SM 23/21 A2980 RMK SLP094 T02300207 57001 IEM_DS3505
ZGSZ,2009-04-14 19:00,ZGSZ 141900Z AUTO 10006KT 4SM 24/20 A2977 RMK T02400200 IEM_DS3505
ZGSZ,2009-04-14 20:00,ZGSZ 142000Z AUTO 11006KT 3SM 24/20 A2980 RMK T02400200 IEM_DS3505
ZGSZ,2009-04-14 21:00,ZGSZ 142100Z AUTO 07006KT 3SM 22/20 A2980 RMK SLP096 T02170196 52002 IEM_DS3505
ZGSZ,2009-04-14 22:00,ZGSZ 142200Z AUTO 11008KT 3SM 23/20 A2983 RMK T02300200 IEM_DS3505
ZGSZ,2009-04-14 23:00,ZGSZ 142300Z AUTO 12006KT 4SM 23/19 A2983 RMK T02300190 IEM_DS3505
ZGSZ,2009-04-15 00:00,ZGSZ 150000Z AUTO 07004KT 4SM 23/19 A2985 RMK SLP112 T02270193 52016 IEM_DS3505
ZGSZ,2009-04-15 01:00,ZGSZ 150100Z AUTO 10008KT 4SM 26/20 A2983 RMK T02600200 IEM_DS3505
ZGSZ,2009-04-15 02:00,ZGSZ 150200Z AUTO 12008KT 4SM 27/20 A2983 RMK T02700200 IEM_DS3505
ZGSZ,2009-04-15 03:00,ZGSZ 150300Z AUTO 07004KT 5SM 26/19 A2983 RMK SLP103 T02580194 57009 IEM_DS3505
ZGSZ,2009-04-15 04:00,ZGSZ 150400Z AUTO 29006KT 4SM 26/22 A2983 RMK T02600220 IEM_DS3505
ZGSZ,2009-04-15 05:00,ZGSZ 150500Z AUTO 22006KT 4SM 26/20 A2980 RMK T02600200 IEM_DS3505
ZGSZ,2009-04-15 06:00,ZGSZ 150600Z AUTO 11006KT 8SM 26/18 A2977 RMK SLP086 T02580182 57017 IEM_DS3505
ZGSZ,2009-04-15 07:00,ZGSZ 150700Z AUTO 20006KT 4SM 26/21 A2974 RMK T02600210 IEM_DS3505
ZGSZ,2009-04-15 08:00,ZGSZ 150800Z AUTO 12010KT 5SM 27/19 A2974 RMK T02700190 IEM_DS3505
ZGSZ,2009-04-15 09:00,ZGSZ 150900Z AUTO 09006KT 9SM 24/18 A2971 RMK SLP071 T02350177 57015 IEM_DS3505
ZGSZ,2009-04-15 10:00,ZGSZ 151000Z AUTO 11008KT 6SM 25/19 A2971 RMK T02500190 IEM_DS3505
ZGSZ,2009-04-15 11:00,ZGSZ 151100Z AUTO 13008KT 4SM 24/19 A2974 RMK T02400190 IEM_DS3505
ZGSZ,2009-04-15 12:00,ZGSZ 151200Z AUTO 07006KT 6SM 21/19 A2974 RMK 60004 SLP077 T02090192 52006 IEM_DS3505
ZGSZ,2009-04-15 13:00,ZGSZ 151300Z AUTO 12006KT 7SM 23/20 A2977 RMK T02300200 IEM_DS3505
ZGSZ,2009-04-15 14:00,ZGSZ 151400Z AUTO 06006KT 7SM 24/20 A2980 RMK T02400200 IEM_DS3505
ZGSZ,2009-04-15 15:00,ZGSZ 151500Z AUTO 07006KT 4SM 22/20 A2977 RMK SLP088 T02190205 52011 IEM_DS3505
ZGSZ,2009-04-15 16:00,ZGSZ 151600Z AUTO 03008KT 1 1/2SM 22/20 A2977 RMK T02200200 IEM_DS3505
ZGSZ,2009-04-15 17:00,ZGSZ 151700Z AUTO 04012KT 1SM 21/20 A2977 RMK T02100200 IEM_DS3505
ZGSZ,2009-04-15 18:00,ZGSZ 151800Z AUTO 11006KT 1/2SM 20/20 A2974 RMK 60138 SLP088 T02050195 54000 IEM_DS3505
ZGSZ,2009-04-15 19:00,ZGSZ 151900Z AUTO 14008KT 7SM 22/19 A2974 RMK T02200190 IEM_DS3505
ZGSZ,2009-04-15 20:00,ZGSZ 152000Z AUTO 15004KT 7SM 20/18 A2974 RMK T02000180 IEM_DS3505
ZGSZ,2009-04-15 21:00,ZGSZ 152100Z AUTO 07006KT 16SM 20/19 A2968 RMK 70180 SLP059 T02020194 57029 IEM_DS3505
ZGSZ,2009-04-15 22:00,ZGSZ 152200Z AUTO 15004KT 6SM 21/19 A2965 RMK T02100190 IEM_DS3505
ZGSZ,2009-04-15 23:00,ZGSZ 152300Z AUTO 34008KT 6SM 22/19 A2968 RMK T02200190 IEM_DS3505
ZGSZ,2009-04-16 00:00,ZGSZ 160000Z AUTO 22002KT 12SM 22/19 A2971 RMK 60039 70181 SLP058 T02220194 57001 IEM_DS3505
ZGSZ,2009-04-16 01:00,ZGSZ 160100Z AUTO 4SM 24/20 A2971 RMK T02400200 IEM_DS3505
ZGSZ,2009-04-16 02:00,ZGSZ 160200Z AUTO 29004KT 5SM 24/20 A2971 RMK T02400200 IEM_DS3505
ZGSZ,2009-04-16 03:00,ZGSZ 160300Z AUTO 02002KT 7SM 26/18 A2971 RMK SLP061 T02620183 52003 IEM_DS3505
ZGSZ,2009-04-16 04:00,ZGSZ 160400Z AUTO 29006KT 3SM 25/21 A2971 RMK T02500210 IEM_DS3505
ZGSZ,2009-04-16 05:00,ZGSZ 160500Z AUTO 29004KT 4SM 27/21 A2965 RMK T02700210 IEM_DS3505
ZGSZ,2009-04-16 06:00,ZGSZ 160600Z AUTO 11004KT 11SM 25/19 A2965 RMK SLP041 T02520186 57020 IEM_DS3505
ZGSZ,2009-04-16 07:00,ZGSZ 160700Z AUTO 19006KT 5SM 24/20 A2962 RMK T02400200 IEM_DS3505
ZGSZ,2009-04-16 08:00,ZGSZ 160800Z AUTO 7SM 25/20 A2959 RMK T02500200 IEM_DS3505
ZGSZ,2009-04-16 09:00,ZGSZ 160900Z AUTO 00000KT 8SM 24/20 A2962 RMK SLP032 T02440197 57009 IEM_DS3505
ZGSZ,2009-04-16 10:00,ZGSZ 161000Z AUTO 36004KT 4SM 21/20 A2962 RMK T02100200 IEM_DS3505
ZGSZ,2009-04-16 11:00,ZGSZ 161100Z AUTO 3SM 22/20 A2962 RMK T02200200 IEM_DS3505
ZGSZ,2009-04-16 12:00,ZGSZ 161200Z AUTO 36004KT 5SM 22/21 A2965 RMK 60008 SLP037 T02200210 52005 IEM_DS3505
ZGSZ,2009-04-16 13:00,ZGSZ 161300Z AUTO 2SM 23/20 A2965 RMK T02300200 IEM_DS3505
ZGSZ,2009-04-16 14:00,ZGSZ 161400Z AUTO 02004KT 1 1/2SM 23/21 A2968 RMK T02300210 IEM_DS3505
ZGSZ,2009-04-16 15:00,ZGSZ 161500Z AUTO 36002KT 4SM 21/20 A2968 RMK SLP052 T02140204 52015 IEM_DS3505
ZGSZ,2009-04-16 16:00,ZGSZ 161600Z AUTO 02004KT 2SM 22/20 A2968 RMK T02200200 IEM_DS3505
ZGSZ,2009-04-16 17:00,ZGSZ 161700Z AUTO 2SM 22/20 A2968 RMK T02200200 IEM_DS3505
ZGSZ,2009-04-16 18:00,ZGSZ 161800Z AUTO 04004KT 2 1/2SM 21/20 A2965 RMK SLP047 T02130199 57005 IEM_DS3505
ZGSZ,2009-04-16 19:00,ZGSZ 161900Z AUTO 01004KT 2SM 21/20 A2968 RMK T02100200 IEM_DS3505
ZGSZ,2009-04-16 20:00,ZGSZ 162000Z AUTO 1 1/2SM 22/20 A2968 RMK T02200200 IEM_DS3505
ZGSZ,2009-04-16 21:00,ZGSZ 162100Z AUTO 07002KT 3SM 21/20 A2971 RMK 70009 SLP058 T02100195 52011 IEM_DS3505
ZGSZ,2009-04-16 22:00,ZGSZ 162200Z AUTO 04004KT 4SM 21/19 A2971 RMK T02100190 IEM_DS3505
ZGSZ,2009-04-16 23:00,ZGSZ 162300Z AUTO 3SM 23/20 A2974 RMK T02300200 IEM_DS3505
ZGSZ,2009-04-17 00:00,ZGSZ 170000Z AUTO 04002KT 4SM 23/20 A2974 RMK 70008 SLP074 T02330195 52016 IEM_DS3505
ZGSZ,2009-04-17 01:00,ZGSZ 170100Z AUTO 5SM 25/20 A2977 RMK T02500200 IEM_DS3505
ZGSZ,2009-04-17 02:00,ZGSZ 170200Z AUTO 06006KT 4SM 26/20 A2977 RMK T02600200 IEM_DS3505
ZGSZ,2009-04-17 03:00,ZGSZ 170300Z AUTO 02004KT 4SM 26/19 A2977 RMK SLP080 T02570194 52006 IEM_DS3505
ZGSZ,2009-04-17 04:00,ZGSZ 170400Z AUTO 25006KT 2 1/2SM 27/22 A2974 RMK T02700220 IEM_DS3505
ZGSZ,2009-04-17 05:00,ZGSZ 170500Z AUTO 27008KT 2 1/2SM 27/22 A2974 RMK T02700220 IEM_DS3505
ZGSZ,2009-04-17 06:00,ZGSZ 170600Z AUTO 22008KT 7SM 26/20 A2971 RMK SLP064 T02600203 57016 IEM_DS3505
ZGSZ,2009-04-17 07:00,ZGSZ 170700Z AUTO 19006KT 3SM 27/20 A2968 RMK T02700200 IEM_DS3505
ZGSZ,2009-04-17 08:00,ZGSZ 170800Z AUTO 17006KT 3SM 27/21 A2968 RMK T02700210 IEM_DS3505
ZGSZ,2009-04-17 09:00,ZGSZ 170900Z AUTO 07006KT 14SM 26/19 A2968 RMK SLP057 T02550194 57007 IEM_DS3505
ZGSZ,2009-04-17 10:00,ZGSZ 171000Z AUTO 11010KT 6SM 27/20 A2968 RMK T02700200 IEM_DS3505
ZGSZ,2009-04-17 11:00,ZGSZ 171100Z AUTO 12012KT 6SM 25/19 A2971 RMK T02500190 IEM_DS3505
ZGSZ,2009-04-17 12:00,ZGSZ 171200Z AUTO 11010KT 11SM 23/19 A2974 RMK SLP079 T02260188 52022 IEM_DS3505
ZGSZ,2009-04-17 13:00,ZGSZ 171300Z AUTO 10012KT 7SM 24/19 A2977 RMK T02400190 IEM_DS3505
ZGSZ,2009-04-17 14:00,ZGSZ 171400Z AUTO 10010KT 6SM 24/19 A2980 RMK T02400190 IEM_DS3505
ZGSZ,2009-04-17 15:00,ZGSZ 171500Z AUTO 09006KT 11SM 22/18 A2985 RMK SLP110 T02230183 52031 IEM_DS3505
ZGSZ,2009-04-17 16:00,ZGSZ 171600Z AUTO 13014KT 7SM 23/18 A2983 RMK T02300180 IEM_DS3505
ZGSZ,2009-04-17 17:00,ZGSZ 171700Z AUTO 12012KT 7SM 23/18 A2983 RMK T02300180 IEM_DS3505
ZGSZ,2009-04-17 18:00,ZGSZ 171800Z AUTO 09010KT 16SM 22/18 A2977 RMK SLP093 T02210177 57017 IEM_DS3505
ZGSZ,2009-04-17 19:00,ZGSZ 171900Z AUTO 10008KT 7SM 23/17 A2980 RMK T02300170 IEM_DS3505
ZGSZ,2009-04-17 20:00,ZGSZ 172000Z AUTO 11010KT 7SM 23/18 A2980 RMK T02300180 IEM_DS3505
ZGSZ,2009-04-17 21:00,ZGSZ 172100Z AUTO 07012KT 16SM 22/17 A2980 RMK SLP089 T02150173 57004 IEM_DS3505
ZGSZ,2009-04-17 22:00,ZGSZ 172200Z AUTO 09012KT 7SM 22/17 A2980 RMK T02200170 IEM_DS3505
ZGSZ,2009-04-17 23:00,ZGSZ 172300Z AUTO 10008KT 7SM 22/17 A2983 RMK T02200170 IEM_DS3505
ZGSZ,2009-04-18 00:00,ZGSZ 180000Z AUTO 07006KT 14SM 22/17 A2983 RMK SLP105 T02230170 52016 IEM_DS3505
ZGSZ,2009-04-18 01:00,ZGSZ 180100Z AUTO 10006KT 7SM 24/17 A2983 RMK T02400170 IEM_DS3505
ZGSZ,2009-04-18 02:00,ZGSZ 180200Z AUTO 09012G21KT 7SM 24/17 A2983 RMK T02400170 IEM_DS3505
ZGSZ,2009-04-18 03:00,ZGSZ 180300Z AUTO 04008KT 12SM 23/18 A2983 RMK SLP112 T02280175 52007 IEM_DS3505
ZGSZ,2009-04-18 04:00,ZGSZ 180400Z AUTO 10014KT 7SM 25/18 A2980 RMK T02500180 IEM_DS3505
ZGSZ,2009-04-18 05:00,ZGSZ 180500Z AUTO 11012KT 7SM 25/18 A2980 RMK T02500180 IEM_DS3505
ZGSZ,2009-04-18 06:00,ZGSZ 180600Z AUTO 11006KT 9SM 22/18 A2980 RMK 60000 SLP092 T02200182 57020 IEM_DS3505
ZGSZ,2009-04-18 07:00,ZGSZ 180700Z AUTO 09010KT 4SM 22/19 A2977 RMK T02200190 IEM_DS3505
ZGSZ,2009-04-18 08:00,ZGSZ 180800Z AUTO 08006KT 2 1/2SM 22/20 A2974 RMK T02200200 IEM_DS3505
ZGSZ,2009-04-18 09:00,ZGSZ 180900Z AUTO 14006KT 4SM 20/19 A2974 RMK SLP081 T02010194 57012 IEM_DS3505
ZGSZ,2009-04-18 10:00,ZGSZ 181000Z AUTO 12006KT 6SM 22/20 A2974 RMK T02200200 IEM_DS3505
ZGSZ,2009-04-18 11:00,ZGSZ 181100Z AUTO 11010KT 7SM 23/20 A2974 RMK T02300200 IEM_DS3505
ZGSZ,2009-04-18 12:00,ZGSZ 181200Z AUTO 07004KT 9SM 21/20 A2977 RMK 60098 SLP077 T02080198 57003 IEM_DS3505
ZGSZ,2009-04-18 13:00,ZGSZ 181300Z AUTO 11010KT 7SM 23/20 A2977 RMK T02300200 IEM_DS3505
ZGSZ,2009-04-18 14:00,ZGSZ 181400Z AUTO 11010KT 7SM 23/20 A2977 RMK T02300200 IEM_DS3505
ZGSZ,2009-04-18 15:00,ZGSZ 181500Z AUTO 09008KT 11SM 22/20 A2977 RMK SLP085 T02150201 52008 IEM_DS3505
ZGSZ,2009-04-18 16:00,ZGSZ 181600Z AUTO 12010KT 7SM 23/20 A2977 RMK T02300200 IEM_DS3505
ZGSZ,2009-04-18 17:00,ZGSZ 181700Z AUTO 12006KT 7SM 23/21 A2974 RMK T02300210 IEM_DS3505
ZGSZ,2009-04-18 18:00,ZGSZ 181800Z AUTO 09006KT 12SM 22/21 A2971 RMK 60001 SLP069 T02210211 57016 IEM_DS3505
ZGSZ,2009-04-18 19:00,ZGSZ 181900Z AUTO 11008KT 7SM 24/21 A2971 RMK T02400210 IEM_DS3505
ZGSZ,2009-04-18 20:00,ZGSZ 182000Z AUTO 12008KT 7SM 24/22 A2968 RMK T02400220 IEM_DS3505
ZGSZ,2009-04-18 21:00,ZGSZ 182100Z AUTO 09004KT 9SM 22/22 A2968 RMK 70102 SLP060 T02250217 57009 IEM_DS3505
ZGSZ,2009-04-18 22:00,ZGSZ 182200Z AUTO 12008KT 1 1/2SM 24/22 A2968 RMK T02400220 IEM_DS3505
ZGSZ,2009-04-18 23:00,ZGSZ 182300Z AUTO 12008KT 4SM 24/23 A2971 RMK T02400230 IEM_DS3505
ZGSZ,2009-04-19 00:00,ZGSZ 190000Z AUTO 18002KT 5SM 24/23 A2971 RMK 60003 70102 SLP069 T02400233 52009 IEM_DS3505
ZGSZ,2009-04-19 01:00,ZGSZ 190100Z AUTO 15010KT 7SM 26/24 A2971 RMK T02600240 IEM_DS3505
ZGSZ,2009-04-19 02:00,ZGSZ 190200Z AUTO 15008KT 5SM 26/24 A2971 RMK T02600240 IEM_DS3505
ZGSZ,2009-04-19 03:00,ZGSZ 190300Z AUTO 20004KT 4SM 25/24 A2968 RMK SLP058 T02530244 57011 IEM_DS3505
ZGSZ,2009-04-19 04:00,ZGSZ 190400Z AUTO 16016KT 7SM 27/25 A2965 RMK T02700250 IEM_DS3505
ZGSZ,2009-04-19 05:00,ZGSZ 190500Z AUTO 17016KT 4SM 26/25 A2962 RMK T02600250 IEM_DS3505
ZGSZ,2009-04-19 06:00,ZGSZ 190600Z AUTO 22004KT 5SM 26/25 A2959 RMK 60000 SLP025 T02620248 57032 IEM_DS3505
ZGSZ,2009-04-19 07:00,ZGSZ 190700Z AUTO 17012KT 3SM 26/25 A2956 RMK T02600250 IEM_DS3505
ZGSZ,2009-04-19 08:00,ZGSZ 190800Z AUTO 16010KT 3SM 26/24 A2956 RMK T02600240 IEM_DS3505
ZGSZ,2009-04-19 09:00,ZGSZ 190900Z AUTO 22008KT 8SM 27/25 A2956 RMK SLP015 T02690246 57010 IEM_DS3505
ZGSZ,2009-04-19 10:00,ZGSZ 191000Z AUTO 15012KT 3SM 26/25 A2956 RMK T02600250 IEM_DS3505
ZGSZ,2009-04-19 11:00,ZGSZ 191100Z AUTO 15012KT 4SM 26/25 A2959 RMK T02600250 IEM_DS3505
ZGSZ,2009-04-19 12:00,ZGSZ 191200Z AUTO 25004KT 4SM 26/24 A2959 RMK 60000 SLP028 T02590245 52013 IEM_DS3505
ZGSZ,2009-04-19 13:00,ZGSZ 191300Z AUTO 15010KT 4SM 26/24 A2959 RMK T02600240 IEM_DS3505
ZGSZ,2009-04-19 14:00,ZGSZ 191400Z AUTO 15010KT 4SM 26/24 A2962 RMK T02600240 IEM_DS3505
ZGSZ,2009-04-19 15:00,ZGSZ 191500Z AUTO 22002KT 6SM 26/24 A2962 RMK SLP033 T02630245 52005 IEM_DS3505
ZGSZ,2009-04-19 16:00,ZGSZ 191600Z AUTO 16010KT 2SM 26/24 A2959 RMK T02600240 IEM_DS3505
ZGSZ,2009-04-19 17:00,ZGSZ 191700Z AUTO 16010KT 1 1/2SM 26/25 A2956 RMK T02600250 IEM_DS3505
ZGSZ,2009-04-19 18:00,ZGSZ 191800Z AUTO 25006KT 4SM 26/25 A2956 RMK SLP017 T02580249 57016 IEM_DS3505
ZGSZ,2009-04-19 19:00,ZGSZ 191900Z AUTO 13004KT 1/4SM 25/24 A2956 RMK T02500240 IEM_DS3505
ZGSZ,2009-04-19 20:00,ZGSZ 192000Z AUTO 14004KT 1SM 25/24 A2956 RMK T02500240 IEM_DS3505
ZGSZ,2009-04-19 21:00,ZGSZ 192100Z AUTO 22002KT 1/4SM 25/24 A2956 RMK 70001 SLP018 T02490244 52001 IEM_DS3505
ZGSZ,2009-04-19 22:00,ZGSZ 192200Z AUTO 00000KT 1/8SM 25/24 A2959 RMK T02500240 IEM_DS3505
ZGSZ,2009-04-19 23:00,ZGSZ 192300Z AUTO 31004KT 3/8SM 25/24 A2962 RMK T02500240 IEM_DS3505
ZGSZ,2009-04-20 00:00,ZGSZ 200000Z AUTO 34004KT 1SM 26/25 A2962 RMK 60000 70000 SLP037 T02560251 52019 IEM_DS3505
ZGSZ,2009-04-20 01:00,ZGSZ 200100Z AUTO 01008KT 7SM 28/22 A2965 RMK T02800220 IEM_DS3505
ZGSZ,2009-04-20 02:00,ZGSZ 200200Z AUTO 01010KT 6SM 29/21 A2965 RMK T02900210 IEM_DS3505
ZGSZ,2009-04-20 03:00,ZGSZ 200300Z AUTO 04004KT 9SM 29/20 A2965 RMK SLP041 T02900196 52004 IEM_DS3505
ZGSZ,2009-04-20 04:00,ZGSZ 200400Z AUTO 30010KT 6SM 28/21 A2965 RMK T02800210 IEM_DS3505
ZGSZ,2009-04-20 05:00,ZGSZ 200500Z AUTO 34008KT 6SM 29/20 A2962 RMK T02900200 IEM_DS3505
ZGSZ,2009-04-20 06:00,ZGSZ 200600Z AUTO 02006KT 16SM 30/17 A2959 RMK 60000 SLP024 T02960174 57016 IEM_DS3505
ZGSZ,2009-04-20 07:00,ZGSZ 200700Z AUTO 31012KT 6SM 29/19 A2959 RMK T02900190 IEM_DS3505
ZGSZ,2009-04-20 08:00,ZGSZ 200800Z AUTO 30010KT 6SM 30/19 A2956 RMK T03000190 IEM_DS3505
ZGSZ,2009-04-20 09:00,ZGSZ 200900Z AUTO 04004KT 12SM 30/18 A2959 RMK SLP020 T02960184 57005 IEM_DS3505
ZGSZ,2009-04-20 10:00,ZGSZ 201000Z AUTO 29004KT 7SM 28/20 A2959 RMK T02800200 IEM_DS3505
ZGSZ,2009-04-20 11:00,ZGSZ 201100Z AUTO 32004KT 7SM 28/21 A2962 RMK T02800210 IEM_DS3505
ZGSZ,2009-04-20 12:00,ZGSZ 201200Z AUTO 02004KT 9SM 28/18 A2965 RMK SLP042 T02840185 52022 IEM_DS3505
ZGSZ,2009-04-20 13:00,ZGSZ 201300Z AUTO 01008KT 7SM 29/19 A2968 RMK T02900190 IEM_DS3505
ZGSZ,2009-04-20 14:00,ZGSZ 201400Z AUTO 03008KT 7SM 29/18 A2971 RMK T02900180 IEM_DS3505
ZGSZ,2009-04-20 15:00,ZGSZ 201500Z AUTO 04008KT 11SM 27/16 A2971 RMK SLP062 T02720159 52020 IEM_DS3505
ZGSZ,2009-04-20 16:00,ZGSZ 201600Z AUTO 05008KT 7SM 28/16 A2971 RMK T02800160 IEM_DS3505
ZGSZ,2009-04-20 17:00,ZGSZ 201700Z AUTO 04004KT 6SM 27/15 A2971 RMK T02700150 IEM_DS3505
ZGSZ,2009-04-20 18:00,ZGSZ 201800Z AUTO 02006KT 12SM 26/14 A2968 RMK SLP054 T02570145 57008 IEM_DS3505
ZGSZ,2009-04-20 19:00,ZGSZ 201900Z AUTO 05006KT 6SM 26/15 A2965 RMK T02600150 IEM_DS3505
ZGSZ,2009-04-20 20:00,ZGSZ 202000Z AUTO 35004KT 6SM 25/15 A2965 RMK T02500150 IEM_DS3505
ZGSZ,2009-04-20 21:00,ZGSZ 202100Z AUTO 04006KT 14SM 25/14 A2968 RMK 70000 SLP049 T02470139 57005 IEM_DS3505
ZGSZ,2009-04-20 22:00,ZGSZ 202200Z AUTO 05006KT 6SM 24/15 A2968 RMK T02400150 IEM_DS3505
ZGSZ,2009-04-20 23:00,ZGSZ 202300Z AUTO 04004KT 6SM 25/15 A2971 RMK T02500150 IEM_DS3505
ZGSZ,2009-04-21 00:00,ZGSZ 210000Z AUTO 07008KT 14SM 25/14 A2971 RMK 70000 SLP063 T02540136 52014 IEM_DS3505
ZGSZ,2009-04-21 01:00,ZGSZ 210100Z AUTO 04004KT 6SM 27/16 A2974 RMK T02700160 IEM_DS3505
ZGSZ,2009-04-21 02:00,ZGSZ 210200Z AUTO 05006KT 6SM 28/17 A2974 RMK T02800170 IEM_DS3505
ZGSZ,2009-04-21 03:00,ZGSZ 210300Z AUTO 07006KT 12SM 26/15 A2974 RMK SLP075 T02570154 52012 IEM_DS3505
ZGSZ,2009-04-21 04:00,ZGSZ 210400Z AUTO 04008KT 7SM 28/16 A2974 RMK T02800160 IEM_DS3505
ZGSZ,2009-04-21 05:00,ZGSZ 210500Z AUTO 03006KT 7SM 29/17 A2971 RMK T02900170 IEM_DS3505
ZGSZ,2009-04-21 06:00,ZGSZ 210600Z AUTO 09008KT 19SM 29/16 A2968 RMK 60000 SLP056 T02920164 57019 IEM_DS3505
ZGSZ,2009-04-21 07:00,ZGSZ 210700Z AUTO 7SM 29/17 A2968 RMK T02900170 IEM_DS3505
ZGSZ,2009-04-21 08:00,ZGSZ 210800Z AUTO 24004KT 7SM 28/20 A2968 RMK T02800200 IEM_DS3505
ZGSZ,2009-04-21 09:00,ZGSZ 210900Z AUTO 07004KT 16SM 26/17 A2968 RMK SLP061 T02630174 52005 IEM_DS3505
ZGSZ,2009-04-21 10:00,ZGSZ 211000Z AUTO 7SM 27/19 A2971 RMK T02700190 IEM_DS3505
ZGSZ,2009-04-21 11:00,ZGSZ 211100Z AUTO 11010KT 6SM 26/19 A2971 RMK T02600190 IEM_DS3505
ZGSZ,2009-04-21 12:00,ZGSZ 211200Z AUTO 09010KT 12SM 24/16 A2974 RMK SLP075 T02440161 52013 IEM_DS3505
ZGSZ,2009-04-21 13:00,ZGSZ 211300Z AUTO 11006KT 7SM 26/17 A2977 RMK T02600170 IEM_DS3505
ZGSZ,2009-04-21 14:00,ZGSZ 211400Z AUTO 15004KT 6SM 25/17 A2977 RMK T02500170 IEM_DS3505
ZGSZ,2009-04-21 15:00,ZGSZ 211500Z AUTO 11008KT 10SM 23/18 A2980 RMK SLP093 T02280175 52018 IEM_DS3505
ZGSZ,2009-04-21 16:00,ZGSZ 211600Z AUTO 10008KT 7SM 24/18 A2980 RMK T02400180 IEM_DS3505
ZGSZ,2009-04-21 17:00,ZGSZ 211700Z AUTO 10006KT 7SM 24/17 A2980 RMK T02400170 IEM_DS3505
ZGSZ,2009-04-21 18:00,ZGSZ 211800Z AUTO 09010KT 6SM 22/18 A2977 RMK SLP084 T02150177 57008 IEM_DS3505
ZGSZ,2009-04-21 19:00,ZGSZ 211900Z AUTO 11004KT 6SM 23/18 A2977 RMK T02300180 IEM_DS3505
ZGSZ,2009-04-21 20:00,ZGSZ 212000Z AUTO 6SM 23/18 A2977 RMK T02300180 IEM_DS3505
ZGSZ,2009-04-21 21:00,ZGSZ 212100Z AUTO 09004KT 6SM 22/18 A2977 RMK 70000 SLP086 T02180176 52001 IEM_DS3505
ZGSZ,2009-04-21 22:00,ZGSZ 212200Z AUTO 11004KT 7SM 23/18 A2980 RMK T02300180 IEM_DS3505
ZGSZ,2009-04-21 23:00,ZGSZ 212300Z AUTO 7SM 23/18 A2980 RMK T02300180 IEM_DS3505
ZGSZ,2009-04-22 00:00,ZGSZ 220000Z AUTO 07006KT 7SM 22/18 A2980 RMK 60000 70000 SLP094 T02250181 52008 IEM_DS3505
ZGSZ,2009-04-22 01:00,ZGSZ 220100Z AUTO 7SM 25/19 A2983 RMK T02500190 IEM_DS3505
ZGSZ,2009-04-22 02:00,ZGSZ 220200Z AUTO 07006KT 7SM 26/18 A2983 RMK T02600180 IEM_DS3505
ZGSZ,2009-04-22 03:00,ZGSZ 220300Z AUTO 09004KT 7SM 24/18 A2983 RMK SLP105 T02420184 52011 IEM_DS3505
ZGSZ,2009-04-22 04:00,ZGSZ 220400Z AUTO 7SM 26/20 A2983 RMK T02600200 IEM_DS3505
ZGSZ,2009-04-22 05:00,ZGSZ 220500Z AUTO 11008KT 7SM 26/18 A2980 RMK T02600180 IEM_DS3505
ZGSZ,2009-04-22 06:00,ZGSZ 220600Z AUTO 09006KT 7SM 24/16 A2977 RMK SLP087 T02420165 57018 IEM_DS3505
ZGSZ,2009-04-22 07:00,ZGSZ 220700Z AUTO 11008KT 7SM 27/19 A2974 RMK T02700190 IEM_DS3505
ZGSZ,2009-04-22 08:00,ZGSZ 220800Z AUTO 09006KT 7SM 27/18 A2974 RMK T02700180 IEM_DS3505
ZGSZ,2009-04-22 09:00,ZGSZ 220900Z AUTO 07004KT 9SM 24/16 A2974 RMK SLP079 T02370165 57008 IEM_DS3505
ZGSZ,2009-04-22 10:00,ZGSZ 221000Z AUTO 09008KT 7SM 26/18 A2977 RMK T02600180 IEM_DS3505
ZGSZ,2009-04-22 11:00,ZGSZ 221100Z AUTO 11008KT 7SM 25/18 A2977 RMK T02500180 IEM_DS3505
ZGSZ,2009-04-22 12:00,ZGSZ 221200Z AUTO 09006KT 10SM 23/16 A2980 RMK SLP094 T02280161 52015 IEM_DS3505
ZGSZ,2009-04-22 13:00,ZGSZ 221300Z AUTO 11006KT 7SM 24/17 A2983 RMK T02400170 IEM_DS3505
ZGSZ,2009-04-22 14:00,ZGSZ 221400Z AUTO 11008KT 7SM 24/17 A2985 RMK T02400170 IEM_DS3505
ZGSZ,2009-04-22 15:00,ZGSZ 221500Z AUTO 07006KT 8SM 22/17 A2985 RMK SLP117 T02200174 52023 IEM_DS3505
ZGSZ,2009-04-22 16:00,ZGSZ 221600Z AUTO 12008KT 7SM 24/17 A2985 RMK T02400170 IEM_DS3505
ZGSZ,2009-04-22 17:00,ZGSZ 221700Z AUTO 10008KT 7SM 23/18 A2985 RMK T02300180 IEM_DS3505
ZGSZ,2009-04-22 18:00,ZGSZ 221800Z AUTO 07008KT 7SM 21/17 A2983 RMK SLP106 T02080174 57011 IEM_DS3505
ZGSZ,2009-04-22 19:00,ZGSZ 221900Z 00000MPS 9999 BKN033 23/18 Q1010 NOSIG
ZGSZ,2009-04-22 20:00,ZGSZ 222000Z AUTO 04004KT 7SM 23/18 A2983 RMK T02300180 IEM_DS3505
ZGSZ,2009-04-22 21:00,ZGSZ 222100Z AUTO 11006KT 7SM 21/17 A2983 RMK 70000 SLP103 T02130173 57003 IEM_DS3505
ZGSZ,2009-04-22 22:00,ZGSZ 222200Z AUTO 07004KT 4SM 22/18 A2983 RMK T02200180 IEM_DS3505
ZGSZ,2009-04-22 23:00,ZGSZ 222300Z AUTO 10008KT 4SM 23/18 A2983 RMK T02300180 IEM_DS3505
ZGSZ,2009-04-23 00:00,ZGSZ 230000Z AUTO 09006KT 5SM 22/18 A2985 RMK SLP111 T02240182 52008 IEM_DS3505
ZGSZ,2009-04-23 01:00,ZGSZ 230100Z AUTO 09006KT 6SM 25/19 A2985 RMK T02500190 IEM_DS3505
ZGSZ,2009-04-23 02:00,ZGSZ 230200Z AUTO 09010KT 7SM 26/19 A2985 RMK T02600190 IEM_DS3505
ZGSZ,2009-04-23 03:00,ZGSZ 230300Z AUTO 14010KT 4SM 24/19 A2983 RMK SLP110 T02430189 57001 IEM_DS3505
ZGSZ,2009-04-23 04:00,ZGSZ 230400Z AUTO 11008KT 7SM 27/20 A2983 RMK T02700200 IEM_DS3505
ZGSZ,2009-04-23 05:00,ZGSZ 230500Z AUTO 12006KT 7SM 28/20 A2980 RMK T02800200 IEM_DS3505
ZGSZ,2009-04-23 06:00,ZGSZ 230600Z AUTO 14010KT 9SM 25/19 A2977 RMK SLP087 T02500191 57023 IEM_DS3505
ZGSZ,2009-04-23 07:00,ZGSZ 230700Z AUTO 13008KT 7SM 27/20 A2977 RMK T02700200 IEM_DS3505
ZGSZ,2009-04-23 08:00,ZGSZ 230800Z AUTO 11008KT 7SM 27/20 A2974 RMK T02700200 IEM_DS3505
ZGSZ,2009-04-23 09:00,ZGSZ 230900Z AUTO 11006KT 8SM 24/19 A2977 RMK SLP082 T02360189 57005 IEM_DS3505
ZGSZ,2009-04-23 10:00,ZGSZ 231000Z AUTO 10010KT 7SM 25/20 A2974 RMK T02500200 IEM_DS3505
ZGSZ,2009-04-23 11:00,ZGSZ 231100Z AUTO 10012KT 7SM 25/19 A2977 RMK T02500190 IEM_DS3505
ZGSZ,2009-04-23 12:00,ZGSZ 231200Z AUTO 09008KT 7SM 23/20 A2977 RMK SLP097 T02270195 52015 IEM_DS3505
ZGSZ,2009-04-23 13:00,ZGSZ 231300Z AUTO 11010KT 7SM 24/20 A2983 RMK T02400200 IEM_DS3505
ZGSZ,2009-04-23 14:00,ZGSZ 231400Z AUTO 11012KT 7SM 24/20 A2985 RMK T02400200 IEM_DS3505
ZGSZ,2009-04-23 15:00,ZGSZ 231500Z AUTO 07008KT 7SM 22/20 A2985 RMK SLP112 T02250197 52015 IEM_DS3505
ZGSZ,2009-04-23 16:00,ZGSZ 231600Z AUTO 11012KT 7SM 24/20 A2983 RMK T02400200 IEM_DS3505
ZGSZ,2009-04-23 17:00,ZGSZ 231700Z AUTO 11008KT 4SM 24/20 A2983 RMK T02400200 IEM_DS3505
ZGSZ,2009-04-23 18:00,ZGSZ 231800Z AUTO 09008KT 7SM 22/20 A2980 RMK SLP095 T02240198 57017 IEM_DS3505
ZGSZ,2009-04-23 19:00,ZGSZ 231900Z AUTO 11006KT 4SM 24/20 A2977 RMK T02400200 IEM_DS3505
ZGSZ,2009-04-23 20:00,ZGSZ 232000Z AUTO 11010KT 4SM 23/20 A2977 RMK T02300200 IEM_DS3505
ZGSZ,2009-04-23 21:00,ZGSZ 232100Z AUTO 09008KT 6SM 22/20 A2974 RMK SLP085 T02190200 57010 IEM_DS3505
ZGSZ,2009-04-23 22:00,ZGSZ 232200Z AUTO 11008KT 4SM 23/20 A2977 RMK T02300200 IEM_DS3505
ZGSZ,2009-04-23 23:00,ZGSZ 232300Z AUTO 11006KT 7SM 24/21 A2980 RMK T02400210 IEM_DS3505
ZGSZ,2009-04-24 00:00,ZGSZ 240000Z AUTO 07004KT 6SM 23/20 A2980 RMK SLP093 T02320205 52008 IEM_DS3505
ZGSZ,2009-04-24 01:00,ZGSZ 240100Z AUTO 10010KT 7SM 26/21 A2980 RMK T02600210 IEM_DS3505
ZGSZ,2009-04-24 02:00,ZGSZ 240200Z AUTO 13006KT 7SM 27/22 A2983 RMK T02700220 IEM_DS3505
ZGSZ,2009-04-24 03:00,ZGSZ 240300Z AUTO 09004KT 7SM 25/21 A2980 RMK SLP103 T02520213 52010 IEM_DS3505
ZGSZ,2009-04-24 04:00,ZGSZ 240400Z AUTO 16006KT 7SM 28/22 A2980 RMK T02800220 IEM_DS3505
ZGSZ,2009-04-24 05:00,ZGSZ 240500Z AUTO 16008KT 7SM 28/22 A2977 RMK T02800220 IEM_DS3505
ZGSZ,2009-04-24 06:00,ZGSZ 240600Z AUTO 11004KT 6SM 25/21 A2977 RMK SLP087 T02530212 57016 IEM_DS3505
ZGSZ,2009-04-24 07:00,ZGSZ 240700Z AUTO 15008KT 7SM 28/22 A2974 RMK T02800220 IEM_DS3505
ZGSZ,2009-04-24 08:00,ZGSZ 240800Z AUTO 15010KT 7SM 28/22 A2974 RMK T02800220 IEM_DS3505
ZGSZ,2009-04-24 09:00,ZGSZ 240900Z AUTO 11004KT 4SM 24/21 A2974 RMK SLP076 T02430212 57011 IEM_DS3505
ZGSZ,2009-04-24 10:00,ZGSZ 241000Z AUTO 12008KT 7SM 27/22 A2974 RMK T02700220 IEM_DS3505
ZGSZ,2009-04-24 11:00,ZGSZ 241100Z AUTO 12010KT 4SM 26/22 A2974 RMK T02600220 IEM_DS3505
ZGSZ,2009-04-24 12:00,ZGSZ 241200Z AUTO 04006KT 3SM 24/21 A2974 RMK SLP082 T02350212 52006 IEM_DS3505
ZGSZ,2009-04-24 13:00,ZGSZ 241300Z AUTO 11008KT 4SM 25/21 A2977 RMK T02500210 IEM_DS3505
ZGSZ,2009-04-24 14:00,ZGSZ 241400Z AUTO 12008KT 5SM 25/22 A2980 RMK T02500220 IEM_DS3505
ZGSZ,2009-04-24 15:00,ZGSZ 241500Z AUTO 07006KT 4SM 24/22 A2980 RMK SLP100 T02370216 52018 IEM_DS3505
ZGSZ,2009-04-24 16:00,ZGSZ 241600Z AUTO 12006KT 5SM 25/22 A2980 RMK T02500220 IEM_DS3505
ZGSZ,2009-04-24 17:00,ZGSZ 241700Z AUTO 12006KT 5SM 25/22 A2980 RMK T02500220 IEM_DS3505
ZGSZ,2009-04-24 18:00,ZGSZ 241800Z AUTO 09004KT 4SM 24/22 A2977 RMK SLP088 T02370221 57012 IEM_DS3505
ZGSZ,2009-04-24 19:00,ZGSZ 241900Z AUTO 11008KT 5SM 25/22 A2974 RMK T02500220 IEM_DS3505
ZGSZ,2009-04-24 20:00,ZGSZ 242000Z AUTO 12010KT 4SM 25/23 A2974 RMK T02500230 IEM_DS3505
ZGSZ,2009-04-24 21:00,ZGSZ 242100Z AUTO 07004KT 3SM 24/23 A2977 RMK 70005 SLP083 T02370229 57005 IEM_DS3505
ZGSZ,2009-04-24 22:00,ZGSZ 242200Z AUTO 32004KT 1SM 25/23 A2977 RMK T02500230 IEM_DS3505
ZGSZ,2009-04-24 23:00,ZGSZ 242300Z AUTO 04002KT 1SM 25/23 A2980 RMK T02500230 IEM_DS3505
ZGSZ,2009-04-25 00:00,ZGSZ 250000Z AUTO 09002KT 2 1/2SM 24/23 A2983 RMK 60063 70064 SLP101 T02380233 52018 IEM_DS3505
ZGSZ,2009-04-25 01:00,ZGSZ 250100Z AUTO 30004KT 2SM 25/24 A2985 RMK T02500240 IEM_DS3505
ZGSZ,2009-04-25 02:00,ZGSZ 250200Z AUTO 33010KT 2 1/2SM 24/23 A2985 RMK T02400230 IEM_DS3505
ZGSZ,2009-04-25 03:00,ZGSZ 250300Z AUTO 09002KT 1 1/2SM 25/24 A2985 RMK SLP114 T02480241 52013 IEM_DS3505
ZGSZ,2009-04-25 04:00,ZGSZ 250400Z AUTO 02010KT 5SM 23/21 A2985 RMK T02300210 IEM_DS3505
ZGSZ,2009-04-25 05:00,ZGSZ 250500Z AUTO 04012KT 5SM 23/20 A2983 RMK T02300200 IEM_DS3505
ZGSZ,2009-04-25 06:00,ZGSZ 250600Z AUTO 02008KT 12SM 22/20 A2983 RMK 60071 SLP101 T02250195 57013 IEM_DS3505
ZGSZ,2009-04-25 07:00,ZGSZ 250700Z AUTO 36010KT 7SM 23/19 A2983 RMK T02300190 IEM_DS3505
ZGSZ,2009-04-25 08:00,ZGSZ 250800Z AUTO 36012KT 7SM 23/19 A2983 RMK T02300190 IEM_DS3505
ZGSZ,2009-04-25 09:00,ZGSZ 250900Z AUTO 02008KT 11SM 23/19 A2985 RMK SLP106 T02260188 52005 IEM_DS3505
ZGSZ,2009-04-25 10:00,ZGSZ 251000Z AUTO 36010KT 7SM 22/18 A2985 RMK T02200180 IEM_DS3505
ZGSZ,2009-04-25 11:00,ZGSZ 251100Z AUTO 36014KT 7SM 22/18 A2988 RMK T02200180 IEM_DS3505
ZGSZ,2009-04-25 12:00,ZGSZ 251200Z AUTO 04006KT 5SM 20/19 A2991 RMK 60000 SLP131 T02010186 52024 IEM_DS3505
ZGSZ,2009-04-25 13:00,ZGSZ 251300Z AUTO 01010KT 3SM 20/18 A2994 RMK T02000180 IEM_DS3505
ZGSZ,2009-04-25 14:00,ZGSZ 251400Z AUTO 02010KT 7SM 20/18 A2997 RMK T02000180 IEM_DS3505
ZGSZ,2009-04-25 15:00,ZGSZ 251500Z AUTO 02006KT 6SM 19/17 A2997 RMK SLP153 T01880169 52022 IEM_DS3505
ZGSZ,2009-04-25 16:00,ZGSZ 251600Z AUTO 04008KT 7SM 20/17 A2997 RMK T02000170 IEM_DS3505
ZGSZ,2009-04-25 17:00,ZGSZ 251700Z AUTO 01010KT 7SM 19/17 A2997 RMK T01900170 IEM_DS3505
ZGSZ,2009-04-25 18:00,ZGSZ 251800Z AUTO 02008KT 7SM 19/16 A2997 RMK 60001 SLP146 T01900157 57007 IEM_DS3505
ZGSZ,2009-04-25 19:00,ZGSZ 251900Z AUTO 03008KT 4SM 19/16 A2994 RMK T01900160 IEM_DS3505
ZGSZ,2009-04-25 20:00,ZGSZ 252000Z AUTO 02008KT 4SM 19/16 A2994 RMK T01900160 IEM_DS3505
ZGSZ,2009-04-25 21:00,ZGSZ 252100Z AUTO 02006KT 7SM 19/16 A2994 RMK 70133 SLP144 T01890156 57002 IEM_DS3505
ZGSZ,2009-04-25 22:00,ZGSZ 252200Z AUTO 05006KT 5SM 19/16 A2997 RMK T01900160 IEM_DS3505
ZGSZ,2009-04-25 23:00,ZGSZ 252300Z AUTO 04006KT 5SM 19/16 A2997 RMK T01900160 IEM_DS3505
ZGSZ,2009-04-26 00:00,ZGSZ 260000Z AUTO 04006KT 7SM 19/16 A3000 RMK 70074 SLP165 T01890158 52020 IEM_DS3505
ZGSZ,2009-04-26 01:00,ZGSZ 260100Z AUTO 04006KT 3SM 20/16 A3003 RMK T02000160 IEM_DS3505
ZGSZ,2009-04-26 02:00,ZGSZ 260200Z AUTO 01008KT 3SM 20/16 A3003 RMK T02000160 IEM_DS3505
ZGSZ,2009-04-26 03:00,ZGSZ 260300Z AUTO 04006KT 5SM 19/16 A3003 RMK SLP172 T01880160 52007 IEM_DS3505
ZGSZ,2009-04-26 04:00,ZGSZ 260400Z AUTO 3SM 21/16 A3003 RMK T02100160 IEM_DS3505
ZGSZ,2009-04-26 05:00,ZGSZ 260500Z AUTO 04004KT 3SM 22/17 A3000 RMK T02200170 IEM_DS3505
ZGSZ,2009-04-26 06:00,ZGSZ 260600Z AUTO 11004KT 4SM 20/17 A2997 RMK 60000 SLP156 T02000166 57015 IEM_DS3505
ZGSZ,2009-04-26 07:00,ZGSZ 260700Z AUTO 08004KT 3SM 22/16 A2994 RMK T02200160 IEM_DS3505
ZGSZ,2009-04-26 08:00,ZGSZ 260800Z AUTO 13004KT 3SM 21/17 A2994 RMK T02100170 IEM_DS3505
ZGSZ,2009-04-26 09:00,ZGSZ 260900Z AUTO 09002KT 3SM 19/18 A2994 RMK SLP145 T01880176 57012 IEM_DS3505
ZGSZ,2009-04-26 10:00,ZGSZ 261000Z AUTO 13006KT 3SM 20/17 A2994 RMK T02000170 IEM_DS3505
ZGSZ,2009-04-26 11:00,ZGSZ 261100Z AUTO 13004KT 2 1/2SM 20/18 A2994 RMK T02000180 IEM_DS3505
ZGSZ,2009-04-26 12:00,ZGSZ 261200Z AUTO 11004KT 7SM 19/17 A2997 RMK 60001 SLP154 T01900173 52009 IEM_DS3505
ZGSZ,2009-04-26 13:00,ZGSZ 261300Z AUTO 11004KT 3SM 21/18 A2997 RMK T02100180 IEM_DS3505
ZGSZ,2009-04-26 14:00,ZGSZ 261400Z AUTO 13004KT 3SM 20/18 A3000 RMK T02000180 IEM_DS3505
ZGSZ,2009-04-26 15:00,ZGSZ 261500Z AUTO 07004KT 5SM 19/17 A3000 RMK SLP164 T01900170 52010 IEM_DS3505
ZGSZ,2009-04-26 16:00,ZGSZ 261600Z AUTO 12006KT 4SM 20/17 A3000 RMK T02000170 IEM_DS3505
ZGSZ,2009-04-26 17:00,ZGSZ 261700Z AUTO 12008KT 4SM 20/17 A2997 RMK T02000170 IEM_DS3505
ZGSZ,2009-04-26 18:00,ZGSZ 261800Z AUTO 09004KT 4SM 19/16 A2994 RMK SLP148 T01890160 57015 IEM_DS3505
ZGSZ,2009-04-26 19:00,ZGSZ 261900Z AUTO 11004KT 3SM 20/17 A2997 RMK T02000170 IEM_DS3505
ZGSZ,2009-04-26 20:00,ZGSZ 262000Z AUTO 08004KT 3SM 20/16 A2994 RMK T02000160 IEM_DS3505
ZGSZ,2009-04-26 21:00,ZGSZ 262100Z AUTO 34002KT 4SM 19/16 A2997 RMK 70001 SLP151 T01880155 52002 IEM_DS3505
ZGSZ,2009-04-26 22:00,ZGSZ 262200Z AUTO 05004KT 4SM 19/16 A2997 RMK T01900160 IEM_DS3505
ZGSZ,2009-04-26 23:00,ZGSZ 262300Z AUTO 08006KT 4SM 20/15 A3000 RMK T02000150 IEM_DS3505
ZGSZ,2009-04-27 00:00,ZGSZ 270000Z AUTO 04006KT 4SM 20/14 A3000 RMK 70001 SLP165 T01970141 52014 IEM_DS3505
ZGSZ,2009-04-27 01:00,ZGSZ 270100Z AUTO 07006KT 5SM 22/14 A3003 RMK T02200140 IEM_DS3505
ZGSZ,2009-04-27 02:00,ZGSZ 270200Z AUTO 06004KT 5SM 24/15 A3003 RMK T02400150 IEM_DS3505
ZGSZ,2009-04-27 03:00,ZGSZ 270300Z AUTO 09004KT 4SM 24/14 A3000 RMK SLP166 T02370136 52002 IEM_DS3505
ZGSZ,2009-04-27 04:00,ZGSZ 270400Z AUTO 4SM 26/15 A3000 RMK T02600150 IEM_DS3505
ZGSZ,2009-04-27 05:00,ZGSZ 270500Z AUTO 23008KT 3SM 24/17 A2997 RMK T02400170 IEM_DS3505
ZGSZ,2009-04-27 06:00,ZGSZ 270600Z AUTO 14006KT 3SM 25/11 A2994 RMK SLP141 T02530111 57025 IEM_DS3505
ZGSZ,2009-04-27 07:00,ZGSZ 270700Z AUTO 21010KT 4SM 25/16 A2991 RMK T02500160 IEM_DS3505
ZGSZ,2009-04-27 08:00,ZGSZ 270800Z AUTO 21008KT 5SM 25/15 A2991 RMK T02500150 IEM_DS3505
ZGSZ,2009-04-27 09:00,ZGSZ 270900Z AUTO 14008KT 5SM 24/13 A2991 RMK SLP137 T02350134 57004 IEM_DS3505
ZGSZ,2009-04-27 10:00,ZGSZ 271000Z AUTO 20008KT 5SM 23/16 A2994 RMK T02300160 IEM_DS3505
ZGSZ,2009-04-27 11:00,ZGSZ 271100Z AUTO 13010KT 5SM 23/15 A2994 RMK T02300150 IEM_DS3505
ZGSZ,2009-04-27 12:00,ZGSZ 271200Z AUTO 04006KT 6SM 20/14 A2997 RMK SLP156 T02050144 52019 IEM_DS3505
ZGSZ,2009-04-27 13:00,ZGSZ 271300Z AUTO 11010KT 5SM 22/15 A3000 RMK T02200150 IEM_DS3505
ZGSZ,2009-04-27 14:00,ZGSZ 271400Z AUTO 11012KT 5SM 22/15 A3000 RMK T02200150 IEM_DS3505
ZGSZ,2009-04-27 15:00,ZGSZ 271500Z AUTO 11008KT 6SM 20/14 A3000 RMK SLP170 T02050139 52014 IEM_DS3505
ZGSZ,2009-04-27 16:00,ZGSZ 271600Z AUTO 07004KT 5SM 21/15 A3003 RMK T02100150 IEM_DS3505
ZGSZ,2009-04-27 17:00,ZGSZ 271700Z AUTO 06004KT 5SM 21/15 A3000 RMK T02100150 IEM_DS3505
ZGSZ,2009-04-27 18:00,ZGSZ 271800Z AUTO 07006KT 9SM 21/13 A3000 RMK SLP161 T02060131 57009 IEM_DS3505
ZGSZ,2009-04-27 19:00,ZGSZ 271900Z AUTO 09012KT 6SM 22/12 A2997 RMK T02200120 IEM_DS3505
ZGSZ,2009-04-27 20:00,ZGSZ 272000Z AUTO 03004KT 6SM 20/13 A2997 RMK T02000130 IEM_DS3505
ZGSZ,2009-04-27 21:00,ZGSZ 272100Z AUTO 09006KT 10SM 21/08 A3000 RMK SLP159 T02070077 57002 IEM_DS3505
ZGSZ,2009-04-27 22:00,ZGSZ 272200Z AUTO 00000KT 6SM 19/14 A3000 RMK T01900140 IEM_DS3505
ZGSZ,2009-04-27 23:00,ZGSZ 272300Z AUTO 10004KT 6SM 21/12 A3000 RMK T02100120 IEM_DS3505
ZGSZ,2009-04-28 00:00,ZGSZ 280000Z AUTO 09010KT 9SM 21/09 A3003 RMK SLP169 T02130092 52010 IEM_DS3505
ZGSZ,2009-04-28 01:00,ZGSZ 280100Z AUTO 11006KT 6SM 24/09 A3003 RMK T02400090 IEM_DS3505
ZGSZ,2009-04-28 02:00,ZGSZ 280200Z AUTO 10010KT 6SM 26/08 A3003 RMK T02600080 IEM_DS3505
ZGSZ,2009-04-28 03:00,ZGSZ 280300Z AUTO 14008KT 11SM 24/05 A3003 RMK SLP172 T02440047 52003 IEM_DS3505
ZGSZ,2009-04-28 04:00,ZGSZ 280400Z AUTO 12008KT 6SM 27/09 A3003 RMK T02700090 IEM_DS3505
ZGSZ,2009-04-28 05:00,ZGSZ 280500Z AUTO 25004KT 6SM 27/09 A3000 RMK T02700090 IEM_DS3505
ZGSZ,2009-04-28 06:00,ZGSZ 280600Z AUTO 09004KT 16SM 26/01 A2997 RMK SLP158 T02600013 57014 IEM_DS3505
ZGSZ,2009-04-28 07:00,ZGSZ 280700Z AUTO 13010KT 6SM 29/07 A2994 RMK T02900070 IEM_DS3505
ZGSZ,2009-04-28 08:00,ZGSZ 280800Z AUTO 14012KT 6SM 28/06 A2994 RMK T02800060 IEM_DS3505
ZGSZ,2009-04-28 09:00,ZGSZ 280900Z AUTO 14006KT 17SM 25/06 A2994 RMK SLP149 T02460059 57009 IEM_DS3505
ZGSZ,2009-04-28 10:00,ZGSZ 281000Z AUTO 13010KT 6SM 25/08 A2994 RMK T02500080 IEM_DS3505
ZGSZ,2009-04-28 11:00,ZGSZ 281100Z AUTO 13010KT 6SM 24/11 A2997 RMK T02400110 IEM_DS3505
ZGSZ,2009-04-28 12:00,ZGSZ 281200Z AUTO 09006KT 14SM 21/13 A3000 RMK SLP167 T02100132 52018 IEM_DS3505
ZGSZ,2009-04-28 13:00,ZGSZ 281300Z AUTO 11012KT 6SM 22/14 A3000 RMK T02200140 IEM_DS3505
ZGSZ,2009-04-28 14:00,ZGSZ 281400Z AUTO 11008KT 6SM 22/14 A3003 RMK T02200140 IEM_DS3505
ZGSZ,2009-04-28 15:00,ZGSZ 281500Z AUTO 07004KT 12SM 21/13 A3003 RMK SLP178 T02070134 52011 IEM_DS3505
ZGSZ,2009-04-28 16:00,ZGSZ 281600Z AUTO 6SM 22/12 A3003 RMK T02200120 IEM_DS3505
ZGSZ,2009-04-28 17:00,ZGSZ 281700Z AUTO 09008KT 6SM 22/10 A3003 RMK T02200100 IEM_DS3505
ZGSZ,2009-04-28 18:00,ZGSZ 281800Z AUTO 07006KT 16SM 21/06 A3000 RMK SLP164 T02070055 57014 IEM_DS3505
ZGSZ,2009-04-28 19:00,ZGSZ 281900Z AUTO 6SM 20/12 A3000 RMK T02000120 IEM_DS3505
ZGSZ,2009-04-28 20:00,ZGSZ 282000Z AUTO 00000KT 6SM 20/10 A3000 RMK T02000100 IEM_DS3505
ZGSZ,2009-04-28 21:00,ZGSZ 282100Z AUTO 04004KT 16SM 20/09 A3000 RMK SLP163 T01960092 57001 IEM_DS3505
ZGSZ,2009-04-28 22:00,ZGSZ 282200Z AUTO 06004KT 6SM 20/09 A3000 RMK T02000090 IEM_DS3505
ZGSZ,2009-04-28 23:00,ZGSZ 282300Z AUTO 04002KT 6SM 20/10 A3000 RMK T02000100 IEM_DS3505
ZGSZ,2009-04-29 00:00,ZGSZ 290000Z AUTO 07004KT 16SM 20/12 A3003 RMK SLP170 T02030118 52007 IEM_DS3505
ZGSZ,2009-04-29 01:00,ZGSZ 290100Z AUTO 08006KT 6SM 23/10 A3003 RMK T02300100 IEM_DS3505
ZGSZ,2009-04-29 02:00,ZGSZ 290200Z AUTO 6SM 24/12 A3003 RMK T02400120 IEM_DS3505
ZGSZ,2009-04-29 03:00,ZGSZ 290300Z AUTO 14008KT 16SM 24/13 A3003 RMK SLP172 T02360129 52002 IEM_DS3505
ZGSZ,2009-04-29 04:00,ZGSZ 290400Z AUTO 21006KT 6SM 25/14 A3000 RMK T02500140 IEM_DS3505
ZGSZ,2009-04-29 05:00,ZGSZ 290500Z AUTO 22008KT 6SM 25/15 A3000 RMK T02500150 IEM_DS3505
ZGSZ,2009-04-29 06:00,ZGSZ 290600Z AUTO 16008KT 14SM 26/16 A2997 RMK SLP154 T02550155 57018 IEM_DS3505
ZGSZ,2009-04-29 07:00,ZGSZ 290700Z AUTO 22008KT 7SM 24/17 A2997 RMK T02400170 IEM_DS3505
ZGSZ,2009-04-29 08:00,ZGSZ 290800Z AUTO 21006KT 7SM 25/18 A2994 RMK T02500180 IEM_DS3505
ZGSZ,2009-04-29 09:00,ZGSZ 290900Z AUTO 04006KT 16SM 24/15 A2994 RMK SLP147 T02430152 57007 IEM_DS3505
ZGSZ,2009-04-29 10:00,ZGSZ 291000Z AUTO 10010KT 6SM 25/16 A2994 RMK T02500160 IEM_DS3505
ZGSZ,2009-04-29 11:00,ZGSZ 291100Z AUTO 11012KT 6SM 25/16 A2997 RMK T02500160 IEM_DS3505
ZGSZ,2009-04-29 12:00,ZGSZ 291200Z AUTO 11006KT 11SM 22/16 A2997 RMK SLP162 T02180163 52015 IEM_DS3505
ZGSZ,2009-04-29 13:00,ZGSZ 291300Z AUTO 10010G21KT 6SM 23/17 A3000 RMK T02300170 IEM_DS3505
ZGSZ,2009-04-29 14:00,ZGSZ 291400Z AUTO 10006KT 6SM 23/17 A3000 RMK T02300170 IEM_DS3505
ZGSZ,2009-04-29 15:00,ZGSZ 291500Z AUTO 07006KT 10SM 22/17 A3000 RMK SLP167 T02150167 52005 IEM_DS3505
ZGSZ,2009-04-29 16:00,ZGSZ 291600Z AUTO 6SM 23/16 A3000 RMK T02300160 IEM_DS3505
ZGSZ,2009-04-29 17:00,ZGSZ 291700Z AUTO 10002KT 6SM 23/16 A3000 RMK T02300160 IEM_DS3505
ZGSZ,2009-04-29 18:00,ZGSZ 291800Z AUTO 07004KT 11SM 22/15 A2997 RMK 60000 SLP155 T02150151 57011 IEM_DS3505
ZGSZ,2009-04-29 19:00,ZGSZ 291900Z AUTO 01004KT 6SM 22/16 A2994 RMK T02200160 IEM_DS3505
ZGSZ,2009-04-29 20:00,ZGSZ 292000Z AUTO 11004KT 6SM 23/15 A2994 RMK T02300150 IEM_DS3505
ZGSZ,2009-04-29 21:00,ZGSZ 292100Z AUTO 11004KT 14SM 21/14 A2994 RMK 70000 SLP148 T02100137 57008 IEM_DS3505
ZGSZ,2009-04-29 22:00,ZGSZ 292200Z AUTO 6SM 22/14 A2997 RMK T02200140 IEM_DS3505
ZGSZ,2009-04-29 23:00,ZGSZ 292300Z AUTO 00000KT 6SM 21/15 A2997 RMK T02100150 IEM_DS3505
ZGSZ,2009-04-30 00:00,ZGSZ 300000Z AUTO 07004KT 14SM 23/14 A3000 RMK 70000 SLP164 T02260139 52016 IEM_DS3505
ZGSZ,2009-04-30 01:00,ZGSZ 300100Z AUTO 6SM 25/15 A3000 RMK T02500150 IEM_DS3505
ZGSZ,2009-04-30 02:00,ZGSZ 300200Z AUTO 12004KT 6SM 26/15 A3003 RMK T02600150 IEM_DS3505
ZGSZ,2009-04-30 03:00,ZGSZ 300300Z AUTO 11006KT 14SM 26/14 A3000 RMK SLP169 T02560141 52005 IEM_DS3505
ZGSZ,2009-04-30 04:00,ZGSZ 300400Z AUTO 10008KT 6SM 28/16 A3000 RMK T02800160 IEM_DS3505
ZGSZ,2009-04-30 05:00,ZGSZ 300500Z AUTO 12010KT 7SM 28/16 A2997 RMK T02800160 IEM_DS3505
ZGSZ,2009-04-30 06:00,ZGSZ 300600Z AUTO 14008KT 14SM 26/15 A2994 RMK SLP150 T02610146 57018 IEM_DS3505
ZGSZ,2009-04-30 07:00,ZGSZ 300700Z AUTO 16006G27KT 7SM 28/16 A2994 RMK T02800160 IEM_DS3505
ZGSZ,2009-04-30 08:00,ZGSZ 300800Z AUTO 12008KT 7SM 29/15 A2991 RMK T02900150 IEM_DS3505
ZGSZ,2009-04-30 09:00,ZGSZ 300900Z AUTO 14008KT 16SM 25/15 A2991 RMK SLP142 T02520147 57008 IEM_DS3505
ZGSZ,2009-04-30 10:00,ZGSZ 301000Z AUTO 13010KT 7SM 26/16 A2994 RMK T02600160 IEM_DS3505
ZGSZ,2009-04-30 11:00,ZGSZ 301100Z AUTO 10008KT 7SM 26/16 A2994 RMK T02600160 IEM_DS3505
ZGSZ,2009-04-30 12:00,ZGSZ 301200Z AUTO 07004KT 11SM 22/15 A2997 RMK SLP156 T02230149 52013 IEM_DS3505
ZGSZ,2009-04-30 13:00,ZGSZ 301300Z AUTO 10012KT 6SM 24/16 A2997 RMK T02400160 IEM_DS3505
ZGSZ,2009-04-30 14:00,ZGSZ 301400Z AUTO 11010KT 6SM 23/17 A3000 RMK T02300170 IEM_DS3505
ZGSZ,2009-04-30 15:00,ZGSZ 301500Z AUTO 09006KT 7SM 22/17 A3000 RMK SLP167 T02150171 52011 IEM_DS3505
ZGSZ,2009-04-30 16:00,ZGSZ 301600Z AUTO 08008KT 6SM 22/17 A3000 RMK T02200170 IEM_DS3505
ZGSZ,2009-04-30 17:00,ZGSZ 301700Z AUTO 10008KT 6SM 22/17 A3000 RMK T02200170 IEM_DS3505
ZGSZ,2009-04-30 18:00,ZGSZ 301800Z AUTO 09006KT 9SM 21/16 A2997 RMK SLP157 T02090163 57009 IEM_DS3505
ZGSZ,2009-04-30 19:00,ZGSZ 301900Z AUTO 09006KT 6SM 22/16 A2997 RMK T02200160 IEM_DS3505
ZGSZ,2009-04-30 20:00,ZGSZ 302000Z AUTO 09004KT 6SM 22/15 A2997 RMK T02200150 IEM_DS3505
ZGSZ,2009-04-30 21:00,ZGSZ 302100Z AUTO 07004KT 10SM 21/15 A3000 RMK SLP158 T02080149 54000 IEM_DS3505
ZGSZ,2009-04-30 22:00,ZGSZ 302200Z AUTO 03006KT 6SM 21/16 A3000 RMK T02100160 IEM_DS3505
ZGSZ,2009-04-30 23:00,ZGSZ 302300Z AUTO 02006KT 6SM 21/16 A3000 RMK T02100160 IEM_DS3505
ZGSZ,2009-05-01 00:00,ZGSZ 010000Z AUTO 07004KT 9SM 23/15 A3003 RMK SLP171 T02290147 52013 IEM_DS3505
ZGSZ,2009-05-01 01:00,ZGSZ 010100Z AUTO 08004KT 6SM 25/15 A3003 RMK T02500150 IEM_DS3505
ZGSZ,2009-05-01 02:00,ZGSZ 010200Z AUTO 08004KT 6SM 27/15 A3003 RMK T02700150 IEM_DS3505
ZGSZ,2009-05-01 03:00,ZGSZ 010300Z AUTO 07006KT 11SM 26/12 A3000 RMK SLP167 T02590120 57003 IEM_DS3505
ZGSZ,2009-05-01 04:00,ZGSZ 010400Z AUTO 22006KT 7SM 27/17 A3000 RMK T02700170 IEM_DS3505
ZGSZ,2009-05-01 05:00,ZGSZ 010500Z AUTO 23010KT 7SM 27/17 A2997 RMK T02700170 IEM_DS3505
ZGSZ,2009-05-01 06:00,ZGSZ 010600Z AUTO 14008KT 12SM 28/13 A2994 RMK SLP145 T02750131 57022 IEM_DS3505
ZGSZ,2009-05-01 07:00,ZGSZ 010700Z AUTO 21012KT 6SM 27/17 A2994 RMK T02700170 IEM_DS3505
ZGSZ,2009-05-01 08:00,ZGSZ 010800Z AUTO 23012KT 6SM 27/19 A2991 RMK T02700190 IEM_DS3505
ZGSZ,2009-05-01 09:00,ZGSZ 010900Z AUTO 14008KT 12SM 26/13 A2991 RMK SLP143 T02610129 57002 IEM_DS3505
ZGSZ,2009-05-01 10:00,ZGSZ 011000Z AUTO 18010KT 6SM 27/16 A2994 RMK T02700160 IEM_DS3505
ZGSZ,2009-05-01 11:00,ZGSZ 011100Z AUTO 13010KT 6SM 26/15 A2994 RMK T02600150 IEM_DS3505
ZGSZ,2009-05-01 12:00,ZGSZ 011200Z AUTO 09004KT 12SM 23/16 A2997 RMK SLP159 T02280159 52015 IEM_DS3505
ZGSZ,2009-05-01 13:00,ZGSZ 011300Z AUTO 11010KT 6SM 24/16 A3000 RMK T02400160 IEM_DS3505
ZGSZ,2009-05-01 14:00,ZGSZ 011400Z AUTO 11012KT 6SM 24/16 A3000 RMK T02400160 IEM_DS3505
ZGSZ,2009-05-01 15:00,ZGSZ 011500Z AUTO 09006KT 12SM 22/17 A3003 RMK SLP172 T02200172 52014 IEM_DS3505
ZGSZ,2009-05-01 16:00,ZGSZ 011600Z AUTO 10008KT 6SM 23/17 A3000 RMK T02300170 IEM_DS3505
ZGSZ,2009-05-01 17:00,ZGSZ 011700Z AUTO 09006KT 6SM 23/15 A3000 RMK T02300150 IEM_DS3505
ZGSZ,2009-05-01 18:00,ZGSZ 011800Z AUTO 07006KT 14SM 22/14 A2997 RMK SLP158 T02170141 57014 IEM_DS3505
ZGSZ,2009-05-01 19:00,ZGSZ 011900Z AUTO 08004KT 6SM 22/14 A2997 RMK T02200140 IEM_DS3505
ZGSZ,2009-05-01 20:00,ZGSZ 012000Z AUTO 00000KT 6SM 21/15 A2997 RMK T02100150 IEM_DS3505
ZGSZ,2009-05-01 21:00,ZGSZ 012100Z AUTO 11002KT 14SM 21/14 A2997 RMK SLP152 T02130135 57006 IEM_DS3505
ZGSZ,2009-05-01 22:00,ZGSZ 012200Z AUTO 02002KT 6SM 21/14 A2997 RMK T02100140 IEM_DS3505
ZGSZ,2009-05-01 23:00,ZGSZ 012300Z AUTO 07002KT 6SM 22/14 A2997 RMK T02200140 IEM_DS3505
ZGSZ,2009-05-02 00:00,ZGSZ 020000Z AUTO 09004KT 14SM 23/13 A3000 RMK SLP163 T02290131 52010 IEM_DS3505
ZGSZ,2009-05-02 01:00,ZGSZ 020100Z AUTO 12004KT 6SM 26/14 A3000 RMK T02600140 IEM_DS3505
ZGSZ,2009-05-02 02:00,ZGSZ 020200Z AUTO 12004KT 6SM 27/14 A3000 RMK T02700140 IEM_DS3505
ZGSZ,2009-05-02 03:00,ZGSZ 020300Z AUTO 04006KT 12SM 27/12 A2997 RMK SLP155 T02680117 57007 IEM_DS3505
ZGSZ,2009-05-02 04:00,ZGSZ 020400Z AUTO 24008KT 6SM 26/16 A2997 RMK T02600160 IEM_DS3505
ZGSZ,2009-05-02 05:00,ZGSZ 020500Z AUTO 24008KT 6SM 27/16 A2994 RMK T02700160 IEM_DS3505
ZGSZ,2009-05-02 06:00,ZGSZ 020600Z AUTO 18006KT 14SM 28/12 A2991 RMK SLP134 T02820125 57021 IEM_DS3505
ZGSZ,2009-05-02 07:00,ZGSZ 020700Z AUTO 18010KT 6SM 28/16 A2991 RMK T02800160 IEM_DS3505
ZGSZ,2009-05-02 08:00,ZGSZ 020800Z AUTO 19010KT 6SM 27/17 A2988 RMK T02700170 IEM_DS3505
ZGSZ,2009-05-02 09:00,ZGSZ 020900Z AUTO 25004KT 13SM 27/14 A2988 RMK SLP124 T02700137 57010 IEM_DS3505
ZGSZ,2009-05-02 10:00,ZGSZ 021000Z AUTO 19010KT 6SM 26/18 A2988 RMK T02600180 IEM_DS3505
ZGSZ,2009-05-02 11:00,ZGSZ 021100Z AUTO 18008KT 6SM 25/18 A2991 RMK T02500180 IEM_DS3505
ZGSZ,2009-05-02 12:00,ZGSZ 021200Z AUTO 20002KT 12SM 24/15 A2991 RMK SLP134 T02430147 52010 IEM_DS3505
ZGSZ,2009-05-02 13:00,ZGSZ 021300Z AUTO 18008KT 6SM 24/19 A2994 RMK T02400190 IEM_DS3505
ZGSZ,2009-05-02 14:00,ZGSZ 021400Z AUTO 17006KT 6SM 24/20 A2994 RMK T02400200 IEM_DS3505
ZGSZ,2009-05-02 15:00,ZGSZ 021500Z AUTO 09004KT 11SM 23/16 A2997 RMK SLP149 T02300156 52015 IEM_DS3505
ZGSZ,2009-05-02 16:00,ZGSZ 021600Z AUTO 20006KT 6SM 23/20 A2994 RMK T02300200 IEM_DS3505
ZGSZ,2009-05-02 17:00,ZGSZ 021700Z AUTO 20004KT 6SM 23/20 A2994 RMK T02300200 IEM_DS3505
ZGSZ,2009-05-02 18:00,ZGSZ 021800Z AUTO 09002KT 14SM 22/15 A2991 RMK SLP138 T02200154 57011 IEM_DS3505
ZGSZ,2009-05-02 19:00,ZGSZ 021900Z AUTO 00000KT 3SM 22/20 A2991 RMK T02200200 IEM_DS3505
ZGSZ,2009-05-02 20:00,ZGSZ 022000Z AUTO 00000KT 3SM 22/19 A2991 RMK T02200190 IEM_DS3505
ZGSZ,2009-05-02 21:00,ZGSZ 022100Z AUTO 02002KT 14SM 21/14 A2991 RMK SLP134 T02140143 57004 IEM_DS3505
ZGSZ,2009-05-02 22:00,ZGSZ 022200Z AUTO 06002KT 4SM 22/18 A2994 RMK T02200180 IEM_DS3505
ZGSZ,2009-05-02 23:00,ZGSZ 022300Z AUTO 15002KT 3SM 23/20 A2994 RMK T02300200 IEM_DS3505
ZGSZ,2009-05-03 00:00,ZGSZ 030000Z AUTO 09004KT 9SM 23/16 A2997 RMK SLP153 T02280161 52019 IEM_DS3505
ZGSZ,2009-05-03 01:00,ZGSZ 030100Z AUTO 6SM 25/18 A2997 RMK T02500180 IEM_DS3505
ZGSZ,2009-05-03 02:00,ZGSZ 030200Z AUTO 22004KT 4SM 25/19 A2997 RMK T02500190 IEM_DS3505
ZGSZ,2009-05-03 03:00,ZGSZ 030300Z AUTO 20002KT 9SM 27/17 A2997 RMK SLP150 T02710167 57003 IEM_DS3505
ZGSZ,2009-05-03 04:00,ZGSZ 030400Z AUTO 25006KT 4SM 27/19 A2994 RMK T02700190 IEM_DS3505
ZGSZ,2009-05-03 05:00,ZGSZ 030500Z AUTO 28008KT 4SM 28/19 A2991 RMK T02800190 IEM_DS3505
ZGSZ,2009-05-03 06:00,ZGSZ 030600Z AUTO 20004KT 5SM 28/18 A2988 RMK SLP126 T02760180 57024 IEM_DS3505
ZGSZ,2009-05-03 07:00,ZGSZ 030700Z AUTO 30008KT 2 1/2SM 29/19 A2985 RMK T02900190 IEM_DS3505
ZGSZ,2009-05-03 08:00,ZGSZ 030800Z AUTO 35010KT 4SM 28/20 A2985 RMK T02800200 IEM_DS3505
ZGSZ,2009-05-03 09:00,ZGSZ 030900Z AUTO 02006KT 4SM 26/19 A2988 RMK SLP119 T02610190 57007 IEM_DS3505
ZGSZ,2009-05-03 10:00,ZGSZ 031000Z AUTO 03008KT 7SM 26/19 A2988 RMK T02600190 IEM_DS3505
ZGSZ,2009-05-03 11:00,ZGSZ 031100Z AUTO 03010KT 7SM 25/18 A2991 RMK T02500180 IEM_DS3505
ZGSZ,2009-05-03 12:00,ZGSZ 031200Z AUTO 07006KT 7SM 25/17 A2991 RMK SLP138 T02460171 52019 IEM_DS3505
ZGSZ,2009-05-03 13:00,ZGSZ 031300Z AUTO 04008KT 7SM 25/18 A2994 RMK T02500180 IEM_DS3505
ZGSZ,2009-05-03 14:00,ZGSZ 031400Z AUTO 04006KT 7SM 24/18 A2997 RMK T02400180 IEM_DS3505
ZGSZ,2009-05-03 15:00,ZGSZ 031500Z AUTO 07006KT 11SM 23/16 A2997 RMK SLP155 T02290160 52017 IEM_DS3505
ZGSZ,2009-05-03 16:00,ZGSZ 031600Z AUTO 09002KT 7SM 24/18 A2997 RMK T02400180 IEM_DS3505
ZGSZ,2009-05-03 17:00,ZGSZ 031700Z AUTO 7SM 24/18 A2997 RMK T02400180 IEM_DS3505
ZGSZ,2009-05-03 18:00,ZGSZ 031800Z AUTO 04004KT 9SM 22/17 A2994 RMK 60000 SLP142 T02220169 57013 IEM_DS3505
ZGSZ,2009-05-03 19:00,ZGSZ 031900Z AUTO 09004KT 6SM 23/17 A2991 RMK T02300170 IEM_DS3505
ZGSZ,2009-05-03 20:00,ZGSZ 032000Z AUTO 7SM 23/17 A2991 RMK T02300170 IEM_DS3505
ZGSZ,2009-05-03 21:00,ZGSZ 032100Z AUTO 04002KT 9SM 22/18 A2994 RMK 70000 SLP139 T02210179 57003 IEM_DS3505
ZGSZ,2009-05-03 22:00,ZGSZ 032200Z AUTO 03006KT 7SM 23/17 A2994 RMK T02300170 IEM_DS3505
ZGSZ,2009-05-03 23:00,ZGSZ 032300Z AUTO 04004KT 7SM 23/17 A2997 RMK T02300170 IEM_DS3505
ZGSZ,2009-05-04 00:00,ZGSZ 040000Z AUTO 04004KT 9SM 23/18 A2997 RMK 70000 SLP155 T02260175 52016 IEM_DS3505
ZGSZ,2009-05-04 01:00,ZGSZ 040100Z AUTO 7SM 25/17 A3000 RMK T02500170 IEM_DS3505
ZGSZ,2009-05-04 02:00,ZGSZ 040200Z AUTO 02006KT 7SM 26/18 A2997 RMK T02600180 IEM_DS3505
ZGSZ,2009-05-04 03:00,ZGSZ 040300Z AUTO 07004KT 10SM 25/17 A2997 RMK SLP157 T02520169 52002 IEM_DS3505
ZGSZ,2009-05-04 04:00,ZGSZ 040400Z AUTO 24008KT 7SM 26/18 A2994 RMK T02600180 IEM_DS3505
ZGSZ,2009-05-04 05:00,ZGSZ 040500Z AUTO 21006KT 7SM 27/18 A2994 RMK T02700180 IEM_DS3505
ZGSZ,2009-05-04 06:00,ZGSZ 040600Z AUTO 18002KT 9SM 27/17 A2991 RMK SLP129 T02700169 57028 IEM_DS3505
ZGSZ,2009-05-04 07:00,ZGSZ 040700Z AUTO 19008KT 7SM 27/18 A2988 RMK T02700180 IEM_DS3505
ZGSZ,2009-05-04 08:00,ZGSZ 040800Z AUTO 19008KT 7SM 26/20 A2985 RMK T02600200 IEM_DS3505
ZGSZ,2009-05-04 09:00,ZGSZ 040900Z AUTO 22006KT 7SM 26/19 A2985 RMK SLP111 T02630187 57018 IEM_DS3505
ZGSZ,2009-05-04 10:00,ZGSZ 041000Z AUTO 18010KT 6SM 26/19 A2985 RMK T02600190 IEM_DS3505
ZGSZ,2009-05-04 11:00,ZGSZ 041100Z AUTO 17008KT 6SM 25/19 A2985 RMK T02500190 IEM_DS3505
ZGSZ,2009-05-04 12:00,ZGSZ 041200Z AUTO 14004KT 7SM 23/18 A2988 RMK SLP126 T02310184 52015 IEM_DS3505
ZGSZ,2009-05-04 13:00,ZGSZ 041300Z AUTO 13010KT 6SM 24/19 A2991 RMK T02400190 IEM_DS3505
ZGSZ,2009-05-04 14:00,ZGSZ 041400Z AUTO 11010KT 6SM 24/19 A2991 RMK T02400190 IEM_DS3505
ZGSZ,2009-05-04 15:00,ZGSZ 041500Z AUTO 09004KT 7SM 22/18 A2994 RMK SLP142 T02230185 52016 IEM_DS3505
ZGSZ,2009-05-04 16:00,ZGSZ 041600Z AUTO 11006KT 6SM 23/19 A2991 RMK T02300190 IEM_DS3505
ZGSZ,2009-05-04 17:00,ZGSZ 041700Z AUTO 12006KT 6SM 23/19 A2991 RMK T02300190 IEM_DS3505
ZGSZ,2009-05-04 18:00,ZGSZ 041800Z AUTO 09004KT 9SM 22/18 A2991 RMK SLP133 T02180184 57009 IEM_DS3505
ZGSZ,2009-05-04 19:00,ZGSZ 041900Z AUTO 10004KT 6SM 22/18 A2991 RMK T02200180 IEM_DS3505
ZGSZ,2009-05-04 20:00,ZGSZ 042000Z AUTO 10004KT 6SM 22/18 A2991 RMK T02200180 IEM_DS3505
ZGSZ,2009-05-04 21:00,ZGSZ 042100Z AUTO 09002KT 9SM 21/18 A2991 RMK SLP135 T02130177 52002 IEM_DS3505
ZGSZ,2009-05-04 22:00,ZGSZ 042200Z AUTO 10004KT 6SM 22/18 A2994 RMK T02200180 IEM_DS3505
ZGSZ,2009-05-04 23:00,ZGSZ 042300Z AUTO 6SM 23/19 A2994 RMK T02300190 IEM_DS3505
ZGSZ,2009-05-05 00:00,ZGSZ 050000Z AUTO 04004KT 12SM 22/18 A2997 RMK SLP154 T02220178 52018 IEM_DS3505
ZGSZ,2009-05-05 01:00,ZGSZ 050100Z AUTO 10004KT 7SM 25/18 A2997 RMK T02500180 IEM_DS3505
ZGSZ,2009-05-05 02:00,ZGSZ 050200Z AUTO 11004KT 7SM 26/18 A2997 RMK T02600180 IEM_DS3505
ZGSZ,2009-05-05 03:00,ZGSZ 050300Z AUTO 16006KT 11SM 26/16 A2997 RMK SLP153 T02650164 54000 IEM_DS3505
ZGSZ,2009-05-05 04:00,ZGSZ 050400Z AUTO 25008KT 7SM 27/20 A2994 RMK T02700200 IEM_DS3505
ZGSZ,2009-05-05 05:00,ZGSZ 050500Z AUTO 24006KT 7SM 27/19 A2994 RMK T02700190 IEM_DS3505
ZGSZ,2009-05-05 06:00,ZGSZ 050600Z AUTO 11006KT 16SM 28/11 A2988 RMK SLP129 T02790106 57024 IEM_DS3505
ZGSZ,2009-05-05 07:00,ZGSZ 050700Z AUTO 19012KT 6SM 28/15 A2985 RMK T02800150 IEM_DS3505
ZGSZ,2009-05-05 08:00,ZGSZ 050800Z AUTO 20012KT 6SM 28/15 A2985 RMK T02800150 IEM_DS3505
ZGSZ,2009-05-05 09:00,ZGSZ 050900Z AUTO 14006KT 16SM 27/11 A2983 RMK SLP110 T02720108 57019 IEM_DS3505
ZGSZ,2009-05-05 10:00,ZGSZ 051000Z AUTO 19010KT 6SM 27/17 A2985 RMK T02700170 IEM_DS3505
ZGSZ,2009-05-05 11:00,ZGSZ 051100Z AUTO 18006KT 6SM 26/16 A2985 RMK T02600160 IEM_DS3505
ZGSZ,2009-05-05 12:00,ZGSZ 051200Z AUTO 07006KT 13SM 23/15 A2985 RMK SLP123 T02300148 52013 IEM_DS3505
ZGSZ,2009-05-05 13:00,ZGSZ 051300Z AUTO 11010KT 6SM 25/15 A2988 RMK T02500150 IEM_DS3505
ZGSZ,2009-05-05 14:00,ZGSZ 051400Z AUTO 12008KT 6SM 24/15 A2991 RMK T02400150 IEM_DS3505
ZGSZ,2009-05-05 15:00,ZGSZ 051500Z AUTO 11006KT 13SM 22/15 A2991 RMK SLP139 T02190153 52016 IEM_DS3505
ZGSZ,2009-05-05 16:00,ZGSZ 051600Z AUTO 10006KT 6SM 23/15 A2991 RMK T02300150 IEM_DS3505
ZGSZ,2009-05-05 17:00,ZGSZ 051700Z AUTO 13006KT 6SM 22/15 A2991 RMK T02200150 IEM_DS3505
ZGSZ,2009-05-05 18:00,ZGSZ 051800Z AUTO 11004KT 9SM 22/18 A2988 RMK SLP126 T02150175 57013 IEM_DS3505
ZGSZ,2009-05-05 19:00,ZGSZ 051900Z AUTO 12004KT 6SM 22/17 A2988 RMK T02200170 IEM_DS3505
ZGSZ,2009-05-05 20:00,ZGSZ 052000Z AUTO 10006KT 6SM 22/17 A2988 RMK T02200170 IEM_DS3505
ZGSZ,2009-05-05 21:00,ZGSZ 052100Z AUTO 09006KT 9SM 21/18 A2988 RMK SLP119 T02140178 57007 IEM_DS3505
ZGSZ,2009-05-05 22:00,ZGSZ 052200Z AUTO 03006KT 7SM 21/18 A2988 RMK T02100180 IEM_DS3505
ZGSZ,2009-05-05 23:00,ZGSZ 052300Z AUTO 03004KT 7SM 22/18 A2988 RMK T02200180 IEM_DS3505
ZGSZ,2009-05-06 00:00,ZGSZ 060000Z AUTO 09006KT 9SM 22/17 A2991 RMK SLP132 T02210170 52012 IEM_DS3505
ZGSZ,2009-05-06 01:00,ZGSZ 060100Z AUTO 03008KT 5SM 24/18 A2991 RMK T02400180 IEM_DS3505
ZGSZ,2009-05-06 02:00,ZGSZ 060200Z AUTO 03004KT 5SM 25/18 A2994 RMK T02500180 IEM_DS3505
ZGSZ,2009-05-06 03:00,ZGSZ 060300Z AUTO 14004KT 8SM 25/14 A2991 RMK SLP137 T02540142 52006 IEM_DS3505
ZGSZ,2009-05-06 04:00,ZGSZ 060400Z AUTO 21006KT 7SM 28/18 A2991 RMK T02800180 IEM_DS3505
ZGSZ,2009-05-06 05:00,ZGSZ 060500Z AUTO 22010KT 7SM 26/18 A2988 RMK T02600180 IEM_DS3505
ZGSZ,2009-05-06 06:00,ZGSZ 060600Z AUTO 16006KT 12SM 27/13 A2985 RMK SLP110 T02670131 57027 IEM_DS3505
ZGSZ,2009-05-06 07:00,ZGSZ 060700Z AUTO 22010KT 6SM 27/18 A2983 RMK T02700180 IEM_DS3505
ZGSZ,2009-05-06 08:00,ZGSZ 060800Z AUTO 20010KT 6SM 27/18 A2980 RMK T02700180 IEM_DS3505
ZGSZ,2009-05-06 09:00,ZGSZ 060900Z AUTO 14008KT 19SM 26/12 A2980 RMK SLP097 T02590124 57013 IEM_DS3505
ZGSZ,2009-05-06 10:00,ZGSZ 061000Z AUTO 12010KT 6SM 28/12 A2980 RMK T02800120 IEM_DS3505
ZGSZ,2009-05-06 11:00,ZGSZ 061100Z AUTO 13012KT 6SM 26/11 A2983 RMK T02600110 IEM_DS3505
ZGSZ,2009-05-06 12:00,ZGSZ 061200Z AUTO 07008KT 14SM 22/14 A2985 RMK SLP115 T02250144 52018 IEM_DS3505
ZGSZ,2009-05-06 13:00,ZGSZ 061300Z AUTO 11010KT 6SM 24/14 A2985 RMK T02400140 IEM_DS3505
ZGSZ,2009-05-06 14:00,ZGSZ 061400Z AUTO 12006KT 6SM 23/13 A2988 RMK T02300130 IEM_DS3505
ZGSZ,2009-05-06 15:00,ZGSZ 061500Z AUTO 11006KT 12SM 22/14 A2988 RMK SLP126 T02200144 52011 IEM_DS3505
ZGSZ,2009-05-06 16:00,ZGSZ 061600Z AUTO 10008KT 6SM 23/15 A2988 RMK T02300150 IEM_DS3505
ZGSZ,2009-05-06 17:00,ZGSZ 061700Z AUTO 10008KT 6SM 22/16 A2985 RMK T02200160 IEM_DS3505
ZGSZ,2009-05-06 18:00,ZGSZ 061800Z AUTO 09006KT 14SM 21/14 A2983 RMK SLP108 T02110140 57018 IEM_DS3505
ZGSZ,2009-05-06 19:00,ZGSZ 061900Z AUTO 10004KT 6SM 22/13 A2983 RMK T02200130 IEM_DS3505
ZGSZ,2009-05-06 20:00,ZGSZ 062000Z AUTO 6SM 22/11 A2980 RMK T02200110 IEM_DS3505
ZGSZ,2009-05-06 21:00,ZGSZ 062100Z AUTO 07004KT 16SM 21/11 A2983 RMK SLP099 T02110112 57009 IEM_DS3505
ZGSZ,2009-05-06 22:00,ZGSZ 062200Z AUTO 36006KT 6SM 20/11 A2983 RMK T02000110 IEM_DS3505
ZGSZ,2009-05-06 23:00,ZGSZ 062300Z AUTO 36004KT 6SM 22/10 A2983 RMK T02200100 IEM_DS3505
ZGSZ,2009-05-07 00:00,ZGSZ 070000Z AUTO 04004KT 12SM 23/07 A2985 RMK SLP112 T02320073 52013 IEM_DS3505
ZGSZ,2009-05-07 01:00,ZGSZ 070100Z AUTO 08004KT 6SM 26/06 A2985 RMK T02600060 IEM_DS3505
ZGSZ,2009-05-07 02:00,ZGSZ 070200Z AUTO 6SM 28/04 A2988 RMK T02800040 IEM_DS3505
ZGSZ,2009-05-07 03:00,ZGSZ 070300Z AUTO 09004KT 14SM 28/02 A2985 RMK SLP118 T02760019 52006 IEM_DS3505
ZGSZ,2009-05-07 04:00,ZGSZ 070400Z AUTO 25006KT 6SM 28/10 A2985 RMK T02800100 IEM_DS3505
ZGSZ,2009-05-07 05:00,ZGSZ 070500Z AUTO 24006KT 6SM 29/10 A2983 RMK T02900100 IEM_DS3505
ZGSZ,2009-05-07 06:00,ZGSZ 070600Z AUTO 14008KT 16SM 28/03 A2980 RMK SLP097 T02760033 57021 IEM_DS3505
ZGSZ,2009-05-07 07:00,ZGSZ 070700Z AUTO 24008KT 6SM 29/11 A2977 RMK T02900110 IEM_DS3505
ZGSZ,2009-05-07 08:00,ZGSZ 070800Z AUTO 22006KT 6SM 30/08 A2977 RMK T03000080 IEM_DS3505
ZGSZ,2009-05-07 09:00,ZGSZ 070900Z AUTO 14012KT 17SM 27/07 A2977 RMK SLP084 T02730067 57013 IEM_DS3505
ZGSZ,2009-05-07 10:00,ZGSZ 071000Z AUTO 11008KT 6SM 29/06 A2977 RMK T02900060 IEM_DS3505
ZGSZ,2009-05-07 11:00,ZGSZ 071100Z AUTO 12012KT 6SM 27/12 A2977 RMK T02700120 IEM_DS3505
ZGSZ,2009-05-07 12:00,ZGSZ 071200Z AUTO 09004KT 12SM 24/16 A2980 RMK SLP098 T02420160 52014 IEM_DS3505
ZGSZ,2009-05-07 13:00,ZGSZ 071300Z AUTO 10012KT 6SM 25/17 A2980 RMK T02500170 IEM_DS3505
ZGSZ,2009-05-07 14:00,ZGSZ 071400Z AUTO 11012KT 6SM 25/17 A2983 RMK T02500170 IEM_DS3505
ZGSZ,2009-05-07 15:00,ZGSZ 071500Z AUTO 09004KT 9SM 23/18 A2985 RMK SLP115 T02260182 52017 IEM_DS3505
ZGSZ,2009-05-07 16:00,ZGSZ 071600Z AUTO 10006KT 6SM 23/18 A2985 RMK T02300180 IEM_DS3505
ZGSZ,2009-05-07 17:00,ZGSZ 071700Z AUTO 11004KT 6SM 23/18 A2983 RMK T02300180 IEM_DS3505
ZGSZ,2009-05-07 18:00,ZGSZ 071800Z AUTO 07004KT 7SM 22/14 A2983 RMK SLP102 T02190145 57013 IEM_DS3505
ZGSZ,2009-05-07 19:00,ZGSZ 071900Z AUTO 6SM 22/18 A2980 RMK T02200180 IEM_DS3505
ZGSZ,2009-05-07 20:00,ZGSZ 072000Z AUTO 11004KT 6SM 22/18 A2980 RMK T02200180 IEM_DS3505
ZGSZ,2009-05-07 21:00,ZGSZ 072100Z AUTO 07004KT 9SM 21/14 A2983 RMK SLP101 T02110143 57001 IEM_DS3505
ZGSZ,2009-05-07 22:00,ZGSZ 072200Z AUTO 10004KT 6SM 21/15 A2983 RMK T02100150 IEM_DS3505
ZGSZ,2009-05-07 23:00,ZGSZ 072300Z AUTO 11004KT 6SM 23/15 A2985 RMK T02300150 IEM_DS3505
ZGSZ,2009-05-08 00:00,ZGSZ 080000Z AUTO 04006KT 9SM 23/15 A2985 RMK SLP117 T02330146 52016 IEM_DS3505
ZGSZ,2009-05-08 01:00,ZGSZ 080100Z AUTO 10006KT 6SM 26/16 A2988 RMK T02600160 IEM_DS3505
ZGSZ,2009-05-08 02:00,ZGSZ 080200Z AUTO 09006KT 6SM 27/15 A2988 RMK T02700150 IEM_DS3505
ZGSZ,2009-05-08 03:00,ZGSZ 080300Z AUTO 09006KT 9SM 26/16 A2985 RMK SLP119 T02600157 52002 IEM_DS3505
ZGSZ,2009-05-08 04:00,ZGSZ 080400Z AUTO 24006KT 7SM 27/18 A2985 RMK T02700180 IEM_DS3505
ZGSZ,2009-05-08 05:00,ZGSZ 080500Z AUTO 22010KT 7SM 29/18 A2983 RMK T02900180 IEM_DS3505
ZGSZ,2009-05-08 06:00,ZGSZ 080600Z AUTO 14008KT 12SM 28/14 A2980 RMK SLP100 T02830138 57019 IEM_DS3505
ZGSZ,2009-05-08 07:00,ZGSZ 080700Z AUTO 21012KT 6SM 28/19 A2980 RMK T02800190 IEM_DS3505
ZGSZ,2009-05-08 08:00,ZGSZ 080800Z AUTO 21012KT 6SM 27/19 A2977 RMK T02700190 IEM_DS3505
ZGSZ,2009-05-08 09:00,ZGSZ 080900Z AUTO 14004KT 14SM 27/14 A2977 RMK SLP090 T02670145 57010 IEM_DS3505
ZGSZ,2009-05-08 10:00,ZGSZ 081000Z AUTO 17012KT 6SM 27/18 A2980 RMK T02700180 IEM_DS3505
ZGSZ,2009-05-08 11:00,ZGSZ 081100Z AUTO 13010KT 6SM 27/16 A2980 RMK T02700160 IEM_DS3505
ZGSZ,2009-05-08 12:00,ZGSZ 081200Z AUTO 09004KT 14SM 24/15 A2983 RMK SLP106 T02420152 52016 IEM_DS3505
ZGSZ,2009-05-08 13:00,ZGSZ 081300Z AUTO 14010KT 6SM 25/17 A2983 RMK T02500170 IEM_DS3505
ZGSZ,2009-05-08 14:00,ZGSZ 081400Z AUTO 10006KT 6SM 25/17 A2985 RMK T02500170 IEM_DS3505
ZGSZ,2009-05-08 15:00,ZGSZ 081500Z AUTO 09006KT 12SM 23/17 A2985 RMK SLP113 T02270172 52007 IEM_DS3505
ZGSZ,2009-05-08 16:00,ZGSZ 081600Z AUTO 10008KT 6SM 24/17 A2983 RMK T02400170 IEM_DS3505
ZGSZ,2009-05-08 17:00,ZGSZ 081700Z AUTO 10006KT 6SM 23/18 A2983 RMK T02300180 IEM_DS3505
ZGSZ,2009-05-08 18:00,ZGSZ 081800Z AUTO 09006KT 12SM 22/19 A2983 RMK SLP102 T02220186 57011 IEM_DS3505
ZGSZ,2009-05-08 19:00,ZGSZ 081900Z AUTO 11006KT 6SM 23/19 A2983 RMK T02300190 IEM_DS3505
ZGSZ,2009-05-08 20:00,ZGSZ 082000Z AUTO 09004KT 7SM 23/19 A2983 RMK T02300190 IEM_DS3505
ZGSZ,2009-05-08 21:00,ZGSZ 082100Z AUTO 09002KT 11SM 22/19 A2983 RMK SLP103 T02190187 52001 IEM_DS3505
ZGSZ,2009-05-08 22:00,ZGSZ 082200Z AUTO 36006KT 5SM 23/19 A2983 RMK T02300190 IEM_DS3505
ZGSZ,2009-05-08 23:00,ZGSZ 082300Z AUTO 08004KT 6SM 24/19 A2983 RMK T02400190 IEM_DS3505
ZGSZ,2009-05-09 00:00,ZGSZ 090000Z AUTO 07008KT 9SM 24/18 A2985 RMK SLP110 T02410183 52007 IEM_DS3505
ZGSZ,2009-05-09 01:00,ZGSZ 090100Z AUTO 09008KT 7SM 26/18 A2985 RMK T02600180 IEM_DS3505
ZGSZ,2009-05-09 02:00,ZGSZ 090200Z AUTO 12008G19KT 7SM 28/17 A2985 RMK T02800170 IEM_DS3505
ZGSZ,2009-05-09 03:00,ZGSZ 090300Z AUTO 09006KT 12SM 27/16 A2985 RMK SLP112 T02720165 52002 IEM_DS3505
ZGSZ,2009-05-09 04:00,ZGSZ 090400Z AUTO 20010KT 7SM 28/19 A2983 RMK T02800190 IEM_DS3505
ZGSZ,2009-05-09 05:00,ZGSZ 090500Z AUTO 23008KT 7SM 28/19 A2983 RMK T02800190 IEM_DS3505
ZGSZ,2009-05-09 06:00,ZGSZ 090600Z AUTO 09008KT 17SM 28/16 A2980 RMK SLP095 T02770157 57017 IEM_DS3505
ZGSZ,2009-05-09 07:00,ZGSZ 090700Z AUTO 16010G19KT 7SM 29/19 A2977 RMK T02900190 IEM_DS3505
ZGSZ,2009-05-09 08:00,ZGSZ 090800Z AUTO 18014KT 7SM 28/19 A2977 RMK T02800190 IEM_DS3505
ZGSZ,2009-05-09 09:00,ZGSZ 090900Z AUTO 16006KT 19SM 27/17 A2977 RMK SLP090 T02660168 57005 IEM_DS3505
ZGSZ,2009-05-09 10:00,ZGSZ 091000Z AUTO 11012KT 7SM 28/18 A2977 RMK T02800180 IEM_DS3505
ZGSZ,2009-05-09 11:00,ZGSZ 091100Z AUTO 13012KT 7SM 27/19 A2980 RMK T02700190 IEM_DS3505
ZGSZ,2009-05-09 12:00,ZGSZ 091200Z AUTO 09006KT 16SM 24/19 A2980 RMK SLP100 T02420191 52010 IEM_DS3505
ZGSZ,2009-05-09 13:00,ZGSZ 091300Z AUTO 11010KT 6SM 25/20 A2983 RMK T02500200 IEM_DS3505
ZGSZ,2009-05-09 14:00,ZGSZ 091400Z AUTO 11012KT 6SM 25/20 A2983 RMK T02500200 IEM_DS3505
ZGSZ,2009-05-09 15:00,ZGSZ 091500Z AUTO 09006KT 14SM 24/19 A2983 RMK SLP109 T02350192 52009 IEM_DS3505
ZGSZ,2009-05-09 16:00,ZGSZ 091600Z AUTO 12010KT 6SM 24/20 A2983 RMK T02400200 IEM_DS3505
ZGSZ,2009-05-09 17:00,ZGSZ 091700Z AUTO 12008KT 6SM 24/20 A2983 RMK T02400200 IEM_DS3505
ZGSZ,2009-05-09 18:00,ZGSZ 091800Z AUTO 09004KT 11SM 23/20 A2983 RMK SLP103 T02330197 57006 IEM_DS3505
ZGSZ,2009-05-09 19:00,ZGSZ 091900Z AUTO 08002KT 6SM 24/20 A2983 RMK T02400200 IEM_DS3505
ZGSZ,2009-05-09 20:00,ZGSZ 092000Z AUTO 09002KT 6SM 24/20 A2980 RMK T02400200 IEM_DS3505
ZGSZ,2009-05-09 21:00,ZGSZ 092100Z AUTO 09004KT 9SM 23/20 A2983 RMK SLP105 T02320200 52002 IEM_DS3505
ZGSZ,2009-05-09 22:00,ZGSZ 092200Z AUTO 06004KT 6SM 24/20 A2983 RMK T02400200 IEM_DS3505
ZGSZ,2009-05-09 23:00,ZGSZ 092300Z AUTO 03004KT 6SM 24/20 A2985 RMK T02400200 IEM_DS3505
ZGSZ,2009-05-10 00:00,ZGSZ 100000Z AUTO 14006KT 7SM 26/21 A2985 RMK SLP117 T02580206 52012 IEM_DS3505
ZGSZ,2009-05-10 01:00,ZGSZ 100100Z AUTO 09008KT 7SM 28/21 A2985 RMK T02800210 IEM_DS3505
ZGSZ,2009-05-10 02:00,ZGSZ 100200Z AUTO 11010KT 7SM 29/21 A2985 RMK T02900210 IEM_DS3505
ZGSZ,2009-05-10 03:00,ZGSZ 100300Z AUTO 09006KT 8SM 28/20 A2985 RMK SLP115 T02830203 57002 IEM_DS3505
ZGSZ,2009-05-10 04:00,ZGSZ 100400Z AUTO 12004KT 7SM 29/20 A2985 RMK T02900200 IEM_DS3505
ZGSZ,2009-05-10 05:00,ZGSZ 100500Z AUTO 21010KT 7SM 28/22 A2983 RMK T02800220 IEM_DS3505
ZGSZ,2009-05-10 06:00,ZGSZ 100600Z AUTO 09006KT 10SM 28/20 A2980 RMK SLP099 T02790202 57016 IEM_DS3505
ZGSZ,2009-05-10 07:00,ZGSZ 100700Z AUTO 18010KT 7SM 27/22 A2980 RMK T02700220 IEM_DS3505
ZGSZ,2009-05-10 08:00,ZGSZ 100800Z AUTO 18010KT 7SM 27/22 A2977 RMK T02700220 IEM_DS3505
ZGSZ,2009-05-10 09:00,ZGSZ 100900Z AUTO 11006KT 11SM 27/20 A2977 RMK SLP087 T02670205 57012 IEM_DS3505
ZGSZ,2009-05-10 10:00,ZGSZ 101000Z AUTO 10008KT 7SM 28/21 A2977 RMK T02800210 IEM_DS3505
ZGSZ,2009-05-10 11:00,ZGSZ 101100Z AUTO 11010KT 7SM 28/21 A2977 RMK T02800210 IEM_DS3505
ZGSZ,2009-05-10 12:00,ZGSZ 101200Z AUTO 11004KT 10SM 25/21 A2980 RMK SLP095 T02510208 52008 IEM_DS3505
ZGSZ,2009-05-10 13:00,ZGSZ 101300Z AUTO 11010KT 6SM 26/21 A2980 RMK T02600210 IEM_DS3505
ZGSZ,2009-05-10 14:00,ZGSZ 101400Z AUTO 10008KT 6SM 26/21 A2983 RMK T02600210 IEM_DS3505
ZGSZ,2009-05-10 15:00,ZGSZ 101500Z AUTO 09002KT 12SM 25/21 A2983 RMK SLP107 T02500209 52013 IEM_DS3505
ZGSZ,2009-05-10 16:00,ZGSZ 101600Z AUTO 10004KT 6SM 25/21 A2983 RMK T02500210 IEM_DS3505
ZGSZ,2009-05-10 17:00,ZGSZ 101700Z AUTO 09006KT 6SM 25/21 A2983 RMK T02500210 IEM_DS3505
ZGSZ,2009-05-10 18:00,ZGSZ 101800Z AUTO 07002KT 13SM 24/21 A2983 RMK SLP101 T02440209 57006 IEM_DS3505
ZGSZ,2009-05-10 19:00,ZGSZ 101900Z AUTO 11004KT 6SM 25/21 A2980 RMK T02500210 IEM_DS3505
ZGSZ,2009-05-10 20:00,ZGSZ 102000Z AUTO 11004KT 6SM 25/21 A2983 RMK T02500210 IEM_DS3505
ZGSZ,2009-05-10 21:00,ZGSZ 102100Z AUTO 04004KT 11SM 24/21 A2983 RMK SLP103 T02400211 52001 IEM_DS3505
ZGSZ,2009-05-10 22:00,ZGSZ 102200Z AUTO 08002KT 7SM 25/21 A2985 RMK T02500210 IEM_DS3505
ZGSZ,2009-05-10 23:00,ZGSZ 102300Z AUTO 7SM 26/21 A2985 RMK T02600210 IEM_DS3505
ZGSZ,2009-05-11 00:00,ZGSZ 110000Z AUTO 11004KT 8SM 26/21 A2988 RMK SLP120 T02570207 52017 IEM_DS3505
ZGSZ,2009-05-11 01:00,ZGSZ 110100Z AUTO 7SM 29/21 A2988 RMK T02900210 IEM_DS3505
ZGSZ,2009-05-11 02:00,ZGSZ 110200Z AUTO 13004KT 7SM 29/21 A2988 RMK T02900210 IEM_DS3505
ZGSZ,2009-05-11 03:00,ZGSZ 110300Z AUTO 11006KT 10SM 28/21 A2985 RMK SLP119 T02840207 54000 IEM_DS3505
ZGSZ,2009-05-11 04:00,ZGSZ 110400Z AUTO 21010KT 7SM 30/22 A2985 RMK T03000220 IEM_DS3505
ZGSZ,2009-05-11 05:00,ZGSZ 110500Z AUTO 21010KT 7SM 30/22 A2985 RMK T03000220 IEM_DS3505
ZGSZ,2009-05-11 06:00,ZGSZ 110600Z AUTO 14004KT 12SM 30/20 A2983 RMK SLP103 T03050204 57016 IEM_DS3505
ZGSZ,2009-05-11 07:00,ZGSZ 110700Z AUTO 20012KT 7SM 30/23 A2980 RMK T03000230 IEM_DS3505
ZGSZ,2009-05-11 08:00,ZGSZ 110800Z AUTO 19012KT 7SM 29/22 A2980 RMK T02900220 IEM_DS3505
ZGSZ,2009-05-11 09:00,ZGSZ 110900Z AUTO 20004KT 14SM 30/21 A2980 RMK SLP092 T02970206 57011 IEM_DS3505
ZGSZ,2009-05-11 10:00,ZGSZ 111000Z AUTO 18012KT 7SM 29/22 A2980 RMK T02900220 IEM_DS3505
ZGSZ,2009-05-11 11:00,ZGSZ 111100Z AUTO 17010KT 7SM 27/23 A2980 RMK T02700230 IEM_DS3505
ZGSZ,2009-05-11 12:00,ZGSZ 111200Z AUTO 11004KT 11SM 26/21 A2980 RMK SLP100 T02590209 52008 IEM_DS3505
ZGSZ,2009-05-11 13:00,ZGSZ 111300Z AUTO 14010KT 6SM 27/21 A2983 RMK T02700210 IEM_DS3505
ZGSZ,2009-05-11 14:00,ZGSZ 111400Z AUTO 10006KT 6SM 27/21 A2985 RMK T02700210 IEM_DS3505
ZGSZ,2009-05-11 15:00,ZGSZ 111500Z AUTO 09004KT 9SM 25/21 A2985 RMK SLP118 T02490212 52018 IEM_DS3505
ZGSZ,2009-05-11 16:00,ZGSZ 111600Z AUTO 09004KT 6SM 26/21 A2988 RMK T02600210 IEM_DS3505
ZGSZ,2009-05-11 17:00,ZGSZ 111700Z AUTO 10004KT 6SM 26/21 A2985 RMK T02600210 IEM_DS3505
ZGSZ,2009-05-11 18:00,ZGSZ 111800Z AUTO 09002KT 10SM 24/21 A2985 RMK SLP114 T02430214 57004 IEM_DS3505
ZGSZ,2009-05-11 19:00,ZGSZ 111900Z AUTO 00000KT 6SM 25/21 A2985 RMK T02500210 IEM_DS3505
ZGSZ,2009-05-11 20:00,ZGSZ 112000Z AUTO 00000KT 7SM 25/22 A2985 RMK T02500220 IEM_DS3505
ZGSZ,2009-05-11 21:00,ZGSZ 112100Z AUTO 02002KT 8SM 24/21 A2985 RMK SLP118 T02400213 52004 IEM_DS3505
ZGSZ,2009-05-11 22:00,ZGSZ 112200Z AUTO 06004KT 6SM 25/22 A2985 RMK T02500220 IEM_DS3505
ZGSZ,2009-05-11 23:00,ZGSZ 112300Z AUTO 00000KT 6SM 26/22 A2988 RMK T02600220 IEM_DS3505
ZGSZ,2009-05-12 00:00,ZGSZ 120000Z AUTO 36002KT 7SM 27/21 A2988 RMK SLP126 T02690212 52007 IEM_DS3505
ZGSZ,2009-05-12 01:00,ZGSZ 120100Z AUTO 28004KT 7SM 28/22 A2988 RMK T02800220 IEM_DS3505
ZGSZ,2009-05-12 02:00,ZGSZ 120200Z AUTO 27008KT 7SM 29/22 A2988 RMK T02900220 IEM_DS3505
ZGSZ,2009-05-12 03:00,ZGSZ 120300Z AUTO 22004KT 7SM 29/21 A2988 RMK SLP122 T02890214 57003 IEM_DS3505
ZGSZ,2009-05-12 04:00,ZGSZ 120400Z AUTO 23006KT 6SM 30/22 A2985 RMK T03000220 IEM_DS3505
ZGSZ,2009-05-12 05:00,ZGSZ 120500Z AUTO 25006KT 6SM 31/21 A2983 RMK T03100210 IEM_DS3505
ZGSZ,2009-05-12 06:00,ZGSZ 120600Z AUTO 22010KT 6SM 31/21 A2980 RMK SLP093 T03100206 57029 IEM_DS3505
ZGSZ,2009-05-12 07:00,ZGSZ 120700Z AUTO 21008KT 6SM 32/21 A2977 RMK T03200210 IEM_DS3505
ZGSZ,2009-05-12 09:00,ZGSZ 120900Z AUTO 22008KT 9SM 29/22 A2974 RMK SLP079 T02880218 57014 IEM_DS3505
ZGSZ,2009-05-12 10:00,ZGSZ 121000Z AUTO 17014KT 7SM 28/24 A2974 RMK T02800240 IEM_DS3505
ZGSZ,2009-05-12 11:00,ZGSZ 121100Z AUTO 17014KT 7SM 27/23 A2977 RMK T02700230 IEM_DS3505
ZGSZ,2009-05-12 12:00,ZGSZ 121200Z AUTO 22004KT 11SM 26/22 A2977 RMK SLP088 T02560219 52009 IEM_DS3505
ZGSZ,2009-05-12 13:00,ZGSZ 121300Z AUTO 17012KT 6SM 26/23 A2980 RMK T02600230 IEM_DS3505
ZGSZ,2009-05-12 14:00,ZGSZ 121400Z AUTO 17010KT 6SM 26/22 A2983 RMK T02600220 IEM_DS3505
ZGSZ,2009-05-12 15:00,ZGSZ 121500Z AUTO 18002KT 12SM 25/22 A2983 RMK SLP105 T02510218 52017 IEM_DS3505
ZGSZ,2009-05-12 16:00,ZGSZ 121600Z AUTO 16008KT 6SM 26/23 A2983 RMK T02600230 IEM_DS3505
ZGSZ,2009-05-12 17:00,ZGSZ 121700Z AUTO 17006KT 6SM 26/23 A2983 RMK T02600230 IEM_DS3505
ZGSZ,2009-05-12 18:00,ZGSZ 121800Z AUTO 18004KT 9SM 24/22 A2980 RMK SLP096 T02450220 57009 IEM_DS3505
ZGSZ,2009-05-12 19:00,ZGSZ 121900Z AUTO 16004KT 7SM 26/23 A2980 RMK T02600230 IEM_DS3505
ZGSZ,2009-05-12 20:00,ZGSZ 122000Z AUTO 16004KT 7SM 25/23 A2980 RMK T02500230 IEM_DS3505
ZGSZ,2009-05-12 21:00,ZGSZ 122100Z AUTO 00000KT 10SM 24/22 A2980 RMK SLP094 T02430218 57002 IEM_DS3505
ZGSZ,2009-05-12 22:00,ZGSZ 122200Z AUTO 15002KT 6SM 25/23 A2980 RMK T02500230 IEM_DS3505
ZGSZ,2009-05-12 23:00,ZGSZ 122300Z AUTO 6SM 26/23 A2983 RMK T02600230 IEM_DS3505
ZGSZ,2009-05-13 00:00,ZGSZ 130000Z AUTO 16002KT 7SM 27/22 A2983 RMK SLP102 T02670221 52008 IEM_DS3505
ZGSZ,2009-05-13 01:00,ZGSZ 130100Z AUTO 23004KT 6SM 28/23 A2983 RMK T02800230 IEM_DS3505
ZGSZ,2009-05-13 02:00,ZGSZ 130200Z AUTO 24006KT 6SM 29/23 A2983 RMK T02900230 IEM_DS3505
ZGSZ,2009-05-13 03:00,ZGSZ 130300Z AUTO 20006KT 7SM 30/21 A2983 RMK SLP107 T03020213 52005 IEM_DS3505
ZGSZ,2009-05-13 04:00,ZGSZ 130400Z AUTO 22006KT 6SM 29/23 A2983 RMK T02900230 IEM_DS3505
ZGSZ,2009-05-13 05:00,ZGSZ 130500Z AUTO 20008KT 6SM 30/23 A2980 RMK T03000230 IEM_DS3505
ZGSZ,2009-05-13 06:00,ZGSZ 130600Z AUTO 22008KT 6SM 30/22 A2977 RMK SLP082 T02990221 57025 IEM_DS3505
ZGSZ,2009-05-13 07:00,ZGSZ 130700Z AUTO 17012KT 6SM 30/24 A2974 RMK T03000240 IEM_DS3505
ZGSZ,2009-05-13 08:00,ZGSZ 130800Z AUTO 18014KT 6SM 29/24 A2971 RMK T02900240 IEM_DS3505
ZGSZ,2009-05-13 09:00,ZGSZ 130900Z AUTO 25004KT 6SM 29/23 A2971 RMK SLP065 T02940231 57017 IEM_DS3505
ZGSZ,2009-05-13 10:00,ZGSZ 131000Z AUTO 18014KT 7SM 28/23 A2971 RMK T02800230 IEM_DS3505
ZGSZ,2009-05-13 10:30,ZGSZ 131030Z AUTO 18014KT 7SM 27/23 A2971 RMK T02700230 IEM_DS3505
ZGSZ,2009-05-13 11:00,ZGSZ 131100Z AUTO 18014KT 6SM 27/23 A2974 RMK T02700230 IEM_DS3505
ZGSZ,2009-05-13 12:00,ZGSZ 131200Z AUTO 18004KT 7SM 26/22 A2977 RMK SLP083 T02600221 52018 IEM_DS3505
ZGSZ,2009-05-13 13:00,ZGSZ 131300Z AUTO 13012KT 6SM 28/22 A2980 RMK T02800220 IEM_DS3505
ZGSZ,2009-05-13 14:00,ZGSZ 131400Z AUTO 12008KT 6SM 27/22 A2983 RMK T02700220 IEM_DS3505
ZGSZ,2009-05-13 15:00,ZGSZ 131500Z AUTO 11006KT 11SM 26/20 A2985 RMK SLP111 T02590205 52028 IEM_DS3505
ZGSZ,2009-05-13 16:00,ZGSZ 131600Z AUTO 10006KT 7SM 27/21 A2985 RMK T02700210 IEM_DS3505
ZGSZ,2009-05-13 17:00,ZGSZ 131700Z AUTO 09006KT 7SM 26/21 A2985 RMK T02600210 IEM_DS3505
ZGSZ,2009-05-13 18:00,ZGSZ 131800Z AUTO 04004KT 16SM 25/21 A2983 RMK SLP106 T02500207 57005 IEM_DS3505
ZGSZ,2009-05-13 19:00,ZGSZ 131900Z AUTO 10004KT 6SM 26/21 A2983 RMK T02600210 IEM_DS3505
ZGSZ,2009-05-13 20:00,ZGSZ 132000Z AUTO 11004KT 7SM 26/21 A2983 RMK T02600210 IEM_DS3505
ZGSZ,2009-05-13 21:00,ZGSZ 132100Z AUTO 11004KT 11SM 25/20 A2983 RMK SLP105 T02480205 57001 IEM_DS3505
ZGSZ,2009-05-13 22:00,ZGSZ 132200Z AUTO 09004KT 7SM 26/21 A2985 RMK T02600210 IEM_DS3505
ZGSZ,2009-05-13 23:00,ZGSZ 132300Z AUTO 10006KT 7SM 26/21 A2985 RMK T02600210 IEM_DS3505
ZGSZ,2009-05-14 00:00,ZGSZ 140000Z AUTO 07006KT 8SM 25/20 A2988 RMK SLP123 T02540200 52017 IEM_DS3505
ZGSZ,2009-05-14 01:00,ZGSZ 140100Z AUTO 10010KT 7SM 28/20 A2988 RMK T02800200 IEM_DS3505
ZGSZ,2009-05-14 02:00,ZGSZ 140200Z AUTO 09010KT 7SM 29/20 A2988 RMK T02900200 IEM_DS3505
ZGSZ,2009-05-14 03:00,ZGSZ 140300Z AUTO 14008KT 8SM 27/19 A2988 RMK SLP128 T02710187 52005 IEM_DS3505
ZGSZ,2009-05-14 04:00,ZGSZ 140400Z AUTO 12010KT 7SM 30/20 A2988 RMK T03000200 IEM_DS3505
ZGSZ,2009-05-14 05:00,ZGSZ 140500Z AUTO 11010KT 7SM 30/19 A2985 RMK T03000190 IEM_DS3505
ZGSZ,2009-05-14 06:00,ZGSZ 140600Z AUTO 14010KT 11SM 28/19 A2983 RMK SLP111 T02810188 57016 IEM_DS3505
ZGSZ,2009-05-14 07:00,ZGSZ 140700Z AUTO 20012KT 7SM 30/21 A2983 RMK T03000210 IEM_DS3505
ZGSZ,2009-05-14 08:00,ZGSZ 140800Z AUTO 18014KT 7SM 30/21 A2980 RMK T03000210 IEM_DS3505
ZGSZ,2009-05-14 09:00,ZGSZ 140900Z AUTO 14006KT 12SM 29/17 A2980 RMK SLP097 T02880170 57014 IEM_DS3505
ZGSZ,2009-05-14 10:00,ZGSZ 141000Z AUTO 18012KT 6SM 29/19 A2980 RMK T02900190 IEM_DS3505
ZGSZ,2009-05-14 11:00,ZGSZ 141100Z AUTO 17010KT 6SM 28/19 A2980 RMK T02800190 IEM_DS3505
ZGSZ,2009-05-14 12:00,ZGSZ 141200Z AUTO 11010KT 14SM 26/18 A2983 RMK SLP110 T02580185 52012 IEM_DS3505
ZGSZ,2009-05-14 13:00,ZGSZ 141300Z AUTO 12010KT 6SM 27/18 A2985 RMK T02700180 IEM_DS3505
ZGSZ,2009-05-14 14:00,ZGSZ 141400Z AUTO 12010KT 6SM 27/18 A2988 RMK T02700180 IEM_DS3505
ZGSZ,2009-05-14 15:00,ZGSZ 141500Z AUTO 09004KT 13SM 25/19 A2988 RMK SLP128 T02470193 52018 IEM_DS3505
ZGSZ,2009-05-14 16:00,ZGSZ 141600Z AUTO 13006KT 6SM 26/19 A2988 RMK T02600190 IEM_DS3505
ZGSZ,2009-05-14 17:00,ZGSZ 141700Z AUTO 08006KT 6SM 25/20 A2988 RMK T02500200 IEM_DS3505
ZGSZ,2009-05-14 18:00,ZGSZ 141800Z AUTO 11002KT 7SM 24/20 A2988 RMK SLP125 T02390204 57003 IEM_DS3505
ZGSZ,2009-05-14 19:00,ZGSZ 141900Z AUTO 09006KT 6SM 25/20 A2988 RMK T02500200 IEM_DS3505
ZGSZ,2009-05-14 20:00,ZGSZ 142000Z AUTO 11004KT 6SM 25/21 A2988 RMK T02500210 IEM_DS3505
ZGSZ,2009-05-14 21:00,ZGSZ 142100Z AUTO 11004KT 7SM 24/20 A2988 RMK SLP126 T02380203 52001 IEM_DS3505
ZGSZ,2009-05-14 22:00,ZGSZ 142200Z AUTO 10004KT 6SM 25/20 A2988 RMK T02500200 IEM_DS3505
ZGSZ,2009-05-14 23:00,ZGSZ 142300Z AUTO 10008KT 6SM 25/20 A2991 RMK T02500200 IEM_DS3505
ZGSZ,2009-05-15 00:00,ZGSZ 150000Z AUTO 09006KT 7SM 25/20 A2991 RMK SLP136 T02470200 52010 IEM_DS3505
ZGSZ,2009-05-15 01:00,ZGSZ 150100Z AUTO 11008KT 7SM 28/20 A2994 RMK T02800200 IEM_DS3505
ZGSZ,2009-05-15 02:00,ZGSZ 150200Z AUTO 12008KT 7SM 28/20 A2991 RMK T02800200 IEM_DS3505
ZGSZ,2009-05-15 03:00,ZGSZ 150300Z AUTO 09006KT 7SM 28/20 A2991 RMK SLP137 T02790197 52001 IEM_DS3505
ZGSZ,2009-05-15 04:00,ZGSZ 150400Z AUTO 23008KT 7SM 28/21 A2991 RMK T02800210 IEM_DS3505
ZGSZ,2009-05-15 05:00,ZGSZ 150500Z AUTO 21010KT 7SM 30/21 A2988 RMK T03000210 IEM_DS3505
ZGSZ,2009-05-15 06:00,ZGSZ 150600Z AUTO 20004KT 12SM 30/19 A2985 RMK SLP116 T03010189 57020 IEM_DS3505
ZGSZ,2009-05-15 07:00,ZGSZ 150700Z AUTO 22012KT 7SM 30/21 A2985 RMK T03000210 IEM_DS3505
ZGSZ,2009-05-15 08:00,ZGSZ 150800Z AUTO 20012KT 7SM 30/21 A2985 RMK T03000210 IEM_DS3505
ZGSZ,2009-05-15 09:00,ZGSZ 150900Z AUTO 20006KT 16SM 29/19 A2985 RMK SLP111 T02940191 57005 IEM_DS3505
ZGSZ,2009-05-15 10:00,ZGSZ 151000Z AUTO 18010KT 7SM 28/21 A2985 RMK T02800210 IEM_DS3505
ZGSZ,2009-05-15 11:00,ZGSZ 151100Z AUTO 18008KT 6SM 28/21 A2985 RMK T02800210 IEM_DS3505
ZGSZ,2009-05-15 12:00,ZGSZ 151200Z AUTO 11006KT 12SM 27/19 A2985 RMK SLP118 T02660190 52006 IEM_DS3505
ZGSZ,2009-05-15 13:00,ZGSZ 151300Z AUTO 10008KT 6SM 28/20 A2985 RMK T02800200 IEM_DS3505
ZGSZ,2009-05-15 14:00,ZGSZ 151400Z AUTO 09006KT 6SM 27/20 A2988 RMK T02700200 IEM_DS3505
ZGSZ,2009-05-15 15:00,ZGSZ 151500Z AUTO 11006KT 12SM 25/20 A2988 RMK SLP125 T02540198 52008 IEM_DS3505
ZGSZ,2009-05-15 16:00,ZGSZ 151600Z AUTO 11008KT 6SM 26/20 A2988 RMK T02600200 IEM_DS3505
ZGSZ,2009-05-15 17:00,ZGSZ 151700Z AUTO 12004KT 6SM 26/20 A2988 RMK T02600200 IEM_DS3505
ZGSZ,2009-05-15 18:00,ZGSZ 151800Z AUTO 09004KT 12SM 24/20 A2985 RMK SLP117 T02420199 57008 IEM_DS3505
ZGSZ,2009-05-15 19:00,ZGSZ 151900Z AUTO 12006KT 6SM 25/20 A2985 RMK T02500200 IEM_DS3505
ZGSZ,2009-05-15 20:00,ZGSZ 152000Z AUTO 10004KT 6SM 25/20 A2988 RMK T02500200 IEM_DS3505
ZGSZ,2009-05-15 21:00,ZGSZ 152100Z AUTO 11002KT 12SM 24/20 A2988 RMK SLP124 T02370198 52007 IEM_DS3505
ZGSZ,2009-05-15 22:00,ZGSZ 152200Z AUTO 10004KT 6SM 25/20 A2988 RMK T02500200 IEM_DS3505
ZGSZ,2009-05-15 23:00,ZGSZ 152300Z AUTO 11006KT 6SM 26/20 A2991 RMK T02600200 IEM_DS3505
ZGSZ,2009-05-16 00:00,ZGSZ 160000Z AUTO 09004KT 9SM 25/21 A2991 RMK SLP135 T02520207 52010 IEM_DS3505
ZGSZ,2009-05-16 01:00,ZGSZ 160100Z AUTO 10006KT 7SM 27/21 A2991 RMK T02700210 IEM_DS3505
ZGSZ,2009-05-16 02:00,ZGSZ 160200Z AUTO 5SM 27/21 A2994 RMK T02700210 IEM_DS3505
ZGSZ,2009-05-16 03:00,ZGSZ 160300Z AUTO 00000KT 7SM 27/20 A2991 RMK SLP138 T02700201 52003 IEM_DS3505
ZGSZ,2009-05-16 04:00,ZGSZ 160400Z AUTO 25004KT 5SM 27/22 A2991 RMK T02700220 IEM_DS3505
ZGSZ,2009-05-16 05:00,ZGSZ 160500Z AUTO 24004KT 5SM 27/22 A2991 RMK T02700220 IEM_DS3505
ZGSZ,2009-05-16 06:00,ZGSZ 160600Z AUTO 20002KT 6SM 27/22 A2988 RMK 60000 SLP125 T02730220 57013 IEM_DS3505
ZGSZ,2009-05-16 07:00,ZGSZ 160700Z AUTO 19008KT 7SM 29/22 A2985 RMK T02900220 IEM_DS3505
ZGSZ,2009-05-16 08:00,ZGSZ 160800Z AUTO 22006KT 6SM 28/22 A2985 RMK T02800220 IEM_DS3505
ZGSZ,2009-05-16 09:00,ZGSZ 160900Z AUTO 14004KT 12SM 28/20 A2983 RMK SLP105 T02850197 57019 IEM_DS3505
ZGSZ,2009-05-16 10:00,ZGSZ 161000Z AUTO 21006KT 6SM 28/22 A2983 RMK T02800220 IEM_DS3505
ZGSZ,2009-05-16 11:00,ZGSZ 161100Z AUTO 18006KT 6SM 27/22 A2983 RMK T02700220 IEM_DS3505
ZGSZ,2009-05-16 12:00,ZGSZ 161200Z AUTO 22004KT 9SM 26/21 A2985 RMK SLP112 T02600210 52006 IEM_DS3505
ZGSZ,2009-05-16 13:00,ZGSZ 161300Z AUTO 17004KT 6SM 27/23 A2985 RMK T02700230 IEM_DS3505
ZGSZ,2009-05-16 14:00,ZGSZ 161400Z AUTO 16004KT 6SM 27/23 A2985 RMK T02700230 IEM_DS3505
ZGSZ,2009-05-16 15:00,ZGSZ 161500Z AUTO 16002KT 7SM 25/21 A2988 RMK SLP122 T02540213 52010 IEM_DS3505
ZGSZ,2009-05-16 16:00,ZGSZ 161600Z AUTO 17006KT 7SM 26/23 A2985 RMK T02600230 IEM_DS3505
ZGSZ,2009-05-16 17:00,ZGSZ 161700Z AUTO 17006KT 7SM 26/23 A2985 RMK T02600230 IEM_DS3505
ZGSZ,2009-05-16 18:00,ZGSZ 161800Z AUTO 20002KT 7SM 25/22 A2985 RMK SLP111 T02490218 57010 IEM_DS3505
ZGSZ,2009-05-16 19:00,ZGSZ 161900Z AUTO 19006KT 7SM 26/23 A2985 RMK T02600230 IEM_DS3505
ZGSZ,2009-05-16 20:00,ZGSZ 162000Z AUTO 20006KT 7SM 26/23 A2985 RMK T02600230 IEM_DS3505
ZGSZ,2009-05-16 21:00,ZGSZ 162100Z AUTO 20002KT 7SM 25/22 A2985 RMK 70000 SLP116 T02480219 52005 IEM_DS3505
ZGSZ,2009-05-16 22:00,ZGSZ 162200Z AUTO 19004KT 4SM 26/23 A2985 RMK T02600230 IEM_DS3505
ZGSZ,2009-05-16 23:00,ZGSZ 162300Z AUTO 18006KT 7SM 26/23 A2988 RMK T02600230 IEM_DS3505
ZGSZ,2009-05-17 00:00,ZGSZ 170000Z AUTO 22006KT 4SM 26/22 A2988 RMK 70000 SLP128 T02650224 52011 IEM_DS3505
ZGSZ,2009-05-17 01:00,ZGSZ 170100Z AUTO 19006KT 7SM 27/24 A2991 RMK T02700240 IEM_DS3505
ZGSZ,2009-05-17 02:00,ZGSZ 170200Z AUTO 19006KT 7SM 28/24 A2991 RMK T02800240 IEM_DS3505
ZGSZ,2009-05-17 03:00,ZGSZ 170300Z AUTO 25006KT 4SM 28/23 A2988 RMK SLP125 T02850227 57002 IEM_DS3505
ZGSZ,2009-05-17 04:00,ZGSZ 170400Z AUTO 21004KT 7SM 30/23 A2988 RMK T03000230 IEM_DS3505
ZGSZ,2009-05-17 05:00,ZGSZ 170500Z AUTO 22006KT 6SM 30/23 A2985 RMK T03000230 IEM_DS3505
ZGSZ,2009-05-17 06:00,ZGSZ 170600Z AUTO 22006KT 6SM 31/22 A2983 RMK SLP103 T03070223 57022 IEM_DS3505
ZGSZ,2009-05-17 07:00,ZGSZ 170700Z AUTO 19008KT 6SM 32/24 A2980 RMK T03200240 IEM_DS3505
ZGSZ,2009-05-17 08:00,ZGSZ 170800Z AUTO 19008KT 6SM 31/24 A2977 RMK T03100240 IEM_DS3505
ZGSZ,2009-05-17 09:00,ZGSZ 170900Z AUTO 22006KT 6SM 30/23 A2977 RMK SLP082 T02950232 57021 IEM_DS3505
ZGSZ,2009-05-17 10:00,ZGSZ 171000Z AUTO 18010KT 7SM 29/24 A2977 RMK T02900240 IEM_DS3505
ZGSZ,2009-05-17 11:00,ZGSZ 171100Z AUTO 25012KT 2 1/2SM 26/23 A2983 RMK T02600230 IEM_DS3505
ZGSZ,2009-05-17 12:00,ZGSZ 171200Z AUTO 27002KT 5SM 27/24 A2983 RMK 60000 SLP100 T02720237 52018 IEM_DS3505
ZGSZ,2009-05-17 13:00,ZGSZ 171300Z AUTO 28004KT 7SM 26/23 A2985 RMK T02600230 IEM_DS3505
ZGSZ,2009-05-17 14:00,ZGSZ 171400Z AUTO 6SM 27/22 A2983 RMK T02700220 IEM_DS3505
ZGSZ,2009-05-17 15:00,ZGSZ 171500Z AUTO 27002KT 5SM 26/24 A2985 RMK SLP108 T02630238 52008 IEM_DS3505
ZGSZ,2009-05-17 16:00,ZGSZ 171600Z AUTO 6SM 27/24 A2983 RMK T02700240 IEM_DS3505
ZGSZ,2009-05-17 17:00,ZGSZ 171700Z AUTO 15004KT 4SM 27/25 A2983 RMK T02700250 IEM_DS3505
ZGSZ,2009-05-17 18:00,ZGSZ 171800Z AUTO 22002KT 6SM 26/24 A2980 RMK 60004 SLP096 T02610238 57012 IEM_DS3505
ZGSZ,2009-05-17 19:00,ZGSZ 171900Z AUTO 4SM 27/24 A2980 RMK T02700240 IEM_DS3505
ZGSZ,2009-05-17 20:00,ZGSZ 172000Z AUTO 18002KT 4SM 27/24 A2980 RMK T02700240 IEM_DS3505
ZGSZ,2009-05-17 21:00,ZGSZ 172100Z AUTO 22006KT 6SM 26/24 A2980 RMK 70005 SLP093 T02600240 57003 IEM_DS3505
ZGSZ,2009-05-17 22:00,ZGSZ 172200Z AUTO 00000KT 4SM 27/25 A2980 RMK T02700250 IEM_DS3505
ZGSZ,2009-05-17 23:00,ZGSZ 172300Z AUTO 21004KT 4SM 27/25 A2983 RMK T02700250 IEM_DS3505
ZGSZ,2009-05-18 00:00,ZGSZ 180000Z AUTO 20004KT 4SM 27/24 A2983 RMK 70005 SLP107 T02720245 52014 IEM_DS3505
ZGSZ,2009-05-18 01:00,ZGSZ 180100Z AUTO 4SM 28/24 A2985 RMK T02800240 IEM_DS3505
ZGSZ,2009-05-18 02:00,ZGSZ 180200Z AUTO 7SM 29/24 A2985 RMK T02900240 IEM_DS3505
ZGSZ,2009-05-18 03:00,ZGSZ 180300Z AUTO 22008KT 6SM 31/21 A2983 RMK SLP105 T03060211 57002 IEM_DS3505
ZGSZ,2009-05-18 04:00,ZGSZ 180400Z AUTO 21006KT 6SM 31/24 A2983 RMK T03100240 IEM_DS3505
ZGSZ,2009-05-18 05:00,ZGSZ 180500Z AUTO 22004KT 6SM 31/23 A2980 RMK T03100230 IEM_DS3505
ZGSZ,2009-05-18 06:00,ZGSZ 180600Z AUTO 22008KT 10SM 31/22 A2977 RMK SLP085 T03070223 57020 IEM_DS3505
ZGSZ,2009-05-18 07:00,ZGSZ 180700Z AUTO 18010KT 6SM 30/25 A2974 RMK T03000250 IEM_DS3505
ZGSZ,2009-05-18 08:00,ZGSZ 180800Z AUTO 17010KT 7SM 30/24 A2974 RMK T03000240 IEM_DS3505
ZGSZ,2009-05-18 09:00,ZGSZ 180900Z AUTO 25010KT 14SM 29/22 A2974 RMK SLP079 T02890224 57006 IEM_DS3505
ZGSZ,2009-05-18 10:00,ZGSZ 181000Z AUTO 16014KT 7SM 29/25 A2974 RMK T02900250 IEM_DS3505
ZGSZ,2009-05-18 11:00,ZGSZ 181100Z AUTO 17012KT 7SM 29/25 A2977 RMK T02900250 IEM_DS3505
ZGSZ,2009-05-18 12:00,ZGSZ 181200Z AUTO 20004KT 16SM 28/23 A2977 RMK SLP088 T02800227 52009 IEM_DS3505
ZGSZ,2009-05-18 13:00,ZGSZ 181300Z AUTO 18008KT 7SM 28/25 A2977 RMK T02800250 IEM_DS3505
ZGSZ,2009-05-18 14:00,ZGSZ 181400Z AUTO 18008KT 7SM 28/25 A2980 RMK T02800250 IEM_DS3505
ZGSZ,2009-05-18 15:00,ZGSZ 181500Z AUTO 16002KT 16SM 27/24 A2980 RMK SLP100 T02740236 52012 IEM_DS3505
ZGSZ,2009-05-18 16:00,ZGSZ 181600Z AUTO 18010KT 7SM 28/25 A2980 RMK T02800250 IEM_DS3505
ZGSZ,2009-05-18 17:00,ZGSZ 181700Z AUTO 18010KT 4SM 27/25 A2980 RMK T02700250 IEM_DS3505
ZGSZ,2009-05-18 18:00,ZGSZ 181800Z AUTO 18002KT 10SM 27/24 A2980 RMK SLP092 T02710236 57008 IEM_DS3505
ZGSZ,2009-05-18 19:00,ZGSZ 181900Z AUTO 25004KT 7SM 27/25 A2980 RMK T02700250 IEM_DS3505
ZGSZ,2009-05-18 20:00,ZGSZ 182000Z AUTO 18008KT 7SM 27/25 A2980 RMK T02700250 IEM_DS3505
ZGSZ,2009-05-18 21:00,ZGSZ 182100Z AUTO 20002KT 9SM 27/24 A2977 RMK SLP088 T02660237 57004 IEM_DS3505
ZGSZ,2009-05-18 22:00,ZGSZ 182200Z AUTO 18010KT 7SM 27/24 A2977 RMK T02700240 IEM_DS3505
ZGSZ,2009-05-18 23:00,ZGSZ 182300Z AUTO 18010KT 7SM 27/25 A2980 RMK T02700250 IEM_DS3505
ZGSZ,2009-05-19 00:00,ZGSZ 190000Z AUTO 20004KT 14SM 29/23 A2980 RMK SLP097 T02860231 52009 IEM_DS3505
ZGSZ,2009-05-19 01:00,ZGSZ 190100Z AUTO 17010KT 7SM 29/24 A2980 RMK T02900240 IEM_DS3505
ZGSZ,2009-05-19 02:00,ZGSZ 190200Z AUTO 17010KT 7SM 30/25 A2980 RMK T03000250 IEM_DS3505
ZGSZ,2009-05-19 03:00,ZGSZ 190300Z AUTO 22012KT 19SM 30/22 A2980 RMK SLP096 T02950222 57001 IEM_DS3505
ZGSZ,2009-05-19 04:00,ZGSZ 190400Z AUTO 18014KT 7SM 30/24 A2977 RMK T03000240 IEM_DS3505
ZGSZ,2009-05-19 05:00,ZGSZ 190500Z AUTO 17014KT 7SM 30/24 A2977 RMK T03000240 IEM_DS3505
ZGSZ,2009-05-19 06:00,ZGSZ 190600Z AUTO 22010KT 17SM 30/23 A2974 RMK SLP079 T02990229 57017 IEM_DS3505
ZGSZ,2009-05-19 07:00,ZGSZ 190700Z AUTO 17017KT 6SM 30/24 A2974 RMK T03000240 IEM_DS3505
ZGSZ,2009-05-19 08:00,ZGSZ 190800Z AUTO 17016KT 6SM 30/23 A2974 RMK T03000230 IEM_DS3505
ZGSZ,2009-05-19 09:00,ZGSZ 190900Z AUTO 18004KT 16SM 29/23 A2971 RMK SLP069 T02890226 57010 IEM_DS3505
ZGSZ,2009-05-19 10:00,ZGSZ 191000Z AUTO 17014KT 7SM 29/24 A2971 RMK T02900240 IEM_DS3505
ZGSZ,2009-05-19 11:00,ZGSZ 191100Z AUTO 16012KT 7SM 28/24 A2974 RMK T02800240 IEM_DS3505
ZGSZ,2009-05-19 12:00,ZGSZ 191200Z AUTO 18002KT 14SM 27/23 A2977 RMK SLP083 T02740234 52014 IEM_DS3505
ZGSZ,2009-05-19 13:00,ZGSZ 191300Z AUTO 17008KT 7SM 28/24 A2977 RMK T02800240 IEM_DS3505
ZGSZ,2009-05-19 14:00,ZGSZ 191400Z AUTO 15008KT 7SM 28/24 A2977 RMK T02800240 IEM_DS3505
ZGSZ,2009-05-19 15:00,ZGSZ 191500Z AUTO 16002KT 16SM 27/23 A2977 RMK SLP087 T02680231 52004 IEM_DS3505
ZGSZ,2009-05-19 16:00,ZGSZ 191600Z AUTO 15008KT 7SM 28/24 A2977 RMK T02800240 IEM_DS3505
ZGSZ,2009-05-19 17:00,ZGSZ 191700Z AUTO 16008KT 7SM 28/24 A2974 RMK T02800240 IEM_DS3505
ZGSZ,2009-05-19 18:00,ZGSZ 191800Z AUTO 18004KT 16SM 27/23 A2974 RMK SLP077 T02660231 57010 IEM_DS3505
ZGSZ,2009-05-19 19:00,ZGSZ 191900Z AUTO 17014KT 7SM 28/24 A2971 RMK T02800240 IEM_DS3505
ZGSZ,2009-05-19 20:00,ZGSZ 192000Z AUTO 16012KT 7SM 27/24 A2971 RMK T02700240 IEM_DS3505
ZGSZ,2009-05-19 21:00,ZGSZ 192100Z AUTO 16002KT 16SM 26/23 A2971 RMK SLP067 T02630230 57010 IEM_DS3505
ZGSZ,2009-05-19 22:00,ZGSZ 192200Z AUTO 16010KT 7SM 28/24 A2971 RMK T02800240 IEM_DS3505
ZGSZ,2009-05-19 23:00,ZGSZ 192300Z AUTO 17010KT 7SM 28/24 A2974 RMK T02800240 IEM_DS3505
ZGSZ,2009-05-20 00:00,ZGSZ 200000Z AUTO 16004KT 16SM 28/23 A2974 RMK SLP080 T02820231 52013 IEM_DS3505
ZGSZ,2009-05-20 01:00,ZGSZ 200100Z AUTO 17014KT 7SM 29/24 A2977 RMK T02900240 IEM_DS3505
ZGSZ,2009-05-20 02:00,ZGSZ 200200Z AUTO 16012KT 7SM 30/23 A2977 RMK T03000230 IEM_DS3505
ZGSZ,2009-05-20 03:00,ZGSZ 200300Z AUTO 18006KT 16SM 30/22 A2977 RMK SLP089 T03020221 52009 IEM_DS3505
ZGSZ,2009-05-20 04:00,ZGSZ 200400Z AUTO 16012KT 7SM 29/23 A2977 RMK T02900230 IEM_DS3505
ZGSZ,2009-05-20 05:00,ZGSZ 200500Z AUTO 17014KT 7SM 29/23 A2974 RMK T02900230 IEM_DS3505
ZGSZ,2009-05-20 06:00,ZGSZ 200600Z AUTO 14004KT 19SM 29/22 A2974 RMK SLP073 T02880218 57016 IEM_DS3505
ZGSZ,2009-05-20 07:00,ZGSZ 200700Z AUTO 16014KT 7SM 29/23 A2971 RMK T02900230 IEM_DS3505
ZGSZ,2009-05-20 08:00,ZGSZ 200800Z AUTO 16012KT 7SM 29/23 A2971 RMK T02900230 IEM_DS3505
ZGSZ,2009-05-20 09:00,ZGSZ 200900Z AUTO 16002KT 19SM 28/22 A2974 RMK SLP069 T02800222 57004 IEM_DS3505
ZGSZ,2009-05-20 10:00,ZGSZ 201000Z AUTO 16004KT 4SM 23/22 A2974 RMK T02300220 IEM_DS3505
ZGSZ,2009-05-20 11:00,ZGSZ 201100Z AUTO 13010KT 7SM 24/22 A2974 RMK T02400220 IEM_DS3505
ZGSZ,2009-05-20 12:00,ZGSZ 201200Z AUTO 07002KT 12SM 23/22 A2974 RMK 60043 SLP082 T02320218 52013 IEM_DS3505
ZGSZ,2009-05-20 13:00,ZGSZ 201300Z AUTO 15008KT 7SM 25/22 A2974 RMK T02500220 IEM_DS3505
ZGSZ,2009-05-20 14:00,ZGSZ 201400Z AUTO 15004KT 7SM 25/23 A2977 RMK T02500230 IEM_DS3505
ZGSZ,2009-05-20 15:00,ZGSZ 201500Z AUTO 07004KT 16SM 24/22 A2980 RMK SLP085 T02400223 52003 IEM_DS3505
ZGSZ,2009-05-20 16:00,ZGSZ 201600Z AUTO 17002KT 7SM 26/23 A2977 RMK T02600230 IEM_DS3505
ZGSZ,2009-05-20 17:00,ZGSZ 201700Z AUTO 34004KT 7SM 26/23 A2977 RMK T02600230 IEM_DS3505
ZGSZ,2009-05-20 18:00,ZGSZ 201800Z AUTO 07002KT 17SM 25/22 A2977 RMK 60004 SLP081 T02470224 57004 IEM_DS3505
ZGSZ,2009-05-20 19:00,ZGSZ 201900Z AUTO 7SM 25/23 A2977 RMK T02500230 IEM_DS3505
ZGSZ,2009-05-20 20:00,ZGSZ 202000Z AUTO 34002KT 7SM 25/23 A2977 RMK T02500230 IEM_DS3505
ZGSZ,2009-05-20 21:00,ZGSZ 202100Z AUTO 36002KT 4SM 24/23 A2980 RMK 70055 SLP087 T02420228 52006 IEM_DS3505
ZGSZ,2009-05-20 22:00,ZGSZ 202200Z AUTO 7SM 26/23 A2980 RMK T02600230 IEM_DS3505
ZGSZ,2009-05-20 23:00,ZGSZ 202300Z AUTO 00000KT 7SM 26/23 A2983 RMK T02600230 IEM_DS3505
ZGSZ,2009-05-21 00:00,ZGSZ 210000Z AUTO 04004KT 11SM 25/23 A2985 RMK 60008 70056 SLP111 T02500234 52023 IEM_DS3505
ZGSZ,2009-05-21 01:00,ZGSZ 210100Z AUTO 00000KT 7SM 27/24 A2985 RMK T02700240 IEM_DS3505
ZGSZ,2009-05-21 02:00,ZGSZ 210200Z AUTO 00000KT 7SM 29/24 A2985 RMK T02900240 IEM_DS3505
ZGSZ,2009-05-21 03:00,ZGSZ 210300Z AUTO 16004KT 17SM 30/22 A2985 RMK SLP115 T03000224 52005 IEM_DS3505
ZGSZ,2009-05-21 04:00,ZGSZ 210400Z AUTO 24004KT 5SM 31/24 A2983 RMK T03100240 IEM_DS3505
ZGSZ,2009-05-21 05:00,ZGSZ 210500Z AUTO 23004KT 7SM 31/24 A2983 RMK T03100240 IEM_DS3505
ZGSZ,2009-05-21 06:00,ZGSZ 210600Z AUTO 20008KT 16SM 32/22 A2980 RMK SLP095 T03160215 57020 IEM_DS3505
ZGSZ,2009-05-21 07:00,ZGSZ 210700Z AUTO 23006KT 7SM 31/23 A2977 RMK T03100230 IEM_DS3505
ZGSZ,2009-05-21 08:00,ZGSZ 210800Z AUTO 21006KT 7SM 31/24 A2977 RMK T03100240 IEM_DS3505
ZGSZ,2009-05-21 09:00,ZGSZ 210900Z AUTO 36006KT 12SM 28/23 A2977 RMK SLP090 T02770226 57005 IEM_DS3505
ZGSZ,2009-05-21 10:00,ZGSZ 211000Z AUTO 15004KT 7SM 30/22 A2977 RMK T03000220 IEM_DS3505
ZGSZ,2009-05-21 11:00,ZGSZ 211100Z AUTO 12004KT 6SM 29/23 A2980 RMK T02900230 IEM_DS3505
ZGSZ,2009-05-21 12:00,ZGSZ 211200Z AUTO 09004KT 11SM 27/24 A2983 RMK 60004 SLP105 T02720243 52015 IEM_DS3505
ZGSZ,2009-05-21 13:00,ZGSZ 211300Z AUTO 07004KT 6SM 28/24 A2983 RMK T02800240 IEM_DS3505
ZGSZ,2009-05-21 14:00,ZGSZ 211400Z AUTO 10008KT 6SM 28/24 A2985 RMK T02800240 IEM_DS3505
ZGSZ,2009-05-21 15:00,ZGSZ 211500Z AUTO 09004KT 12SM 27/23 A2985 RMK SLP113 T02670228 52008 IEM_DS3505
ZGSZ,2009-05-21 16:00,ZGSZ 211600Z AUTO 11006KT 6SM 28/23 A2985 RMK T02800230 IEM_DS3505
ZGSZ,2009-05-21 17:00,ZGSZ 211700Z AUTO 10006KT 6SM 28/23 A2983 RMK T02800230 IEM_DS3505
ZGSZ,2009-05-21 18:00,ZGSZ 211800Z AUTO 07004KT 14SM 26/23 A2983 RMK SLP099 T02620227 57014 IEM_DS3505
ZGSZ,2009-05-21 19:00,ZGSZ 211900Z AUTO 04002KT 6SM 27/23 A2980 RMK T02700230 IEM_DS3505
ZGSZ,2009-05-21 20:00,ZGSZ 212000Z AUTO 03006KT 3SM 27/24 A2980 RMK T02700240 IEM_DS3505
ZGSZ,2009-05-21 21:00,ZGSZ 212100Z AUTO 07004KT 14SM 26/22 A2980 RMK 70006 SLP097 T02600225 57002 IEM_DS3505
ZGSZ,2009-05-21 22:00,ZGSZ 212200Z AUTO 03006KT 4SM 26/23 A2983 RMK T02600230 IEM_DS3505
ZGSZ,2009-05-21 23:00,ZGSZ 212300Z AUTO 04004KT 5SM 27/23 A2983 RMK T02700230 IEM_DS3505
ZGSZ,2009-05-22 00:00,ZGSZ 220000Z AUTO 07006KT 8SM 27/22 A2985 RMK 70005 SLP111 T02710218 52014 IEM_DS3505
ZGSZ,2009-05-22 01:00,ZGSZ 220100Z AUTO 05004KT 6SM 29/23 A2985 RMK T02900230 IEM_DS3505
ZGSZ,2009-05-22 02:00,ZGSZ 220200Z AUTO 06006KT 6SM 29/22 A2988 RMK T02900220 IEM_DS3505
ZGSZ,2009-05-22 03:00,ZGSZ 220300Z AUTO 07008KT 12SM 30/20 A2985 RMK SLP116 T03020196 52005 IEM_DS3505
ZGSZ,2009-05-22 04:00,ZGSZ 220400Z AUTO 05006KT 7SM 31/22 A2985 RMK T03100220 IEM_DS3505
ZGSZ,2009-05-22 05:00,ZGSZ 220500Z AUTO 22006KT 7SM 31/23 A2983 RMK T03100230 IEM_DS3505
ZGSZ,2009-05-22 06:00,ZGSZ 220600Z AUTO 09006KT 16SM 31/22 A2980 RMK SLP101 T03060222 57015 IEM_DS3505
ZGSZ,2009-05-22 07:00,ZGSZ 220700Z AUTO 09008KT 7SM 32/22 A2980 RMK T03200220 IEM_DS3505
ZGSZ,2009-05-22 08:00,ZGSZ 220800Z AUTO 11006KT 7SM 32/22 A2977 RMK T03200220 IEM_DS3505
ZGSZ,2009-05-22 09:00,ZGSZ 220900Z AUTO 09004KT 19SM 29/22 A2977 RMK SLP085 T02910221 57016 IEM_DS3505
ZGSZ,2009-05-22 10:00,ZGSZ 221000Z AUTO 09010KT 6SM 30/22 A2977 RMK T03000220 IEM_DS3505
ZGSZ,2009-05-22 11:00,ZGSZ 221100Z AUTO 08008KT 7SM 30/23 A2980 RMK T03000230 IEM_DS3505
ZGSZ,2009-05-22 12:00,ZGSZ 221200Z AUTO 11006KT 12SM 28/23 A2983 RMK SLP104 T02790233 52019 IEM_DS3505
ZGSZ,2009-05-22 13:00,ZGSZ 221300Z AUTO 09006KT 7SM 29/24 A2983 RMK T02900240 IEM_DS3505
ZGSZ,2009-05-22 14:00,ZGSZ 221400Z AUTO 09004KT 6SM 29/23 A2983 RMK T02900230 IEM_DS3505
ZGSZ,2009-05-22 15:00,ZGSZ 221500Z AUTO 09008KT 9SM 27/24 A2985 RMK SLP109 T02730240 52005 IEM_DS3505
ZGSZ,2009-05-22 16:00,ZGSZ 221600Z AUTO 06004KT 6SM 28/24 A2983 RMK T02800240 IEM_DS3505
ZGSZ,2009-05-22 17:00,ZGSZ 221700Z AUTO 00000KT 7SM 28/24 A2980 RMK T02800240 IEM_DS3505
ZGSZ,2009-05-22 18:00,ZGSZ 221800Z AUTO 07006KT 11SM 26/23 A2977 RMK 60004 SLP087 T02600229 57022 IEM_DS3505
ZGSZ,2009-05-22 19:00,ZGSZ 221900Z AUTO 08004KT 7SM 28/24 A2977 RMK T02800240 IEM_DS3505
ZGSZ,2009-05-22 20:00,ZGSZ 222000Z AUTO 06008KT 6SM 27/23 A2974 RMK T02700230 IEM_DS3505
ZGSZ,2009-05-22 21:00,ZGSZ 222100Z AUTO 04008KT 6SM 25/23 A2977 RMK 70020 SLP077 T02470228 57010 IEM_DS3505
ZGSZ,2009-05-22 23:00,ZGSZ 222300Z AUTO 06008KT 7SM 25/23 A2977 RMK T02500230 IEM_DS3505
ZGSZ,2009-05-23 00:00,ZGSZ 230000Z AUTO 07008KT 5SM 24/23 A2977 RMK 60079 70083 SLP090 T02440230 52013 IEM_DS3505
ZGSZ,2009-05-23 01:00,ZGSZ 230100Z AUTO 05006KT 7SM 25/23 A2980 RMK T02500230 IEM_DS3505
ZGSZ,2009-05-23 02:00,ZGSZ 230200Z AUTO 05006G16KT 1 1/4SM 26/24 A2980 RMK T02600240 IEM_DS3505
ZGSZ,2009-05-23 03:00,ZGSZ 230300Z AUTO 07008KT 6SM 25/24 A2980 RMK SLP093 T02520236 52003 IEM_DS3505
ZGSZ,2009-05-23 04:00,ZGSZ 230400Z AUTO 05008KT 3SM 26/24 A2980 RMK T02600240 IEM_DS3505
ZGSZ,2009-05-23 05:00,ZGSZ 230500Z AUTO 06010KT 4SM 26/24 A2977 RMK T02600240 IEM_DS3505
ZGSZ,2009-05-23 06:00,ZGSZ 230600Z AUTO 02008KT 5SM 25/23 A2977 RMK 60169 SLP079 T02480232 57014 IEM_DS3505
ZGSZ,2009-05-23 07:00,ZGSZ 230700Z AUTO 07010KT 4SM 26/23 A2974 RMK T02600230 IEM_DS3505
ZGSZ,2009-05-23 08:00,ZGSZ 230800Z AUTO 07012G23KT 3SM 26/23 A2974 RMK T02600230 IEM_DS3505
ZGSZ,2009-05-23 09:00,ZGSZ 230900Z AUTO 09004KT 3SM 24/23 A2974 RMK SLP074 T02430231 57006 IEM_DS3505
ZGSZ,2009-05-23 10:00,ZGSZ 231000Z AUTO 08008KT 4SM 25/23 A2977 RMK T02500230 IEM_DS3505
ZGSZ,2009-05-23 11:00,ZGSZ 231100Z AUTO 07010KT 4SM 25/23 A2977 RMK T02500230 IEM_DS3505
ZGSZ,2009-05-23 12:00,ZGSZ 231200Z AUTO 04008KT 9SM 24/22 A2977 RMK 60193 SLP084 T02360224 52010 IEM_DS3505
ZGSZ,2009-05-23 13:00,ZGSZ 231300Z AUTO 06012KT 7SM 26/23 A2977 RMK T02600230 IEM_DS3505
ZGSZ,2009-05-23 14:00,ZGSZ 231400Z AUTO 06014KT 7SM 26/22 A2977 RMK T02600220 IEM_DS3505
ZGSZ,2009-05-23 15:00,ZGSZ 231500Z AUTO 07008KT 3SM 24/23 A2977 RMK SLP086 T02440230 52002 IEM_DS3505
ZGSZ,2009-05-23 16:00,ZGSZ 231600Z AUTO 08008KT 7SM 26/23 A2977 RMK T02600230 IEM_DS3505
ZGSZ,2009-05-23 17:00,ZGSZ 231700Z AUTO 07008KT 7SM 26/23 A2974 RMK T02600230 IEM_DS3505
ZGSZ,2009-05-23 18:00,ZGSZ 231800Z AUTO 07006KT 6SM 26/23 A2974 RMK 60002 SLP071 T02570232 57014 IEM_DS3505
ZGSZ,2009-05-23 19:00,ZGSZ 231900Z AUTO 08006KT 7SM 26/23 A2971 RMK T02600230 IEM_DS3505
ZGSZ,2009-05-23 20:00,ZGSZ 232000Z AUTO 07006KT 7SM 26/23 A2971 RMK T02600230 IEM_DS3505
ZGSZ,2009-05-23 21:00,ZGSZ 232100Z AUTO 11004KT 3SM 25/24 A2971 RMK 70466 SLP064 T02510239 57007 IEM_DS3505
ZGSZ,2009-05-23 22:00,ZGSZ 232200Z AUTO 06006KT 7SM 26/24 A2971 RMK T02600240 IEM_DS3505
ZGSZ,2009-05-23 23:00,ZGSZ 232300Z AUTO 04004KT 7SM 26/24 A2974 RMK T02600240 IEM_DS3505
ZGSZ,2009-05-24 00:00,ZGSZ 240000Z AUTO 09006KT 6SM 25/24 A2974 RMK 60094 70458 SLP079 T02520238 52014 IEM_DS3505
ZGSZ,2009-05-24 01:00,ZGSZ 240100Z AUTO 07006KT 7SM 26/24 A2977 RMK T02600240 IEM_DS3505
ZGSZ,2009-05-24 02:00,ZGSZ 240200Z AUTO 03006KT 7SM 26/24 A2977 RMK T02600240 IEM_DS3505
ZGSZ,2009-05-24 03:00,ZGSZ 240300Z AUTO 07006KT 4SM 25/24 A2977 RMK SLP086 T02500236 52007 IEM_DS3505
ZGSZ,2009-05-24 04:00,ZGSZ 240400Z AUTO 08012G21KT 4SM 26/23 A2977 RMK T02600230 IEM_DS3505
ZGSZ,2009-05-24 05:00,ZGSZ 240500Z AUTO 09006KT 3SM 26/23 A2977 RMK T02600230 IEM_DS3505
ZGSZ,2009-05-24 06:00,ZGSZ 240600Z AUTO 07004KT 2 1/2SM 24/24 A2977 RMK 60311 SLP082 T02440235 57004 IEM_DS3505
ZGSZ,2009-05-24 07:00,ZGSZ 240700Z AUTO 10008KT 7SM 26/23 A2974 RMK T02600230 IEM_DS3505
ZGSZ,2009-05-24 08:00,ZGSZ 240800Z AUTO 09012KT 7SM 27/24 A2971 RMK T02700240 IEM_DS3505
ZGSZ,2009-05-24 09:00,ZGSZ 240900Z AUTO 07008KT 7SM 25/23 A2974 RMK SLP072 T02460230 57010 IEM_DS3505
ZGSZ,2009-05-24 10:00,ZGSZ 241000Z AUTO 09012KT 7SM 26/23 A2974 RMK T02600230 IEM_DS3505
ZGSZ,2009-05-24 11:00,ZGSZ 241100Z AUTO 11010KT 7SM 26/23 A2974 RMK T02600230 IEM_DS3505
ZGSZ,2009-05-24 12:00,ZGSZ 241200Z AUTO 09004KT 19SM 24/22 A2977 RMK 60028 SLP089 T02400224 52017 IEM_DS3505
ZGSZ,2009-05-24 13:00,ZGSZ 241300Z AUTO 10012KT 7SM 26/23 A2980 RMK T02600230 IEM_DS3505
ZGSZ,2009-05-24 14:00,ZGSZ 241400Z AUTO 10010KT 6SM 26/23 A2980 RMK T02600230 IEM_DS3505
ZGSZ,2009-05-24 15:00,ZGSZ 241500Z AUTO 07006KT 9SM 25/23 A2983 RMK SLP102 T02480232 52013 IEM_DS3505
ZGSZ,2009-05-24 16:00,ZGSZ 241600Z AUTO 08006KT 7SM 26/23 A2980 RMK T02600230 IEM_DS3505
ZGSZ,2009-05-24 17:00,ZGSZ 241700Z AUTO 09008KT 7SM 26/23 A2980 RMK T02600230 IEM_DS3505
ZGSZ,2009-05-24 18:00,ZGSZ 241800Z AUTO 07006KT 12SM 25/23 A2980 RMK 60000 SLP093 T02460228 57009 IEM_DS3505
ZGSZ,2009-05-24 19:00,ZGSZ 241900Z AUTO 08008KT 7SM 26/23 A2977 RMK T02600230 IEM_DS3505
ZGSZ,2009-05-24 20:00,ZGSZ 242000Z AUTO 08004KT 7SM 25/23 A2977 RMK T02500230 IEM_DS3505
ZGSZ,2009-05-24 21:00,ZGSZ 242100Z AUTO 07004KT 4SM 24/23 A2977 RMK 70410 SLP086 T02430231 57007 IEM_DS3505
ZGSZ,2009-05-24 22:00,ZGSZ 242200Z AUTO 09006KT 7SM 26/23 A2977 RMK T02600230 IEM_DS3505
ZGSZ,2009-05-24 23:00,ZGSZ 242300Z AUTO 08006KT 7SM 26/23 A2980 RMK T02600230 IEM_DS3505
ZGSZ,2009-05-25 00:00,ZGSZ 250000Z AUTO 07006KT 4SM 25/23 A2980 RMK 60031 70365 SLP098 T02460228 52012 IEM_DS3505
ZGSZ,2009-05-25 01:00,ZGSZ 250100Z AUTO 09012KT 7SM 27/23 A2980 RMK T02700230 IEM_DS3505
ZGSZ,2009-05-25 02:00,ZGSZ 250200Z AUTO 11014KT 7SM 28/23 A2983 RMK T02800230 IEM_DS3505
ZGSZ,2009-05-25 03:00,ZGSZ 250300Z AUTO 07006G21KT 4SM 26/23 A2980 RMK SLP104 T02610228 52006 IEM_DS3505
ZGSZ,2009-05-25 04:00,ZGSZ 250400Z AUTO 10012KT 7SM 28/23 A2983 RMK T02800230 IEM_DS3505
ZGSZ,2009-05-25 05:00,ZGSZ 250500Z AUTO 11008KT 2SM 26/23 A2983 RMK T02600230 IEM_DS3505
ZGSZ,2009-05-25 06:00,ZGSZ 250600Z AUTO 09006KT 2 1/2SM 25/24 A2980 RMK 60012 SLP094 T02540236 57010 IEM_DS3505
ZGSZ,2009-05-25 07:00,ZGSZ 250700Z AUTO 11008KT 3SM 27/23 A2980 RMK T02700230 IEM_DS3505
ZGSZ,2009-05-25 08:00,ZGSZ 250800Z AUTO 13008KT 2 1/2SM 26/23 A2977 RMK T02600230 IEM_DS3505
ZGSZ,2009-05-25 09:00,ZGSZ 250900Z AUTO 09006KT 4SM 25/22 A2977 RMK SLP086 T02540221 57008 IEM_DS3505
ZGSZ,2009-05-25 10:00,ZGSZ 251000Z AUTO 12010KT 4SM 27/23 A2977 RMK T02700230 IEM_DS3505
ZGSZ,2009-05-25 11:00,ZGSZ 251100Z AUTO 11008KT 3SM 26/23 A2977 RMK T02600230 IEM_DS3505
ZGSZ,2009-05-25 12:00,ZGSZ 251200Z AUTO 09004KT 4SM 25/23 A2980 RMK 60000 SLP093 T02520227 52007 IEM_DS3505
ZGSZ,2009-05-25 13:00,ZGSZ 251300Z AUTO 10010KT 4SM 26/23 A2980 RMK T02600230 IEM_DS3505
ZGSZ,2009-05-25 14:00,ZGSZ 251400Z AUTO 10008KT 4SM 26/23 A2980 RMK T02600230 IEM_DS3505
ZGSZ,2009-05-25 15:00,ZGSZ 251500Z AUTO 09004KT 4SM 25/23 A2980 RMK SLP100 T02530232 52007 IEM_DS3505
ZGSZ,2009-05-25 16:00,ZGSZ 251600Z AUTO 11006KT 3SM 26/23 A2980 RMK T02600230 IEM_DS3505
ZGSZ,2009-05-25 17:00,ZGSZ 251700Z AUTO 08004KT 5SM 26/23 A2980 RMK T02600230 IEM_DS3505
ZGSZ,2009-05-25 18:00,ZGSZ 251800Z AUTO 07004KT 4SM 25/23 A2977 RMK 60000 SLP085 T02510233 57015 IEM_DS3505
ZGSZ,2009-05-25 19:00,ZGSZ 251900Z AUTO 14004KT 5SM 25/23 A2977 RMK T02500230 IEM_DS3505
ZGSZ,2009-05-25 20:00,ZGSZ 252000Z AUTO 09002KT 7SM 25/23 A2977 RMK T02500230 IEM_DS3505
ZGSZ,2009-05-25 21:00,ZGSZ 252100Z AUTO 34002KT 16SM 23/22 A2977 RMK 70040 SLP084 T02340224 57001 IEM_DS3505
ZGSZ,2009-05-25 22:00,ZGSZ 252200Z AUTO 04002KT 6SM 24/22 A2977 RMK T02400220 IEM_DS3505
ZGSZ,2009-05-25 23:00,ZGSZ 252300Z AUTO 00000KT 6SM 26/23 A2980 RMK T02600230 IEM_DS3505
ZGSZ,2009-05-26 00:00,ZGSZ 260000Z AUTO 07006KT 12SM 25/23 A2980 RMK 60020 70030 SLP095 T02520233 52011 IEM_DS3505
ZGSZ,2009-05-26 01:00,ZGSZ 260100Z AUTO 08004KT 7SM 28/23 A2980 RMK T02800230 IEM_DS3505
ZGSZ,2009-05-26 02:00,ZGSZ 260200Z AUTO 08006KT 7SM 28/23 A2980 RMK T02800230 IEM_DS3505
ZGSZ,2009-05-26 03:00,ZGSZ 260300Z AUTO 09006KT 9SM 27/24 A2980 RMK SLP094 T02660237 54000 IEM_DS3505
ZGSZ,2009-05-26 04:00,ZGSZ 260400Z AUTO 10008KT 7SM 28/24 A2980 RMK T02800240 IEM_DS3505
ZGSZ,2009-05-26 05:00,ZGSZ 260500Z AUTO 10010KT 7SM 29/24 A2977 RMK T02900240 IEM_DS3505
ZGSZ,2009-05-26 06:00,ZGSZ 260600Z AUTO 07008KT 7SM 28/23 A2974 RMK 60004 SLP080 T02800234 57014 IEM_DS3505
ZGSZ,2009-05-26 07:00,ZGSZ 260700Z AUTO 10008KT 7SM 30/24 A2974 RMK T03000240 IEM_DS3505
ZGSZ,2009-05-26 08:00,ZGSZ 260800Z AUTO 12010KT 7SM 31/24 A2971 RMK T03100240 IEM_DS3505
ZGSZ,2009-05-26 09:00,ZGSZ 260900Z AUTO 07006KT 8SM 28/23 A2971 RMK SLP068 T02750233 57012 IEM_DS3505
ZGSZ,2009-05-26 10:00,ZGSZ 261000Z AUTO 11010KT 7SM 29/23 A2971 RMK T02900230 IEM_DS3505
ZGSZ,2009-05-26 11:00,ZGSZ 261100Z AUTO 11008KT 6SM 29/23 A2971 RMK T02900230 IEM_DS3505
ZGSZ,2009-05-26 12:00,ZGSZ 261200Z AUTO 09004KT 7SM 26/23 A2974 RMK SLP077 T02610232 52009 IEM_DS3505
ZGSZ,2009-05-26 13:00,ZGSZ 261300Z AUTO 11012KT 6SM 27/23 A2974 RMK T02700230 IEM_DS3505
ZGSZ,2009-05-26 14:00,ZGSZ 261400Z AUTO 10008KT 7SM 27/23 A2977 RMK T02700230 IEM_DS3505
ZGSZ,2009-05-26 15:00,ZGSZ 261500Z AUTO 07002KT 8SM 26/24 A2977 RMK SLP083 T02600235 52006 IEM_DS3505
ZGSZ,2009-05-26 16:00,ZGSZ 261600Z AUTO 11006KT 6SM 27/23 A2977 RMK T02700230 IEM_DS3505
ZGSZ,2009-05-26 17:00,ZGSZ 261700Z AUTO 10006KT 6SM 27/23 A2974 RMK T02700230 IEM_DS3505
ZGSZ,2009-05-26 18:00,ZGSZ 261800Z AUTO 09004KT 10SM 25/23 A2971 RMK SLP070 T02540227 57013 IEM_DS3505
ZGSZ,2009-05-26 19:00,ZGSZ 261900Z AUTO 09004KT 6SM 27/23 A2971 RMK T02700230 IEM_DS3505
ZGSZ,2009-05-26 20:00,ZGSZ 262000Z AUTO 13004KT 6SM 26/23 A2971 RMK T02600230 IEM_DS3505
ZGSZ,2009-05-26 21:00,ZGSZ 262100Z AUTO 07002KT 4SM 25/23 A2971 RMK 70006 SLP063 T02500234 57007 IEM_DS3505
ZGSZ,2009-05-26 22:00,ZGSZ 262200Z AUTO 06004KT 6SM 26/23 A2971 RMK T02600230 IEM_DS3505
ZGSZ,2009-05-26 23:00,ZGSZ 262300Z AUTO 08006KT 7SM 27/23 A2974 RMK T02700230 IEM_DS3505
ZGSZ,2009-05-27 00:00,ZGSZ 270000Z AUTO 07004KT 8SM 27/24 A2974 RMK 60000 70006 SLP073 T02740238 52010 IEM_DS3505
ZGSZ,2009-05-27 01:00,ZGSZ 270100Z AUTO 12008KT 7SM 28/24 A2974 RMK T02800240 IEM_DS3505
ZGSZ,2009-05-27 02:00,ZGSZ 270200Z AUTO 14008KT 7SM 30/24 A2974 RMK T03000240 IEM_DS3505
ZGSZ,2009-05-27 03:00,ZGSZ 270300Z AUTO 07006KT 16SM 29/23 A2974 RMK SLP074 T02900234 52001 IEM_DS3505
ZGSZ,2009-05-27 04:00,ZGSZ 270400Z AUTO 17010KT 7SM 31/24 A2971 RMK T03100240 IEM_DS3505
ZGSZ,2009-05-27 05:00,ZGSZ 270500Z AUTO 14010KT 7SM 30/24 A2971 RMK T03000240 IEM_DS3505
ZGSZ,2009-05-27 06:00,ZGSZ 270600Z AUTO 07006KT 19SM 28/23 A2968 RMK SLP062 T02800227 57012 IEM_DS3505
ZGSZ,2009-05-27 07:00,ZGSZ 270700Z AUTO 11012KT 7SM 30/23 A2968 RMK T03000230 IEM_DS3505
ZGSZ,2009-05-27 08:00,ZGSZ 270800Z AUTO 10014KT 7SM 30/23 A2965 RMK T03000230 IEM_DS3505
ZGSZ,2009-05-27 09:00,ZGSZ 270900Z AUTO 07006KT 16SM 26/23 A2968 RMK SLP058 T02550228 57004 IEM_DS3505
ZGSZ,2009-05-27 10:00,ZGSZ 271000Z AUTO 10017KT 7SM 27/22 A2968 RMK T02700220 IEM_DS3505
ZGSZ,2009-05-27 11:00,ZGSZ 271100Z AUTO 10014KT 7SM 27/22 A2968 RMK T02700220 IEM_DS3505
ZGSZ,2009-05-27 12:00,ZGSZ 271200Z AUTO 09010KT 11SM 24/22 A2971 RMK 60003 SLP073 T02450220 52015 IEM_DS3505
ZGSZ,2009-05-27 13:00,ZGSZ 271300Z AUTO 11016KT 7SM 26/22 A2974 RMK T02600220 IEM_DS3505
ZGSZ,2009-05-27 14:00,ZGSZ 271400Z AUTO 10016KT 7SM 25/21 A2974 RMK T02500210 IEM_DS3505
ZGSZ,2009-05-27 15:00,ZGSZ 271500Z AUTO 07010KT 9SM 24/21 A2977 RMK SLP084 T02380211 52011 IEM_DS3505
ZGSZ,2009-05-27 16:00,ZGSZ 271600Z AUTO 10014KT 7SM 25/21 A2974 RMK T02500210 IEM_DS3505
ZGSZ,2009-05-27 17:00,ZGSZ 271700Z AUTO 10014KT 7SM 25/21 A2974 RMK T02500210 IEM_DS3505
ZGSZ,2009-05-27 18:00,ZGSZ 271800Z AUTO 09008KT 6SM 23/21 A2974 RMK 60000 SLP075 T02340211 57009 IEM_DS3505
ZGSZ,2009-05-27 19:00,ZGSZ 271900Z AUTO 10012KT 7SM 25/21 A2974 RMK T02500210 IEM_DS3505
ZGSZ,2009-05-27 20:00,ZGSZ 272000Z AUTO 10010KT 7SM 25/21 A2974 RMK T02500210 IEM_DS3505
ZGSZ,2009-05-27 21:00,ZGSZ 272100Z AUTO 14008KT 7SM 23/21 A2974 RMK 70003 SLP076 T02340207 54000 IEM_DS3505
ZGSZ,2009-05-27 22:00,ZGSZ 272200Z AUTO 09008KT 7SM 25/21 A2974 RMK T02500210 IEM_DS3505
ZGSZ,2009-05-27 23:00,ZGSZ 272300Z AUTO 11010KT 7SM 25/21 A2977 RMK T02500210 IEM_DS3505
ZGSZ,2009-05-28 00:00,ZGSZ 280000Z AUTO 07008KT 8SM 23/20 RMK 60000 70003 SLP087 T02340198 52011 IEM_DS3505
ZGSZ,2009-05-28 01:00,ZGSZ 280100Z AUTO 11010KT 6SM 26/21 A2977 RMK T02600210 IEM_DS3505
ZGSZ,2009-05-28 02:00,ZGSZ 280200Z AUTO 11008KT 6SM 27/21 A2980 RMK T02700210 IEM_DS3505
ZGSZ,2009-05-28 03:00,ZGSZ 280300Z AUTO 14008KT 9SM 26/19 A2980 RMK SLP095 T02610190 52008 IEM_DS3505
ZGSZ,2009-05-28 04:00,ZGSZ 280400Z AUTO 10010KT 6SM 28/20 A2980 RMK T02800200 IEM_DS3505
ZGSZ,2009-05-28 05:00,ZGSZ 280500Z AUTO 11008KT 6SM 28/20 A2977 RMK T02800200 IEM_DS3505
ZGSZ,2009-05-28 06:00,ZGSZ 280600Z AUTO 11008KT 9SM 25/19 A2977 RMK SLP087 T02500189 57008 IEM_DS3505
ZGSZ,2009-05-28 07:00,ZGSZ 280700Z AUTO 13008KT 3SM 25/21 A2977 RMK T02500210 IEM_DS3505
ZGSZ,2009-05-28 08:00,ZGSZ 280800Z AUTO 11010KT 4SM 24/21 A2977 RMK T02400210 IEM_DS3505
ZGSZ,2009-05-28 09:00,ZGSZ 280900Z AUTO 09008KT 5SM 22/21 A2977 RMK SLP083 T02210206 57004 IEM_DS3505
ZGSZ,2009-05-28 10:00,ZGSZ 281000Z AUTO 10010KT 7SM 24/20 A2977 RMK T02400200 IEM_DS3505
ZGSZ,2009-05-28 11:00,ZGSZ 281100Z AUTO 11010KT 7SM 24/20 A2977 RMK T02400200 IEM_DS3505
ZGSZ,2009-05-28 12:00,ZGSZ 281200Z AUTO 09004KT 9SM 23/20 A2980 RMK 60016 SLP093 T02330203 52010 IEM_DS3505
ZGSZ,2009-05-28 13:00,ZGSZ 281300Z AUTO 12006KT 7SM 25/21 A2983 RMK T02500210 IEM_DS3505
ZGSZ,2009-05-28 14:00,ZGSZ 281400Z AUTO 11008KT 7SM 25/20 A2983 RMK T02500200 IEM_DS3505
ZGSZ,2009-05-28 15:00,ZGSZ 281500Z AUTO 09008KT 7SM 23/20 A2983 RMK SLP108 T02320200 52015 IEM_DS3505
ZGSZ,2009-05-28 16:00,ZGSZ 281600Z AUTO 10008KT 7SM 24/20 A2983 RMK T02400200 IEM_DS3505
ZGSZ,2009-05-28 17:00,ZGSZ 281700Z AUTO 10008KT 7SM 24/20 A2983 RMK T02400200 IEM_DS3505
ZGSZ,2009-05-28 18:00,ZGSZ 281800Z AUTO 09006KT 12SM 23/18 A2980 RMK 60000 SLP095 T02310182 57013 IEM_DS3505
ZGSZ,2009-05-28 19:00,ZGSZ 281900Z AUTO 09006KT 7SM 24/20 A2980 RMK T02400200 IEM_DS3505
ZGSZ,2009-05-28 20:00,ZGSZ 282000Z AUTO 04004KT 4SM 23/20 A2980 RMK T02300200 IEM_DS3505
ZGSZ,2009-05-28 21:00,ZGSZ 282100Z AUTO 07006KT 4SM 21/18 A2983 RMK 70018 SLP099 T02060185 52003 IEM_DS3505
ZGSZ,2009-05-28 22:00,ZGSZ 282200Z AUTO 5SM 22/19 A2983 RMK T02200190 IEM_DS3505
ZGSZ,2009-05-28 23:00,ZGSZ 282300Z AUTO 04006KT 3SM 21/19 A2985 RMK T02100190 IEM_DS3505
ZGSZ,2009-05-29 00:00,ZGSZ 290000Z AUTO 02006KT 3SM 20/19 A2988 RMK 60008 70022 SLP120 T02010188 52021 IEM_DS3505
ZGSZ,2009-05-29 01:00,ZGSZ 290100Z AUTO 09006KT 2 1/2SM 22/20 A2988 RMK T02200200 IEM_DS3505
ZGSZ,2009-05-29 02:00,ZGSZ 290200Z AUTO 00000KT 2 1/2SM 21/20 A2988 RMK T02100200 IEM_DS3505
ZGSZ,2009-05-29 03:00,ZGSZ 290300Z AUTO 07004KT 4SM 20/19 A2988 RMK SLP126 T02050186 52006 IEM_DS3505
ZGSZ,2009-05-29 04:00,ZGSZ 290400Z AUTO 06004KT 7SM 23/20 A2988 RMK T02300200 IEM_DS3505
ZGSZ,2009-05-29 05:00,ZGSZ 290500Z AUTO 05006KT 7SM 23/19 A2985 RMK T02300190 IEM_DS3505
ZGSZ,2009-05-29 06:00,ZGSZ 290600Z AUTO 09004KT 6SM 23/19 A2985 RMK 60004 SLP112 T02270189 57013 IEM_DS3505
ZGSZ,2009-05-29 07:00,ZGSZ 290700Z AUTO 04006KT 7SM 24/20 A2983 RMK T02400200 IEM_DS3505
ZGSZ,2009-05-29 08:00,ZGSZ 290800Z AUTO 07006KT 7SM 24/20 A2983 RMK T02400200 IEM_DS3505
ZGSZ,2009-05-29 09:00,ZGSZ 290900Z AUTO 09004KT 7SM 23/19 A2983 RMK SLP106 T02310188 57007 IEM_DS3505
ZGSZ,2009-05-29 10:00,ZGSZ 291000Z AUTO 11004KT 7SM 25/20 A2983 RMK T02500200 IEM_DS3505
ZGSZ,2009-05-29 11:00,ZGSZ 291100Z AUTO 02004KT 7SM 25/19 A2985 RMK T02500190 IEM_DS3505
ZGSZ,2009-05-29 12:00,ZGSZ 291200Z AUTO 09004KT 11SM 23/18 A2985 RMK SLP119 T02300183 52013 IEM_DS3505
ZGSZ,2009-05-29 13:00,ZGSZ 291300Z AUTO 7SM 24/19 A2988 RMK T02400190 IEM_DS3505
ZGSZ,2009-05-29 14:00,ZGSZ 291400Z AUTO 7SM 24/19 A2991 RMK T02400190 IEM_DS3505
ZGSZ,2009-05-29 15:00,ZGSZ 291500Z AUTO 09004KT 12SM 23/18 A2988 RMK SLP129 T02280179 52010 IEM_DS3505
ZGSZ,2009-05-29 16:00,ZGSZ 291600Z AUTO 05004KT 6SM 24/18 A2988 RMK T02400180 IEM_DS3505
ZGSZ,2009-05-29 17:00,ZGSZ 291700Z AUTO 04006KT 6SM 23/18 A2985 RMK T02300180 IEM_DS3505
ZGSZ,2009-05-29 18:00,ZGSZ 291800Z AUTO 04002KT 12SM 22/18 A2983 RMK SLP105 T02240175 57023 IEM_DS3505
ZGSZ,2009-05-29 19:00,ZGSZ 291900Z AUTO 05006KT 6SM 23/18 A2983 RMK T02300180 IEM_DS3505
ZGSZ,2009-05-29 20:00,ZGSZ 292000Z AUTO 08004KT 6SM 22/18 A2983 RMK T02200180 IEM_DS3505
ZGSZ,2009-05-29 21:00,ZGSZ 292100Z AUTO 36004KT 12SM 21/17 A2983 RMK 70008 SLP103 T02130173 57002 IEM_DS3505
ZGSZ,2009-05-29 22:00,ZGSZ 292200Z AUTO 00000KT 6SM 22/18 A2983 RMK T02200180 IEM_DS3505
ZGSZ,2009-05-29 23:00,ZGSZ 292300Z AUTO 02006KT 7SM 23/18 A2985 RMK T02300180 IEM_DS3505
ZGSZ,2009-05-30 00:00,ZGSZ 300000Z AUTO 04004KT 9SM 22/17 A2985 RMK 70004 SLP118 T02240171 52015 IEM_DS3505
ZGSZ,2009-05-30 01:00,ZGSZ 300100Z AUTO 02006KT 6SM 24/18 A2988 RMK T02400180 IEM_DS3505
ZGSZ,2009-05-30 02:00,ZGSZ 300200Z AUTO 02004KT 6SM 26/18 A2985 RMK T02600180 IEM_DS3505
ZGSZ,2009-05-30 03:00,ZGSZ 300300Z AUTO 04004KT 6SM 26/17 A2985 RMK SLP115 T02630168 57003 IEM_DS3505
ZGSZ,2009-05-30 04:00,ZGSZ 300400Z AUTO 28008KT 4SM 27/19 A2985 RMK T02700190 IEM_DS3505
ZGSZ,2009-05-30 05:00,ZGSZ 300500Z AUTO 29008KT 4SM 27/19 A2983 RMK T02700190 IEM_DS3505
ZGSZ,2009-05-30 06:00,ZGSZ 300600Z AUTO 25004KT 7SM 29/16 A2980 RMK SLP094 T02860159 57021 IEM_DS3505
ZGSZ,2009-05-30 07:00,ZGSZ 300700Z AUTO 29010KT 5SM 28/18 A2980 RMK T02800180 IEM_DS3505
ZGSZ,2009-05-30 08:00,ZGSZ 300800Z AUTO 30010KT 5SM 28/18 A2977 RMK T02800180 IEM_DS3505
ZGSZ,2009-05-30 09:00,ZGSZ 300900Z AUTO 25004KT 5SM 28/16 A2977 RMK SLP084 T02780164 57010 IEM_DS3505
ZGSZ,2009-05-30 10:00,ZGSZ 301000Z AUTO 30008KT 6SM 28/19 A2977 RMK T02800190 IEM_DS3505
ZGSZ,2009-05-30 11:00,ZGSZ 301100Z AUTO 30006KT 5SM 27/19 A2980 RMK T02700190 IEM_DS3505
ZGSZ,2009-05-30 12:00,ZGSZ 301200Z AUTO 22002KT 4SM 26/17 A2980 RMK SLP100 T02640166 52016 IEM_DS3505
ZGSZ,2009-05-30 13:00,ZGSZ 301300Z AUTO 00000KT 4SM 26/21 A2983 RMK T02600210 IEM_DS3505
ZGSZ,2009-05-30 14:00,ZGSZ 301400Z AUTO 22004KT 4SM 26/20 A2983 RMK T02600200 IEM_DS3505
ZGSZ,2009-05-30 15:00,ZGSZ 301500Z AUTO 14002KT 4SM 25/18 A2983 RMK SLP109 T02540183 52009 IEM_DS3505
ZGSZ,2009-05-30 16:00,ZGSZ 301600Z AUTO 18004KT 6SM 26/18 A2983 RMK T02600180 IEM_DS3505
ZGSZ,2009-05-30 17:00,ZGSZ 301700Z AUTO 19002KT 6SM 25/19 A2980 RMK T02500190 IEM_DS3505
ZGSZ,2009-05-30 18:00,ZGSZ 301800Z AUTO 22002KT 4SM 25/17 A2980 RMK SLP091 T02490166 57017 IEM_DS3505
ZGSZ,2009-05-30 19:00,ZGSZ 301900Z AUTO 00000KT 2SM 25/20 A2980 RMK T02500200 IEM_DS3505
ZGSZ,2009-05-30 20:00,ZGSZ 302000Z AUTO 30006KT 2SM 25/20 A2980 RMK T02500200 IEM_DS3505
ZGSZ,2009-05-30 21:00,ZGSZ 302100Z AUTO 00000KT 3SM 24/18 A2980 RMK SLP089 T02410178 57002 IEM_DS3505
ZGSZ,2009-05-30 22:00,ZGSZ 302200Z AUTO 33002KT 2 1/2SM 24/19 A2980 RMK T02400190 IEM_DS3505
ZGSZ,2009-05-30 23:00,ZGSZ 302300Z AUTO 00000KT 2 1/2SM 25/20 A2980 RMK T02500200 IEM_DS3505
ZGSZ,2009-05-31 00:00,ZGSZ 310000Z AUTO 22002KT 2 1/2SM 26/18 A2980 RMK SLP097 T02550184 52008 IEM_DS3505
ZGSZ,2009-05-31 01:00,ZGSZ 310100Z AUTO 2 1/2SM 29/19 A2980 RMK T02900190 IEM_DS3505
ZGSZ,2009-05-31 02:00,ZGSZ 310200Z AUTO 29004KT 2 1/2SM 29/19 A2980 RMK T02900190 IEM_DS3505
ZGSZ,2009-05-31 03:00,ZGSZ 310300Z AUTO 18004KT 2SM 29/18 A2980 RMK SLP091 T02940185 57006 IEM_DS3505
ZGSZ,2009-05-31 04:00,ZGSZ 310400Z AUTO 26006KT 2 1/2SM 29/19 A2977 RMK T02900190 IEM_DS3505
ZGSZ,2009-05-31 05:00,ZGSZ 310500Z AUTO 25008KT 3SM 30/21 A2977 RMK T03000210 IEM_DS3505
ZGSZ,2009-05-31 06:00,ZGSZ 310600Z AUTO 22008KT 2SM 28/18 A2974 RMK SLP079 T02810185 57012 IEM_DS3505
ZGSZ,2009-05-31 07:00,ZGSZ 310700Z AUTO 21006KT 3SM 31/20 A2971 RMK T03100200 IEM_DS3505
ZGSZ,2009-05-31 08:00,ZGSZ 310800Z AUTO 18012KT 3SM 29/22 A2971 RMK T02900220 IEM_DS3505
ZGSZ,2009-05-31 09:00,ZGSZ 310900Z AUTO 16004KT 4SM 28/19 A2971 RMK SLP064 T02780193 57015 IEM_DS3505
ZGSZ,2009-05-31 10:00,ZGSZ 311000Z AUTO 18008KT 3SM 28/22 A2971 RMK T02800220 IEM_DS3505
ZGSZ,2009-05-31 11:00,ZGSZ 311100Z AUTO 18010KT 4SM 27/22 A2971 RMK T02700220 IEM_DS3505
ZGSZ,2009-05-31 12:00,ZGSZ 311200Z AUTO 18004KT 4SM 26/19 A2974 RMK SLP077 T02610193 52013 IEM_DS3505
ZGSZ,2009-05-31 13:00,ZGSZ 311300Z AUTO 19010KT 6SM 27/21 A2977 RMK T02700210 IEM_DS3505
ZGSZ,2009-05-31 14:00,ZGSZ 311400Z AUTO 18008KT 6SM 26/21 A2977 RMK T02600210 IEM_DS3505
ZGSZ,2009-05-31 15:00,ZGSZ 311500Z AUTO 16002KT 4SM 25/19 A2977 RMK SLP082 T02540193 52005 IEM_DS3505
ZGSZ,2009-05-31 16:00,ZGSZ 311600Z AUTO 18006KT 6SM 26/21 A2974 RMK T02600210 IEM_DS3505
ZGSZ,2009-05-31 17:00,ZGSZ 311700Z AUTO 18006KT 6SM 26/22 A2974 RMK T02600220 IEM_DS3505
ZGSZ,2009-05-31 18:00,ZGSZ 311800Z AUTO 16004KT 5SM 25/20 A2971 RMK SLP062 T02470195 57020 IEM_DS3505
ZGSZ,2009-05-31 19:00,ZGSZ 311900Z AUTO 18006KT 4SM 25/21 A2971 RMK T02500210 IEM_DS3505
ZGSZ,2009-05-31 20:00,ZGSZ 312000Z AUTO 18006KT 6SM 25/22 A2971 RMK T02500220 IEM_DS3505
ZGSZ,2009-05-31 21:00,ZGSZ 312100Z AUTO 16002KT 5SM 24/20 A2971 RMK SLP067 T02440197 52005 IEM_DS3505
ZGSZ,2009-05-31 22:00,ZGSZ 312200Z AUTO 20004KT 6SM 25/22 A2974 RMK T02500220 IEM_DS3505
ZGSZ,2009-05-31 23:00,ZGSZ 312300Z AUTO 00000KT 7SM 25/22 A2977 RMK T02500220 IEM_DS3505
ZGSZ,2009-06-01 00:00,ZGSZ 010000Z AUTO 32002KT 3SM 25/20 A2977 RMK SLP081 T02540198 52014 IEM_DS3505
ZGSZ,2009-06-01 01:00,ZGSZ 010100Z AUTO 16004KT 6SM 27/20 A2977 RMK T02700200 IEM_DS3505
ZGSZ,2009-06-01 02:00,ZGSZ 010200Z AUTO 15006KT 6SM 28/20 A2977 RMK T02800200 IEM_DS3505
ZGSZ,2009-06-01 03:00,ZGSZ 010300Z AUTO 25004KT 2 1/2SM 28/15 A2974 RMK SLP075 T02850154 57006 IEM_DS3505
ZGSZ,2009-06-01 04:00,ZGSZ 010400Z AUTO 21006KT 6SM 30/17 A2974 RMK T03000170 IEM_DS3505
ZGSZ,2009-06-01 05:00,ZGSZ 010500Z AUTO 19006KT 6SM 31/15 A2971 RMK T03100150 IEM_DS3505
ZGSZ,2009-06-01 06:00,ZGSZ 010600Z AUTO 20006KT 9SM 31/17 A2968 RMK SLP053 T03090169 57022 IEM_DS3505
ZGSZ,2009-06-01 07:00,ZGSZ 010700Z AUTO 18008KT 6SM 30/20 A2965 RMK T03000200 IEM_DS3505
ZGSZ,2009-06-01 08:00,ZGSZ 010800Z AUTO 19010KT 6SM 30/20 A2965 RMK T03000200 IEM_DS3505
ZGSZ,2009-06-01 09:00,ZGSZ 010900Z AUTO 20004KT 9SM 30/19 A2962 RMK SLP039 T02960187 57014 IEM_DS3505
ZGSZ,2009-06-01 10:00,ZGSZ 011000Z AUTO 19012KT 6SM 28/21 A2965 RMK T02800210 IEM_DS3505
ZGSZ,2009-06-01 11:00,ZGSZ 011100Z AUTO 19012KT 6SM 28/21 A2965 RMK T02800210 IEM_DS3505
ZGSZ,2009-06-01 12:00,ZGSZ 011200Z AUTO 14004KT 9SM 26/20 A2968 RMK SLP054 T02630204 52015 IEM_DS3505
ZGSZ,2009-06-01 13:00,ZGSZ 011300Z AUTO 16010KT 6SM 27/21 A2968 RMK T02700210 IEM_DS3505
ZGSZ,2009-06-01 14:00,ZGSZ 011400Z AUTO 15006KT 6SM 26/20 A2971 RMK T02600200 IEM_DS3505
ZGSZ,2009-06-01 15:00,ZGSZ 011500Z AUTO 09002KT 9SM 26/20 A2971 RMK SLP065 T02550196 52011 IEM_DS3505
ZGSZ,2009-06-01 16:00,ZGSZ 011600Z AUTO 15008KT 6SM 26/21 A2971 RMK T02600210 IEM_DS3505
ZGSZ,2009-06-01 17:00,ZGSZ 011700Z AUTO 15008KT 6SM 26/21 A2968 RMK T02600210 IEM_DS3505
ZGSZ,2009-06-01 18:00,ZGSZ 011800Z AUTO 22004KT 10SM 25/20 A2968 RMK SLP052 T02510201 57013 IEM_DS3505
ZGSZ,2009-06-01 19:00,ZGSZ 011900Z AUTO 16006KT 7SM 26/21 A2968 RMK T02600210 IEM_DS3505
ZGSZ,2009-06-01 20:00,ZGSZ 012000Z AUTO 15006KT 6SM 25/21 A2965 RMK T02500210 IEM_DS3505
ZGSZ,2009-06-01 21:00,ZGSZ 012100Z AUTO 11004KT 9SM 25/21 A2965 RMK SLP048 T02480207 57004 IEM_DS3505
ZGSZ,2009-06-01 22:00,ZGSZ 012200Z AUTO 12006KT 7SM 26/21 A2965 RMK T02600210 IEM_DS3505
ZGSZ,2009-06-01 23:00,ZGSZ 012300Z AUTO 13006KT 7SM 27/22 A2968 RMK T02700220 IEM_DS3505
ZGSZ,2009-06-02 00:00,ZGSZ 020000Z AUTO 22002KT 11SM 26/21 A2968 RMK SLP052 T02650210 52004 IEM_DS3505
ZGSZ,2009-06-02 01:00,ZGSZ 020100Z AUTO 18008KT 7SM 27/22 A2968 RMK T02700220 IEM_DS3505
ZGSZ,2009-06-02 02:00,ZGSZ 020200Z AUTO 16010KT 7SM 29/22 A2968 RMK T02900220 IEM_DS3505
ZGSZ,2009-06-02 03:00,ZGSZ 020300Z AUTO 22004KT 10SM 28/21 A2968 RMK SLP053 T02760212 52001 IEM_DS3505
ZGSZ,2009-06-02 04:00,ZGSZ 020400Z AUTO 17016KT 7SM 29/23 A2965 RMK T02900230 IEM_DS3505
ZGSZ,2009-06-02 05:00,ZGSZ 020500Z AUTO 15012KT 7SM 30/22 A2962 RMK T03000220 IEM_DS3505
ZGSZ,2009-06-02 06:00,ZGSZ 020600Z AUTO 22006KT 10SM 28/22 A2962 RMK SLP031 T02800215 57022 IEM_DS3505
ZGSZ,2009-06-02 07:00,ZGSZ 020700Z AUTO 16014KT 7SM 30/23 A2959 RMK T03000230 IEM_DS3505
ZGSZ,2009-06-02 08:00,ZGSZ 020800Z AUTO 16014KT 7SM 30/23 A2956 RMK T03000230 IEM_DS3505
ZGSZ,2009-06-02 09:00,ZGSZ 020900Z AUTO 18004KT 10SM 29/23 A2956 RMK SLP013 T02860228 57018 IEM_DS3505
ZGSZ,2009-06-02 10:00,ZGSZ 021000Z AUTO 17014KT 7SM 29/24 A2956 RMK T02900240 IEM_DS3505
ZGSZ,2009-06-02 11:00,ZGSZ 021100Z AUTO 16012KT 6SM 28/23 A2956 RMK T02800230 IEM_DS3505
ZGSZ,2009-06-02 12:00,ZGSZ 021200Z AUTO 16004KT 7SM 27/23 A2956 RMK SLP019 T02660229 52006 IEM_DS3505
ZGSZ,2009-06-02 13:00,ZGSZ 021300Z AUTO 17008KT 6SM 28/23 A2959 RMK T02800230 IEM_DS3505
ZGSZ,2009-06-02 14:00,ZGSZ 021400Z AUTO 16010KT 7SM 28/24 A2962 RMK T02800240 IEM_DS3505
ZGSZ,2009-06-02 15:00,ZGSZ 021500Z AUTO 14002KT 6SM 26/23 A2962 RMK SLP034 T02650234 52015 IEM_DS3505
ZGSZ,2009-06-02 16:00,ZGSZ 021600Z AUTO 16010KT 7SM 28/24 A2959 RMK T02800240 IEM_DS3505
ZGSZ,2009-06-02 17:00,ZGSZ 021700Z AUTO 16012KT 7SM 28/24 A2959 RMK T02800240 IEM_DS3505
ZGSZ,2009-06-02 18:00,ZGSZ 021800Z AUTO 16006KT 7SM 27/24 A2956 RMK SLP015 T02680235 57018 IEM_DS3505
ZGSZ,2009-06-02 19:00,ZGSZ 021900Z AUTO 16012KT 7SM 27/25 A2956 RMK T02700250 IEM_DS3505
ZGSZ,2009-06-02 20:00,ZGSZ 022000Z AUTO 16012KT 7SM 27/25 A2953 RMK T02700250 IEM_DS3505
ZGSZ,2009-06-02 21:00,ZGSZ 022100Z AUTO 22004KT 11SM 27/24 A2953 RMK SLP004 T02680239 57011 IEM_DS3505
ZGSZ,2009-06-02 22:00,ZGSZ 022200Z AUTO 17012KT 7SM 28/25 A2953 RMK T02800250 IEM_DS3505
ZGSZ,2009-06-02 23:00,ZGSZ 022300Z AUTO 17012KT 7SM 28/25 A2953 RMK T02800250 IEM_DS3505
ZGSZ,2009-06-03 00:00,ZGSZ 030000Z AUTO 27002KT 11SM 27/24 A2956 RMK 60000 70001 SLP016 T02680241 52011 IEM_DS3505
ZGSZ,2009-06-03 01:00,ZGSZ 030100Z AUTO 18014KT 7SM 27/25 A2956 RMK T02700250 IEM_DS3505
ZGSZ,2009-06-03 02:00,ZGSZ 030200Z AUTO 17008KT 7SM 28/26 A2956 RMK T02800260 IEM_DS3505
ZGSZ,2009-06-03 03:00,ZGSZ 030300Z AUTO 22010KT 16SM 27/24 A2956 RMK SLP015 T02690240 57001 IEM_DS3505
ZGSZ,2009-06-03 04:00,ZGSZ 030400Z AUTO 15010KT 7SM 28/25 A2953 RMK T02800250 IEM_DS3505
ZGSZ,2009-06-03 05:00,ZGSZ 030500Z AUTO 17014KT 7SM 30/26 A2953 RMK T03000260 IEM_DS3505
ZGSZ,2009-06-03 06:00,ZGSZ 030600Z AUTO 22010KT 17SM 30/25 A2950 RMK 60002 SLP998 T02980253 57016 IEM_DS3505
ZGSZ,2009-06-03 07:00,ZGSZ 030700Z AUTO 16014KT 7SM 29/26 A2950 RMK T02900260 IEM_DS3505
ZGSZ,2009-06-03 08:00,ZGSZ 030800Z AUTO 17017KT 7SM 30/26 A2947 RMK T03000260 IEM_DS3505
ZGSZ,2009-06-03 09:00,ZGSZ 030900Z AUTO 22012KT 19SM 29/24 A2947 RMK SLP988 T02860235 57010 IEM_DS3505
ZGSZ,2009-06-03 10:00,ZGSZ 031000Z AUTO 17014KT 3SM 28/26 A2950 RMK T02800260 IEM_DS3505
ZGSZ,2009-06-03 11:00,ZGSZ 031100Z AUTO 16012KT 2 1/2SM 26/24 A2950 RMK T02600240 IEM_DS3505
ZGSZ,2009-06-03 12:00,ZGSZ 031200Z AUTO 22002KT 15SM 28/25 A2953 RMK 60000 SLP003 T02820246 52015 IEM_DS3505
ZGSZ,2009-06-03 13:00,ZGSZ 031300Z AUTO 17008KT 7SM 28/26 A2953 RMK T02800260 IEM_DS3505
ZGSZ,2009-06-03 14:00,ZGSZ 031400Z AUTO 16008KT 7SM 28/26 A2953 RMK T02800260 IEM_DS3505
ZGSZ,2009-06-03 15:00,ZGSZ 031500Z AUTO 22004KT 4SM 27/25 A2950 RMK SLP998 T02740250 57005 IEM_DS3505
ZGSZ,2009-06-03 16:00,ZGSZ 031600Z AUTO 20006KT 7SM 25/24 A2953 RMK T02500240 IEM_DS3505
ZGSZ,2009-06-03 17:00,ZGSZ 031700Z AUTO 00000KT 7SM 26/24 A2950 RMK T02600240 IEM_DS3505
ZGSZ,2009-06-03 18:00,ZGSZ 031800Z AUTO 27004KT 12SM 25/24 A2950 RMK 60173 SLP990 T02540240 57008 IEM_DS3505
ZGSZ,2009-06-03 19:00,ZGSZ 031900Z AUTO 28004KT 7SM 26/24 A2947 RMK T02600240 IEM_DS3505
ZGSZ,2009-06-03 20:00,ZGSZ 032000Z AUTO 29006KT 7SM 26/24 A2947 RMK T02600240 IEM_DS3505
ZGSZ,2009-06-03 21:00,ZGSZ 032100Z AUTO 25002KT 9SM 25/24 A2950 RMK 70193 SLP989 T02490239 57001 IEM_DS3505
ZGSZ,2009-06-03 22:00,ZGSZ 032200Z AUTO 32006KT 2SM 26/24 A2950 RMK T02600240 IEM_DS3505
ZGSZ,2009-06-03 23:00,ZGSZ 032300Z AUTO 33006KT 3SM 26/24 A2953 RMK T02600240 IEM_DS3505
ZGSZ,2009-06-04 00:00,ZGSZ 040000Z AUTO 27002KT 2 1/2SM 25/24 A2953 RMK 60020 70194 SLP003 T02510241 52013 IEM_DS3505
ZGSZ,2009-06-04 01:00,ZGSZ 040100Z AUTO 32008KT 4SM 27/23 A2953 RMK T02700230 IEM_DS3505
ZGSZ,2009-06-04 02:00,ZGSZ 040200Z AUTO 31008KT 4SM 28/23 A2953 RMK T02800230 IEM_DS3505
ZGSZ,2009-06-04 03:00,ZGSZ 040300Z AUTO 34004KT 6SM 29/23 A2953 RMK SLP002 T02890226 54000 IEM_DS3505
ZGSZ,2009-06-04 04:00,ZGSZ 040400Z AUTO 29010KT 6SM 29/22 A2953 RMK T02900220 IEM_DS3505
ZGSZ,2009-06-04 05:00,ZGSZ 040500Z AUTO 29010KT 6SM 30/22 A2950 RMK T03000220 IEM_DS3505
ZGSZ,2009-06-04 06:00,ZGSZ 040600Z AUTO 34002KT 7SM 31/20 A2950 RMK SLP987 T03100197 57015 IEM_DS3505
ZGSZ,2009-06-04 07:00,ZGSZ 040700Z AUTO 29012KT 6SM 31/21 A2947 RMK T03100210 IEM_DS3505
ZGSZ,2009-06-04 08:00,ZGSZ 040800Z AUTO 29012KT 6SM 31/22 A2947 RMK T03100220 IEM_DS3505
ZGSZ,2009-06-04 09:00,ZGSZ 040900Z AUTO 27004KT 5SM 30/19 A2947 RMK SLP985 T03020189 57002 IEM_DS3505
ZGSZ,2009-06-04 10:00,ZGSZ 041000Z AUTO 29006KT 7SM 30/21 A2947 RMK T03000210 IEM_DS3505
ZGSZ,2009-06-04 11:00,ZGSZ 041100Z AUTO 27004KT 6SM 30/22 A2950 RMK T03000220 IEM_DS3505
ZGSZ,2009-06-04 12:00,ZGSZ 041200Z AUTO 32002KT 5SM 28/19 A2953 RMK SLP001 T02820192 52015 IEM_DS3505
ZGSZ,2009-06-04 13:00,ZGSZ 041300Z AUTO 35004KT 6SM 28/19 A2953 RMK T02800190 IEM_DS3505
ZGSZ,2009-06-04 14:00,ZGSZ 041400Z AUTO 04004KT 6SM 29/21 A2956 RMK T02900210 IEM_DS3505
ZGSZ,2009-06-04 15:00,ZGSZ 041500Z AUTO 34002KT 7SM 27/21 A2959 RMK SLP019 T02710207 52019 IEM_DS3505
ZGSZ,2009-06-04 16:00,ZGSZ 041600Z AUTO 08004KT 6SM 27/22 A2956 RMK T02700220 IEM_DS3505
ZGSZ,2009-06-04 17:00,ZGSZ 041700Z AUTO 6SM 26/22 A2956 RMK T02600220 IEM_DS3505
ZGSZ,2009-06-04 18:00,ZGSZ 041800Z AUTO 00000KT 5SM 26/22 A2956 RMK SLP014 T02570216 57005 IEM_DS3505
ZGSZ,2009-06-04 19:00,ZGSZ 041900Z AUTO 25002KT 6SM 26/23 A2956 RMK T02600230 IEM_DS3505
ZGSZ,2009-06-04 20:00,ZGSZ 042000Z AUTO 4SM 26/23 A2959 RMK T02600230 IEM_DS3505
ZGSZ,2009-06-04 21:00,ZGSZ 042100Z AUTO 36002KT 6SM 25/20 A2959 RMK 70003 SLP020 T02520205 52006 IEM_DS3505
ZGSZ,2009-06-04 22:00,ZGSZ 042200Z AUTO 00000KT 7SM 26/22 A2959 RMK T02600220 IEM_DS3505
ZGSZ,2009-06-04 23:00,ZGSZ 042300Z AUTO 00000KT 6SM 28/22 A2962 RMK T02800220 IEM_DS3505
ZGSZ,2009-06-05 00:00,ZGSZ 050000Z AUTO 20002KT 5SM 28/19 A2962 RMK SLP036 T02800187 52016 IEM_DS3505
ZGSZ,2009-06-05 01:00,ZGSZ 050100Z AUTO 07004KT 6SM 30/21 A2965 RMK T03000210 IEM_DS3505
ZGSZ,2009-06-05 02:00,ZGSZ 050200Z AUTO 04006KT 6SM 31/20 A2962 RMK T03100200 IEM_DS3505
ZGSZ,2009-06-05 03:00,ZGSZ 050300Z AUTO 02002KT 4SM 30/16 A2962 RMK SLP036 T03040164 54000 IEM_DS3505
ZGSZ,2009-06-05 04:00,ZGSZ 050400Z AUTO 25006KT 7SM 31/22 A2962 RMK T03100220 IEM_DS3505
ZGSZ,2009-06-05 05:00,ZGSZ 050500Z AUTO 22006KT 7SM 31/22 A2962 RMK T03100220 IEM_DS3505
ZGSZ,2009-06-05 06:00,ZGSZ 050600Z AUTO 25006KT 5SM 31/19 A2959 RMK SLP025 T03070191 57011 IEM_DS3505
ZGSZ,2009-06-05 07:00,ZGSZ 050700Z AUTO 21006KT 7SM 32/20 A2956 RMK T03200200 IEM_DS3505
ZGSZ,2009-06-05 08:00,ZGSZ 050800Z AUTO 22004KT 6SM 33/20 A2956 RMK T03300200 IEM_DS3505
ZGSZ,2009-06-05 09:00,ZGSZ 050900Z AUTO 22008KT 4SM 31/21 A2953 RMK SLP006 T03070209 57019 IEM_DS3505
ZGSZ,2009-06-05 10:00,ZGSZ 051000Z AUTO 18012KT 6SM 29/24 A2956 RMK T02900240 IEM_DS3505
ZGSZ,2009-06-05 11:00,ZGSZ 051100Z AUTO 17012KT 6SM 28/24 A2959 RMK T02800240 IEM_DS3505
ZGSZ,2009-06-05 12:00,ZGSZ 051200Z AUTO 18004KT 5SM 27/22 A2962 RMK SLP031 T02700224 52024 IEM_DS3505
ZGSZ,2009-06-05 13:00,ZGSZ 051300Z AUTO 16010KT 6SM 27/23 A2962 RMK T02700230 IEM_DS3505
ZGSZ,2009-06-05 14:00,ZGSZ 051400Z AUTO 16008KT 6SM 27/24 A2962 RMK T02700240 IEM_DS3505
ZGSZ,2009-06-05 15:00,ZGSZ 051500Z AUTO 14002KT 5SM 26/23 A2965 RMK SLP042 T02630228 52012 IEM_DS3505
ZGSZ,2009-06-05 16:00,ZGSZ 051600Z AUTO 16008KT 7SM 27/24 A2962 RMK T02700240 IEM_DS3505
ZGSZ,2009-06-05 17:00,ZGSZ 051700Z AUTO 16006KT 7SM 27/24 A2962 RMK T02700240 IEM_DS3505
ZGSZ,2009-06-05 18:00,ZGSZ 051800Z AUTO 22002KT 5SM 25/22 A2959 RMK SLP028 T02530224 57014 IEM_DS3505
ZGSZ,2009-06-05 19:00,ZGSZ 051900Z AUTO 15004KT 2 1/2SM 27/24 A2962 RMK T02700240 IEM_DS3505
ZGSZ,2009-06-05 20:00,ZGSZ 052000Z AUTO 14004KT 2 1/2SM 26/24 A2962 RMK T02600240 IEM_DS3505
ZGSZ,2009-06-05 21:00,ZGSZ 052100Z AUTO 16002KT 3SM 26/22 A2962 RMK SLP035 T02550224 52007 IEM_DS3505
ZGSZ,2009-06-05 22:00,ZGSZ 052200Z AUTO 15004KT 2SM 26/24 A2965 RMK T02600240 IEM_DS3505
ZGSZ,2009-06-05 23:00,ZGSZ 052300Z AUTO 15004KT 3SM 27/24 A2965 RMK T02700240 IEM_DS3505
ZGSZ,2009-06-06 00:00,ZGSZ 060000Z AUTO 20002KT 2 1/2SM 27/23 A2965 RMK SLP049 T02740230 52013 IEM_DS3505
ZGSZ,2009-06-06 01:00,ZGSZ 060100Z AUTO 19004KT 3SM 29/24 A2968 RMK T02900240 IEM_DS3505
ZGSZ,2009-06-06 02:00,ZGSZ 060200Z AUTO 21004KT 3SM 30/25 A2968 RMK T03000250 IEM_DS3505
ZGSZ,2009-06-06 03:00,ZGSZ 060300Z AUTO 22004KT 2SM 31/23 A2965 RMK SLP047 T03130234 57001 IEM_DS3505
ZGSZ,2009-06-06 04:00,ZGSZ 060400Z AUTO 23006KT 6SM 31/22 A2965 RMK T03100220 IEM_DS3505
ZGSZ,2009-06-06 05:00,ZGSZ 060500Z AUTO 21006KT 6SM 32/21 A2962 RMK T03200210 IEM_DS3505
ZGSZ,2009-06-06 06:00,ZGSZ 060600Z AUTO 22008KT 5SM 32/21 A2962 RMK SLP031 T03220208 57016 IEM_DS3505
ZGSZ,2009-06-06 07:00,ZGSZ 060700Z AUTO 19010KT 6SM 33/22 A2959 RMK T03300220 IEM_DS3505
ZGSZ,2009-06-06 08:00,ZGSZ 060800Z AUTO 18012KT 6SM 31/25 A2959 RMK T03100250 IEM_DS3505
ZGSZ,2009-06-06 09:00,ZGSZ 060900Z AUTO 22008KT 5SM 30/23 A2959 RMK SLP026 T02960228 57006 IEM_DS3505
ZGSZ,2009-06-06 10:00,ZGSZ 061000Z AUTO 17012KT 6SM 30/24 A2959 RMK T03000240 IEM_DS3505
ZGSZ,2009-06-06 11:00,ZGSZ 061100Z AUTO 16012KT 6SM 29/25 A2959 RMK T02900250 IEM_DS3505
ZGSZ,2009-06-06 12:00,ZGSZ 061200Z AUTO 18002KT 4SM 28/23 A2962 RMK SLP036 T02770226 52010 IEM_DS3505
ZGSZ,2009-06-06 13:00,ZGSZ 061300Z AUTO 16008KT 5SM 28/25 A2965 RMK T02800250 IEM_DS3505
ZGSZ,2009-06-06 14:00,ZGSZ 061400Z AUTO 16008KT 4SM 28/24 A2965 RMK T02800240 IEM_DS3505
ZGSZ,2009-06-06 15:00,ZGSZ 061500Z AUTO 16004KT 5SM 27/23 A2968 RMK SLP056 T02660229 52021 IEM_DS3505
ZGSZ,2009-06-06 16:00,ZGSZ 061600Z AUTO 16006KT 4SM 27/24 A2968 RMK T02700240 IEM_DS3505
ZGSZ,2009-06-06 17:00,ZGSZ 061700Z AUTO 15004KT 4SM 26/24 A2968 RMK T02600240 IEM_DS3505
ZGSZ,2009-06-06 18:00,ZGSZ 061800Z AUTO 14002KT 5SM 26/22 A2968 RMK SLP048 T02610220 57008 IEM_DS3505
ZGSZ,2009-06-06 19:00,ZGSZ 061900Z AUTO 15004KT 3SM 26/24 A2965 RMK T02600240 IEM_DS3505
ZGSZ,2009-06-06 20:00,ZGSZ 062000Z AUTO 16004KT 3SM 26/24 A2965 RMK T02600240 IEM_DS3505
ZGSZ,2009-06-06 21:00,ZGSZ 062100Z AUTO 07002KT 3SM 25/22 A2965 RMK SLP043 T02500221 57006 IEM_DS3505
ZGSZ,2009-06-06 22:00,ZGSZ 062200Z AUTO 09004KT 3SM 26/24 A2965 RMK T02600240 IEM_DS3505
ZGSZ,2009-06-06 23:00,ZGSZ 062300Z AUTO 08006KT 3SM 27/23 A2968 RMK T02700230 IEM_DS3505
ZGSZ,2009-06-07 00:00,ZGSZ 070000Z AUTO 11004KT 6SM 28/22 A2968 RMK SLP057 T02820215 52014 IEM_DS3505
ZGSZ,2009-06-07 01:00,ZGSZ 070100Z AUTO 16006KT 7SM 30/22 A2968 RMK T03000220 IEM_DS3505
ZGSZ,2009-06-07 02:00,ZGSZ 070200Z AUTO 19008KT 6SM 31/23 A2971 RMK T03100230 IEM_DS3505
ZGSZ,2009-06-07 03:00,ZGSZ 070300Z AUTO 18002KT 9SM 31/21 A2971 RMK SLP062 T03080207 52005 IEM_DS3505
ZGSZ,2009-06-07 04:00,ZGSZ 070400Z AUTO 19010KT 6SM 31/22 A2968 RMK T03100220 IEM_DS3505
ZGSZ,2009-06-07 05:00,ZGSZ 070500Z AUTO 20012KT 6SM 31/24 A2965 RMK T03100240 IEM_DS3505
ZGSZ,2009-06-07 06:00,ZGSZ 070600Z AUTO 18006KT 9SM 31/20 A2965 RMK SLP043 T03060202 57018 IEM_DS3505
ZGSZ,2009-06-07 07:00,ZGSZ 070700Z AUTO 18012KT 6SM 31/22 A2962 RMK T03100220 IEM_DS3505
ZGSZ,2009-06-07 08:00,ZGSZ 070800Z AUTO 17014KT 6SM 30/23 A2962 RMK T03000230 IEM_DS3505
ZGSZ,2009-06-07 09:00,ZGSZ 070900Z AUTO 14008KT 8SM 28/21 A2962 RMK SLP037 T02830208 57007 IEM_DS3505
ZGSZ,2009-06-07 10:00,ZGSZ 071000Z AUTO 11010KT 6SM 30/21 A2962 RMK T03000210 IEM_DS3505
ZGSZ,2009-06-07 11:00,ZGSZ 071100Z AUTO 11012KT 6SM 29/21 A2962 RMK T02900210 IEM_DS3505
ZGSZ,2009-06-07 12:00,ZGSZ 071200Z AUTO 11006KT 7SM 27/21 A2965 RMK SLP048 T02720208 52011 IEM_DS3505
ZGSZ,2009-06-07 13:00,ZGSZ 071300Z AUTO 11010KT 7SM 28/21 A2968 RMK T02800210 IEM_DS3505
ZGSZ,2009-06-07 14:00,ZGSZ 071400Z AUTO 12010KT 7SM 28/21 A2971 RMK T02800210 IEM_DS3505
ZGSZ,2009-06-07 15:00,ZGSZ 071500Z AUTO 11004KT 11SM 27/20 A2971 RMK SLP067 T02710204 52020 IEM_DS3505
ZGSZ,2009-06-07 16:00,ZGSZ 071600Z AUTO 11006KT 7SM 28/21 A2971 RMK T02800210 IEM_DS3505
ZGSZ,2009-06-07 17:00,ZGSZ 071700Z AUTO 14008KT 7SM 28/22 A2971 RMK T02800220 IEM_DS3505
ZGSZ,2009-06-07 18:00,ZGSZ 071800Z AUTO 16004KT 12SM 27/21 A2968 RMK SLP056 T02700206 57011 IEM_DS3505
ZGSZ,2009-06-07 19:00,ZGSZ 071900Z AUTO 13008KT 7SM 28/22 A2968 RMK T02800220 IEM_DS3505
ZGSZ,2009-06-07 20:00,ZGSZ 072000Z AUTO 11006KT 7SM 28/22 A2968 RMK T02800220 IEM_DS3505
ZGSZ,2009-06-07 21:00,ZGSZ 072100Z AUTO 14002KT 11SM 27/21 A2968 RMK SLP055 T02690214 57002 IEM_DS3505
ZGSZ,2009-06-07 22:00,ZGSZ 072200Z AUTO 13010KT 7SM 28/22 A2968 RMK T02800220 IEM_DS3505
ZGSZ,2009-06-07 23:00,ZGSZ 072300Z AUTO 10006KT 7SM 28/23 A2971 RMK T02800230 IEM_DS3505
ZGSZ,2009-06-08 00:00,ZGSZ 080000Z AUTO 11006KT 14SM 27/20 A2971 RMK SLP064 T02740205 52009 IEM_DS3505
ZGSZ,2009-06-08 01:00,ZGSZ 080100Z AUTO 13012KT 7SM 30/21 A2971 RMK T03000210 IEM_DS3505
ZGSZ,2009-06-08 02:00,ZGSZ 080200Z AUTO 12008KT 7SM 30/21 A2971 RMK T03000210 IEM_DS3505
ZGSZ,2009-06-08 03:00,ZGSZ 080300Z AUTO 09006KT 16SM 30/20 A2971 RMK SLP065 T02970200 52001 IEM_DS3505
ZGSZ,2009-06-08 04:00,ZGSZ 080400Z AUTO 15010KT 7SM 31/19 A2971 RMK T03100190 IEM_DS3505
ZGSZ,2009-06-08 05:00,ZGSZ 080500Z AUTO 18010KT 7SM 31/21 A2971 RMK T03100210 IEM_DS3505
ZGSZ,2009-06-08 06:00,ZGSZ 080600Z AUTO 14004KT 17SM 30/19 A2968 RMK 60000 SLP058 T02990193 57007 IEM_DS3505
ZGSZ,2009-06-08 07:00,ZGSZ 080700Z AUTO 13008KT 7SM 30/21 A2968 RMK T03000210 IEM_DS3505
ZGSZ,2009-06-08 08:00,ZGSZ 080800Z AUTO 15012KT 7SM 30/22 A2965 RMK T03000220 IEM_DS3505
ZGSZ,2009-06-08 09:00,ZGSZ 080900Z AUTO 11008KT 16SM 28/21 A2965 RMK SLP051 T02830208 57007 IEM_DS3505
ZGSZ,2009-06-08 10:00,ZGSZ 081000Z AUTO 11010KT 7SM 29/22 A2965 RMK T02900220 IEM_DS3505
ZGSZ,2009-06-08 11:00,ZGSZ 081100Z AUTO 11010KT 7SM 29/22 A2968 RMK T02900220 IEM_DS3505
ZGSZ,2009-06-08 12:00,ZGSZ 081200Z AUTO 07006KT 12SM 27/22 A2968 RMK SLP060 T02670219 52009 IEM_DS3505
ZGSZ,2009-06-08 13:00,ZGSZ 081300Z AUTO 11010KT 7SM 28/22 A2971 RMK T02800220 IEM_DS3505
ZGSZ,2009-06-08 14:00,ZGSZ 081400Z AUTO 10012KT 7SM 27/23 A2971 RMK T02700230 IEM_DS3505
ZGSZ,2009-06-08 15:00,ZGSZ 081500Z AUTO 04004KT 6SM 26/24 A2974 RMK SLP073 T02560240 52013 IEM_DS3505
ZGSZ,2009-06-08 16:00,ZGSZ 081600Z AUTO 10008KT 7SM 28/24 A2971 RMK T02800240 IEM_DS3505
ZGSZ,2009-06-08 17:00,ZGSZ 081700Z AUTO 11006KT 7SM 27/24 A2971 RMK T02700240 IEM_DS3505
ZGSZ,2009-06-08 18:00,ZGSZ 081800Z AUTO 09004KT 9SM 26/24 A2968 RMK 60067 SLP058 T02570241 57015 IEM_DS3505
ZGSZ,2009-06-08 19:00,ZGSZ 081900Z AUTO 13008KT 7SM 28/24 A2968 RMK T02800240 IEM_DS3505
ZGSZ,2009-06-08 20:00,ZGSZ 082000Z AUTO 12008KT 7SM 27/25 A2968 RMK T02700250 IEM_DS3505
ZGSZ,2009-06-08 21:00,ZGSZ 082100Z AUTO 07002KT 10SM 26/24 A2968 RMK 70068 SLP060 T02600240 52002 IEM_DS3505
ZGSZ,2009-06-08 22:00,ZGSZ 082200Z AUTO 11006KT 7SM 27/25 A2971 RMK T02700250 IEM_DS3505
ZGSZ,2009-06-08 23:00,ZGSZ 082300Z AUTO 11006KT 7SM 28/25 A2971 RMK T02800250 IEM_DS3505
ZGSZ,2009-06-09 00:00,ZGSZ 090000Z AUTO 04004KT 14SM 27/25 A2971 RMK 60000 70068 SLP071 T02690246 52011 IEM_DS3505
ZGSZ,2009-06-09 01:00,ZGSZ 090100Z AUTO 14008KT 7SM 30/25 A2974 RMK T03000250 IEM_DS3505
ZGSZ,2009-06-09 02:00,ZGSZ 090200Z AUTO 14008KT 7SM 31/25 A2971 RMK T03100250 IEM_DS3505
ZGSZ,2009-06-09 03:00,ZGSZ 090300Z AUTO 22004KT 17SM 30/24 A2974 RMK SLP072 T02950241 52001 IEM_DS3505
ZGSZ,2009-06-09 04:00,ZGSZ 090400Z AUTO 17010KT 7SM 31/24 A2974 RMK T03100240 IEM_DS3505
ZGSZ,2009-06-09 05:00,ZGSZ 090500Z AUTO 18006KT 1 1/4SM 26/23 A2971 RMK T02600230 IEM_DS3505
ZGSZ,2009-06-09 06:00,ZGSZ 090600Z AUTO 22010KT 5SM 24/23 A2971 RMK 60024 SLP064 T02430229 57008 IEM_DS3505
ZGSZ,2009-06-09 07:00,ZGSZ 090700Z AUTO 7SM 26/23 A2971 RMK T02600230 IEM_DS3505
ZGSZ,2009-06-09 08:00,ZGSZ 090800Z AUTO 7SM 26/24 A2968 RMK T02600240 IEM_DS3505
ZGSZ,2009-06-09 09:00,ZGSZ 090900Z AUTO 22006KT 9SM 26/24 A2968 RMK SLP052 T02590239 57012 IEM_DS3505
ZGSZ,2009-06-09 10:00,ZGSZ 091000Z AUTO 6SM 27/23 A2968 RMK T02700230 IEM_DS3505
ZGSZ,2009-06-09 11:00,ZGSZ 091100Z AUTO 00000KT 6SM 27/23 A2971 RMK T02700230 IEM_DS3505
ZGSZ,2009-06-09 12:00,ZGSZ 091200Z AUTO 14002KT 15SM 26/24 A2971 RMK 60004 SLP068 T02570236 52016 IEM_DS3505
ZGSZ,2009-06-09 13:00,ZGSZ 091300Z AUTO 14004KT 6SM 26/24 A2974 RMK T02600240 IEM_DS3505
ZGSZ,2009-06-09 14:00,ZGSZ 091400Z AUTO 13006KT 6SM 27/24 A2974 RMK T02700240 IEM_DS3505
ZGSZ,2009-06-09 15:00,ZGSZ 091500Z AUTO 11002KT 17SM 26/24 A2977 RMK SLP082 T02570239 52014 IEM_DS3505
ZGSZ,2009-06-09 16:00,ZGSZ 091600Z AUTO 15006KT 6SM 26/24 A2974 RMK T02600240 IEM_DS3505
ZGSZ,2009-06-09 17:00,ZGSZ 091700Z AUTO 13004KT 6SM 26/24 A2974 RMK T02600240 IEM_DS3505
ZGSZ,2009-06-09 18:00,ZGSZ 091800Z AUTO 07002KT 16SM 26/24 A2971 RMK SLP069 T02560237 57013 IEM_DS3505
ZGSZ,2009-06-09 19:00,ZGSZ 091900Z AUTO 11002KT 7SM 27/24 A2971 RMK T02700240 IEM_DS3505
ZGSZ,2009-06-09 20:00,ZGSZ 092000Z AUTO 12004KT 7SM 27/24 A2971 RMK T02700240 IEM_DS3505
ZGSZ,2009-06-09 21:00,ZGSZ 092100Z AUTO 07002KT 11SM 26/24 A2971 RMK 70026 SLP066 T02560237 57003 IEM_DS3505
ZGSZ,2009-06-09 22:00,ZGSZ 092200Z AUTO 12004KT 7SM 27/24 A2974 RMK T02700240 IEM_DS3505
ZGSZ,2009-06-09 23:00,ZGSZ 092300Z AUTO 12006KT 6SM 28/24 A2974 RMK T02800240 IEM_DS3505
ZGSZ,2009-06-10 00:00,ZGSZ 100000Z AUTO 07004KT 12SM 27/24 A2974 RMK 70026 SLP076 T02720243 52010 IEM_DS3505
ZGSZ,2009-06-10 01:00,ZGSZ 100100Z AUTO 12004KT 6SM 30/25 A2974 RMK T03000250 IEM_DS3505
ZGSZ,2009-06-10 02:00,ZGSZ 100200Z AUTO 16006KT 7SM 31/25 A2971 RMK T03100250 IEM_DS3505
ZGSZ,2009-06-10 03:00,ZGSZ 100300Z AUTO 18002KT 16SM 31/24 A2971 RMK SLP066 T03060245 57010 IEM_DS3505
ZGSZ,2009-06-10 04:00,ZGSZ 100400Z AUTO 20006KT 7SM 32/25 A2971 RMK T03200250 IEM_DS3505
ZGSZ,2009-06-10 05:00,ZGSZ 100500Z AUTO 19008KT 7SM 31/26 A2968 RMK T03100260 IEM_DS3505
ZGSZ,2009-06-10 06:00,ZGSZ 100600Z AUTO 22012KT 14SM 30/25 A2968 RMK SLP055 T03050246 57011 IEM_DS3505
ZGSZ,2009-06-10 07:00,ZGSZ 100700Z AUTO 20008KT 7SM 29/25 A2965 RMK T02900250 IEM_DS3505
ZGSZ,2009-06-10 08:00,ZGSZ 100800Z AUTO 21006KT 6SM 30/25 A2965 RMK T03000250 IEM_DS3505
ZGSZ,2009-06-10 09:00,ZGSZ 100900Z AUTO 16004KT 16SM 29/25 A2965 RMK SLP044 T02930246 57011 IEM_DS3505
ZGSZ,2009-06-10 10:00,ZGSZ 101000Z AUTO 19008KT 6SM 29/26 A2965 RMK T02900260 IEM_DS3505
ZGSZ,2009-06-10 11:00,ZGSZ 101100Z AUTO 15006KT 6SM 29/26 A2965 RMK T02900260 IEM_DS3505
ZGSZ,2009-06-10 12:00,ZGSZ 101200Z AUTO 22006KT 12SM 28/25 A2968 RMK SLP056 T02800250 52012 IEM_DS3505
ZGSZ,2009-06-10 13:00,ZGSZ 101300Z AUTO 15006KT 6SM 28/25 A2971 RMK T02800250 IEM_DS3505
ZGSZ,2009-06-10 14:00,ZGSZ 101400Z AUTO 15004KT 6SM 28/25 A2971 RMK T02800250 IEM_DS3505
ZGSZ,2009-06-10 15:00,ZGSZ 101500Z AUTO 22002KT 11SM 28/25 A2971 RMK SLP068 T02770247 52013 IEM_DS3505
ZGSZ,2009-06-10 16:00,ZGSZ 101600Z AUTO 17006KT 6SM 28/25 A2971 RMK T02800250 IEM_DS3505
ZGSZ,2009-06-10 17:00,ZGSZ 101700Z AUTO 17006KT 6SM 28/25 A2968 RMK T02800250 IEM_DS3505
ZGSZ,2009-06-10 18:00,ZGSZ 101800Z AUTO 27002KT 16SM 27/24 A2968 RMK SLP051 T02720237 57017 IEM_DS3505
ZGSZ,2009-06-10 19:00,ZGSZ 101900Z AUTO 18006KT 6SM 28/25 A2968 RMK T02800250 IEM_DS3505
ZGSZ,2009-06-10 20:00,ZGSZ 102000Z AUTO 16004KT 6SM 27/25 A2965 RMK T02700250 IEM_DS3505
ZGSZ,2009-06-10 21:00,ZGSZ 102100Z AUTO 20002KT 16SM 27/24 A2965 RMK SLP047 T02690244 57005 IEM_DS3505
ZGSZ,2009-06-10 22:00,ZGSZ 102200Z AUTO 15002KT 7SM 27/25 A2965 RMK T02700250 IEM_DS3505
ZGSZ,2009-06-10 23:00,ZGSZ 102300Z AUTO 14006KT 2 1/2SM 27/25 A2968 RMK T02700250 IEM_DS3505
ZGSZ,2009-06-11 00:00,ZGSZ 110000Z AUTO 18002KT 14SM 27/24 A2968 RMK 60002 70002 SLP056 T02740241 52009 IEM_DS3505
ZGSZ,2009-06-11 01:00,ZGSZ 110100Z AUTO 17008KT 7SM 27/25 A2968 RMK T02700250 IEM_DS3505
ZGSZ,2009-06-11 02:00,ZGSZ 110200Z AUTO 15008KT 7SM 28/25 A2971 RMK T02800250 IEM_DS3505
ZGSZ,2009-06-11 03:00,ZGSZ 110300Z AUTO 22004KT 10SM 27/24 A2971 RMK SLP064 T02670244 52008 IEM_DS3505
ZGSZ,2009-06-11 04:00,ZGSZ 110400Z AUTO 19008KT 7SM 28/24 A2968 RMK T02800240 IEM_DS3505
ZGSZ,2009-06-11 05:00,ZGSZ 110500Z AUTO 16004KT 7SM 28/24 A2968 RMK T02800240 IEM_DS3505
ZGSZ,2009-06-11 06:00,ZGSZ 110600Z AUTO 25002KT 11SM 27/24 A2968 RMK 60075 SLP053 T02670238 57011 IEM_DS3505
ZGSZ,2009-06-11 07:00,ZGSZ 110700Z AUTO 03008KT 7SM 28/24 A2965 RMK T02800240 IEM_DS3505
ZGSZ,2009-06-11 08:00,ZGSZ 110800Z AUTO 03004KT 7SM 28/24 A2962 RMK T02800240 IEM_DS3505
ZGSZ,2009-06-11 09:00,ZGSZ 110900Z AUTO 18002KT 10SM 28/24 A2962 RMK SLP039 T02750237 57014 IEM_DS3505
ZGSZ,2009-06-11 10:00,ZGSZ 111000Z AUTO 21006KT 6SM 28/25 A2965 RMK T02800250 IEM_DS3505
ZGSZ,2009-06-11 11:00,ZGSZ 111100Z AUTO 26008KT 3SM 24/23 A2971 RMK T02400230 IEM_DS3505
ZGSZ,2009-06-11 12:00,ZGSZ 111200Z AUTO 09002KT 12SM 24/21 A2965 RMK 60008 SLP054 T02350214 52015 IEM_DS3505
ZGSZ,2009-06-11 13:00,ZGSZ 111300Z AUTO 14004KT 7SM 25/23 A2968 RMK T02500230 IEM_DS3505
ZGSZ,2009-06-11 14:00,ZGSZ 111400Z AUTO 13006KT 6SM 25/22 A2968 RMK T02500220 IEM_DS3505
ZGSZ,2009-06-11 15:00,ZGSZ 111500Z AUTO 02002KT 14SM 24/22 A2968 RMK SLP052 T02400217 57002 IEM_DS3505
ZGSZ,2009-06-11 16:00,ZGSZ 111600Z AUTO 15002KT 6SM 25/23 A2968 RMK T02500230 IEM_DS3505
ZGSZ,2009-06-11 17:00,ZGSZ 111700Z AUTO 6SM 25/23 A2968 RMK T02500230 IEM_DS3505
ZGSZ,2009-06-11 18:00,ZGSZ 111800Z AUTO 36002KT 14SM 24/22 A2968 RMK SLP052 T02450220 54000 IEM_DS3505
ZGSZ,2009-06-11 19:00,ZGSZ 111900Z AUTO 00000KT 7SM 26/23 A2968 RMK T02600230 IEM_DS3505
ZGSZ,2009-06-11 20:00,ZGSZ 112000Z AUTO 7SM 26/24 A2965 RMK T02600240 IEM_DS3505
ZGSZ,2009-06-11 21:00,ZGSZ 112100Z AUTO 04002KT 16SM 24/22 A2965 RMK 70089 SLP048 T02450222 57004 IEM_DS3505
ZGSZ,2009-06-11 22:00,ZGSZ 112200Z AUTO 00000KT 7SM 26/24 A2968 RMK T02600240 IEM_DS3505
ZGSZ,2009-06-11 23:00,ZGSZ 112300Z AUTO 03002KT 7SM 26/24 A2968 RMK T02600240 IEM_DS3505
ZGSZ,2009-06-12 00:00,ZGSZ 120000Z AUTO 07004KT 11SM 26/23 A2968 RMK 60003 70088 SLP056 T02560231 52008 IEM_DS3505
ZGSZ,2009-06-12 01:00,ZGSZ 120100Z AUTO 7SM 28/24 A2971 RMK T02800240 IEM_DS3505
ZGSZ,2009-06-12 02:00,ZGSZ 120200Z AUTO 15004KT 6SM 29/25 A2971 RMK T02900250 IEM_DS3505
ZGSZ,2009-06-12 03:00,ZGSZ 120300Z AUTO 22010KT 12SM 26/23 A2968 RMK SLP063 T02610228 52007 IEM_DS3505
ZGSZ,2009-06-12 04:00,ZGSZ 120400Z AUTO 17012KT 7SM 28/24 A2968 RMK T02800240 IEM_DS3505
ZGSZ,2009-06-12 05:00,ZGSZ 120500Z AUTO 15006KT 7SM 29/24 A2968 RMK T02900240 IEM_DS3505
ZGSZ,2009-06-12 06:00,ZGSZ 120600Z AUTO 20002KT 16SM 27/23 A2965 RMK 60000 SLP047 T02710229 57016 IEM_DS3505
ZGSZ,2009-06-12 07:00,ZGSZ 120700Z AUTO 16008KT 6SM 29/23 A2962 RMK T02900230 IEM_DS3505
ZGSZ,2009-06-12 08:00,ZGSZ 120800Z AUTO 17010KT 6SM 29/23 A2962 RMK T02900230 IEM_DS3505
ZGSZ,2009-06-12 09:00,ZGSZ 120900Z AUTO 22002KT 17SM 28/22 A2962 RMK SLP031 T02780223 57016 IEM_DS3505
ZGSZ,2009-06-12 10:00,ZGSZ 121000Z AUTO 14006KT 6SM 28/24 A2962 RMK T02800240 IEM_DS3505
ZGSZ,2009-06-12 11:00,ZGSZ 121100Z AUTO 15004KT 6SM 28/24 A2962 RMK T02800240 IEM_DS3505
ZGSZ,2009-06-12 12:00,ZGSZ 121200Z AUTO 20002KT 15SM 27/23 A2965 RMK 60000 SLP045 T02690234 52014 IEM_DS3505
ZGSZ,2009-06-12 13:00,ZGSZ 121300Z AUTO 16006KT 6SM 27/25 A2968 RMK T02700250 IEM_DS3505
ZGSZ,2009-06-12 14:00,ZGSZ 121400Z AUTO 17008KT 7SM 28/25 A2968 RMK T02800250 IEM_DS3505
ZGSZ,2009-06-12 15:00,ZGSZ 121500Z AUTO 16002KT 11SM 27/24 A2968 RMK SLP058 T02660239 52013 IEM_DS3505
ZGSZ,2009-06-12 16:00,ZGSZ 121600Z AUTO 16006KT 7SM 28/26 A2968 RMK T02800260 IEM_DS3505
ZGSZ,2009-06-12 17:00,ZGSZ 121700Z AUTO 15006KT 7SM 28/26 A2968 RMK T02800260 IEM_DS3505
ZGSZ,2009-06-12 18:00,ZGSZ 121800Z AUTO 14002KT 9SM 27/24 A2965 RMK SLP048 T02660243 57010 IEM_DS3505
ZGSZ,2009-06-12 19:00,ZGSZ 121900Z AUTO 16006KT 7SM 28/26 A2965 RMK T02800260 IEM_DS3505
ZGSZ,2009-06-12 20:00,ZGSZ 122000Z AUTO 17008KT 7SM 28/26 A2965 RMK T02800260 IEM_DS3505
ZGSZ,2009-06-12 21:00,ZGSZ 122100Z AUTO 14002KT 7SM 27/24 A2965 RMK 70000 SLP049 T02670244 52001 IEM_DS3505
ZGSZ,2009-06-12 22:00,ZGSZ 122200Z AUTO 16006KT 7SM 28/26 A2968 RMK T02800260 IEM_DS3505
ZGSZ,2009-06-12 23:00,ZGSZ 122300Z AUTO 17004KT 7SM 28/26 A2968 RMK T02800260 IEM_DS3505
ZGSZ,2009-06-13 00:00,ZGSZ 130000Z AUTO 22004KT 9SM 28/24 A2971 RMK 70000 SLP062 T02820244 52013 IEM_DS3505
ZGSZ,2009-06-13 01:00,ZGSZ 130100Z AUTO 19004KT 7SM 29/26 A2971 RMK T02900260 IEM_DS3505
ZGSZ,2009-06-13 02:00,ZGSZ 130200Z AUTO 18006KT 7SM 30/26 A2971 RMK T03000260 IEM_DS3505
ZGSZ,2009-06-13 03:00,ZGSZ 130300Z AUTO 22006KT 12SM 30/25 A2971 RMK SLP063 T02960251 52001 IEM_DS3505
ZGSZ,2009-06-13 04:00,ZGSZ 130400Z AUTO 17004KT 7SM 32/25 A2968 RMK T03200250 IEM_DS3505
ZGSZ,2009-06-13 05:00,ZGSZ 130500Z AUTO 18008KT 7SM 33/26 A2965 RMK T03300260 IEM_DS3505
ZGSZ,2009-06-13 06:00,ZGSZ 130600Z AUTO 22010KT 16SM 32/24 A2965 RMK SLP044 T03160240 57018 IEM_DS3505
ZGSZ,2009-06-13 07:00,ZGSZ 130700Z AUTO 20010KT 7SM 30/26 A2965 RMK T03000260 IEM_DS3505
ZGSZ,2009-06-13 08:00,ZGSZ 130800Z AUTO 18006KT 7SM 29/25 A2965 RMK T02900250 IEM_DS3505
ZGSZ,2009-06-13 09:00,ZGSZ 130900Z AUTO 20004KT 12SM 29/25 A2962 RMK SLP035 T02930248 57009 IEM_DS3505
ZGSZ,2009-06-13 10:00,ZGSZ 131000Z AUTO 00000KT 7SM 29/26 A2965 RMK T02900260 IEM_DS3505
ZGSZ,2009-06-13 11:00,ZGSZ 131100Z AUTO 16004KT 7SM 29/26 A2965 RMK T02900260 IEM_DS3505
ZGSZ,2009-06-13 12:00,ZGSZ 131200Z AUTO 09004KT 7SM 28/25 A2968 RMK 60004 SLP055 T02780246 52019 IEM_DS3505
ZGSZ,2009-06-13 13:00,ZGSZ 131300Z AUTO 11006KT 6SM 29/25 A2968 RMK T02900250 IEM_DS3505
ZGSZ,2009-06-13 14:00,ZGSZ 131400Z AUTO 11004KT 6SM 29/25 A2968 RMK T02900250 IEM_DS3505
ZGSZ,2009-06-13 15:00,ZGSZ 131500Z AUTO 14002KT 9SM 28/25 A2971 RMK SLP062 T02760250 52007 IEM_DS3505
ZGSZ,2009-06-13 16:00,ZGSZ 131600Z AUTO 4SM 28/25 A2971 RMK T02800250 IEM_DS3505
ZGSZ,2009-06-13 17:00,ZGSZ 131700Z AUTO 10002KT 7SM 28/25 A2968 RMK T02800250 IEM_DS3505
ZGSZ,2009-06-13 18:00,ZGSZ 131800Z AUTO 27004KT 2 1/2SM 25/23 A2968 RMK 60035 SLP055 T02510233 57007 IEM_DS3505
ZGSZ,2009-06-13 19:00,ZGSZ 131900Z AUTO 09002KT 7SM 26/24 A2968 RMK T02600240 IEM_DS3505
ZGSZ,2009-06-13 20:00,ZGSZ 132000Z AUTO 12004KT 7SM 27/24 A2965 RMK T02700240 IEM_DS3505
ZGSZ,2009-06-13 21:00,ZGSZ 132100Z AUTO 04002KT 9SM 25/24 A2968 RMK 70069 SLP050 T02540240 57005 IEM_DS3505
ZGSZ,2009-06-13 22:00,ZGSZ 132200Z AUTO 02002KT 6SM 27/24 A2968 RMK T02700240 IEM_DS3505
ZGSZ,2009-06-13 23:00,ZGSZ 132300Z AUTO 00000KT 6SM 28/25 A2968 RMK T02800250 IEM_DS3505
ZGSZ,2009-06-14 00:00,ZGSZ 140000Z AUTO 07002KT 12SM 27/25 A2971 RMK 60031 70069 SLP061 T02700250 52011 IEM_DS3505
ZGSZ,2009-06-14 01:00,ZGSZ 140100Z AUTO 16004KT 6SM 31/25 A2971 RMK T03100250 IEM_DS3505
ZGSZ,2009-06-14 02:00,ZGSZ 140200Z AUTO 7SM 31/26 A2971 RMK T03100260 IEM_DS3505
ZGSZ,2009-06-14 03:00,ZGSZ 140300Z AUTO 22004KT 16SM 31/24 A2968 RMK SLP055 T03070244 57005 IEM_DS3505
ZGSZ,2009-06-14 04:00,ZGSZ 140400Z AUTO 19008KT 7SM 31/24 A2968 RMK T03100240 IEM_DS3505
ZGSZ,2009-06-14 05:00,ZGSZ 140500Z AUTO 22010KT 7SM 30/24 A2965 RMK T03000240 IEM_DS3505
ZGSZ,2009-06-14 06:00,ZGSZ 140600Z AUTO 22006KT 16SM 31/24 A2965 RMK SLP044 T03120241 57012 IEM_DS3505
ZGSZ,2009-06-14 07:00,ZGSZ 140700Z AUTO 18014KT 7SM 30/25 A2962 RMK T03000250 IEM_DS3505
ZGSZ,2009-06-14 08:00,ZGSZ 140800Z AUTO 17008KT 7SM 30/25 A2962 RMK T03000250 IEM_DS3505
ZGSZ,2009-06-14 09:00,ZGSZ 140900Z AUTO 20006KT 19SM 30/24 A2962 RMK SLP033 T03010235 57011 IEM_DS3505
ZGSZ,2009-06-14 10:00,ZGSZ 141000Z AUTO 17006KT 7SM 29/24 A2962 RMK T02900240 IEM_DS3505
ZGSZ,2009-06-14 11:00,ZGSZ 141100Z AUTO 7SM 29/25 A2965 RMK T02900250 IEM_DS3505
ZGSZ,2009-06-14 12:00,ZGSZ 141200Z AUTO 14006KT 16SM 28/24 A2965 RMK SLP046 T02780240 52013 IEM_DS3505
ZGSZ,2009-06-14 13:00,ZGSZ 141300Z AUTO 17004KT 7SM 29/24 A2965 RMK T02900240 IEM_DS3505
ZGSZ,2009-06-14 14:00,ZGSZ 141400Z AUTO 09008KT 7SM 29/25 A2968 RMK T02900250 IEM_DS3505
ZGSZ,2009-06-14 15:00,ZGSZ 141500Z AUTO 09004KT 9SM 27/24 A2971 RMK SLP062 T02720239 52017 IEM_DS3505
ZGSZ,2009-06-14 16:00,ZGSZ 141600Z AUTO 08004KT 7SM 28/25 A2968 RMK T02800250 IEM_DS3505
ZGSZ,2009-06-14 17:00,ZGSZ 141700Z AUTO 09006KT 7SM 28/24 A2968 RMK T02800240 IEM_DS3505
ZGSZ,2009-06-14 18:00,ZGSZ 141800Z AUTO 09004KT 16SM 26/22 A2965 RMK SLP043 T02620225 57019 IEM_DS3505
ZGSZ,2009-06-14 19:00,ZGSZ 141900Z AUTO 11004KT 7SM 28/24 A2965 RMK T02800240 IEM_DS3505
ZGSZ,2009-06-14 20:00,ZGSZ 142000Z AUTO 09004KT 6SM 27/23 A2965 RMK T02700230 IEM_DS3505
ZGSZ,2009-06-14 21:00,ZGSZ 142100Z AUTO 04004KT 17SM 26/23 A2965 RMK 70000 SLP045 T02560229 52001 IEM_DS3505
ZGSZ,2009-06-14 22:00,ZGSZ 142200Z AUTO 10006KT 7SM 27/23 A2965 RMK T02700230 IEM_DS3505
ZGSZ,2009-06-14 23:00,ZGSZ 142300Z AUTO 09006KT 7SM 27/23 A2968 RMK T02700230 IEM_DS3505
ZGSZ,2009-06-15 00:00,ZGSZ 150000Z AUTO 09004KT 19SM 27/23 A2971 RMK SLP059 T02680231 52014 IEM_DS3505
ZGSZ,2009-06-15 01:00,ZGSZ 150100Z AUTO 11008KT 7SM 30/24 A2971 RMK T03000240 IEM_DS3505
ZGSZ,2009-06-15 02:00,ZGSZ 150200Z AUTO 10006KT 7SM 31/24 A2968 RMK T03100240 IEM_DS3505
ZGSZ,2009-06-15 03:00,ZGSZ 150300Z AUTO 04004KT 19SM 29/24 A2968 RMK SLP059 T02930237 54000 IEM_DS3505
ZGSZ,2009-06-15 04:00,ZGSZ 150400Z AUTO 17008KT 7SM 31/24 A2968 RMK T03100240 IEM_DS3505
ZGSZ,2009-06-15 05:00,ZGSZ 150500Z AUTO 20010KT 7SM 30/24 A2968 RMK T03000240 IEM_DS3505
ZGSZ,2009-06-15 06:00,ZGSZ 150600Z AUTO 11004KT 19SM 29/23 A2968 RMK SLP049 T02940229 57010 IEM_DS3505
ZGSZ,2009-06-15 07:00,ZGSZ 150700Z AUTO 7SM 29/25 A2965 RMK T02900250 IEM_DS3505
ZGSZ,2009-06-15 08:00,ZGSZ 150800Z AUTO 01004KT 7SM 29/25 A2965 RMK T02900250 IEM_DS3505
ZGSZ,2009-06-15 09:00,ZGSZ 150900Z AUTO 07006KT 17SM 28/24 A2962 RMK SLP039 T02820236 57010 IEM_DS3505
ZGSZ,2009-06-15 10:00,ZGSZ 151000Z AUTO 7SM 29/24 A2965 RMK T02900240 IEM_DS3505
ZGSZ,2009-06-15 11:00,ZGSZ 151100Z AUTO 10006KT 7SM 29/24 A2965 RMK T02900240 IEM_DS3505
ZGSZ,2009-06-15 12:00,ZGSZ 151200Z AUTO 09006KT 19SM 28/24 A2968 RMK 60000 SLP057 T02750235 52018 IEM_DS3505
ZGSZ,2009-06-15 13:00,ZGSZ 151300Z AUTO 08006KT 7SM 29/24 A2968 RMK T02900240 IEM_DS3505
ZGSZ,2009-06-15 14:00,ZGSZ 151400Z AUTO 08004KT 7SM 28/24 A2971 RMK T02800240 IEM_DS3505
ZGSZ,2009-06-15 15:00,ZGSZ 151500Z AUTO 09004KT 17SM 27/23 A2974 RMK SLP071 T02740232 52014 IEM_DS3505
ZGSZ,2009-06-15 16:00,ZGSZ 151600Z AUTO 06006KT 6SM 28/24 A2971 RMK T02800240 IEM_DS3505
ZGSZ,2009-06-15 17:00,ZGSZ 151700Z AUTO 09004KT 6SM 28/24 A2971 RMK T02800240 IEM_DS3505
ZGSZ,2009-06-15 18:00,ZGSZ 151800Z AUTO 09002KT 15SM 26/23 A2971 RMK SLP060 T02640233 57011 IEM_DS3505
ZGSZ,2009-06-15 19:00,ZGSZ 151900Z AUTO 01004KT 6SM 27/24 A2971 RMK T02700240 IEM_DS3505
ZGSZ,2009-06-15 20:00,ZGSZ 152000Z AUTO 07004KT 6SM 27/24 A2968 RMK T02700240 IEM_DS3505
ZGSZ,2009-06-15 21:00,ZGSZ 152100Z AUTO 09004KT 2 1/2SM 25/23 A2968 RMK 70033 SLP063 T02500234 52003 IEM_DS3505
ZGSZ,2009-06-15 22:00,ZGSZ 152200Z AUTO 11006KT 7SM 26/23 A2971 RMK T02600230 IEM_DS3505
ZGSZ,2009-06-15 23:00,ZGSZ 152300Z AUTO 07004KT 7SM 27/24 A2974 RMK T02700240 IEM_DS3505
ZGSZ,2009-06-16 00:00,ZGSZ 160000Z AUTO 07004KT 9SM 26/24 A2974 RMK 60063 70065 SLP071 T02620244 52008 IEM_DS3505
ZGSZ,2009-06-16 01:00,ZGSZ 160100Z AUTO 05006KT 7SM 29/25 A2974 RMK T02900250 IEM_DS3505
ZGSZ,2009-06-16 02:00,ZGSZ 160200Z AUTO 07006KT 7SM 29/24 A2974 RMK T02900240 IEM_DS3505
ZGSZ,2009-06-16 03:00,ZGSZ 160300Z AUTO 04006KT 9SM 26/24 A2977 RMK SLP082 T02630243 52011 IEM_DS3505
ZGSZ,2009-06-16 04:00,ZGSZ 160400Z AUTO 10010KT 7SM 29/24 A2974 RMK T02900240 IEM_DS3505
ZGSZ,2009-06-16 05:00,ZGSZ 160500Z AUTO 09008KT 7SM 29/24 A2974 RMK T02900240 IEM_DS3505
ZGSZ,2009-06-16 06:00,ZGSZ 160600Z AUTO 09006KT 11SM 28/24 A2971 RMK 60039 SLP066 T02830243 57016 IEM_DS3505
ZGSZ,2009-06-16 08:00,ZGSZ 160800Z AUTO 00000KT 7SM 29/24 A2968 RMK T02900240 IEM_DS3505
ZGSZ,2009-06-16 09:00,ZGSZ 160900Z AUTO 11008KT 17SM 28/23 A2965 RMK SLP049 T02830232 57017 IEM_DS3505
ZGSZ,2009-06-16 10:00,ZGSZ 161000Z AUTO 7SM 29/25 A2968 RMK T02900250 IEM_DS3505
ZGSZ,2009-06-16 11:00,ZGSZ 161100Z AUTO 11006KT 7SM 29/24 A2971 RMK T02900240 IEM_DS3505
ZGSZ,2009-06-16 12:00,ZGSZ 161200Z AUTO 11006KT 16SM 28/24 A2974 RMK SLP072 T02780236 52023 IEM_DS3505
ZGSZ,2009-06-16 13:00,ZGSZ 161300Z AUTO 10006KT 6SM 29/24 A2974 RMK T02900240 IEM_DS3505
ZGSZ,2009-06-16 14:00,ZGSZ 161400Z AUTO 10006KT 6SM 28/24 A2977 RMK T02800240 IEM_DS3505
ZGSZ,2009-06-16 15:00,ZGSZ 161500Z AUTO 09004KT 12SM 27/24 A2977 RMK SLP084 T02710242 52012 IEM_DS3505
ZGSZ,2009-06-16 16:00,ZGSZ 161600Z AUTO 11006KT 6SM 28/24 A2977 RMK T02800240 IEM_DS3505
ZGSZ,2009-06-16 17:00,ZGSZ 161700Z AUTO 08004KT 6SM 28/24 A2974 RMK T02800240 IEM_DS3505
ZGSZ,2009-06-16 18:00,ZGSZ 161800Z AUTO 09004KT 14SM 27/24 A2971 RMK SLP069 T02670238 57015 IEM_DS3505
ZGSZ,2009-06-16 19:00,ZGSZ 161900Z AUTO 6SM 27/24 A2971 RMK T02700240 IEM_DS3505
ZGSZ,2009-06-16 20:00,ZGSZ 162000Z AUTO 03004KT 6SM 26/24 A2971 RMK T02600240 IEM_DS3505
ZGSZ,2009-06-16 21:00,ZGSZ 162100Z AUTO 09002KT 10SM 26/24 A2971 RMK 70072 SLP066 T02630240 57003 IEM_DS3505
ZGSZ,2009-06-16 22:00,ZGSZ 162200Z AUTO 02004KT 4SM 26/24 A2974 RMK T02600240 IEM_DS3505
ZGSZ,2009-06-16 23:00,ZGSZ 162300Z AUTO 4SM 28/24 A2974 RMK T02800240 IEM_DS3505
ZGSZ,2009-06-17 00:00,ZGSZ 170000Z AUTO 09004KT 7SM 28/24 A2977 RMK 70041 SLP081 T02840240 52015 IEM_DS3505
ZGSZ,2009-06-17 01:00,ZGSZ 170100Z AUTO 7SM 30/24 A2977 RMK T03000240 IEM_DS3505
ZGSZ,2009-06-17 02:00,ZGSZ 170200Z AUTO 7SM 31/24 A2977 RMK T03100240 IEM_DS3505
ZGSZ,2009-06-17 03:00,ZGSZ 170300Z AUTO 07004KT 7SM 31/23 A2977 RMK SLP079 T03100229 57002 IEM_DS3505
ZGSZ,2009-06-17 04:00,ZGSZ 170400Z AUTO 26006KT 7SM 32/24 A2974 RMK T03200240 IEM_DS3505
ZGSZ,2009-06-17 05:00,ZGSZ 170500Z AUTO 22008KT 7SM 31/24 A2971 RMK T03100240 IEM_DS3505
ZGSZ,2009-06-17 06:00,ZGSZ 170600Z AUTO 20004KT 17SM 30/23 A2971 RMK 60000 SLP063 T03020231 57016 IEM_DS3505
ZGSZ,2009-06-17 07:00,ZGSZ 170700Z AUTO 21008KT 7SM 30/25 A2968 RMK T03000250 IEM_DS3505
ZGSZ,2009-06-17 08:00,ZGSZ 170800Z AUTO 21008KT 7SM 30/25 A2968 RMK T03000250 IEM_DS3505
ZGSZ,2009-06-17 09:00,ZGSZ 170900Z AUTO 29002KT 17SM 30/24 A2965 RMK SLP049 T02960242 57014 IEM_DS3505
ZGSZ,2009-06-17 10:00,ZGSZ 171000Z AUTO 21006KT 6SM 30/25 A2965 RMK T03000250 IEM_DS3505
ZGSZ,2009-06-17 11:00,ZGSZ 171100Z AUTO 23004KT 6SM 29/25 A2968 RMK T02900250 IEM_DS3505
ZGSZ,2009-06-17 12:00,ZGSZ 171200Z AUTO 16002KT 19SM 29/21 A2968 RMK 60000 SLP053 T02920212 52005 IEM_DS3505
ZGSZ,2009-06-17 13:00,ZGSZ 171300Z AUTO 00000KT 6SM 29/26 A2971 RMK T02900260 IEM_DS3505
ZGSZ,2009-06-17 14:00,ZGSZ 171400Z AUTO 00000KT 6SM 28/25 A2971 RMK T02800250 IEM_DS3505
ZGSZ,2009-06-17 15:00,ZGSZ 171500Z AUTO 09004KT 16SM 27/23 A2971 RMK SLP059 T02730229 52006 IEM_DS3505
ZGSZ,2009-06-17 16:00,ZGSZ 171600Z AUTO 19002KT 6SM 28/25 A2968 RMK T02800250 IEM_DS3505
ZGSZ,2009-06-17 17:00,ZGSZ 171700Z AUTO 00000KT 6SM 27/25 A2968 RMK T02700250 IEM_DS3505
ZGSZ,2009-06-17 18:00,ZGSZ 171800Z AUTO 20002KT 7SM 27/23 A2965 RMK SLP048 T02670232 57011 IEM_DS3505
ZGSZ,2009-06-17 19:00,ZGSZ 171900Z AUTO 00000KT 7SM 27/24 A2965 RMK T02700240 IEM_DS3505
ZGSZ,2009-06-17 20:00,ZGSZ 172000Z AUTO 00000KT 4SM 26/24 A2965 RMK T02600240 IEM_DS3505
ZGSZ,2009-06-17 21:00,ZGSZ 172100Z AUTO 04002KT 6SM 26/23 A2965 RMK 70000 SLP046 T02610232 57003 IEM_DS3505
ZGSZ,2009-06-17 22:00,ZGSZ 172200Z AUTO 00000KT 4SM 26/24 A2968 RMK T02600240 IEM_DS3505
ZGSZ,2009-06-17 23:00,ZGSZ 172300Z AUTO 30002KT 4SM 28/25 A2968 RMK T02800250 IEM_DS3505
ZGSZ,2009-06-18 00:00,ZGSZ 180000Z AUTO 36002KT 7SM 29/23 A2968 RMK 70000 SLP058 T02930230 52013 IEM_DS3505
ZGSZ,2009-06-18 01:00,ZGSZ 180100Z AUTO 29006KT 3SM 30/25 A2968 RMK T03000250 IEM_DS3505
ZGSZ,2009-06-18 02:00,ZGSZ 180200Z AUTO 29008KT 3SM 30/25 A2968 RMK T03000250 IEM_DS3505
ZGSZ,2009-06-18 03:00,ZGSZ 180300Z AUTO 22006KT 7SM 31/23 A2968 RMK SLP054 T03060228 57004 IEM_DS3505
ZGSZ,2009-06-18 04:00,ZGSZ 180400Z AUTO 26008KT 6SM 32/24 A2968 RMK T03200240 IEM_DS3505
ZGSZ,2009-06-18 05:00,ZGSZ 180500Z AUTO 26008KT 6SM 32/24 A2965 RMK T03200240 IEM_DS3505
ZGSZ,2009-06-18 06:00,ZGSZ 180600Z AUTO 25006KT 5SM 32/22 A2965 RMK SLP038 T03230221 57016 IEM_DS3505
ZGSZ,2009-06-18 07:00,ZGSZ 180700Z AUTO 25006KT 6SM 33/23 A2962 RMK T03300230 IEM_DS3505
ZGSZ,2009-06-18 08:00,ZGSZ 180800Z AUTO 22006KT 6SM 33/24 A2959 RMK T03300240 IEM_DS3505
ZGSZ,2009-06-18 09:00,ZGSZ 180900Z AUTO 20006KT 6SM 32/23 A2959 RMK SLP021 T03190229 57017 IEM_DS3505
ZGSZ,2009-06-18 10:00,ZGSZ 181000Z AUTO 19006KT 6SM 32/24 A2959 RMK T03200240 IEM_DS3505
ZGSZ,2009-06-18 11:00,ZGSZ 181100Z AUTO 18008KT 6SM 31/25 A2962 RMK T03100250 IEM_DS3505
ZGSZ,2009-06-18 12:00,ZGSZ 181200Z AUTO 14002KT 4SM 29/24 A2962 RMK SLP033 T02940238 52012 IEM_DS3505
ZGSZ,2009-06-18 13:00,ZGSZ 181300Z AUTO 17008KT 6SM 30/26 A2962 RMK T03000260 IEM_DS3505
ZGSZ,2009-06-18 14:00,ZGSZ 181400Z AUTO 17008KT 6SM 30/25 A2965 RMK T03000250 IEM_DS3505
ZGSZ,2009-06-18 15:00,ZGSZ 181500Z AUTO 09004KT 4SM 28/24 A2965 RMK SLP043 T02840240 52010 IEM_DS3505
ZGSZ,2009-06-18 16:00,ZGSZ 181600Z AUTO 20004KT 6SM 29/25 A2965 RMK T02900250 IEM_DS3505
ZGSZ,2009-06-18 17:00,ZGSZ 181700Z AUTO 19006KT 4SM 29/26 A2962 RMK T02900260 IEM_DS3505
ZGSZ,2009-06-18 18:00,ZGSZ 181800Z AUTO 11002KT 4SM 28/24 A2959 RMK SLP025 T02770241 57018 IEM_DS3505
ZGSZ,2009-06-18 19:00,ZGSZ 181900Z AUTO 19004KT 3SM 29/26 A2959 RMK T02900260 IEM_DS3505
ZGSZ,2009-06-18 20:00,ZGSZ 182000Z AUTO 15004KT 3SM 28/25 A2959 RMK T02800250 IEM_DS3505
ZGSZ,2009-06-18 21:00,ZGSZ 182100Z AUTO 20002KT 2 1/2SM 27/24 A2959 RMK SLP028 T02740243 52003 IEM_DS3505
ZGSZ,2009-06-18 22:00,ZGSZ 182200Z AUTO 15004KT 3SM 28/25 A2962 RMK T02800250 IEM_DS3505
ZGSZ,2009-06-18 23:00,ZGSZ 182300Z AUTO 16004KT 3SM 29/25 A2962 RMK T02900250 IEM_DS3505
ZGSZ,2009-06-19 00:00,ZGSZ 190000Z AUTO 18002KT 3SM 29/24 A2965 RMK SLP042 T02880241 52014 IEM_DS3505
ZGSZ,2009-06-19 01:00,ZGSZ 190100Z AUTO 19004KT 7SM 31/24 A2965 RMK T03100240 IEM_DS3505
ZGSZ,2009-06-19 02:00,ZGSZ 190200Z AUTO 22004KT 7SM 31/24 A2965 RMK T03100240 IEM_DS3505
ZGSZ,2009-06-19 03:00,ZGSZ 190300Z AUTO 18006KT 4SM 31/23 A2965 RMK SLP039 T03130234 57003 IEM_DS3505
ZGSZ,2009-06-19 04:00,ZGSZ 190400Z AUTO 21008KT 7SM 32/25 A2962 RMK T03200250 IEM_DS3505
ZGSZ,2009-06-19 05:00,ZGSZ 190500Z AUTO 20006KT 7SM 33/23 A2962 RMK T03300230 IEM_DS3505
ZGSZ,2009-06-19 06:00,ZGSZ 190600Z AUTO 16002KT 3SM 31/24 A2959 RMK 60016 SLP024 T03070239 57015 IEM_DS3505
ZGSZ,2009-06-19 07:00,ZGSZ 190700Z AUTO 20008KT 6SM 34/25 A2956 RMK T03400250 IEM_DS3505
ZGSZ,2009-06-19 08:00,ZGSZ 190800Z AUTO 20008KT 6SM 33/24 A2956 RMK T03300240 IEM_DS3505
ZGSZ,2009-06-19 09:00,ZGSZ 190900Z AUTO 29002KT 2 1/2SM 31/24 A2953 RMK SLP009 T03100236 57015 IEM_DS3505
ZGSZ,2009-06-19 10:00,ZGSZ 191000Z AUTO 17008KT 4SM 31/25 A2956 RMK T03100250 IEM_DS3505
ZGSZ,2009-06-19 11:00,ZGSZ 191100Z AUTO 19006KT 4SM 31/26 A2956 RMK T03100260 IEM_DS3505
ZGSZ,2009-06-19 12:00,ZGSZ 191200Z AUTO 07006KT 7SM 29/24 A2956 RMK SLP020 T02900239 52011 IEM_DS3505
ZGSZ,2009-06-19 13:00,ZGSZ 191300Z AUTO 13006KT 6SM 30/24 A2959 RMK T03000240 IEM_DS3505
ZGSZ,2009-06-19 14:00,ZGSZ 191400Z AUTO 10006KT 6SM 30/25 A2959 RMK T03000250 IEM_DS3505
ZGSZ,2009-06-19 15:00,ZGSZ 191500Z AUTO 11004KT 8SM 28/24 A2962 RMK SLP034 T02820236 52014 IEM_DS3505
ZGSZ,2009-06-19 16:00,ZGSZ 191600Z AUTO 11006KT 6SM 30/24 A2962 RMK T03000240 IEM_DS3505
ZGSZ,2009-06-19 17:00,ZGSZ 191700Z AUTO 14006KT 6SM 29/24 A2962 RMK T02900240 IEM_DS3505
ZGSZ,2009-06-19 18:00,ZGSZ 191800Z AUTO 09004KT 12SM 28/24 A2959 RMK SLP026 T02780240 57008 IEM_DS3505
ZGSZ,2009-06-19 19:00,ZGSZ 191900Z AUTO 17002KT 7SM 29/24 A2959 RMK T02900240 IEM_DS3505
ZGSZ,2009-06-19 20:00,ZGSZ 192000Z AUTO 7SM 29/24 A2959 RMK T02900240 IEM_DS3505
ZGSZ,2009-06-19 21:00,ZGSZ 192100Z AUTO 04002KT 12SM 28/24 A2959 RMK 70014 SLP024 T02750237 57002 IEM_DS3505
ZGSZ,2009-06-19 22:00,ZGSZ 192200Z AUTO 00000KT 7SM 29/24 A2959 RMK T02900240 IEM_DS3505
ZGSZ,2009-06-19 23:00,ZGSZ 192300Z AUTO 16002KT 7SM 30/25 A2962 RMK T03000250 IEM_DS3505
ZGSZ,2009-06-20 00:00,ZGSZ 200000Z AUTO 34002KT 16SM 30/23 A2962 RMK 70014 SLP033 T03000234 52009 IEM_DS3505
ZGSZ,2009-06-20 01:00,ZGSZ 200100Z AUTO 25006KT 7SM 30/25 A2962 RMK T03000250 IEM_DS3505
ZGSZ,2009-06-20 02:00,ZGSZ 200200Z AUTO 26004KT 7SM 31/25 A2962 RMK T03100250 IEM_DS3505
ZGSZ,2009-06-20 03:00,ZGSZ 200300Z AUTO 22004KT 11SM 32/23 A2965 RMK SLP038 T03160229 52005 IEM_DS3505
ZGSZ,2009-06-20 04:00,ZGSZ 200400Z AUTO 31006KT 7SM 31/24 A2962 RMK T03100240 IEM_DS3505
ZGSZ,2009-06-20 05:00,ZGSZ 200500Z AUTO 32004KT 6SM 31/24 A2962 RMK T03100240 IEM_DS3505
ZGSZ,2009-06-20 06:00,ZGSZ 200600Z AUTO 27002KT 7SM 33/24 A2959 RMK SLP020 T03260241 57018 IEM_DS3505
ZGSZ,2009-06-20 07:00,ZGSZ 200700Z AUTO 25008KT 6SM 32/23 A2956 RMK T03200230 IEM_DS3505
ZGSZ,2009-06-20 08:00,ZGSZ 200800Z AUTO 24008KT 6SM 33/23 A2956 RMK T03300230 IEM_DS3505
ZGSZ,2009-06-20 09:00,ZGSZ 200900Z AUTO 25006KT 9SM 33/22 A2953 RMK SLP998 T03260218 57022 IEM_DS3505
ZGSZ,2009-06-20 10:00,ZGSZ 201000Z AUTO 22004KT 6SM 32/23 A2953 RMK T03200230 IEM_DS3505
ZGSZ,2009-06-20 11:00,ZGSZ 201100Z AUTO 20002KT 6SM 31/24 A2953 RMK T03100240 IEM_DS3505
ZGSZ,2009-06-20 12:00,ZGSZ 201200Z AUTO 22006KT 7SM 30/24 A2956 RMK SLP014 T03000242 52016 IEM_DS3505
ZGSZ,2009-06-20 13:00,ZGSZ 201300Z AUTO 15008KT 4SM 30/26 A2959 RMK T03000260 IEM_DS3505
ZGSZ,2009-06-20 14:00,ZGSZ 201400Z AUTO 14008KT 6SM 30/26 A2959 RMK T03000260 IEM_DS3505
ZGSZ,2009-06-20 15:00,ZGSZ 201500Z AUTO 27002KT 6SM 29/25 A2959 RMK SLP026 T02910249 52012 IEM_DS3505
ZGSZ,2009-06-20 16:00,ZGSZ 201600Z AUTO 15006KT 6SM 30/26 A2959 RMK T03000260 IEM_DS3505
ZGSZ,2009-06-20 17:00,ZGSZ 201700Z AUTO 16006KT 6SM 29/26 A2959 RMK T02900260 IEM_DS3505
ZGSZ,2009-06-20 18:00,ZGSZ 201800Z AUTO 25002KT 6SM 29/25 A2956 RMK SLP016 T02860252 57010 IEM_DS3505
ZGSZ,2009-06-20 19:00,ZGSZ 201900Z AUTO 15006KT 6SM 29/26 A2956 RMK T02900260 IEM_DS3505
ZGSZ,2009-06-20 21:00,ZGSZ 202100Z AUTO 22006KT 4SM 28/26 A2956 RMK 70001 SLP016 T02830265 54000 IEM_DS3505
ZGSZ,2009-06-20 22:00,ZGSZ 202200Z AUTO 28004KT 7SM 29/27 A2956 RMK T02900270 IEM_DS3505
ZGSZ,2009-06-20 23:00,ZGSZ 202300Z AUTO 6SM 29/26 A2959 RMK T02900260 IEM_DS3505
ZGSZ,2009-06-21 00:00,ZGSZ 210000Z AUTO 22004KT 7SM 29/26 A2959 RMK 60000 70001 SLP027 T02880260 52011 IEM_DS3505
ZGSZ,2009-06-21 01:00,ZGSZ 210100Z AUTO 6SM 31/26 A2962 RMK T03100260 IEM_DS3505
ZGSZ,2009-06-21 02:00,ZGSZ 210200Z AUTO 25004KT 6SM 32/27 A2962 RMK T03200270 IEM_DS3505
ZGSZ,2009-06-21 03:00,ZGSZ 210300Z AUTO 25004KT 9SM 32/25 A2962 RMK SLP034 T03160247 52007 IEM_DS3505
ZGSZ,2009-06-21 04:00,ZGSZ 210400Z AUTO 25006KT 6SM 33/26 A2959 RMK T03300260 IEM_DS3505
ZGSZ,2009-06-21 05:00,ZGSZ 210500Z AUTO 18006KT 6SM 33/27 A2956 RMK T03300270 IEM_DS3505
ZGSZ,2009-06-21 06:00,ZGSZ 210600Z AUTO 22010KT 11SM 31/25 A2953 RMK SLP006 T03140250 57028 IEM_DS3505
ZGSZ,2009-06-21 07:00,ZGSZ 210700Z AUTO 17012KT 6SM 34/26 A2950 RMK T03400260 IEM_DS3505
ZGSZ,2009-06-21 08:00,ZGSZ 210800Z AUTO 17016KT 6SM 33/27 A2947 RMK T03300270 IEM_DS3505
ZGSZ,2009-06-21 09:00,ZGSZ 210900Z AUTO 22012KT 14SM 31/26 A2947 RMK SLP988 T03100258 57018 IEM_DS3505
ZGSZ,2009-06-21 10:00,ZGSZ 211000Z AUTO 17014KT 7SM 31/27 A2947 RMK T03100270 IEM_DS3505
ZGSZ,2009-06-21 11:00,ZGSZ 211100Z AUTO 17010KT 7SM 31/27 A2950 RMK T03100270 IEM_DS3505
ZGSZ,2009-06-21 12:00,ZGSZ 211200Z AUTO 22010KT 19SM 30/26 A2953 RMK SLP007 T02980255 52019 IEM_DS3505
ZGSZ,2009-06-21 13:00,ZGSZ 211300Z AUTO 16010KT 7SM 30/27 A2956 RMK T03000270 IEM_DS3505
ZGSZ,2009-06-21 14:00,ZGSZ 211400Z AUTO 16010KT 6SM 30/27 A2956 RMK T03000270 IEM_DS3505
ZGSZ,2009-06-21 15:00,ZGSZ 211500Z AUTO 22012KT 16SM 30/26 A2959 RMK SLP026 T02960258 52019 IEM_DS3505
ZGSZ,2009-06-21 16:00,ZGSZ 211600Z AUTO 17008KT 6SM 30/27 A2959 RMK T03000270 IEM_DS3505
ZGSZ,2009-06-21 17:00,ZGSZ 211700Z AUTO 17008KT 7SM 30/27 A2956 RMK T03000270 IEM_DS3505
ZGSZ,2009-06-21 18:00,ZGSZ 211800Z AUTO 22012KT 16SM 29/26 A2956 RMK SLP015 T02900264 57011 IEM_DS3505
ZGSZ,2009-06-21 19:00,ZGSZ 211900Z AUTO 18006KT 6SM 30/27 A2956 RMK T03000270 IEM_DS3505
ZGSZ,2009-06-21 20:00,ZGSZ 212000Z AUTO 17006KT 7SM 30/27 A2956 RMK T03000270 IEM_DS3505
ZGSZ,2009-06-21 21:00,ZGSZ 212100Z AUTO 22012KT 12SM 29/26 A2959 RMK SLP021 T02900260 52006 IEM_DS3505
ZGSZ,2009-06-21 22:00,ZGSZ 212200Z AUTO 17008KT 6SM 30/27 A2959 RMK T03000270 IEM_DS3505
ZGSZ,2009-06-21 23:00,ZGSZ 212300Z AUTO 17010KT 7SM 30/27 A2959 RMK T03000270 IEM_DS3505
ZGSZ,2009-06-22 00:00,ZGSZ 220000Z AUTO 22014KT 11SM 29/26 A2962 RMK SLP032 T02940262 52011 IEM_DS3505
ZGSZ,2009-06-22 01:00,ZGSZ 220100Z AUTO 18012KT 7SM 31/27 A2962 RMK T03100270 IEM_DS3505
ZGSZ,2009-06-22 02:00,ZGSZ 220200Z AUTO 17012KT 7SM 31/27 A2962 RMK T03100270 IEM_DS3505
ZGSZ,2009-06-22 03:00,ZGSZ 220300Z AUTO 20012KT 10SM 30/26 A2962 RMK SLP036 T03050262 52004 IEM_DS3505
ZGSZ,2009-06-22 04:00,ZGSZ 220400Z AUTO 18014KT 7SM 32/27 A2962 RMK T03200270 IEM_DS3505
ZGSZ,2009-06-22 05:00,ZGSZ 220500Z AUTO 17014KT 7SM 32/27 A2962 RMK T03200270 IEM_DS3505
ZGSZ,2009-06-22 06:00,ZGSZ 220600Z AUTO 27004KT 14SM 30/26 A2962 RMK SLP036 T02960256 54000 IEM_DS3505
ZGSZ,2009-06-22 07:00,ZGSZ 220700Z AUTO 13008KT 7SM 27/23 A2962 RMK T02700230 IEM_DS3505
ZGSZ,2009-06-22 08:00,ZGSZ 220800Z AUTO 13008KT 7SM 29/26 A2959 RMK T02900260 IEM_DS3505
ZGSZ,2009-06-22 09:00,ZGSZ 220900Z AUTO 20006KT 15SM 30/26 A2959 RMK SLP028 T02950255 57008 IEM_DS3505
ZGSZ,2009-06-22 10:00,ZGSZ 221000Z AUTO 16010KT 7SM 30/27 A2959 RMK T03000270 IEM_DS3505
ZGSZ,2009-06-22 11:00,ZGSZ 221100Z AUTO 16008KT 7SM 30/27 A2962 RMK T03000270 IEM_DS3505
ZGSZ,2009-06-22 12:00,ZGSZ 221200Z AUTO 22006KT 16SM 29/26 A2965 RMK 60000 SLP046 T02930255 52018 IEM_DS3505
ZGSZ,2009-06-22 13:00,ZGSZ 221300Z AUTO 16008KT 7SM 29/27 A2968 RMK T02900270 IEM_DS3505
ZGSZ,2009-06-22 13:30,ZGSZ 221330Z AUTO 16008KT 7SM 29/27 A2968 RMK T02900270 IEM_DS3505
ZGSZ,2009-06-22 15:00,ZGSZ 221500Z AUTO 16002KT 16SM 29/25 A2968 RMK SLP054 T02880252 52008 IEM_DS3505
ZGSZ,2009-06-22 17:00,ZGSZ 221700Z AUTO 17006KT 7SM 29/27 A2965 RMK T02900270 IEM_DS3505
ZGSZ,2009-06-22 18:00,ZGSZ 221800Z AUTO 16002KT 12SM 29/25 A2965 RMK SLP042 T02860252 57012 IEM_DS3505
ZGSZ,2009-06-22 19:00,ZGSZ 221900Z AUTO 17006KT 7SM 29/27 A2965 RMK T02900270 IEM_DS3505
ZGSZ,2009-06-22 20:00,ZGSZ 222000Z AUTO 17010KT 7SM 29/27 A2965 RMK T02900270 IEM_DS3505
ZGSZ,2009-06-22 21:00,ZGSZ 222100Z AUTO 18002KT 12SM 28/25 A2965 RMK 70000 SLP046 T02800254 52004 IEM_DS3505
ZGSZ,2009-06-22 22:00,ZGSZ 222200Z AUTO 17010KT 7SM 29/26 A2965 RMK T02900260 IEM_DS3505
ZGSZ,2009-06-22 23:00,ZGSZ 222300Z AUTO 17012KT 7SM 29/26 A2965 RMK T02900260 IEM_DS3505
ZGSZ,2009-06-23 00:00,ZGSZ 230000Z AUTO 11002KT 9SM 28/24 A2968 RMK 70000 SLP058 T02750235 52011 IEM_DS3505
ZGSZ,2009-06-23 01:00,ZGSZ 230100Z AUTO 17010KT 7SM 31/27 A2968 RMK T03100270 IEM_DS3505
ZGSZ,2009-06-23 02:00,ZGSZ 230200Z AUTO 17012KT 7SM 31/27 A2971 RMK T03100270 IEM_DS3505
ZGSZ,2009-06-23 03:00,ZGSZ 230300Z AUTO 22012KT 12SM 31/25 A2968 RMK SLP061 T03100246 52004 IEM_DS3505
ZGSZ,2009-06-23 04:00,ZGSZ 230400Z AUTO 18012KT 7SM 32/26 A2971 RMK T03200260 IEM_DS3505
ZGSZ,2009-06-23 05:00,ZGSZ 230500Z AUTO 18010KT 7SM 30/25 A2968 RMK T03000250 IEM_DS3505
ZGSZ,2009-06-23 06:00,ZGSZ 230600Z AUTO 22006KT 16SM 30/25 A2965 RMK 60000 SLP049 T02980253 57012 IEM_DS3505
ZGSZ,2009-06-23 07:00,ZGSZ 230700Z AUTO 17010KT 6SM 30/26 A2965 RMK T03000260 IEM_DS3505
ZGSZ,2009-06-23 08:00,ZGSZ 230800Z AUTO 17006KT 6SM 31/26 A2962 RMK T03100260 IEM_DS3505
ZGSZ,2009-06-23 09:00,ZGSZ 230900Z AUTO 22004KT 16SM 30/25 A2962 RMK SLP035 T03000253 57014 IEM_DS3505
ZGSZ,2009-06-23 10:00,ZGSZ 231000Z AUTO 16008KT 6SM 31/26 A2962 RMK T03100260 IEM_DS3505
ZGSZ,2009-06-23 11:00,ZGSZ 231100Z AUTO 16008KT 6SM 30/26 A2965 RMK T03000260 IEM_DS3505
ZGSZ,2009-06-23 12:00,ZGSZ 231200Z AUTO 18004KT 14SM 29/25 A2968 RMK SLP053 T02890253 52017 IEM_DS3505
ZGSZ,2009-06-23 13:00,ZGSZ 231300Z AUTO 16008KT 7SM 29/26 A2968 RMK T02900260 IEM_DS3505
ZGSZ,2009-06-23 14:00,ZGSZ 231400Z AUTO 16006KT 7SM 29/27 A2971 RMK T02900270 IEM_DS3505
ZGSZ,2009-06-23 15:00,ZGSZ 231500Z AUTO 00000KT 5SM 28/26 A2971 RMK SLP069 T02770257 52017 IEM_DS3505
ZGSZ,2009-06-23 16:00,ZGSZ 231600Z AUTO 15006KT 7SM 29/27 A2968 RMK T02900270 IEM_DS3505
ZGSZ,2009-06-23 17:00,ZGSZ 231700Z AUTO 15008KT 7SM 29/27 A2968 RMK T02900270 IEM_DS3505
ZGSZ,2009-06-23 18:00,ZGSZ 231800Z AUTO 16004KT 16SM 28/26 A2968 RMK 60028 SLP056 T02800258 57013 IEM_DS3505
ZGSZ,2009-06-23 19:00,ZGSZ 231900Z AUTO 17008KT 7SM 29/26 A2968 RMK T02900260 IEM_DS3505
ZGSZ,2009-06-23 20:00,ZGSZ 232000Z AUTO 19008KT 7SM 29/26 A2968 RMK T02900260 IEM_DS3505
ZGSZ,2009-06-23 21:00,ZGSZ 232100Z AUTO 09002KT 14SM 26/24 A2965 RMK 70031 SLP051 T02630242 57006 IEM_DS3505
ZGSZ,2009-06-23 22:00,ZGSZ 232200Z AUTO 19006KT 7SM 29/26 A2968 RMK T02900260 IEM_DS3505
ZGSZ,2009-06-23 23:00,ZGSZ 232300Z AUTO 20006KT 7SM 30/26 A2968 RMK T03000260 IEM_DS3505
ZGSZ,2009-06-24 00:00,ZGSZ 240000Z AUTO 00000KT 14SM 27/25 A2971 RMK 60059 70090 SLP061 T02700252 52010 IEM_DS3505
ZGSZ,2009-06-24 01:00,ZGSZ 240100Z AUTO 22006KT 7SM 31/26 A2971 RMK T03100260 IEM_DS3505
ZGSZ,2009-06-24 02:00,ZGSZ 240200Z AUTO 18008KT 7SM 31/26 A2971 RMK T03100260 IEM_DS3505
ZGSZ,2009-06-24 03:00,ZGSZ 240300Z AUTO 25004KT 16SM 29/24 A2971 RMK SLP066 T02920243 52005 IEM_DS3505
ZGSZ,2009-06-24 04:00,ZGSZ 240400Z AUTO 19004KT 7SM 30/27 A2971 RMK T03000270 IEM_DS3505
ZGSZ,2009-06-24 05:00,ZGSZ 240500Z AUTO 17012KT 7SM 31/26 A2968 RMK T03100260 IEM_DS3505
ZGSZ,2009-06-24 06:00,ZGSZ 240600Z AUTO 22006KT 19SM 31/24 A2965 RMK 60000 SLP047 T03080237 57018 IEM_DS3505
ZGSZ,2009-06-24 07:00,ZGSZ 240700Z AUTO 19006KT 7SM 30/24 A2965 RMK T03000240 IEM_DS3505
ZGSZ,2009-06-24 08:00,ZGSZ 240800Z AUTO 18006KT 7SM 30/25 A2965 RMK T03000250 IEM_DS3505
ZGSZ,2009-06-24 09:00,ZGSZ 240900Z AUTO 20008KT 19SM 30/24 A2962 RMK SLP032 T03020241 57015 IEM_DS3505
ZGSZ,2009-06-24 10:00,ZGSZ 241000Z AUTO 15004KT 6SM 30/26 A2962 RMK T03000260 IEM_DS3505
ZGSZ,2009-06-24 11:00,ZGSZ 241100Z AUTO 17004KT 6SM 30/26 A2962 RMK T03000260 IEM_DS3505
ZGSZ,2009-06-24 12:00,ZGSZ 241200Z AUTO 16004KT 16SM 29/25 A2965 RMK SLP046 T02890247 52013 IEM_DS3505
ZGSZ,2009-06-24 13:00,ZGSZ 241300Z AUTO 15006KT 6SM 29/26 A2965 RMK T02900260 IEM_DS3505
ZGSZ,2009-06-24 14:00,ZGSZ 241400Z AUTO 16004KT 6SM 29/25 A2968 RMK T02900250 IEM_DS3505
ZGSZ,2009-06-24 15:00,ZGSZ 241500Z AUTO 16004KT 14SM 28/24 A2968 RMK SLP054 T02850241 52009 IEM_DS3505
ZGSZ,2009-06-24 16:00,ZGSZ 241600Z AUTO 16006KT 7SM 29/25 A2968 RMK T02900250 IEM_DS3505
ZGSZ,2009-06-24 17:00,ZGSZ 241700Z AUTO 15006KT 6SM 29/25 A2965 RMK T02900250 IEM_DS3505
ZGSZ,2009-06-24 18:00,ZGSZ 241800Z AUTO 11002KT 14SM 28/24 A2965 RMK SLP047 T02810243 57007 IEM_DS3505
ZGSZ,2009-06-24 19:00,ZGSZ 241900Z AUTO 12004KT 6SM 29/25 A2965 RMK T02900250 IEM_DS3505
ZGSZ,2009-06-24 20:00,ZGSZ 242000Z AUTO 16002KT 6SM 29/25 A2965 RMK T02900250 IEM_DS3505
ZGSZ,2009-06-24 21:00,ZGSZ 242100Z AUTO 16002KT 12SM 28/24 A2965 RMK 70059 SLP041 T02780244 57006 IEM_DS3505
ZGSZ,2009-06-24 22:00,ZGSZ 242200Z AUTO 13002KT 6SM 28/25 A2965 RMK T02800250 IEM_DS3505
ZGSZ,2009-06-24 23:00,ZGSZ 242300Z AUTO 6SM 29/26 A2965 RMK T02900260 IEM_DS3505
ZGSZ,2009-06-25 00:00,ZGSZ 250000Z AUTO 16004KT 12SM 29/24 A2968 RMK 70001 SLP054 T02860244 52013 IEM_DS3505
ZGSZ,2009-06-25 01:00,ZGSZ 250100Z AUTO 16004KT 7SM 30/25 A2968 RMK T03000250 IEM_DS3505
ZGSZ,2009-06-25 02:00,ZGSZ 250200Z AUTO 18006KT 7SM 31/25 A2968 RMK T03100250 IEM_DS3505
ZGSZ,2009-06-25 03:00,ZGSZ 250300Z AUTO 09004KT 14SM 32/24 A2968 RMK SLP051 T03200238 57003 IEM_DS3505
ZGSZ,2009-06-25 04:00,ZGSZ 250400Z AUTO 21008KT 7SM 31/26 A2968 RMK T03100260 IEM_DS3505
ZGSZ,2009-06-25 05:00,ZGSZ 250500Z AUTO 23008KT 7SM 30/25 A2965 RMK T03000250 IEM_DS3505
ZGSZ,2009-06-25 06:00,ZGSZ 250600Z AUTO 09002KT 16SM 29/24 A2965 RMK 60001 SLP045 T02860237 57006 IEM_DS3505
ZGSZ,2009-06-25 07:00,ZGSZ 250700Z AUTO 11006KT 7SM 30/24 A2962 RMK T03000240 IEM_DS3505
ZGSZ,2009-06-25 08:00,ZGSZ 250800Z AUTO 12006KT 7SM 31/24 A2962 RMK T03100240 IEM_DS3505
ZGSZ,2009-06-25 09:00,ZGSZ 250900Z AUTO 22004KT 16SM 29/24 A2962 RMK SLP031 T02900239 57014 IEM_DS3505
ZGSZ,2009-06-25 10:00,ZGSZ 251000Z AUTO 11006KT 7SM 31/24 A2962 RMK T03100240 IEM_DS3505
ZGSZ,2009-06-25 11:00,ZGSZ 251100Z AUTO 7SM 30/24 A2965 RMK T03000240 IEM_DS3505
ZGSZ,2009-06-25 12:00,ZGSZ 251200Z AUTO 07004KT 16SM 28/24 A2965 RMK SLP049 T02840238 52018 IEM_DS3505
ZGSZ,2009-06-25 13:00,ZGSZ 251300Z AUTO 10008KT 6SM 29/24 A2968 RMK T02900240 IEM_DS3505
ZGSZ,2009-06-25 14:00,ZGSZ 251400Z AUTO 09008KT 6SM 29/24 A2968 RMK T02900240 IEM_DS3505
ZGSZ,2009-06-25 15:00,ZGSZ 251500Z AUTO 09004KT 16SM 28/24 A2968 RMK SLP055 T02790237 52006 IEM_DS3505
ZGSZ,2009-06-25 16:00,ZGSZ 251600Z AUTO 6SM 29/23 A2965 RMK T02900230 IEM_DS3505
ZGSZ,2009-06-25 17:00,ZGSZ 251700Z AUTO 6SM 28/24 A2965 RMK T02800240 IEM_DS3505
ZGSZ,2009-06-25 18:00,ZGSZ 251800Z AUTO 04002KT 16SM 27/24 A2965 RMK SLP044 T02720237 57012 IEM_DS3505
ZGSZ,2009-06-25 19:00,ZGSZ 251900Z AUTO 36004KT 7SM 28/24 A2965 RMK T02800240 IEM_DS3505
ZGSZ,2009-06-25 20:00,ZGSZ 252000Z AUTO 03004KT 7SM 28/25 A2965 RMK T02800250 IEM_DS3505
ZGSZ,2009-06-25 21:00,ZGSZ 252100Z AUTO 09004KT 16SM 28/24 A2965 RMK 70001 SLP042 T02760240 57001 IEM_DS3505
ZGSZ,2009-06-25 22:00,ZGSZ 252200Z AUTO 03006KT 7SM 28/24 A2965 RMK T02800240 IEM_DS3505
ZGSZ,2009-06-25 23:00,ZGSZ 252300Z AUTO 08004KT 6SM 29/24 A2968 RMK T02900240 IEM_DS3505
ZGSZ,2009-06-26 00:00,ZGSZ 260000Z AUTO 14004KT 16SM 29/24 A2968 RMK 60000 70001 SLP053 T02880239 52011 IEM_DS3505
ZGSZ,2009-06-26 01:00,ZGSZ 260100Z AUTO 08008KT 7SM 30/25 A2968 RMK T03000250 IEM_DS3505
ZGSZ,2009-06-26 02:00,ZGSZ 260200Z AUTO 08010KT 7SM 31/24 A2968 RMK T03100240 IEM_DS3505
ZGSZ,2009-06-26 03:00,ZGSZ 260300Z AUTO 07006KT 17SM 30/23 A2968 RMK SLP051 T03050232 57002 IEM_DS3505
ZGSZ,2009-06-26 05:00,ZGSZ 260500Z AUTO 10008KT 7SM 33/22 A2962 RMK T03300220 IEM_DS3505
ZGSZ,2009-06-26 06:00,ZGSZ 260600Z AUTO 07006KT 19SM 28/24 A2962 RMK 60012 SLP031 T02770241 57021 IEM_DS3505
ZGSZ,2009-06-26 07:00,ZGSZ 260700Z AUTO 05004KT 7SM 31/23 A2959 RMK T03100230 IEM_DS3505
ZGSZ,2009-06-26 08:00,ZGSZ 260800Z AUTO 7SM 31/23 A2956 RMK T03100230 IEM_DS3505
ZGSZ,2009-06-26 09:00,ZGSZ 260900Z AUTO 07006G25KT 14SM 29/23 A2956 RMK SLP010 T02910228 57020 IEM_DS3505
ZGSZ,2009-06-26 10:00,ZGSZ 261000Z AUTO 05010KT 7SM 29/23 A2956 RMK T02900230 IEM_DS3505
ZGSZ,2009-06-26 11:00,ZGSZ 261100Z AUTO 02006G16KT 7SM 30/23 A2956 RMK T03000230 IEM_DS3505
ZGSZ,2009-06-26 12:00,ZGSZ 261200Z AUTO 04010KT 16SM 27/23 A2956 RMK 60001 SLP013 T02710229 52003 IEM_DS3505
ZGSZ,2009-06-26 13:00,ZGSZ 261300Z AUTO 01006KT 7SM 29/23 A2956 RMK T02900230 IEM_DS3505
ZGSZ,2009-06-26 14:00,ZGSZ 261400Z AUTO 36010KT 7SM 29/24 A2956 RMK T02900240 IEM_DS3505
ZGSZ,2009-06-26 15:00,ZGSZ 261500Z AUTO 34008KT 16SM 27/23 A2956 RMK SLP008 T02720226 57005 IEM_DS3505
ZGSZ,2009-06-26 16:00,ZGSZ 261600Z AUTO 35010KT 7SM 29/23 A2956 RMK T02900230 IEM_DS3505
ZGSZ,2009-06-26 17:00,ZGSZ 261700Z AUTO 32014KT 7SM 29/24 A2956 RMK T02900240 IEM_DS3505
ZGSZ,2009-06-26 18:00,ZGSZ 261800Z AUTO 29002KT 11SM 26/24 A2953 RMK 60020 SLP008 T02600237 57001 IEM_DS3505
ZGSZ,2009-06-26 19:00,ZGSZ 261900Z AUTO 30012KT 7SM 28/24 A2956 RMK T02800240 IEM_DS3505
ZGSZ,2009-06-26 20:00,ZGSZ 262000Z AUTO 34004KT 7SM 27/24 A2956 RMK T02700240 IEM_DS3505
ZGSZ,2009-06-26 21:00,ZGSZ 262100Z AUTO 18002KT 11SM 26/24 A2956 RMK 70044 SLP019 T02550236 52011 IEM_DS3505
ZGSZ,2009-06-26 22:00,ZGSZ 262200Z AUTO 30008KT 7SM 28/24 A2959 RMK T02800240 IEM_DS3505
ZGSZ,2009-06-26 23:00,ZGSZ 262300Z AUTO 27010KT 7SM 28/24 A2962 RMK T02800240 IEM_DS3505
ZGSZ,2009-06-27 00:00,ZGSZ 270000Z AUTO 22006KT 10SM 27/24 A2962 RMK 60012 70044 SLP033 T02700237 52014 IEM_DS3505
ZGSZ,2009-06-27 01:00,ZGSZ 270100Z AUTO 26006KT 7SM 30/24 A2962 RMK T03000240 IEM_DS3505
ZGSZ,2009-06-27 02:00,ZGSZ 270200Z AUTO 23006KT 7SM 30/25 A2965 RMK T03000250 IEM_DS3505
ZGSZ,2009-06-27 03:00,ZGSZ 270300Z AUTO 22006KT 15SM 28/24 A2965 RMK SLP047 T02830241 52014 IEM_DS3505
ZGSZ,2009-06-27 04:00,ZGSZ 270400Z AUTO 17010KT 7SM 30/25 A2965 RMK T03000250 IEM_DS3505
ZGSZ,2009-06-27 05:00,ZGSZ 270500Z AUTO 16016KT 7SM 28/25 A2965 RMK T02800250 IEM_DS3505
ZGSZ,2009-06-27 06:00,ZGSZ 270600Z AUTO 22010KT 10SM 26/24 A2962 RMK 60004 SLP036 T02640239 57011 IEM_DS3505
ZGSZ,2009-06-27 07:00,ZGSZ 270700Z AUTO 18017KT 7SM 27/25 A2965 RMK T02700250 IEM_DS3505
ZGSZ,2009-06-27 08:00,ZGSZ 270800Z AUTO 20016KT 7SM 27/25 A2962 RMK T02700250 IEM_DS3505
ZGSZ,2009-06-27 09:00,ZGSZ 270900Z AUTO 22014G25KT 9SM 26/24 A2962 RMK SLP031 T02600235 57005 IEM_DS3505
ZGSZ,2009-06-27 10:00,ZGSZ 271000Z AUTO 19010KT 7SM 27/24 A2965 RMK T02700240 IEM_DS3505
ZGSZ,2009-06-27 11:00,ZGSZ 271100Z AUTO 18014KT 7SM 27/24 A2965 RMK T02700240 IEM_DS3505
ZGSZ,2009-06-27 12:00,ZGSZ 271200Z AUTO 11002KT 12SM 26/24 A2965 RMK 60016 SLP048 T02580238 52017 IEM_DS3505
ZGSZ,2009-06-27 13:00,ZGSZ 271300Z AUTO 17017KT 7SM 26/24 A2968 RMK T02600240 IEM_DS3505
ZGSZ,2009-06-27 14:00,ZGSZ 271400Z AUTO 17014KT 6SM 28/25 A2968 RMK T02800250 IEM_DS3505
ZGSZ,2009-06-27 15:00,ZGSZ 271500Z AUTO 25002KT 14SM 26/24 A2968 RMK SLP059 T02560235 52011 IEM_DS3505
ZGSZ,2009-06-27 18:00,ZGSZ 271800Z AUTO 22012KT 16SM 26/24 RMK 60003 SLP056 T02600235 57003 IEM_DS3505
ZGSZ,2009-06-27 20:00,ZGSZ 272000Z AUTO 19010KT 7SM 27/23 A2971 RMK T02700230 IEM_DS3505
ZGSZ,2009-06-27 21:00,ZGSZ 272100Z AUTO 22006KT 12SM 25/23 A2971 RMK 70028 SLP068 T02500227 52012 IEM_DS3505
ZGSZ,2009-06-27 23:00,ZGSZ 272300Z AUTO 14008KT 7SM 27/24 A2971 RMK T02700240 IEM_DS3505
ZGSZ,2009-06-28 00:00,ZGSZ 280000Z AUTO 11002KT 19SM 26/23 A2971 RMK 60008 70029 SLP070 T02630232 52002 IEM_DS3505
ZGSZ,2009-06-28 01:00,ZGSZ 280100Z AUTO 11006KT 7SM 28/24 A2974 RMK T02800240 IEM_DS3505
ZGSZ,2009-06-28 02:00,ZGSZ 280200Z AUTO 14008KT 7SM 30/24 A2974 RMK T03000240 IEM_DS3505
ZGSZ,2009-06-28 05:00,ZGSZ 280500Z AUTO 18006KT 7SM 30/25 A2971 RMK T03000250 IEM_DS3505
ZGSZ,2009-06-28 06:00,ZGSZ 280600Z AUTO 20004G33KT 19SM 28/23 A2974 RMK 60008 SLP069 T02810230 57008 IEM_DS3505
ZGSZ,2009-06-28 07:00,ZGSZ 280700Z AUTO 7SM 25/24 A2974 RMK T02500240 IEM_DS3505
ZGSZ,2009-06-28 08:00,ZGSZ 280800Z AUTO 7SM 26/24 A2971 RMK T02600240 IEM_DS3505
ZGSZ,2009-06-28 09:00,ZGSZ 280900Z AUTO 25004KT 10SM 27/24 A2974 RMK SLP071 T02670236 52002 IEM_DS3505
ZGSZ,2009-06-28 10:00,ZGSZ 281000Z AUTO 7SM 25/23 A2971 RMK T02500230 IEM_DS3505
ZGSZ,2009-06-28 11:00,ZGSZ 281100Z AUTO 12006KT 7SM 26/23 A2971 RMK T02600230 IEM_DS3505
ZGSZ,2009-06-28 12:00,ZGSZ 281200Z AUTO 09004KT 11SM 25/23 A2974 RMK 60020 SLP071 T02460228 54000 IEM_DS3505
ZGSZ,2009-06-28 13:00,ZGSZ 281300Z AUTO 08004KT 6SM 27/23 A2974 RMK T02700230 IEM_DS3505
ZGSZ,2009-06-28 14:00,ZGSZ 281400Z AUTO 10006KT 6SM 28/23 A2974 RMK T02800230 IEM_DS3505
ZGSZ,2009-06-28 15:00,ZGSZ 281500Z AUTO 07004KT 11SM 26/23 A2974 RMK SLP081 T02550234 52010 IEM_DS3505
ZGSZ,2009-06-28 16:00,ZGSZ 281600Z AUTO 11006KT 7SM 28/24 A2974 RMK T02800240 IEM_DS3505
ZGSZ,2009-06-28 17:00,ZGSZ 281700Z AUTO 12006KT 6SM 27/25 A2974 RMK T02700250 IEM_DS3505
ZGSZ,2009-06-28 18:00,ZGSZ 281800Z AUTO 09004KT 13SM 26/24 A2971 RMK 60000 SLP068 T02610241 57013 IEM_DS3505
ZGSZ,2009-06-28 19:00,ZGSZ 281900Z AUTO 12004KT 7SM 27/25 A2971 RMK T02700250 IEM_DS3505
ZGSZ,2009-06-28 20:00,ZGSZ 282000Z AUTO 14006KT 7SM 28/25 A2971 RMK T02800250 IEM_DS3505
ZGSZ,2009-06-28 21:00,ZGSZ 282100Z AUTO 16002KT 14SM 27/25 A2971 RMK 70025 SLP070 T02680248 52002 IEM_DS3505
ZGSZ,2009-06-28 22:00,ZGSZ 282200Z AUTO 16012KT 7SM 28/26 A2971 RMK T02800260 IEM_DS3505
ZGSZ,2009-06-28 23:00,ZGSZ 282300Z AUTO 15010KT 7SM 29/26 A2974 RMK T02900260 IEM_DS3505
ZGSZ,2009-06-29 00:00,ZGSZ 290000Z AUTO 25004KT 14SM 29/25 A2974 RMK 70024 SLP081 T02920250 52011 IEM_DS3505
ZGSZ,2009-06-29 01:00,ZGSZ 290100Z AUTO 17014KT 7SM 30/26 A2977 RMK T03000260 IEM_DS3505
ZGSZ,2009-06-29 02:00,ZGSZ 290200Z AUTO 17016KT 7SM 31/26 A2977 RMK T03100260 IEM_DS3505
ZGSZ,2009-06-29 03:00,ZGSZ 290300Z AUTO 22006KT 17SM 30/25 A2977 RMK SLP086 T03040252 52005 IEM_DS3505
ZGSZ,2009-06-29 04:00,ZGSZ 290400Z AUTO 17016KT 7SM 31/26 A2974 RMK T03100260 IEM_DS3505
ZGSZ,2009-06-29 05:00,ZGSZ 290500Z AUTO 17017KT 7SM 32/26 A2974 RMK T03200260 IEM_DS3505
ZGSZ,2009-06-29 06:00,ZGSZ 290600Z AUTO 22008KT 17SM 32/24 A2974 RMK SLP071 T03180241 57015 IEM_DS3505
ZGSZ,2009-06-29 07:00,ZGSZ 290700Z AUTO 17016KT 7SM 31/26 A2971 RMK T03100260 IEM_DS3505
ZGSZ,2009-06-29 08:00,ZGSZ 290800Z AUTO 17017KT 7SM 31/26 A2971 RMK T03100260 IEM_DS3505
ZGSZ,2009-06-29 09:00,ZGSZ 290900Z AUTO 22006KT 17SM 31/24 A2971 RMK SLP066 T03070241 57005 IEM_DS3505
ZGSZ,2009-06-29 10:00,ZGSZ 291000Z AUTO 18016KT 7SM 31/26 A2971 RMK T03100260 IEM_DS3505
ZGSZ,2009-06-29 11:00,ZGSZ 291100Z AUTO 17014KT 7SM 30/26 A2971 RMK T03000260 IEM_DS3505
ZGSZ,2009-06-29 12:00,ZGSZ 291200Z AUTO 34002KT 14SM 29/25 A2974 RMK SLP077 T02860246 52011 IEM_DS3505
ZGSZ,2009-06-29 13:00,ZGSZ 291300Z AUTO 16010KT 7SM 29/26 A2974 RMK T02900260 IEM_DS3505
ZGSZ,2009-06-29 14:00,ZGSZ 291400Z AUTO 17010KT 7SM 29/26 A2977 RMK T02900260 IEM_DS3505
ZGSZ,2009-06-29 15:00,ZGSZ 291500Z AUTO 20002KT 12SM 28/25 A2977 RMK SLP090 T02820248 52013 IEM_DS3505
ZGSZ,2009-06-29 16:00,ZGSZ 291600Z AUTO 16010KT 7SM 29/26 A2977 RMK T02900260 IEM_DS3505
ZGSZ,2009-06-29 17:00,ZGSZ 291700Z AUTO 17014KT 7SM 29/26 A2974 RMK T02900260 IEM_DS3505
ZGSZ,2009-06-29 18:00,ZGSZ 291800Z AUTO 20002KT 16SM 28/25 A2974 RMK SLP079 T02780246 57010 IEM_DS3505
ZGSZ,2009-06-29 19:00,ZGSZ 291900Z AUTO 17014KT 7SM 29/25 A2974 RMK T02900250 IEM_DS3505
ZGSZ,2009-06-29 20:00,ZGSZ 292000Z AUTO 17014KT 7SM 29/25 A2974 RMK T02900250 IEM_DS3505
ZGSZ,2009-06-29 21:00,ZGSZ 292100Z AUTO 25002KT 16SM 28/24 A2974 RMK SLP084 T02750244 52004 IEM_DS3505
ZGSZ,2009-06-29 22:00,ZGSZ 292200Z AUTO 17014KT 7SM 29/25 A2977 RMK T02900250 IEM_DS3505
ZGSZ,2009-06-29 23:00,ZGSZ 292300Z AUTO 16012KT 7SM 29/25 A2977 RMK T02900250 IEM_DS3505
ZGSZ,2009-06-30 00:00,ZGSZ 300000Z AUTO 22006KT 16SM 29/24 A2980 RMK SLP094 T02870243 52010 IEM_DS3505
ZGSZ,2009-06-30 01:00,ZGSZ 300100Z AUTO 18014KT 7SM 31/26 A2980 RMK T03100260 IEM_DS3505
ZGSZ,2009-06-30 02:00,ZGSZ 300200Z AUTO 18016KT 7SM 31/25 A2980 RMK T03100250 IEM_DS3505
ZGSZ,2009-06-30 03:00,ZGSZ 300300Z AUTO 22006KT 16SM 30/24 A2980 RMK SLP092 T02990245 57002 IEM_DS3505
ZGSZ,2009-06-30 04:00,ZGSZ 300400Z AUTO 18016KT 7SM 32/25 A2977 RMK T03200250 IEM_DS3505
ZGSZ,2009-06-30 05:00,ZGSZ 300500Z AUTO 17017KT 7SM 32/26 A2977 RMK T03200260 IEM_DS3505
ZGSZ,2009-06-30 06:00,ZGSZ 300600Z AUTO 22016KT 16SM 31/24 A2974 RMK SLP080 T03140238 57011 IEM_DS3505
ZGSZ,2009-06-30 07:00,ZGSZ 300700Z AUTO 17017KT 7SM 32/25 A2974 RMK T03200250 IEM_DS3505
ZGSZ,2009-06-30 08:00,ZGSZ 300800Z AUTO 17017KT 7SM 32/25 A2974 RMK T03200250 IEM_DS3505
ZGSZ,2009-06-30 09:00,ZGSZ 300900Z AUTO 22012KT 19SM 30/23 A2974 RMK SLP073 T03050232 57008 IEM_DS3505
ZGSZ,2009-06-30 10:00,ZGSZ 301000Z AUTO 17016KT 7SM 31/25 A2974 RMK T03100250 IEM_DS3505
ZGSZ,2009-06-30 11:00,ZGSZ 301100Z AUTO 17016KT 7SM 30/25 A2974 RMK T03000250 IEM_DS3505
ZGSZ,2009-06-30 12:00,ZGSZ 301200Z AUTO 22008KT 17SM 29/23 A2977 RMK SLP084 T02920234 52011 IEM_DS3505
ZGSZ,2009-06-30 13:00,ZGSZ 301300Z AUTO 17012KT 7SM 30/25 A2977 RMK T03000250 IEM_DS3505
ZGSZ,2009-06-30 14:00,ZGSZ 301400Z AUTO 17014KT 7SM 30/25 A2980 RMK T03000250 IEM_DS3505
ZGSZ,2009-06-30 15:00,ZGSZ 301500Z AUTO 16004KT 17SM 28/24 A2980 RMK SLP095 T02810243 52011 IEM_DS3505
ZGSZ,2009-06-30 16:00,ZGSZ 301600Z AUTO 17012KT 7SM 29/25 A2977 RMK T02900250 IEM_DS3505
ZGSZ,2009-06-30 17:00,ZGSZ 301700Z AUTO 17014KT 7SM 29/25 A2977 RMK T02900250 IEM_DS3505
ZGSZ,2009-06-30 18:00,ZGSZ 301800Z AUTO 00000KT 17SM 27/24 A2980 RMK SLP090 T02740243 57005 IEM_DS3505
ZGSZ,2009-06-30 19:00,ZGSZ 301900Z AUTO 17012KT 7SM 29/25 A2977 RMK T02900250 IEM_DS3505
ZGSZ,2009-06-30 20:00,ZGSZ 302000Z AUTO 17012KT 7SM 29/25 A2977 RMK T02900250 IEM_DS3505
ZGSZ,2009-06-30 21:00,ZGSZ 302100Z AUTO 22002KT 17SM 28/24 A2980 RMK SLP094 T02750237 52004 IEM_DS3505
ZGSZ,2009-06-30 22:00,ZGSZ 302200Z AUTO 16012KT 7SM 29/25 A2980 RMK T02900250 IEM_DS3505
ZGSZ,2009-06-30 23:00,ZGSZ 302300Z AUTO 18010KT 7SM 29/25 A2980 RMK T02900250 IEM_DS3505
ZGSZ,2009-07-01 00:00,ZGSZ 010000Z AUTO 22008KT 19SM 29/23 A2980 RMK SLP098 T02930233 52004 IEM_DS3505
ZGSZ,2009-07-01 01:00,ZGSZ 010100Z AUTO 18016KT 7SM 31/25 A2980 RMK T03100250 IEM_DS3505
ZGSZ,2009-07-01 02:00,ZGSZ 010200Z AUTO 18014KT 7SM 31/24 A2980 RMK T03100240 IEM_DS3505
ZGSZ,2009-07-01 03:00,ZGSZ 010300Z AUTO 25010KT 19SM 30/23 A2980 RMK SLP094 T03010233 57004 IEM_DS3505
ZGSZ,2009-07-01 04:00,ZGSZ 010400Z AUTO 17016KT 7SM 32/25 A2980 RMK T03200250 IEM_DS3505
ZGSZ,2009-07-01 05:00,ZGSZ 010500Z AUTO 17014KT 7SM 32/25 A2977 RMK T03200250 IEM_DS3505
ZGSZ,2009-07-01 06:00,ZGSZ 010600Z AUTO 22008KT 19SM 31/24 A2974 RMK SLP079 T03100239 57015 IEM_DS3505
ZGSZ,2009-07-01 07:00,ZGSZ 010700Z AUTO 16016KT 7SM 32/25 A2971 RMK T03200250 IEM_DS3505
ZGSZ,2009-07-01 08:00,ZGSZ 010800Z AUTO 17016KT 7SM 32/25 A2971 RMK T03200250 IEM_DS3505
ZGSZ,2009-07-01 09:00,ZGSZ 010900Z AUTO 22008KT 19SM 31/24 A2968 RMK SLP061 T03100239 57017 IEM_DS3505
ZGSZ,2009-07-01 10:00,ZGSZ 011000Z AUTO 17016KT 6SM 31/25 A2971 RMK T03100250 IEM_DS3505
ZGSZ,2009-07-01 11:00,ZGSZ 011100Z AUTO 17016KT 7SM 30/25 A2971 RMK T03000250 IEM_DS3505
ZGSZ,2009-07-01 12:00,ZGSZ 011200Z AUTO 20004KT 19SM 29/24 A2974 RMK SLP072 T02910242 52011 IEM_DS3505
ZGSZ,2009-07-01 13:00,ZGSZ 011300Z AUTO 17014KT 7SM 30/25 A2974 RMK T03000250 IEM_DS3505
ZGSZ,2009-07-01 14:00,ZGSZ 011400Z AUTO 17014KT 7SM 30/25 A2977 RMK T03000250 IEM_DS3505
ZGSZ,2009-07-01 15:00,ZGSZ 011500Z AUTO 22004KT 17SM 28/24 A2977 RMK SLP089 T02850241 52016 IEM_DS3505
ZGSZ,2009-07-01 16:00,ZGSZ 011600Z AUTO 18016KT 7SM 29/26 A2977 RMK T02900260 IEM_DS3505
ZGSZ,2009-07-01 17:00,ZGSZ 011700Z AUTO 18014KT 7SM 29/25 A2977 RMK T02900250 IEM_DS3505
ZGSZ,2009-07-01 18:00,ZGSZ 011800Z AUTO 22008KT 17SM 28/24 A2977 RMK SLP080 T02840242 57008 IEM_DS3505
ZGSZ,2009-07-01 19:00,ZGSZ 011900Z AUTO 18012KT 7SM 29/25 A2974 RMK T02900250 IEM_DS3505
ZGSZ,2009-07-01 20:00,ZGSZ 012000Z AUTO 20010KT 7SM 29/24 A2974 RMK T02900240 IEM_DS3505
ZGSZ,2009-07-01 21:00,ZGSZ 012100Z AUTO 22010KT 17SM 28/24 A2974 RMK SLP074 T02820244 57006 IEM_DS3505
ZGSZ,2009-07-01 22:00,ZGSZ 012200Z AUTO 19008KT 7SM 29/24 A2974 RMK T02900240 IEM_DS3505
ZGSZ,2009-07-01 23:00,ZGSZ 012300Z AUTO 20008KT 7SM 29/24 A2974 RMK T02900240 IEM_DS3505
ZGSZ,2009-07-02 00:00,ZGSZ 020000Z AUTO 22006KT 19SM 29/24 A2974 RMK SLP078 T02860244 52003 IEM_DS3505
ZGSZ,2009-07-02 01:00,ZGSZ 020100Z AUTO 21008KT 7SM 31/25 A2974 RMK T03100250 IEM_DS3505
ZGSZ,2009-07-02 02:00,ZGSZ 020200Z AUTO 20010KT 7SM 32/24 A2974 RMK T03200240 IEM_DS3505
ZGSZ,2009-07-02 03:00,ZGSZ 020300Z AUTO 22017KT 19SM 30/24 A2974 RMK SLP074 T03000242 57003 IEM_DS3505
ZGSZ,2009-07-02 04:00,ZGSZ 020400Z AUTO 18012KT 7SM 32/26 A2974 RMK T03200260 IEM_DS3505
ZGSZ,2009-07-02 05:00,ZGSZ 020500Z AUTO 17014KT 7SM 32/25 A2971 RMK T03200250 IEM_DS3505
ZGSZ,2009-07-02 06:00,ZGSZ 020600Z AUTO 22016KT 19SM 31/24 A2968 RMK SLP061 T03100236 57013 IEM_DS3505
ZGSZ,2009-07-02 07:00,ZGSZ 020700Z AUTO 17017KT 6SM 32/26 A2968 RMK T03200260 IEM_DS3505
ZGSZ,2009-07-02 08:00,ZGSZ 020800Z AUTO 17017KT 6SM 31/25 A2965 RMK T03100250 IEM_DS3505
ZGSZ,2009-07-02 09:00,ZGSZ 020900Z AUTO 22010KT 19SM 30/24 A2965 RMK SLP046 T02960238 57015 IEM_DS3505
ZGSZ,2009-07-02 10:00,ZGSZ 021000Z AUTO 17016KT 6SM 30/25 A2965 RMK T03000250 IEM_DS3505
ZGSZ,2009-07-02 11:00,ZGSZ 021100Z AUTO 18016KT 6SM 30/25 A2968 RMK T03000250 IEM_DS3505
ZGSZ,2009-07-02 12:00,ZGSZ 021200Z AUTO 22006KT 16SM 29/24 A2968 RMK SLP057 T02890240 52011 IEM_DS3505
ZGSZ,2009-07-02 13:00,ZGSZ 021300Z AUTO 18012KT 7SM 30/25 A2971 RMK T03000250 IEM_DS3505
ZGSZ,2009-07-02 14:00,ZGSZ 021400Z AUTO 18014KT 7SM 30/25 A2971 RMK T03000250 IEM_DS3505
ZGSZ,2009-07-02 15:00,ZGSZ 021500Z AUTO 22008KT 16SM 29/24 A2971 RMK SLP070 T02870238 52013 IEM_DS3505
ZGSZ,2009-07-02 16:00,ZGSZ 021600Z AUTO 18016KT 7SM 29/25 A2971 RMK T02900250 IEM_DS3505
ZGSZ,2009-07-02 17:00,ZGSZ 021700Z AUTO 19016KT 7SM 30/25 A2971 RMK T03000250 IEM_DS3505
ZGSZ,2009-07-02 18:00,ZGSZ 021800Z AUTO 22008KT 16SM 28/24 A2968 RMK SLP056 T02840235 57014 IEM_DS3505
ZGSZ,2009-07-02 19:00,ZGSZ 021900Z AUTO 19014KT 7SM 29/25 A2965 RMK T02900250 IEM_DS3505
ZGSZ,2009-07-02 20:00,ZGSZ 022000Z AUTO 19012KT 7SM 29/25 A2965 RMK T02900250 IEM_DS3505
ZGSZ,2009-07-02 21:00,ZGSZ 022100Z AUTO 22012KT 16SM 28/24 A2965 RMK SLP046 T02830243 57010 IEM_DS3505
ZGSZ,2009-07-02 22:00,ZGSZ 022200Z AUTO 19012KT 7SM 29/25 A2965 RMK T02900250 IEM_DS3505
ZGSZ,2009-07-02 23:00,ZGSZ 022300Z AUTO 20012KT 7SM 29/25 A2968 RMK T02900250 IEM_DS3505
ZGSZ,2009-07-03 00:00,ZGSZ 030000Z AUTO 22014KT 17SM 29/24 A2968 RMK SLP051 T02870238 52005 IEM_DS3505
ZGSZ,2009-07-03 01:00,ZGSZ 030100Z AUTO 19014KT 7SM 29/25 A2968 RMK T02900250 IEM_DS3505
ZGSZ,2009-07-03 02:00,ZGSZ 030200Z AUTO 19014KT 7SM 31/24 A2968 RMK T03100240 IEM_DS3505
ZGSZ,2009-07-03 03:00,ZGSZ 030300Z AUTO 22014KT 17SM 29/25 A2968 RMK SLP056 T02870247 52005 IEM_DS3505
ZGSZ,2009-07-03 04:00,ZGSZ 030400Z AUTO 19016KT 7SM 32/25 A2968 RMK T03200250 IEM_DS3505
ZGSZ,2009-07-03 05:00,ZGSZ 030500Z AUTO 18016KT 7SM 32/24 A2965 RMK T03200240 IEM_DS3505
ZGSZ,2009-07-03 06:00,ZGSZ 030600Z AUTO 22012KT 16SM 30/24 A2962 RMK 60002 SLP038 T02980242 57018 IEM_DS3505
ZGSZ,2009-07-03 07:00,ZGSZ 030700Z AUTO 17017KT 6SM 31/25 A2962 RMK T03100250 IEM_DS3505
ZGSZ,2009-07-03 08:00,ZGSZ 030800Z AUTO 18017KT 6SM 31/25 A2962 RMK T03100250 IEM_DS3505
ZGSZ,2009-07-03 09:00,ZGSZ 030900Z AUTO 22012KT 14SM 29/23 A2962 RMK SLP036 T02940234 57002 IEM_DS3505
ZGSZ,2009-07-03 10:00,ZGSZ 031000Z AUTO 17014KT 7SM 30/25 A2962 RMK T03000250 IEM_DS3505
ZGSZ,2009-07-03 11:00,ZGSZ 031100Z AUTO 17014KT 6SM 30/25 A2962 RMK T03000250 IEM_DS3505
ZGSZ,2009-07-03 12:00,ZGSZ 031200Z AUTO 20002KT 16SM 29/24 A2965 RMK SLP047 T02870240 52011 IEM_DS3505
ZGSZ,2009-07-03 13:00,ZGSZ 031300Z AUTO 17014KT 6SM 30/25 A2965 RMK T03000250 IEM_DS3505
ZGSZ,2009-07-03 14:00,ZGSZ 031400Z AUTO 17014KT 7SM 30/25 A2968 RMK T03000250 IEM_DS3505
ZGSZ,2009-07-03 15:00,ZGSZ 031500Z AUTO 20004KT 14SM 28/24 A2968 RMK SLP062 T02850245 52014 IEM_DS3505
ZGSZ,2009-07-03 16:00,ZGSZ 031600Z AUTO 17012KT 7SM 29/25 A2968 RMK T02900250 IEM_DS3505
ZGSZ,2009-07-03 17:00,ZGSZ 031700Z AUTO 16014KT 7SM 29/25 A2965 RMK T02900250 IEM_DS3505
ZGSZ,2009-07-03 18:00,ZGSZ 031800Z AUTO 20004KT 16SM 28/24 A2965 RMK SLP050 T02830243 57011 IEM_DS3505
ZGSZ,2009-07-03 19:00,ZGSZ 031900Z AUTO 17014KT 7SM 29/25 A2965 RMK T02900250 IEM_DS3505
ZGSZ,2009-07-03 20:00,ZGSZ 032000Z AUTO 17012KT 7SM 29/25 A2965 RMK T02900250 IEM_DS3505
ZGSZ,2009-07-03 21:00,ZGSZ 032100Z AUTO 22004KT 16SM 27/25 A2965 RMK 70005 SLP043 T02720247 57007 IEM_DS3505
ZGSZ,2009-07-03 22:00,ZGSZ 032200Z AUTO 17014KT 7SM 29/25 A2965 RMK T02900250 IEM_DS3505
ZGSZ,2009-07-03 23:00,ZGSZ 032300Z AUTO 16010KT 7SM 29/26 A2968 RMK T02900260 IEM_DS3505
ZGSZ,2009-07-04 00:00,ZGSZ 040000Z AUTO 22002KT 8SM 27/25 A2971 RMK 60012 70012 SLP061 T02720250 52017 IEM_DS3505
ZGSZ,2009-07-04 01:00,ZGSZ 040100Z AUTO 20004KT 7SM 27/25 A2971 RMK T02700250 IEM_DS3505
ZGSZ,2009-07-04 02:00,ZGSZ 040200Z AUTO 19008KT 5SM 27/25 A2971 RMK T02700250 IEM_DS3505
ZGSZ,2009-07-04 03:00,ZGSZ 040300Z AUTO 11002KT 9SM 27/25 A2971 RMK SLP068 T02730249 52007 IEM_DS3505
ZGSZ,2009-07-04 04:00,ZGSZ 040400Z AUTO 29004KT 7SM 27/24 A2971 RMK T02700240 IEM_DS3505
ZGSZ,2009-07-04 05:00,ZGSZ 040500Z AUTO 17010KT 7SM 29/26 A2971 RMK T02900260 IEM_DS3505
ZGSZ,2009-07-04 06:00,ZGSZ 040600Z AUTO 11004KT 7SM 28/24 A2968 RMK 60008 SLP065 T02760244 57003 IEM_DS3505
ZGSZ,2009-07-04 07:00,ZGSZ 040700Z AUTO 16010KT 7SM 30/26 A2968 RMK T03000260 IEM_DS3505
ZGSZ,2009-07-04 08:00,ZGSZ 040800Z AUTO 16012KT 7SM 30/26 A2965 RMK T03000260 IEM_DS3505
ZGSZ,2009-07-04 09:00,ZGSZ 040900Z AUTO 02004KT 11SM 27/24 A2965 RMK SLP046 T02690240 57019 IEM_DS3505
ZGSZ,2009-07-04 10:00,ZGSZ 041000Z AUTO 16010KT 7SM 29/26 A2965 RMK T02900260 IEM_DS3505
ZGSZ,2009-07-04 11:00,ZGSZ 041100Z AUTO 16012KT 7SM 29/25 A2968 RMK T02900250 IEM_DS3505
ZGSZ,2009-07-04 12:00,ZGSZ 041200Z AUTO 07004KT 11SM 26/24 A2971 RMK 60024 SLP063 T02650245 52017 IEM_DS3505
ZGSZ,2009-07-04 13:00,ZGSZ 041300Z AUTO 35008G17KT 7SM 26/24 A2971 RMK T02600240 IEM_DS3505
ZGSZ,2009-07-04 14:00,ZGSZ 041400Z AUTO 28014KT 1 1/4SM 25/24 A2977 RMK T02500240 IEM_DS3505
ZGSZ,2009-07-04 15:00,ZGSZ 041500Z AUTO 34006KT 7SM 24/22 A2977 RMK SLP081 T02370220 52018 IEM_DS3505
ZGSZ,2009-07-04 16:00,ZGSZ 041600Z AUTO 18004KT 7SM 25/23 A2977 RMK T02500230 IEM_DS3505
ZGSZ,2009-07-04 17:00,ZGSZ 041700Z AUTO 15004KT 7SM 24/22 A2974 RMK T02400220 IEM_DS3505
ZGSZ,2009-07-04 18:00,ZGSZ 041800Z AUTO 09004KT 16SM 24/22 A2971 RMK 60134 SLP071 T02350223 57010 IEM_DS3505
ZGSZ,2009-07-04 19:00,ZGSZ 041900Z AUTO 12006KT 7SM 25/22 A2968 RMK T02500220 IEM_DS3505
ZGSZ,2009-07-04 20:00,ZGSZ 042000Z AUTO 10006KT 7SM 25/22 A2971 RMK T02500220 IEM_DS3505
ZGSZ,2009-07-04 21:00,ZGSZ 042100Z AUTO 04004KT 16SM 24/22 A2971 RMK 70175 SLP061 T02390222 57010 IEM_DS3505
ZGSZ,2009-07-04 22:00,ZGSZ 042200Z AUTO 7SM 25/23 A2971 RMK T02500230 IEM_DS3505
ZGSZ,2009-07-04 23:00,ZGSZ 042300Z AUTO 00000KT 7SM 26/23 A2974 RMK T02600230 IEM_DS3505
ZGSZ,2009-07-05 00:00,ZGSZ 050000Z AUTO 07004KT 16SM 25/23 A2974 RMK 60008 70168 SLP081 T02490228 52020 IEM_DS3505
ZGSZ,2009-07-05 01:00,ZGSZ 050100Z AUTO 09006KT 7SM 28/24 A2977 RMK T02800240 IEM_DS3505
ZGSZ,2009-07-05 02:00,ZGSZ 050200Z AUTO 11010KT 7SM 30/24 A2977 RMK T03000240 IEM_DS3505
ZGSZ,2009-07-05 03:00,ZGSZ 050300Z AUTO 16004KT 12SM 28/24 A2977 RMK SLP086 T02770239 52005 IEM_DS3505
ZGSZ,2009-07-05 04:00,ZGSZ 050400Z AUTO 16010KT 7SM 31/24 A2974 RMK T03100240 IEM_DS3505
ZGSZ,2009-07-05 05:00,ZGSZ 050500Z AUTO 16010KT 7SM 30/24 A2974 RMK T03000240 IEM_DS3505
ZGSZ,2009-07-05 06:00,ZGSZ 050600Z AUTO 14004KT 12SM 29/24 A2977 RMK 60000 SLP079 T02860240 57007 IEM_DS3505
ZGSZ,2009-07-05 07:00,ZGSZ 050700Z AUTO 26004KT 3SM 24/23 A2977 RMK T02400230 IEM_DS3505
ZGSZ,2009-07-05 08:00,ZGSZ 050800Z AUTO 26006KT 7SM 25/23 A2977 RMK T02500230 IEM_DS3505
ZGSZ,2009-07-05 09:00,ZGSZ 050900Z AUTO 09004KT 11SM 24/23 A2974 RMK SLP075 T02440228 57005 IEM_DS3505
ZGSZ,2009-07-05 10:00,ZGSZ 051000Z AUTO 32006KT 7SM 26/23 A2974 RMK T02600230 IEM_DS3505
ZGSZ,2009-07-05 11:00,ZGSZ 051100Z AUTO 26008KT 1SM 25/23 A2980 RMK T02500230 IEM_DS3505
ZGSZ,2009-07-05 12:00,ZGSZ 051200Z AUTO 16004KT 7SM 24/23 A2980 RMK 60031 SLP097 T02440227 52022 IEM_DS3505
ZGSZ,2009-07-05 13:00,ZGSZ 051300Z AUTO 11010KT 7SM 27/23 A2980 RMK T02700230 IEM_DS3505
ZGSZ,2009-07-05 14:00,ZGSZ 051400Z AUTO 11004KT 7SM 26/23 A2983 RMK T02600230 IEM_DS3505
ZGSZ,2009-07-05 15:00,ZGSZ 051500Z AUTO 07004KT 14SM 25/23 A2985 RMK SLP106 T02480234 52010 IEM_DS3505
ZGSZ,2009-07-05 16:00,ZGSZ 051600Z AUTO 05004KT 7SM 26/23 A2983 RMK T02600230 IEM_DS3505
ZGSZ,2009-07-05 17:00,ZGSZ 051700Z AUTO 02004KT 7SM 25/23 A2983 RMK T02500230 IEM_DS3505
ZGSZ,2009-07-05 18:00,ZGSZ 051800Z AUTO 07004KT 5SM 25/24 A2983 RMK 60063 SLP100 T02490235 57006 IEM_DS3505
ZGSZ,2009-07-05 19:00,ZGSZ 051900Z AUTO 6SM 26/23 A2980 RMK T02600230 IEM_DS3505
ZGSZ,2009-07-05 20:00,ZGSZ 052000Z AUTO 12006KT 6SM 26/23 A2977 RMK T02600230 IEM_DS3505
ZGSZ,2009-07-05 21:00,ZGSZ 052100Z AUTO 07004KT 16SM 24/23 A2977 RMK 70114 SLP090 T02400226 57011 IEM_DS3505
ZGSZ,2009-07-05 22:00,ZGSZ 052200Z AUTO 10006KT 7SM 26/23 A2980 RMK T02600230 IEM_DS3505
ZGSZ,2009-07-05 23:00,ZGSZ 052300Z AUTO 12004KT 7SM 27/23 A2980 RMK T02700230 IEM_DS3505
ZGSZ,2009-07-06 00:00,ZGSZ 060000Z AUTO 07006KT 19SM 26/23 A2983 RMK 60024 70114 SLP104 T02640233 52014 IEM_DS3505
ZGSZ,2009-07-06 01:00,ZGSZ 060100Z AUTO 12008KT 6SM 29/24 A2983 RMK T02900240 IEM_DS3505
ZGSZ,2009-07-06 02:00,ZGSZ 060200Z AUTO 13006KT 7SM 30/24 A2983 RMK T03000240 IEM_DS3505
ZGSZ,2009-07-06 03:00,ZGSZ 060300Z AUTO 14004KT 19SM 30/24 A2983 RMK SLP107 T03050237 52004 IEM_DS3505
ZGSZ,2009-07-06 04:00,ZGSZ 060400Z AUTO 19008KT 7SM 31/23 A2983 RMK T03100230 IEM_DS3505
ZGSZ,2009-07-06 05:00,ZGSZ 060500Z AUTO 18010KT 7SM 32/24 A2983 RMK T03200240 IEM_DS3505
ZGSZ,2009-07-06 06:00,ZGSZ 060600Z AUTO 18004KT 19SM 33/22 A2980 RMK SLP099 T03270216 57008 IEM_DS3505
ZGSZ,2009-07-06 07:00,ZGSZ 060700Z AUTO 18012KT 7SM 32/25 A2980 RMK T03200250 IEM_DS3505
ZGSZ,2009-07-06 08:00,ZGSZ 060800Z AUTO 18014KT 7SM 31/25 A2977 RMK T03100250 IEM_DS3505
ZGSZ,2009-07-06 09:00,ZGSZ 060900Z AUTO 20006KT 19SM 30/23 A2977 RMK SLP085 T03040226 57014 IEM_DS3505
ZGSZ,2009-07-06 10:00,ZGSZ 061000Z AUTO 18010KT 6SM 30/25 A2977 RMK T03000250 IEM_DS3505
ZGSZ,2009-07-06 11:00,ZGSZ 061100Z AUTO 17010KT 6SM 30/25 A2977 RMK T03000250 IEM_DS3505
ZGSZ,2009-07-06 12:00,ZGSZ 061200Z AUTO 18004KT 16SM 28/24 A2980 RMK SLP096 T02830239 52011 IEM_DS3505
ZGSZ,2009-07-06 13:00,ZGSZ 061300Z AUTO 16006KT 6SM 29/24 A2983 RMK T02900240 IEM_DS3505
ZGSZ,2009-07-06 14:00,ZGSZ 061400Z AUTO 15006KT 6SM 29/25 A2983 RMK T02900250 IEM_DS3505
ZGSZ,2009-07-06 15:00,ZGSZ 061500Z AUTO 11002KT 16SM 28/24 A2983 RMK SLP109 T02800240 52013 IEM_DS3505
ZGSZ,2009-07-06 16:00,ZGSZ 061600Z AUTO 15006KT 7SM 29/25 A2983 RMK T02900250 IEM_DS3505
ZGSZ,2009-07-06 17:00,ZGSZ 061700Z AUTO 17006KT 7SM 28/25 A2983 RMK T02800250 IEM_DS3505
ZGSZ,2009-07-06 18:00,ZGSZ 061800Z AUTO 14002KT 16SM 27/24 A2980 RMK SLP094 T02740243 57014 IEM_DS3505
ZGSZ,2009-07-06 19:00,ZGSZ 061900Z AUTO 17008KT 7SM 28/25 A2980 RMK T02800250 IEM_DS3505
ZGSZ,2009-07-06 20:00,ZGSZ 062000Z AUTO 18006KT 7SM 28/25 A2980 RMK T02800250 IEM_DS3505
ZGSZ,2009-07-06 21:00,ZGSZ 062100Z AUTO 22002KT 11SM 27/24 A2980 RMK SLP090 T02700243 57005 IEM_DS3505
ZGSZ,2009-07-06 22:00,ZGSZ 062200Z AUTO 00000KT 7SM 27/25 A2980 RMK T02700250 IEM_DS3505
ZGSZ,2009-07-06 23:00,ZGSZ 062300Z AUTO 00000KT 7SM 28/25 A2983 RMK T02800250 IEM_DS3505
ZGSZ,2009-07-07 00:00,ZGSZ 070000Z AUTO 27002KT 9SM 28/24 A2983 RMK SLP106 T02750239 52016 IEM_DS3505
ZGSZ,2009-07-07 01:00,ZGSZ 070100Z AUTO 7SM 30/24 A2985 RMK T03000240 IEM_DS3505
ZGSZ,2009-07-07 02:00,ZGSZ 070200Z AUTO 7SM 31/24 A2985 RMK T03100240 IEM_DS3505
ZGSZ,2009-07-07 03:00,ZGSZ 070300Z AUTO 22006KT 14SM 31/22 A2983 RMK SLP108 T03120220 52002 IEM_DS3505
ZGSZ,2009-07-07 04:00,ZGSZ 070400Z AUTO 7SM 32/24 A2983 RMK T03200240 IEM_DS3505
ZGSZ,2009-07-07 05:00,ZGSZ 070500Z AUTO 22004KT 7SM 32/23 A2983 RMK T03200230 IEM_DS3505
ZGSZ,2009-07-07 06:00,ZGSZ 070600Z AUTO 22006KT 17SM 32/22 A2980 RMK SLP090 T03220217 57017 IEM_DS3505
ZGSZ,2009-07-07 07:00,ZGSZ 070700Z AUTO 20008KT 7SM 32/25 A2977 RMK T03200250 IEM_DS3505
ZGSZ,2009-07-07 08:00,ZGSZ 070800Z AUTO 19008KT 7SM 32/24 A2977 RMK T03200240 IEM_DS3505
ZGSZ,2009-07-07 09:00,ZGSZ 070900Z AUTO 22006KT 19SM 31/23 A2974 RMK SLP077 T03120228 57014 IEM_DS3505
ZGSZ,2009-07-07 10:00,ZGSZ 071000Z AUTO 17010KT 6SM 31/25 A2974 RMK T03100250 IEM_DS3505
ZGSZ,2009-07-07 11:00,ZGSZ 071100Z AUTO 17010KT 6SM 30/24 A2974 RMK T03000240 IEM_DS3505
ZGSZ,2009-07-07 12:00,ZGSZ 071200Z AUTO 16004KT 19SM 29/24 A2977 RMK SLP083 T02880244 52006 IEM_DS3505
ZGSZ,2009-07-07 13:00,ZGSZ 071300Z AUTO 16008KT 6SM 30/25 A2977 RMK T03000250 IEM_DS3505
ZGSZ,2009-07-07 14:00,ZGSZ 071400Z AUTO 17008KT 6SM 29/25 A2980 RMK T02900250 IEM_DS3505
ZGSZ,2009-07-07 15:00,ZGSZ 071500Z AUTO 16004KT 19SM 28/24 A2980 RMK SLP093 T02800244 52010 IEM_DS3505
ZGSZ,2009-07-07 16:00,ZGSZ 071600Z AUTO 16010KT 6SM 29/25 A2980 RMK T02900250 IEM_DS3505
ZGSZ,2009-07-07 17:00,ZGSZ 071700Z AUTO 17008KT 6SM 29/25 A2977 RMK T02900250 IEM_DS3505
ZGSZ,2009-07-07 18:00,ZGSZ 071800Z AUTO 00000KT 16SM 27/24 A2977 RMK SLP084 T02720245 57008 IEM_DS3505
ZGSZ,2009-07-07 19:00,ZGSZ 071900Z AUTO 16006KT 7SM 28/25 A2977 RMK T02800250 IEM_DS3505
ZGSZ,2009-07-07 20:00,ZGSZ 072000Z AUTO 17006KT 7SM 28/25 A2977 RMK T02800250 IEM_DS3505
ZGSZ,2009-07-07 21:00,ZGSZ 072100Z AUTO 00000KT 16SM 27/24 A2977 RMK SLP085 T02670242 54000 IEM_DS3505
ZGSZ,2009-07-07 22:00,ZGSZ 072200Z AUTO 7SM 28/25 A2977 RMK T02800250 IEM_DS3505
ZGSZ,2009-07-07 23:00,ZGSZ 072300Z AUTO 24004KT 7SM 29/25 A2980 RMK T02900250 IEM_DS3505
ZGSZ,2009-07-08 00:00,ZGSZ 080000Z AUTO 25002KT 16SM 29/24 A2980 RMK SLP092 T02890240 52007 IEM_DS3505
ZGSZ,2009-07-08 01:00,ZGSZ 080100Z AUTO 22004KT 7SM 31/25 A2980 RMK T03100250 IEM_DS3505
ZGSZ,2009-07-08 02:00,ZGSZ 080200Z AUTO 22004KT 7SM 31/24 A2980 RMK T03100240 IEM_DS3505
ZGSZ,2009-07-08 03:00,ZGSZ 080300Z AUTO 20008KT 17SM 31/22 A2980 RMK SLP090 T03090225 57002 IEM_DS3505
ZGSZ,2009-07-08 04:00,ZGSZ 080400Z AUTO 19006KT 7SM 32/25 A2977 RMK T03200250 IEM_DS3505
ZGSZ,2009-07-08 05:00,ZGSZ 080500Z AUTO 20008KT 7SM 32/25 A2977 RMK T03200250 IEM_DS3505
ZGSZ,2009-07-08 06:00,ZGSZ 080600Z AUTO 25006KT 19SM 32/21 A2974 RMK SLP072 T03190211 57017 IEM_DS3505
ZGSZ,2009-07-08 07:00,ZGSZ 080700Z AUTO 19010KT 6SM 33/23 A2971 RMK T03300230 IEM_DS3505
ZGSZ,2009-07-08 08:00,ZGSZ 080800Z AUTO 19010KT 7SM 32/24 A2971 RMK T03200240 IEM_DS3505
ZGSZ,2009-07-08 09:00,ZGSZ 080900Z AUTO 22004KT 19SM 31/20 A2971 RMK SLP062 T03060205 57011 IEM_DS3505
ZGSZ,2009-07-08 10:00,ZGSZ 081000Z AUTO 17012KT 6SM 31/24 A2968 RMK T03100240 IEM_DS3505
ZGSZ,2009-07-08 11:00,ZGSZ 081100Z AUTO 17012KT 6SM 30/25 A2971 RMK T03000250 IEM_DS3505
ZGSZ,2009-07-08 12:00,ZGSZ 081200Z AUTO 18002KT 19SM 29/23 A2971 RMK SLP067 T02860231 52005 IEM_DS3505
ZGSZ,2009-07-08 13:00,ZGSZ 081300Z AUTO 17010KT 6SM 29/25 A2971 RMK T02900250 IEM_DS3505
ZGSZ,2009-07-08 14:00,ZGSZ 081400Z AUTO 17010KT 6SM 29/25 A2974 RMK T02900250 IEM_DS3505
ZGSZ,2009-07-08 15:00,ZGSZ 081500Z AUTO 22002KT 19SM 28/24 A2974 RMK SLP076 T02790239 52010 IEM_DS3505
ZGSZ,2009-07-08 16:00,ZGSZ 081600Z AUTO 19008KT 7SM 29/25 A2974 RMK T02900250 IEM_DS3505
ZGSZ,2009-07-08 17:00,ZGSZ 081700Z AUTO 19006KT 7SM 29/26 A2974 RMK T02900260 IEM_DS3505
ZGSZ,2009-07-08 18:00,ZGSZ 081800Z AUTO 16004KT 19SM 27/24 A2974 RMK SLP074 T02730242 57002 IEM_DS3505
ZGSZ,2009-07-08 19:00,ZGSZ 081900Z AUTO 20004KT 7SM 28/25 A2974 RMK T02800250 IEM_DS3505
ZGSZ,2009-07-08 20:00,ZGSZ 082000Z AUTO 19002KT 7SM 28/25 A2974 RMK T02800250 IEM_DS3505
ZGSZ,2009-07-08 21:00,ZGSZ 082100Z AUTO 22002KT 19SM 27/24 A2974 RMK SLP073 T02710240 57002 IEM_DS3505
ZGSZ,2009-07-08 22:00,ZGSZ 082200Z AUTO 21002KT 7SM 28/25 A2974 RMK T02800250 IEM_DS3505
ZGSZ,2009-07-08 23:00,ZGSZ 082300Z AUTO 23004KT 7SM 29/25 A2974 RMK T02900250 IEM_DS3505
ZGSZ,2009-07-09 00:00,ZGSZ 090000Z AUTO 22004KT 19SM 29/24 A2977 RMK SLP080 T02870238 52007 IEM_DS3505
ZGSZ,2009-07-09 01:00,ZGSZ 090100Z AUTO 25004KT 7SM 30/24 A2977 RMK T03000240 IEM_DS3505
ZGSZ,2009-07-09 02:00,ZGSZ 090200Z AUTO 29004KT 7SM 31/24 A2977 RMK T03100240 IEM_DS3505
ZGSZ,2009-07-09 03:00,ZGSZ 090300Z AUTO 07002KT 19SM 31/23 A2974 RMK SLP077 T03110232 57002 IEM_DS3505
ZGSZ,2009-07-09 04:00,ZGSZ 090400Z AUTO 29004KT 7SM 32/23 A2974 RMK T03200230 IEM_DS3505
ZGSZ,2009-07-09 05:00,ZGSZ 090500Z AUTO 29004KT 7SM 33/23 A2971 RMK T03300230 IEM_DS3505
ZGSZ,2009-07-09 06:00,ZGSZ 090600Z AUTO 22008KT 19SM 33/23 A2968 RMK SLP054 T03270231 57023 IEM_DS3505
ZGSZ,2009-07-09 07:00,ZGSZ 090700Z AUTO 24006KT 6SM 34/24 A2965 RMK T03400240 IEM_DS3505
ZGSZ,2009-07-09 08:00,ZGSZ 090800Z AUTO 21008KT 6SM 33/25 A2965 RMK T03300250 IEM_DS3505
ZGSZ,2009-07-09 09:00,ZGSZ 090900Z AUTO 22008KT 16SM 32/24 A2962 RMK SLP038 T03150236 57016 IEM_DS3505
ZGSZ,2009-07-09 10:00,ZGSZ 091000Z AUTO 18010KT 6SM 31/25 A2965 RMK T03100250 IEM_DS3505
ZGSZ,2009-07-09 11:00,ZGSZ 091100Z AUTO 18010KT 6SM 30/26 A2965 RMK T03000260 IEM_DS3505
ZGSZ,2009-07-09 12:00,ZGSZ 091200Z AUTO 25006KT 14SM 29/25 A2965 RMK SLP049 T02890251 52011 IEM_DS3505
ZGSZ,2009-07-09 13:00,ZGSZ 091300Z AUTO 16010KT 6SM 30/26 A2968 RMK T03000260 IEM_DS3505
ZGSZ,2009-07-09 14:00,ZGSZ 091400Z AUTO 16010KT 6SM 29/26 A2968 RMK T02900260 IEM_DS3505
ZGSZ,2009-07-09 15:00,ZGSZ 091500Z AUTO 22004KT 14SM 28/25 A2971 RMK SLP059 T02840246 52010 IEM_DS3505
ZGSZ,2009-07-09 16:00,ZGSZ 091600Z AUTO 18006KT 6SM 29/26 A2968 RMK T02900260 IEM_DS3505
ZGSZ,2009-07-09 17:00,ZGSZ 091700Z AUTO 17004KT 6SM 29/25 A2968 RMK T02900250 IEM_DS3505
ZGSZ,2009-07-09 18:00,ZGSZ 091800Z AUTO 22010KT 16SM 28/24 A2968 RMK SLP049 T02800244 57010 IEM_DS3505
ZGSZ,2009-07-09 19:00,ZGSZ 091900Z AUTO 20006KT 6SM 29/25 A2965 RMK T02900250 IEM_DS3505
ZGSZ,2009-07-09 20:00,ZGSZ 092000Z AUTO 20004KT 6SM 28/25 A2965 RMK T02800250 IEM_DS3505
ZGSZ,2009-07-09 21:00,ZGSZ 092100Z AUTO 25002KT 16SM 27/24 A2965 RMK SLP045 T02740245 57004 IEM_DS3505
ZGSZ,2009-07-09 22:00,ZGSZ 092200Z AUTO 30006KT 7SM 28/25 A2965 RMK T02800250 IEM_DS3505
ZGSZ,2009-07-09 23:00,ZGSZ 092300Z AUTO 29006KT 7SM 28/25 A2968 RMK T02800250 IEM_DS3505
ZGSZ,2009-07-10 00:00,ZGSZ 100000Z AUTO 32004KT 11SM 29/24 A2968 RMK SLP049 T02900241 52004 IEM_DS3505
ZGSZ,2009-07-10 01:00,ZGSZ 100100Z AUTO 32006KT 7SM 30/25 A2965 RMK T03000250 IEM_DS3505
ZGSZ,2009-07-10 02:00,ZGSZ 100200Z AUTO 32008KT 6SM 31/24 A2965 RMK T03100240 IEM_DS3505
ZGSZ,2009-07-10 03:00,ZGSZ 100300Z AUTO 36002KT 5SM 32/24 A2965 RMK SLP044 T03210236 57005 IEM_DS3505
ZGSZ,2009-07-10 04:00,ZGSZ 100400Z AUTO 27006KT 7SM 33/25 A2965 RMK T03300250 IEM_DS3505
ZGSZ,2009-07-10 05:00,ZGSZ 100500Z AUTO 27008KT 6SM 33/25 A2962 RMK T03300250 IEM_DS3505
ZGSZ,2009-07-10 06:00,ZGSZ 100600Z AUTO 25006KT 5SM 33/24 A2959 RMK SLP021 T03300236 57023 IEM_DS3505
ZGSZ,2009-07-10 07:00,ZGSZ 100700Z AUTO 25008KT 6SM 34/25 A2956 RMK T03400250 IEM_DS3505
ZGSZ,2009-07-10 08:00,ZGSZ 100800Z AUTO 26006KT 4SM 34/25 A2953 RMK T03400250 IEM_DS3505
ZGSZ,2009-07-10 09:00,ZGSZ 100900Z AUTO 25004KT 3SM 34/23 A2950 RMK SLP997 T03410232 57024 IEM_DS3505
ZGSZ,2009-07-10 10:00,ZGSZ 101000Z AUTO 20004KT 5SM 34/24 A2950 RMK T03400240 IEM_DS3505
ZGSZ,2009-07-10 11:00,ZGSZ 101100Z AUTO 17006KT 6SM 32/25 A2953 RMK T03200250 IEM_DS3505
ZGSZ,2009-07-10 12:00,ZGSZ 101200Z AUTO 22006KT 2 1/2SM 31/25 A2953 RMK SLP010 T03090253 52013 IEM_DS3505
ZGSZ,2009-07-10 13:00,ZGSZ 101300Z AUTO 15006KT 6SM 30/26 A2956 RMK T03000260 IEM_DS3505
ZGSZ,2009-07-10 14:00,ZGSZ 101400Z AUTO 17004KT 6SM 31/26 A2959 RMK T03100260 IEM_DS3505
ZGSZ,2009-07-10 15:00,ZGSZ 101500Z AUTO 07008KT 3SM 30/25 A2959 RMK SLP026 T03030251 52016 IEM_DS3505
ZGSZ,2009-07-10 16:00,ZGSZ 101600Z AUTO 11010KT 4SM 32/26 A2959 RMK T03200260 IEM_DS3505
ZGSZ,2009-07-10 17:00,ZGSZ 101700Z AUTO 10010KT 3SM 31/25 A2959 RMK T03100250 IEM_DS3505
ZGSZ,2009-07-10 18:00,ZGSZ 101800Z AUTO 09004KT 7SM 29/21 A2956 RMK SLP020 T02900212 57006 IEM_DS3505
ZGSZ,2009-07-10 19:00,ZGSZ 101900Z AUTO 09006KT 6SM 29/23 A2956 RMK T02900230 IEM_DS3505
ZGSZ,2009-07-10 20:00,ZGSZ 102000Z AUTO 10004KT 6SM 29/23 A2956 RMK T02900230 IEM_DS3505
ZGSZ,2009-07-10 21:00,ZGSZ 102100Z AUTO 07012KT 11SM 29/22 A2959 RMK SLP018 T02910221 57002 IEM_DS3505
ZGSZ,2009-07-10 22:00,ZGSZ 102200Z AUTO 05008KT 6SM 29/23 A2959 RMK T02900230 IEM_DS3505
ZGSZ,2009-07-10 23:00,ZGSZ 102300Z AUTO 05010KT 6SM 30/24 A2959 RMK T03000240 IEM_DS3505
ZGSZ,2009-07-11 00:00,ZGSZ 110000Z AUTO 04008KT 13SM 30/22 A2959 RMK SLP023 T02960221 52005 IEM_DS3505
ZGSZ,2009-07-11 01:00,ZGSZ 110100Z AUTO 07008KT 7SM 31/24 A2959 RMK T03100240 IEM_DS3505
ZGSZ,2009-07-11 02:00,ZGSZ 110200Z AUTO 09010G21KT 7SM 31/23 A2959 RMK T03100230 IEM_DS3505
ZGSZ,2009-07-11 03:00,ZGSZ 110300Z AUTO 09008G17KT 14SM 30/23 A2959 RMK SLP026 T02970232 52003 IEM_DS3505
ZGSZ,2009-07-11 04:00,ZGSZ 110400Z AUTO 06006G16KT 7SM 32/24 A2959 RMK T03200240 IEM_DS3505
ZGSZ,2009-07-11 05:00,ZGSZ 110500Z AUTO 10006KT 7SM 32/24 A2956 RMK T03200240 IEM_DS3505
ZGSZ,2009-07-11 06:00,ZGSZ 110600Z AUTO 09012KT 16SM 31/22 A2956 RMK 60000 SLP015 T03120222 57011 IEM_DS3505
ZGSZ,2009-07-11 07:00,ZGSZ 110700Z AUTO 07008G17KT 7SM 34/23 A2953 RMK T03400230 IEM_DS3505
ZGSZ,2009-07-11 08:00,ZGSZ 110800Z AUTO 11016KT 7SM 33/22 A2953 RMK T03300220 IEM_DS3505
ZGSZ,2009-07-11 09:00,ZGSZ 110900Z AUTO 09006G29KT 16SM 27/24 A2953 RMK SLP008 T02660237 57007 IEM_DS3505
ZGSZ,2009-07-11 10:00,ZGSZ 111000Z AUTO 09012KT 7SM 29/24 A2953 RMK T02900240 IEM_DS3505
ZGSZ,2009-07-11 11:00,ZGSZ 111100Z AUTO 07010KT 7SM 29/24 A2956 RMK T02900240 IEM_DS3505
ZGSZ,2009-07-11 12:00,ZGSZ 111200Z AUTO 07008KT 16SM 28/24 A2959 RMK 60012 SLP021 T02770237 52013 IEM_DS3505
ZGSZ,2009-07-11 13:00,ZGSZ 111300Z AUTO 08008KT 7SM 29/24 A2959 RMK T02900240 IEM_DS3505
ZGSZ,2009-07-11 14:00,ZGSZ 111400Z AUTO 07008KT 7SM 29/24 A2962 RMK T02900240 IEM_DS3505
ZGSZ,2009-07-11 15:00,ZGSZ 111500Z AUTO 09008KT 16SM 28/23 A2962 RMK SLP037 T02810232 52016 IEM_DS3505
ZGSZ,2009-07-11 16:00,ZGSZ 111600Z AUTO 05006KT 7SM 28/24 A2962 RMK T02800240 IEM_DS3505
ZGSZ,2009-07-11 17:00,ZGSZ 111700Z AUTO 6SM 28/23 A2962 RMK T02800230 IEM_DS3505
ZGSZ,2009-07-11 18:00,ZGSZ 111800Z AUTO 07008KT 17SM 28/23 A2962 RMK SLP033 T02780230 57004 IEM_DS3505
ZGSZ,2009-07-11 19:00,ZGSZ 111900Z AUTO 10010KT 6SM 29/23 A2962 RMK T02900230 IEM_DS3505
ZGSZ,2009-07-11 20:00,ZGSZ 112000Z AUTO 10010KT 7SM 29/23 A2959 RMK T02900230 IEM_DS3505
ZGSZ,2009-07-11 21:00,ZGSZ 112100Z AUTO 11008KT 16SM 28/23 A2962 RMK 70012 SLP032 T02790228 57002 IEM_DS3505
ZGSZ,2009-07-11 22:00,ZGSZ 112200Z AUTO 11006KT 7SM 29/23 A2962 RMK T02900230 IEM_DS3505
ZGSZ,2009-07-11 23:00,ZGSZ 112300Z AUTO 10008KT 7SM 29/23 A2965 RMK T02900230 IEM_DS3505
ZGSZ,2009-07-12 00:00,ZGSZ 120000Z AUTO 09006KT 19SM 29/23 A2965 RMK 60000 70012 SLP045 T02860233 52013 IEM_DS3505
ZGSZ,2009-07-12 01:00,ZGSZ 120100Z AUTO 12010KT 7SM 32/24 A2965 RMK T03200240 IEM_DS3505
ZGSZ,2009-07-12 02:00,ZGSZ 120200Z AUTO 11012KT 7SM 33/23 A2965 RMK T03300230 IEM_DS3505
ZGSZ,2009-07-12 03:00,ZGSZ 120300Z AUTO 11008KT 19SM 32/23 A2965 RMK SLP047 T03220229 52003 IEM_DS3505
ZGSZ,2009-07-12 04:00,ZGSZ 120400Z AUTO 19014KT 7SM 31/24 A2965 RMK T03100240 IEM_DS3505
ZGSZ,2009-07-12 05:00,ZGSZ 120500Z AUTO 13006KT 7SM 34/22 A2965 RMK T03400220 IEM_DS3505
ZGSZ,2009-07-12 06:00,ZGSZ 120600Z AUTO 09008KT 19SM 32/22 A2965 RMK SLP043 T03240219 57004 IEM_DS3505
ZGSZ,2009-07-12 07:00,ZGSZ 120700Z AUTO 13006KT 7SM 35/24 A2962 RMK T03500240 IEM_DS3505
ZGSZ,2009-07-12 08:00,ZGSZ 120800Z AUTO 12010KT 7SM 34/22 A2962 RMK T03400220 IEM_DS3505
ZGSZ,2009-07-12 09:00,ZGSZ 120900Z AUTO 07004KT 19SM 32/23 A2962 RMK SLP040 T03160226 57003 IEM_DS3505
ZGSZ,2009-07-12 10:00,ZGSZ 121000Z AUTO 16010KT 7SM 32/25 A2965 RMK T03200250 IEM_DS3505
ZGSZ,2009-07-12 11:00,ZGSZ 121100Z AUTO 16010KT 7SM 30/25 A2965 RMK T03000250 IEM_DS3505
ZGSZ,2009-07-12 12:00,ZGSZ 121200Z AUTO 14006KT 19SM 29/23 A2968 RMK SLP054 T02900232 52014 IEM_DS3505
ZGSZ,2009-07-12 13:00,ZGSZ 121300Z AUTO 09008G17KT 7SM 30/24 A2968 RMK T03000240 IEM_DS3505
ZGSZ,2009-07-12 14:00,ZGSZ 121400Z AUTO 11006KT 6SM 30/23 A2971 RMK T03000230 IEM_DS3505
ZGSZ,2009-07-12 15:00,ZGSZ 121500Z AUTO 09002KT 19SM 28/24 A2974 RMK SLP070 T02820238 52016 IEM_DS3505
ZGSZ,2009-07-12 16:00,ZGSZ 121600Z AUTO 12006KT 6SM 29/24 A2971 RMK T02900240 IEM_DS3505
ZGSZ,2009-07-12 17:00,ZGSZ 121700Z AUTO 09006KT 7SM 29/24 A2971 RMK T02900240 IEM_DS3505
ZGSZ,2009-07-12 18:00,ZGSZ 121800Z AUTO 22002KT 19SM 28/24 A2968 RMK SLP057 T02790239 57013 IEM_DS3505
ZGSZ,2009-07-12 19:00,ZGSZ 121900Z AUTO 00000KT 7SM 28/25 A2968 RMK T02800250 IEM_DS3505
ZGSZ,2009-07-12 20:00,ZGSZ 122000Z AUTO 00000KT 7SM 28/25 A2968 RMK T02800250 IEM_DS3505
ZGSZ,2009-07-12 21:00,ZGSZ 122100Z AUTO 02002KT 19SM 27/24 A2968 RMK 70000 SLP050 T02720237 57007 IEM_DS3505
ZGSZ,2009-07-12 22:00,ZGSZ 122200Z AUTO 08004KT 6SM 28/24 A2968 RMK T02800240 IEM_DS3505
ZGSZ,2009-07-12 23:00,ZGSZ 122300Z AUTO 7SM 29/25 A2968 RMK T02900250 IEM_DS3505
ZGSZ,2009-07-13 00:00,ZGSZ 130000Z AUTO 34004KT 19SM 30/24 A2968 RMK SLP056 T03010238 52006 IEM_DS3505
ZGSZ,2009-07-13 01:00,ZGSZ 130100Z AUTO 7SM 30/24 A2968 RMK T03000240 IEM_DS3505
ZGSZ,2009-07-13 02:00,ZGSZ 130200Z AUTO 27004KT 7SM 31/24 A2968 RMK T03100240 IEM_DS3505
ZGSZ,2009-07-13 03:00,ZGSZ 130300Z AUTO 16004KT 19SM 32/22 A2968 RMK SLP050 T03220217 57006 IEM_DS3505
ZGSZ,2009-07-13 04:00,ZGSZ 130400Z AUTO 25006KT 6SM 33/23 A2965 RMK T03300230 IEM_DS3505
ZGSZ,2009-07-13 05:00,ZGSZ 130500Z AUTO 23006KT 6SM 33/23 A2965 RMK T03300230 IEM_DS3505
ZGSZ,2009-07-13 06:00,ZGSZ 130600Z AUTO 22004KT 12SM 34/24 A2962 RMK SLP037 T03350235 57013 IEM_DS3505
ZGSZ,2009-07-13 07:00,ZGSZ 130700Z AUTO 22004KT 6SM 35/22 A2962 RMK T03500220 IEM_DS3505
ZGSZ,2009-07-13 08:00,ZGSZ 130800Z AUTO 21008KT 6SM 34/23 A2959 RMK T03400230 IEM_DS3505
ZGSZ,2009-07-13 09:00,ZGSZ 130900Z AUTO 22006KT 14SM 32/22 A2959 RMK SLP025 T03230224 57012 IEM_DS3505
ZGSZ,2009-07-13 10:00,ZGSZ 131000Z AUTO 19010KT 6SM 32/25 A2959 RMK T03200250 IEM_DS3505
ZGSZ,2009-07-13 11:00,ZGSZ 131100Z AUTO 18010KT 6SM 31/25 A2959 RMK T03100250 IEM_DS3505
ZGSZ,2009-07-13 12:00,ZGSZ 131200Z AUTO 16004KT 11SM 29/24 A2962 RMK SLP036 T02940243 52011 IEM_DS3505
ZGSZ,2009-07-13 13:00,ZGSZ 131300Z AUTO 18008KT 6SM 30/25 A2965 RMK T03000250 IEM_DS3505
ZGSZ,2009-07-13 14:00,ZGSZ 131400Z AUTO 17008KT 6SM 30/26 A2968 RMK T03000260 IEM_DS3505
ZGSZ,2009-07-13 15:00,ZGSZ 131500Z AUTO 25006KT 11SM 29/24 A2968 RMK SLP050 T02860244 52014 IEM_DS3505
ZGSZ,2009-07-13 16:00,ZGSZ 131600Z AUTO 17008KT 6SM 29/26 A2968 RMK T02900260 IEM_DS3505
ZGSZ,2009-07-13 17:00,ZGSZ 131700Z AUTO 17008KT 6SM 29/26 A2965 RMK T02900260 IEM_DS3505
ZGSZ,2009-07-13 18:00,ZGSZ 131800Z AUTO 25006KT 14SM 28/24 A2962 RMK SLP038 T02810237 57012 IEM_DS3505
ZGSZ,2009-07-13 19:00,ZGSZ 131900Z AUTO 17004KT 7SM 28/25 A2962 RMK T02800250 IEM_DS3505
ZGSZ,2009-07-13 20:00,ZGSZ 132000Z AUTO 17004KT 7SM 28/25 A2962 RMK T02800250 IEM_DS3505
ZGSZ,2009-07-13 21:00,ZGSZ 132100Z AUTO 22008KT 16SM 28/25 A2962 RMK SLP034 T02760247 57004 IEM_DS3505
ZGSZ,2009-07-13 22:00,ZGSZ 132200Z AUTO 20006KT 7SM 28/25 A2965 RMK T02800250 IEM_DS3505
ZGSZ,2009-07-13 23:00,ZGSZ 132300Z AUTO 20006KT 6SM 28/25 A2968 RMK T02800250 IEM_DS3505
ZGSZ,2009-07-14 00:00,ZGSZ 140000Z AUTO 22002KT 16SM 28/24 A2968 RMK SLP049 T02830245 52015 IEM_DS3505
ZGSZ,2009-07-14 01:00,ZGSZ 140100Z AUTO 7SM 30/24 A2968 RMK T03000240 IEM_DS3505
ZGSZ,2009-07-14 02:00,ZGSZ 140200Z AUTO 22004KT 6SM 30/25 A2968 RMK T03000250 IEM_DS3505
ZGSZ,2009-07-14 03:00,ZGSZ 140300Z AUTO 22006KT 17SM 31/22 A2965 RMK SLP048 T03080221 57001 IEM_DS3505
ZGSZ,2009-07-14 04:00,ZGSZ 140400Z AUTO 20006KT 6SM 32/24 A2965 RMK T03200240 IEM_DS3505
ZGSZ,2009-07-14 05:00,ZGSZ 140500Z AUTO 16006KT 6SM 32/24 A2962 RMK T03200240 IEM_DS3505
ZGSZ,2009-07-14 06:00,ZGSZ 140600Z AUTO 25004KT 16SM 31/24 A2962 RMK SLP032 T03080237 57016 IEM_DS3505
ZGSZ,2009-07-14 07:00,ZGSZ 140700Z AUTO 18010KT 6SM 32/25 A2959 RMK T03200250 IEM_DS3505
ZGSZ,2009-07-14 08:00,ZGSZ 140800Z AUTO 17010KT 6SM 31/25 A2959 RMK T03100250 IEM_DS3505
ZGSZ,2009-07-14 09:00,ZGSZ 140900Z AUTO 22006KT 16SM 30/24 A2959 RMK SLP025 T03030237 57007 IEM_DS3505
ZGSZ,2009-07-14 10:00,ZGSZ 141000Z AUTO 17010KT 6SM 30/25 A2959 RMK T03000250 IEM_DS3505
ZGSZ,2009-07-14 11:00,ZGSZ 141100Z AUTO 16008KT 6SM 30/25 A2962 RMK T03000250 IEM_DS3505
ZGSZ,2009-07-14 12:00,ZGSZ 141200Z AUTO 18004KT 14SM 29/24 A2965 RMK SLP043 T02910244 52018 IEM_DS3505
ZGSZ,2009-07-14 13:00,ZGSZ 141300Z AUTO 15006KT 6SM 30/25 A2965 RMK T03000250 IEM_DS3505
ZGSZ,2009-07-14 14:00,ZGSZ 141400Z AUTO 14008KT 6SM 30/25 A2968 RMK T03000250 IEM_DS3505
ZGSZ,2009-07-14 15:00,ZGSZ 141500Z AUTO 07006KT 14SM 29/24 A2968 RMK SLP056 T02860237 52013 IEM_DS3505
ZGSZ,2009-07-14 16:00,ZGSZ 141600Z AUTO 10006KT 6SM 30/24 A2968 RMK T03000240 IEM_DS3505
ZGSZ,2009-07-14 17:00,ZGSZ 141700Z AUTO 12006KT 6SM 29/24 A2965 RMK T02900240 IEM_DS3505
ZGSZ,2009-07-14 18:00,ZGSZ 141800Z AUTO 11004KT 16SM 28/24 A2965 RMK SLP043 T02820236 57013 IEM_DS3505
ZGSZ,2009-07-14 19:00,ZGSZ 141900Z AUTO 09004KT 6SM 29/24 A2965 RMK T02900240 IEM_DS3505
ZGSZ,2009-07-14 20:00,ZGSZ 142000Z AUTO 08004KT 6SM 29/24 A2965 RMK T02900240 IEM_DS3505
ZGSZ,2009-07-14 21:00,ZGSZ 142100Z AUTO 07004KT 16SM 28/24 A2965 RMK SLP046 T02770237 52003 IEM_DS3505
ZGSZ,2009-07-14 22:00,ZGSZ 142200Z AUTO 7SM 29/24 A2968 RMK T02900240 IEM_DS3505
ZGSZ,2009-07-14 23:00,ZGSZ 142300Z AUTO 03004KT 7SM 29/24 A2968 RMK T02900240 IEM_DS3505
ZGSZ,2009-07-15 00:00,ZGSZ 150000Z AUTO 09004KT 12SM 28/24 A2971 RMK 60000 70000 SLP061 T02800240 52014 IEM_DS3505
ZGSZ,2009-07-15 01:00,ZGSZ 150100Z AUTO 06008KT 2 1/2SM 27/24 A2971 RMK T02700240 IEM_DS3505
ZGSZ,2009-07-15 02:00,ZGSZ 150200Z AUTO 03008KT 7SM 29/26 A2971 RMK T02900260 IEM_DS3505
ZGSZ,2009-07-15 03:00,ZGSZ 150300Z AUTO 09004KT 16SM 28/24 A2971 RMK SLP063 T02850245 52002 IEM_DS3505
ZGSZ,2009-07-15 04:00,ZGSZ 150400Z AUTO 09010KT 7SM 33/24 A2968 RMK T03300240 IEM_DS3505
ZGSZ,2009-07-15 05:00,ZGSZ 150500Z AUTO 10010KT 7SM 33/23 A2965 RMK T03300230 IEM_DS3505
ZGSZ,2009-07-15 06:00,ZGSZ 150600Z AUTO 09006KT 19SM 31/23 A2965 RMK 60035 SLP046 T03140230 57016 IEM_DS3505
ZGSZ,2009-07-15 07:00,ZGSZ 150700Z AUTO 11010KT 7SM 33/24 A2965 RMK T03300240 IEM_DS3505
ZGSZ,2009-07-15 08:00,ZGSZ 150800Z AUTO 11012KT 7SM 34/23 A2962 RMK T03400230 IEM_DS3505
ZGSZ,2009-07-15 09:00,ZGSZ 150900Z AUTO 09010KT 19SM 31/22 A2962 RMK SLP037 T03130215 57009 IEM_DS3505
ZGSZ,2009-07-15 10:00,ZGSZ 151000Z AUTO 11012KT 7SM 33/23 A2962 RMK T03300230 IEM_DS3505
ZGSZ,2009-07-15 11:00,ZGSZ 151100Z AUTO 10014KT 7SM 32/23 A2962 RMK T03200230 IEM_DS3505
ZGSZ,2009-07-15 12:00,ZGSZ 151200Z AUTO 09006KT 19SM 29/24 A2968 RMK 60000 SLP052 T02880244 52014 IEM_DS3505
ZGSZ,2009-07-15 13:00,ZGSZ 151300Z AUTO 11010KT 7SM 31/24 A2968 RMK T03100240 IEM_DS3505
ZGSZ,2009-07-15 14:00,ZGSZ 151400Z AUTO 10010KT 6SM 30/24 A2971 RMK T03000240 IEM_DS3505
ZGSZ,2009-07-15 15:00,ZGSZ 151500Z AUTO 09004KT 19SM 29/24 A2971 RMK SLP064 T02860242 52012 IEM_DS3505
ZGSZ,2009-07-15 16:00,ZGSZ 151600Z AUTO 13008KT 7SM 30/25 A2971 RMK T03000250 IEM_DS3505
ZGSZ,2009-07-15 17:00,ZGSZ 151700Z AUTO 08006KT 7SM 29/25 A2968 RMK T02900250 IEM_DS3505
ZGSZ,2009-07-15 18:00,ZGSZ 151800Z AUTO 14006KT 17SM 28/24 A2968 RMK 60000 SLP052 T02790239 57011 IEM_DS3505
ZGSZ,2009-07-15 19:00,ZGSZ 151900Z AUTO 08006KT 7SM 29/24 A2968 RMK T02900240 IEM_DS3505
ZGSZ,2009-07-15 20:00,ZGSZ 152000Z AUTO 09006KT 7SM 29/24 A2968 RMK T02900240 IEM_DS3505
ZGSZ,2009-07-15 21:00,ZGSZ 152100Z AUTO 09006KT 17SM 28/24 A2968 RMK 70037 SLP048 T02770239 57004 IEM_DS3505
ZGSZ,2009-07-15 22:00,ZGSZ 152200Z AUTO 09006KT 7SM 29/24 A2968 RMK T02900240 IEM_DS3505
ZGSZ,2009-07-15 23:00,ZGSZ 152300Z AUTO 08008KT 7SM 28/24 A2968 RMK T02800240 IEM_DS3505
ZGSZ,2009-07-16 00:00,ZGSZ 160000Z AUTO 07006KT 19SM 29/25 A2968 RMK 60002 70039 SLP057 T02870247 52009 IEM_DS3505
ZGSZ,2009-07-16 01:00,ZGSZ 160100Z AUTO 10010KT 7SM 32/24 A2968 RMK T03200240 IEM_DS3505
ZGSZ,2009-07-16 02:00,ZGSZ 160200Z AUTO 10010KT 7SM 32/24 A2971 RMK T03200240 IEM_DS3505
ZGSZ,2009-07-16 03:00,ZGSZ 160300Z AUTO 11008KT 19SM 32/23 A2971 RMK SLP060 T03150228 52003 IEM_DS3505
ZGSZ,2009-07-16 04:00,ZGSZ 160400Z AUTO 12010KT 7SM 34/23 A2968 RMK T03400230 IEM_DS3505
ZGSZ,2009-07-16 05:00,ZGSZ 160500Z AUTO 16008KT 7SM 34/24 A2968 RMK T03400240 IEM_DS3505
ZGSZ,2009-07-16 06:00,ZGSZ 160600Z AUTO 11006KT 19SM 32/22 A2965 RMK SLP051 T03180222 57009 IEM_DS3505
ZGSZ,2009-07-16 07:00,ZGSZ 160700Z AUTO 10010KT 7SM 33/23 A2965 RMK T03300230 IEM_DS3505
ZGSZ,2009-07-16 08:00,ZGSZ 160800Z AUTO 11012KT 7SM 34/23 A2962 RMK T03400230 IEM_DS3505
ZGSZ,2009-07-16 09:00,ZGSZ 160900Z AUTO 16010KT 19SM 31/23 A2962 RMK SLP041 T03070231 57010 IEM_DS3505
ZGSZ,2009-07-16 10:00,ZGSZ 161000Z AUTO 10012KT 7SM 32/24 A2965 RMK T03200240 IEM_DS3505
ZGSZ,2009-07-16 11:00,ZGSZ 161100Z AUTO 12012KT 7SM 31/24 A2965 RMK T03100240 IEM_DS3505
ZGSZ,2009-07-16 12:00,ZGSZ 161200Z AUTO 09006KT 19SM 29/24 A2965 RMK SLP047 T02870238 52006 IEM_DS3505
ZGSZ,2009-07-16 13:00,ZGSZ 161300Z AUTO 10010KT 6SM 30/24 A2968 RMK T03000240 IEM_DS3505
ZGSZ,2009-07-16 14:00,ZGSZ 161400Z AUTO 10006KT 6SM 30/24 A2971 RMK T03000240 IEM_DS3505
ZGSZ,2009-07-16 15:00,ZGSZ 161500Z AUTO 09004KT 19SM 29/24 A2971 RMK SLP062 T02860237 52015 IEM_DS3505
ZGSZ,2009-07-16 16:00,ZGSZ 161600Z AUTO 10008KT 6SM 29/24 A2968 RMK T02900240 IEM_DS3505
ZGSZ,2009-07-16 17:00,ZGSZ 161700Z AUTO 10008KT 6SM 29/24 A2968 RMK T02900240 IEM_DS3505
ZGSZ,2009-07-16 18:00,ZGSZ 161800Z AUTO 09002KT 19SM 28/24 A2965 RMK SLP043 T02790239 57019 IEM_DS3505
ZGSZ,2009-07-16 19:00,ZGSZ 161900Z AUTO 6SM 28/24 A2962 RMK T02800240 IEM_DS3505
ZGSZ,2009-07-16 20:00,ZGSZ 162000Z AUTO 04004KT 6SM 28/24 A2962 RMK T02800240 IEM_DS3505
ZGSZ,2009-07-16 21:00,ZGSZ 162100Z AUTO 07002KT 19SM 28/24 A2962 RMK 70002 SLP035 T02760238 57008 IEM_DS3505
ZGSZ,2009-07-16 22:00,ZGSZ 162200Z AUTO 02004KT 6SM 28/25 A2965 RMK T02800250 IEM_DS3505
ZGSZ,2009-07-16 23:00,ZGSZ 162300Z AUTO 02004KT 6SM 29/25 A2965 RMK T02900250 IEM_DS3505
ZGSZ,2009-07-17 00:00,ZGSZ 170000Z AUTO 09002KT 19SM 29/24 A2968 RMK SLP049 T02870243 52014 IEM_DS3505
ZGSZ,2009-07-17 01:00,ZGSZ 170100Z AUTO 05006KT 7SM 32/25 A2965 RMK T03200250 IEM_DS3505
ZGSZ,2009-07-17 02:00,ZGSZ 170200Z AUTO 09004KT 7SM 32/24 A2965 RMK T03200240 IEM_DS3505
ZGSZ,2009-07-17 03:00,ZGSZ 170300Z AUTO 27002KT 19SM 32/22 A2965 RMK SLP043 T03220220 57006 IEM_DS3505
ZGSZ,2009-07-17 04:00,ZGSZ 170400Z AUTO 28008KT 7SM 33/25 A2962 RMK T03300250 IEM_DS3505
ZGSZ,2009-07-17 05:00,ZGSZ 170500Z AUTO 25008KT 7SM 33/24 A2962 RMK T03300240 IEM_DS3505
ZGSZ,2009-07-17 06:00,ZGSZ 170600Z AUTO 22010KT 17SM 33/23 A2959 RMK SLP023 T03260233 57020 IEM_DS3505
ZGSZ,2009-07-17 07:00,ZGSZ 170700Z AUTO 22008KT 7SM 33/22 A2956 RMK T03300220 IEM_DS3505
ZGSZ,2009-07-17 08:00,ZGSZ 170800Z AUTO 22006KT 6SM 33/23 A2956 RMK T03300230 IEM_DS3505
ZGSZ,2009-07-17 09:00,ZGSZ 170900Z AUTO 22006KT 17SM 32/22 A2953 RMK SLP006 T03190220 57017 IEM_DS3505
ZGSZ,2009-07-17 10:00,ZGSZ 171000Z AUTO 18006KT 6SM 33/23 A2953 RMK T03300230 IEM_DS3505
ZGSZ,2009-07-17 11:00,ZGSZ 171100Z AUTO 17008KT 6SM 31/24 A2956 RMK T03100240 IEM_DS3505
ZGSZ,2009-07-17 12:00,ZGSZ 171200Z AUTO 22006KT 16SM 30/23 A2956 RMK SLP016 T03040226 52010 IEM_DS3505
ZGSZ,2009-07-17 13:00,ZGSZ 171300Z AUTO 17004KT 6SM 31/25 A2956 RMK T03100250 IEM_DS3505
ZGSZ,2009-07-17 14:00,ZGSZ 171400Z AUTO 17004KT 6SM 30/25 A2956 RMK T03000250 IEM_DS3505
ZGSZ,2009-07-17 15:00,ZGSZ 171500Z AUTO 25004KT 16SM 30/24 A2956 RMK SLP016 T02950237 54000 IEM_DS3505
ZGSZ,2009-07-17 16:00,ZGSZ 171600Z AUTO 17002KT 6SM 30/27 A2956 RMK T03000270 IEM_DS3505
ZGSZ,2009-07-17 17:00,ZGSZ 171700Z AUTO 6SM 30/26 A2953 RMK T03000260 IEM_DS3505
ZGSZ,2009-07-17 18:00,ZGSZ 171800Z AUTO 29002KT 12SM 29/24 A2953 RMK SLP002 T02910244 57014 IEM_DS3505
ZGSZ,2009-07-17 19:00,ZGSZ 171900Z AUTO 26006KT 6SM 30/25 A2950 RMK T03000250 IEM_DS3505
ZGSZ,2009-07-17 20:00,ZGSZ 172000Z AUTO 26004KT 6SM 30/25 A2953 RMK T03000250 IEM_DS3505
ZGSZ,2009-07-17 21:00,ZGSZ 172100Z AUTO 22002KT 9SM 29/24 A2950 RMK SLP992 T02860240 57010 IEM_DS3505
ZGSZ,2009-07-17 22:00,ZGSZ 172200Z AUTO 30006KT 6SM 29/26 A2950 RMK T02900260 IEM_DS3505
ZGSZ,2009-07-17 23:00,ZGSZ 172300Z AUTO 31008KT 4SM 30/25 A2950 RMK T03000250 IEM_DS3505
ZGSZ,2009-07-18 00:00,ZGSZ 180000Z AUTO 27002KT 5SM 29/24 A2950 RMK SLP997 T02940245 52005 IEM_DS3505
ZGSZ,2009-07-18 01:00,ZGSZ 180100Z AUTO 31010KT 3SM 32/25 A2950 RMK T03200250 IEM_DS3505
ZGSZ,2009-07-18 02:00,ZGSZ 180200Z AUTO 30010KT 3SM 33/25 A2950 RMK T03300250 IEM_DS3505
ZGSZ,2009-07-18 03:00,ZGSZ 180300Z AUTO 07004KT 4SM 33/22 A2950 RMK SLP992 T03340216 57004 IEM_DS3505
ZGSZ,2009-07-18 04:00,ZGSZ 180400Z AUTO 30012KT 4SM 35/24 A2947 RMK T03500240 IEM_DS3505
ZGSZ,2009-07-18 05:00,ZGSZ 180500Z AUTO 36008KT 7SM 37/22 A2947 RMK T03700220 IEM_DS3505
ZGSZ,2009-07-18 06:00,ZGSZ 180600Z AUTO 02008G19KT 9SM 36/21 A2944 RMK SLP967 T03580213 57025 IEM_DS3505
ZGSZ,2009-07-18 07:00,ZGSZ 180700Z AUTO 32010KT 7SM 37/23 A2941 RMK T03700230 IEM_DS3505
ZGSZ,2009-07-18 08:00,ZGSZ 180800Z AUTO 33010KT 7SM 36/23 A2938 RMK T03600230 IEM_DS3505
ZGSZ,2009-07-18 09:00,ZGSZ 180900Z AUTO 20006KT 9SM 30/22 A2941 RMK SLP965 T03000219 57003 IEM_DS3505
ZGSZ,2009-07-18 10:00,ZGSZ 181000Z AUTO 10010KT 7SM 29/24 A2938 RMK T02900240 IEM_DS3505
ZGSZ,2009-07-18 11:00,ZGSZ 181100Z AUTO 04016KT 3SM 27/24 A2944 RMK T02700240 IEM_DS3505
ZGSZ,2009-07-18 12:00,ZGSZ 181200Z AUTO 36010KT 16SM 27/23 A2941 RMK 60035 SLP959 T02670228 57006 IEM_DS3505
ZGSZ,2009-07-18 13:00,ZGSZ 181300Z AUTO 01014KT 6SM 28/24 A2938 RMK T02800240 IEM_DS3505
ZGSZ,2009-07-18 14:00,ZGSZ 181400Z AUTO 36012KT 6SM 29/24 A2938 RMK T02900240 IEM_DS3505
ZGSZ,2009-07-18 15:00,ZGSZ 181500Z AUTO 34014KT 12SM 27/23 A2935 RMK SLP936 T02680229 57022 IEM_DS3505
ZGSZ,2009-07-18 16:00,ZGSZ 181600Z AUTO 33016KT 4SM 28/24 A2932 RMK T02800240 IEM_DS3505
ZGSZ,2009-07-18 17:00,ZGSZ 181700Z AUTO 32025G35KT 3SM 27/24 A2923 RMK T02700240 IEM_DS3505
ZGSZ,2009-07-18 18:00,ZGSZ 181800Z AUTO 32014G49KT 1SM 25/23 A2915 RMK 60083 T02470231 57068 IEM_DS3505
ZGSZ,2009-07-18 19:00,ZGSZ 181900Z AUTO 30043G56KT 1SM 25/24 A2903 RMK T02500240 IEM_DS3505
ZGSZ,2009-07-18 20:00,ZGSZ 182000Z AUTO 30027G54KT 3SM 25/24 RMK T02500240 IEM_DS3505
ZGSZ,2009-07-18 21:00,ZGSZ 182100Z AUTO 22017G47KT 4SM 25/24 A2912 RMK 70457 SLP903 T02540236 57010 IEM_DS3505
ZGSZ,2009-07-18 22:00,ZGSZ 182200Z AUTO 18029KT 7SM 27/25 A2926 RMK T02700250 IEM_DS3505
ZGSZ,2009-07-18 23:00,ZGSZ 182300Z AUTO 18031G41KT 7SM 26/25 A2935 RMK T02600250 IEM_DS3505
ZGSZ,2009-07-19 00:00,ZGSZ 190000Z AUTO 22012KT 10SM 27/23 RMK 60358 70477 T02680233 52071 IEM_DS3505
ZGSZ,2009-07-19 02:00,ZGSZ 190200Z AUTO 17019KT 7SM 28/23 A2950 RMK T02800230 IEM_DS3505
ZGSZ,2009-07-19 03:00,ZGSZ 190300Z AUTO 16004KT 9SM 26/24 A2953 RMK SLP013 T02570236 52038 IEM_DS3505
ZGSZ,2009-07-19 04:00,ZGSZ 190400Z AUTO 17012KT 7SM 26/22 A2956 RMK T02600220 IEM_DS3505
ZGSZ,2009-07-19 05:00,ZGSZ 190500Z AUTO 15012KT 7SM 28/24 A2959 RMK T02800240 IEM_DS3505
ZGSZ,2009-07-19 06:00,ZGSZ 190600Z AUTO 20002KT 16SM 27/23 A2959 RMK 60016 SLP023 T02660233 52010 IEM_DS3505
ZGSZ,2009-07-19 07:00,ZGSZ 190700Z AUTO 14010KT 7SM 30/25 A2959 RMK T03000250 IEM_DS3505
ZGSZ,2009-07-19 08:00,ZGSZ 190800Z AUTO 13012KT 7SM 31/23 A2959 RMK T03100230 IEM_DS3505
ZGSZ,2009-07-19 09:00,ZGSZ 190900Z AUTO 07008KT 19SM 29/22 A2959 RMK SLP027 T02890224 52004 IEM_DS3505
ZGSZ,2009-07-19 10:00,ZGSZ 191000Z AUTO 15012KT 7SM 30/23 A2962 RMK T03000230 IEM_DS3505
ZGSZ,2009-07-19 11:00,ZGSZ 191100Z AUTO 10010KT 7SM 29/23 A2962 RMK T02900230 IEM_DS3505
ZGSZ,2009-07-19 12:00,ZGSZ 191200Z AUTO 07006KT 16SM 26/22 A2965 RMK SLP049 T02640225 52022 IEM_DS3505
ZGSZ,2009-07-19 13:00,ZGSZ 191300Z AUTO 09008KT 6SM 28/23 A2968 RMK T02800230 IEM_DS3505
ZGSZ,2009-07-19 14:00,ZGSZ 191400Z AUTO 11008KT 7SM 27/23 A2971 RMK T02700230 IEM_DS3505
ZGSZ,2009-07-19 15:00,ZGSZ 191500Z AUTO 07006KT 16SM 26/23 A2971 RMK SLP067 T02630230 52018 IEM_DS3505
ZGSZ,2009-07-19 16:00,ZGSZ 191600Z AUTO 09010KT 7SM 28/23 A2971 RMK T02800230 IEM_DS3505
ZGSZ,2009-07-19 17:00,ZGSZ 191700Z AUTO 10010KT 7SM 28/24 A2968 RMK T02800240 IEM_DS3505
ZGSZ,2009-07-19 18:00,ZGSZ 191800Z AUTO 09006KT 6SM 26/24 A2971 RMK 60004 SLP064 T02550237 57003 IEM_DS3505
ZGSZ,2009-07-19 19:00,ZGSZ 191900Z AUTO 11006KT 3SM 26/25 A2971 RMK T02600250 IEM_DS3505
ZGSZ,2009-07-19 20:00,ZGSZ 192000Z AUTO 7SM 27/25 A2971 RMK T02700250 IEM_DS3505
ZGSZ,2009-07-19 21:00,ZGSZ 192100Z AUTO 09004KT 7SM 26/25 A2971 RMK 70041 SLP063 T02640246 57001 IEM_DS3505
ZGSZ,2009-07-19 22:00,ZGSZ 192200Z AUTO 11006KT 7SM 27/25 A2974 RMK T02700250 IEM_DS3505
ZGSZ,2009-07-19 23:00,ZGSZ 192300Z AUTO 12008KT 7SM 28/24 A2974 RMK T02800240 IEM_DS3505
ZGSZ,2009-07-20 00:00,ZGSZ 200000Z AUTO 16004KT 12SM 29/25 A2977 RMK 60016 70037 SLP084 T02860248 52021 IEM_DS3505
ZGSZ,2009-07-20 01:00,ZGSZ 200100Z AUTO 13010KT 7SM 30/25 A2977 RMK T03000250 IEM_DS3505
ZGSZ,2009-07-20 02:00,ZGSZ 200200Z AUTO 13010KT 7SM 30/25 A2977 RMK T03000250 IEM_DS3505
ZGSZ,2009-07-20 03:00,ZGSZ 200300Z AUTO 16008KT 16SM 30/24 A2977 RMK SLP089 T03050239 52005 IEM_DS3505
ZGSZ,2009-07-20 04:00,ZGSZ 200400Z AUTO 17014KT 7SM 32/23 A2977 RMK T03200230 IEM_DS3505
ZGSZ,2009-07-20 05:00,ZGSZ 200500Z AUTO 17014KT 7SM 33/25 A2977 RMK T03300250 IEM_DS3505
ZGSZ,2009-07-20 06:00,ZGSZ 200600Z AUTO 11002KT 19SM 31/24 A2974 RMK SLP082 T03090241 57007 IEM_DS3505
ZGSZ,2009-07-20 07:00,ZGSZ 200700Z AUTO 17012KT 7SM 33/25 A2974 RMK T03300250 IEM_DS3505
ZGSZ,2009-07-20 08:00,ZGSZ 200800Z AUTO 18014KT 7SM 32/25 A2971 RMK T03200250 IEM_DS3505
ZGSZ,2009-07-20 09:00,ZGSZ 200900Z AUTO 09004KT 19SM 30/24 A2974 RMK SLP078 T03010235 57004 IEM_DS3505
ZGSZ,2009-07-20 10:00,ZGSZ 201000Z AUTO 16012KT 7SM 32/24 A2974 RMK T03200240 IEM_DS3505
ZGSZ,2009-07-20 11:00,ZGSZ 201100Z AUTO 09010KT 7SM 30/24 A2977 RMK T03000240 IEM_DS3505
ZGSZ,2009-07-20 12:00,ZGSZ 201200Z AUTO 07004KT 19SM 29/24 A2980 RMK SLP097 T02860242 52019 IEM_DS3505
ZGSZ,2009-07-20 13:00,ZGSZ 201300Z AUTO 11010KT 6SM 29/24 A2983 RMK T02900240 IEM_DS3505
ZGSZ,2009-07-20 14:00,ZGSZ 201400Z AUTO 12008KT 6SM 30/24 A2983 RMK T03000240 IEM_DS3505
ZGSZ,2009-07-20 15:00,ZGSZ 201500Z AUTO 14006KT 19SM 28/24 A2985 RMK SLP115 T02820236 52018 IEM_DS3505
ZGSZ,2009-07-20 16:00,ZGSZ 201600Z AUTO 10006KT 6SM 29/24 A2985 RMK T02900240 IEM_DS3505
ZGSZ,2009-07-20 17:00,ZGSZ 201700Z AUTO 09004KT 6SM 29/24 A2985 RMK T02900240 IEM_DS3505
ZGSZ,2009-07-20 18:00,ZGSZ 201800Z AUTO 07004KT 19SM 28/24 A2983 RMK SLP106 T02770239 57009 IEM_DS3505
ZGSZ,2009-07-20 19:00,ZGSZ 201900Z AUTO 09004KT 6SM 28/24 A2980 RMK T02800240 IEM_DS3505
ZGSZ,2009-07-20 20:00,ZGSZ 202000Z AUTO 10006KT 6SM 28/24 A2980 RMK T02800240 IEM_DS3505
ZGSZ,2009-07-20 21:00,ZGSZ 202100Z AUTO 09004KT 19SM 27/24 A2980 RMK 70015 SLP099 T02720239 57007 IEM_DS3505
ZGSZ,2009-07-20 22:00,ZGSZ 202200Z AUTO 6SM 27/24 A2980 RMK T02700240 IEM_DS3505
ZGSZ,2009-07-20 23:00,ZGSZ 202300Z AUTO 12004KT 6SM 29/24 A2983 RMK T02900240 IEM_DS3505
ZGSZ,2009-07-21 00:00,ZGSZ 210000Z AUTO 36004KT 16SM 30/23 A2983 RMK SLP105 T02950234 52006 IEM_DS3505
ZGSZ,2009-07-21 01:00,ZGSZ 210100Z AUTO 12004KT 7SM 31/23 A2983 RMK T03100230 IEM_DS3505
ZGSZ,2009-07-21 02:00,ZGSZ 210200Z AUTO 7SM 30/24 A2983 RMK T03000240 IEM_DS3505
ZGSZ,2009-07-21 03:00,ZGSZ 210300Z AUTO 36004KT 19SM 31/23 A2983 RMK SLP099 T03090230 57006 IEM_DS3505
ZGSZ,2009-07-21 04:00,ZGSZ 210400Z AUTO 23008KT 7SM 32/25 A2980 RMK T03200250 IEM_DS3505
ZGSZ,2009-07-21 05:00,ZGSZ 210500Z AUTO 23006KT 7SM 32/24 A2980 RMK T03200240 IEM_DS3505
ZGSZ,2009-07-21 06:00,ZGSZ 210600Z AUTO 11004KT 19SM 32/23 A2977 RMK SLP088 T03160229 57010 IEM_DS3505
ZGSZ,2009-07-21 07:00,ZGSZ 210700Z AUTO 21010KT 7SM 32/25 A2977 RMK T03200250 IEM_DS3505
ZGSZ,2009-07-21 08:00,ZGSZ 210800Z AUTO 20012KT 7SM 32/25 A2974 RMK T03200250 IEM_DS3505
ZGSZ,2009-07-21 09:00,ZGSZ 210900Z AUTO 22004KT 17SM 32/23 A2974 RMK SLP072 T03180233 57016 IEM_DS3505
ZGSZ,2009-07-21 10:00,ZGSZ 211000Z AUTO 19008KT 6SM 31/25 A2974 RMK T03100250 IEM_DS3505
ZGSZ,2009-07-21 11:00,ZGSZ 211100Z AUTO 18010KT 6SM 30/25 A2971 RMK T03000250 IEM_DS3505
ZGSZ,2009-07-21 12:00,ZGSZ 211200Z AUTO 18004KT 16SM 29/23 A2974 RMK 60004 SLP073 T02900234 52001 IEM_DS3505
ZGSZ,2009-07-21 13:00,ZGSZ 211300Z AUTO 15008KT 6SM 29/24 A2974 RMK T02900240 IEM_DS3505
ZGSZ,2009-07-21 14:00,ZGSZ 211400Z AUTO 16006KT 6SM 29/24 A2977 RMK T02900240 IEM_DS3505
ZGSZ,2009-07-21 15:00,ZGSZ 211500Z AUTO 11004KT 16SM 28/24 A2977 RMK SLP085 T02810237 52012 IEM_DS3505
ZGSZ,2009-07-21 16:00,ZGSZ 211600Z AUTO 7SM 29/24 A2977 RMK T02900240 IEM_DS3505
ZGSZ,2009-07-21 17:00,ZGSZ 211700Z AUTO 15004KT 7SM 29/24 A2977 RMK T02900240 IEM_DS3505
ZGSZ,2009-07-21 18:00,ZGSZ 211800Z AUTO 14004KT 19SM 28/24 A2974 RMK SLP079 T02760236 57006 IEM_DS3505
ZGSZ,2009-07-21 19:00,ZGSZ 211900Z AUTO 15006KT 6SM 28/24 A2974 RMK T02800240 IEM_DS3505
ZGSZ,2009-07-21 20:00,ZGSZ 212000Z AUTO 08004KT 6SM 28/24 A2974 RMK T02800240 IEM_DS3505
ZGSZ,2009-07-21 21:00,ZGSZ 212100Z AUTO 36002KT 19SM 27/24 A2974 RMK 70004 SLP072 T02690236 57007 IEM_DS3505
ZGSZ,2009-07-21 22:00,ZGSZ 212200Z AUTO 08004KT 7SM 28/24 A2974 RMK T02800240 IEM_DS3505
ZGSZ,2009-07-21 23:00,ZGSZ 212300Z AUTO 7SM 29/24 A2974 RMK T02900240 IEM_DS3505
ZGSZ,2009-07-22 00:00,ZGSZ 220000Z AUTO 36002KT 17SM 29/24 A2974 RMK 70004 SLP075 T02890238 52002 IEM_DS3505
ZGSZ,2009-07-22 01:00,ZGSZ 220100Z AUTO 11004KT 7SM 30/23 A2974 RMK T03000230 IEM_DS3505
ZGSZ,2009-07-22 02:00,ZGSZ 220200Z AUTO 7SM 30/24 A2974 RMK T03000240 IEM_DS3505
ZGSZ,2009-07-22 03:00,ZGSZ 220300Z AUTO 16006KT 19SM 31/23 A2974 RMK SLP074 T03100231 54000 IEM_DS3505
ZGSZ,2009-07-22 04:00,ZGSZ 220400Z AUTO 21008KT 7SM 32/25 A2974 RMK T03200250 IEM_DS3505
ZGSZ,2009-07-22 05:00,ZGSZ 220500Z AUTO 20008KT 7SM 32/23 A2971 RMK T03200230 IEM_DS3505
ZGSZ,2009-07-22 06:00,ZGSZ 220600Z AUTO 22012KT 19SM 32/23 A2968 RMK SLP058 T03160229 57016 IEM_DS3505
ZGSZ,2009-07-22 07:00,ZGSZ 220700Z AUTO 18012KT 7SM 32/25 A2968 RMK T03200250 IEM_DS3505
ZGSZ,2009-07-22 08:00,ZGSZ 220800Z AUTO 19012KT 7SM 32/25 A2965 RMK T03200250 IEM_DS3505
ZGSZ,2009-07-22 09:00,ZGSZ 220900Z AUTO 20004KT 19SM 32/22 A2965 RMK SLP042 T03180225 57016 IEM_DS3505
ZGSZ,2009-07-22 10:00,ZGSZ 221000Z AUTO 19012KT 7SM 31/25 A2965 RMK T03100250 IEM_DS3505
ZGSZ,2009-07-22 11:00,ZGSZ 221100Z AUTO 18012KT 7SM 30/25 A2965 RMK T03000250 IEM_DS3505
ZGSZ,2009-07-22 12:00,ZGSZ 221200Z AUTO 18002KT 19SM 28/24 A2968 RMK SLP052 T02830237 52010 IEM_DS3505
ZGSZ,2009-07-22 13:00,ZGSZ 221300Z AUTO 17006KT 6SM 29/24 A2968 RMK T02900240 IEM_DS3505
ZGSZ,2009-07-22 14:00,ZGSZ 221400Z AUTO 16006KT 6SM 29/24 A2971 RMK T02900240 IEM_DS3505
ZGSZ,2009-07-22 15:00,ZGSZ 221500Z AUTO 11004KT 19SM 28/24 A2971 RMK SLP064 T02780236 52012 IEM_DS3505
ZGSZ,2009-07-22 16:00,ZGSZ 221600Z AUTO 11004KT 7SM 29/24 A2971 RMK T02900240 IEM_DS3505
ZGSZ,2009-07-22 17:00,ZGSZ 221700Z AUTO 16006KT 6SM 28/24 A2968 RMK T02800240 IEM_DS3505
ZGSZ,2009-07-22 18:00,ZGSZ 221800Z AUTO 20002KT 16SM 27/23 A2968 RMK SLP054 T02740228 57010 IEM_DS3505
ZGSZ,2009-07-22 19:00,ZGSZ 221900Z AUTO 15006KT 7SM 28/24 A2968 RMK T02800240 IEM_DS3505
ZGSZ,2009-07-22 20:00,ZGSZ 222000Z AUTO 14006KT 7SM 28/24 A2968 RMK T02800240 IEM_DS3505
ZGSZ,2009-07-22 21:00,ZGSZ 222100Z AUTO 11002KT 16SM 27/24 A2965 RMK 70000 SLP047 T02680241 57007 IEM_DS3505
ZGSZ,2009-07-22 22:00,ZGSZ 222200Z AUTO 7SM 28/24 A2968 RMK T02800240 IEM_DS3505
ZGSZ,2009-07-22 23:00,ZGSZ 222300Z AUTO 08004KT 7SM 29/24 A2968 RMK T02900240 IEM_DS3505
ZGSZ,2009-07-23 00:00,ZGSZ 230000Z AUTO 00000KT 12SM 28/24 A2971 RMK 60000 70000 SLP062 T02820244 52014 IEM_DS3505
ZGSZ,2009-07-23 01:00,ZGSZ 230100Z AUTO 17006KT 7SM 30/25 A2971 RMK T03000250 IEM_DS3505
ZGSZ,2009-07-23 02:00,ZGSZ 230200Z AUTO 19006KT 7SM 29/25 A2971 RMK T02900250 IEM_DS3505
ZGSZ,2009-07-23 03:00,ZGSZ 230300Z AUTO 18004KT 19SM 30/24 A2971 RMK SLP065 T02950237 52003 IEM_DS3505
ZGSZ,2009-07-23 04:00,ZGSZ 230400Z AUTO 17010KT 7SM 31/26 A2968 RMK T03100260 IEM_DS3505
ZGSZ,2009-07-23 05:00,ZGSZ 230500Z AUTO 18010KT 7SM 31/25 A2968 RMK T03100250 IEM_DS3505
ZGSZ,2009-07-23 06:00,ZGSZ 230600Z AUTO 22008KT 19SM 31/22 A2965 RMK 60008 SLP046 T03140224 57018 IEM_DS3505
ZGSZ,2009-07-23 07:00,ZGSZ 230700Z AUTO 17010KT 7SM 32/24 A2965 RMK T03200240 IEM_DS3505
ZGSZ,2009-07-23 08:00,ZGSZ 230800Z AUTO 19012KT 7SM 31/25 A2965 RMK T03100250 IEM_DS3505
ZGSZ,2009-07-23 09:00,ZGSZ 230900Z AUTO 25006KT 19SM 31/24 A2962 RMK SLP036 T03130239 57010 IEM_DS3505
ZGSZ,2009-07-23 10:00,ZGSZ 231000Z AUTO 17012KT 7SM 31/26 A2962 RMK T03100260 IEM_DS3505
ZGSZ,2009-07-23 11:00,ZGSZ 231100Z AUTO 16010KT 6SM 30/24 A2962 RMK T03000240 IEM_DS3505
ZGSZ,2009-07-23 12:00,ZGSZ 231200Z AUTO 16004KT 19SM 28/24 A2965 RMK SLP044 T02830245 52008 IEM_DS3505
ZGSZ,2009-07-23 13:00,ZGSZ 231300Z AUTO 16010KT 6SM 29/25 A2965 RMK T02900250 IEM_DS3505
ZGSZ,2009-07-23 14:00,ZGSZ 231400Z AUTO 16012KT 6SM 29/25 A2965 RMK T02900250 IEM_DS3505
ZGSZ,2009-07-23 15:00,ZGSZ 231500Z AUTO 16004KT 19SM 28/25 A2968 RMK SLP052 T02810249 52008 IEM_DS3505
ZGSZ,2009-07-23 16:00,ZGSZ 231600Z AUTO 17014KT 7SM 29/25 A2965 RMK T02900250 IEM_DS3505
ZGSZ,2009-07-23 17:00,ZGSZ 231700Z AUTO 18012KT 7SM 29/26 A2965 RMK T02900260 IEM_DS3505
ZGSZ,2009-07-23 18:00,ZGSZ 231800Z AUTO 32002KT 19SM 28/24 A2965 RMK SLP043 T02790243 57009 IEM_DS3505
ZGSZ,2009-07-23 19:00,ZGSZ 231900Z AUTO 17008KT 7SM 29/25 A2965 RMK T02900250 IEM_DS3505
ZGSZ,2009-07-23 20:00,ZGSZ 232000Z AUTO 12004KT 7SM 27/25 A2962 RMK T02700250 IEM_DS3505
ZGSZ,2009-07-23 21:00,ZGSZ 232100Z AUTO 18002KT 19SM 28/25 A2962 RMK 70006 SLP037 T02790247 57006 IEM_DS3505
ZGSZ,2009-07-23 22:00,ZGSZ 232200Z AUTO 19008KT 7SM 29/26 A2962 RMK T02900260 IEM_DS3505
ZGSZ,2009-07-23 23:00,ZGSZ 232300Z AUTO 16006KT 7SM 28/26 A2965 RMK T02800260 IEM_DS3505
ZGSZ,2009-07-24 00:00,ZGSZ 240000Z AUTO 18004KT 15SM 29/25 A2965 RMK 70006 SLP043 T02940252 52006 IEM_DS3505
ZGSZ,2009-07-24 01:00,ZGSZ 240100Z AUTO 21006KT 7SM 30/26 A2965 RMK T03000260 IEM_DS3505
ZGSZ,2009-07-24 02:00,ZGSZ 240200Z AUTO 22006KT 7SM 29/25 A2965 RMK T02900250 IEM_DS3505
ZGSZ,2009-07-24 03:00,ZGSZ 240300Z AUTO 22012KT 17SM 30/25 A2965 RMK SLP044 T03010254 52001 IEM_DS3505
ZGSZ,2009-07-24 04:00,ZGSZ 240400Z AUTO 23006KT 7SM 32/26 A2965 RMK T03200260 IEM_DS3505
ZGSZ,2009-07-24 05:00,ZGSZ 240500Z AUTO 21004KT 7SM 32/25 A2962 RMK T03200250 IEM_DS3505
ZGSZ,2009-07-24 06:00,ZGSZ 240600Z AUTO 22012KT 19SM 30/25 A2962 RMK 60002 SLP034 T02970252 57010 IEM_DS3505
ZGSZ,2009-07-24 07:00,ZGSZ 240700Z AUTO 16012KT 7SM 30/27 A2962 RMK T03000270 IEM_DS3505
ZGSZ,2009-07-24 08:00,ZGSZ 240800Z AUTO 17014KT 7SM 31/27 A2959 RMK T03100270 IEM_DS3505
ZGSZ,2009-07-24 09:00,ZGSZ 240900Z AUTO 22012KT 17SM 30/25 A2959 RMK SLP027 T02980247 57007 IEM_DS3505
ZGSZ,2009-07-24 10:00,ZGSZ 241000Z AUTO 17012KT 7SM 30/26 A2959 RMK T03000260 IEM_DS3505
ZGSZ,2009-07-24 11:00,ZGSZ 241100Z AUTO 16010KT 7SM 30/27 A2959 RMK T03000270 IEM_DS3505
ZGSZ,2009-07-24 12:00,ZGSZ 241200Z AUTO 14004KT 17SM 29/25 A2959 RMK SLP031 T02880254 52004 IEM_DS3505
ZGSZ,2009-07-24 13:00,ZGSZ 241300Z AUTO 17010KT 7SM 29/26 A2962 RMK T02900260 IEM_DS3505
ZGSZ,2009-07-24 14:00,ZGSZ 241400Z AUTO 17010KT 7SM 29/26 A2965 RMK T02900260 IEM_DS3505
ZGSZ,2009-07-24 15:00,ZGSZ 241500Z AUTO 18002KT 17SM 28/26 A2965 RMK SLP047 T02840256 52016 IEM_DS3505
ZGSZ,2009-07-24 16:00,ZGSZ 241600Z AUTO 16010KT 7SM 29/26 A2965 RMK T02900260 IEM_DS3505
ZGSZ,2009-07-24 17:00,ZGSZ 241700Z AUTO 17008KT 7SM 29/26 A2965 RMK T02900260 IEM_DS3505
ZGSZ,2009-07-24 18:00,ZGSZ 241800Z AUTO 18002KT 17SM 28/25 A2962 RMK SLP037 T02820254 57010 IEM_DS3505
ZGSZ,2009-07-24 19:00,ZGSZ 241900Z AUTO 16008KT 7SM 29/26 A2962 RMK T02900260 IEM_DS3505
ZGSZ,2009-07-24 20:00,ZGSZ 242000Z AUTO 14008KT 7SM 29/26 A2962 RMK T02900260 IEM_DS3505
ZGSZ,2009-07-24 21:00,ZGSZ 242100Z AUTO 22004KT 17SM 28/25 A2959 RMK 70002 SLP029 T02780252 57008 IEM_DS3505
ZGSZ,2009-07-24 22:00,ZGSZ 242200Z AUTO 20006KT 7SM 29/25 A2962 RMK T02900250 IEM_DS3505
ZGSZ,2009-07-24 23:00,ZGSZ 242300Z AUTO 22006KT 7SM 29/26 A2962 RMK T02900260 IEM_DS3505
ZGSZ,2009-07-25 00:00,ZGSZ 250000Z AUTO 32002KT 16SM 28/24 A2965 RMK 70002 SLP040 T02780242 52011 IEM_DS3505
ZGSZ,2009-07-25 01:00,ZGSZ 250100Z AUTO 17006KT 7SM 30/26 A2965 RMK T03000260 IEM_DS3505
ZGSZ,2009-07-25 02:00,ZGSZ 250200Z AUTO 18006KT 7SM 31/26 A2965 RMK T03100260 IEM_DS3505
ZGSZ,2009-07-25 03:00,ZGSZ 250300Z AUTO 22006KT 16SM 30/25 A2965 RMK SLP043 T03010254 52003 IEM_DS3505
ZGSZ,2009-07-25 04:00,ZGSZ 250400Z AUTO 16010KT 7SM 32/26 A2965 RMK T03200260 IEM_DS3505
ZGSZ,2009-07-25 05:00,ZGSZ 250500Z AUTO 18010KT 7SM 31/27 A2962 RMK T03100270 IEM_DS3505
ZGSZ,2009-07-25 06:00,ZGSZ 250600Z AUTO 22008KT 19SM 32/25 A2962 RMK SLP029 T03150249 57014 IEM_DS3505
ZGSZ,2009-07-25 07:00,ZGSZ 250700Z AUTO 22016KT 1 1/4SM 27/25 A2962 RMK T02700250 IEM_DS3505
ZGSZ,2009-07-25 08:00,ZGSZ 250800Z AUTO 15008KT 7SM 28/25 A2959 RMK T02800250 IEM_DS3505
ZGSZ,2009-07-25 09:00,ZGSZ 250900Z AUTO 22012KT 19SM 30/25 A2959 RMK SLP024 T02980249 57005 IEM_DS3505
ZGSZ,2009-07-25 10:00,ZGSZ 251000Z AUTO 16012KT 6SM 30/27 A2959 RMK T03000270 IEM_DS3505
ZGSZ,2009-07-25 11:00,ZGSZ 251100Z AUTO 17010KT 6SM 30/26 A2962 RMK T03000260 IEM_DS3505
ZGSZ,2009-07-25 12:00,ZGSZ 251200Z AUTO 16002KT 19SM 29/25 A2962 RMK SLP038 T02900254 52014 IEM_DS3505
ZGSZ,2009-07-25 13:00,ZGSZ 251300Z AUTO 16010KT 7SM 29/26 A2962 RMK T02900260 IEM_DS3505
ZGSZ,2009-07-25 14:00,ZGSZ 251400Z AUTO 15010KT 7SM 29/26 A2965 RMK T02900260 IEM_DS3505
ZGSZ,2009-07-25 15:00,ZGSZ 251500Z AUTO 25002KT 16SM 29/25 A2965 RMK SLP047 T02860252 52009 IEM_DS3505
ZGSZ,2009-07-25 16:00,ZGSZ 251600Z AUTO 18010KT 7SM 29/26 A2965 RMK T02900260 IEM_DS3505
ZGSZ,2009-07-25 17:00,ZGSZ 251700Z AUTO 17010KT 7SM 29/26 A2965 RMK T02900260 IEM_DS3505
ZGSZ,2009-07-25 18:00,ZGSZ 251800Z AUTO 22008KT 16SM 29/25 A2965 RMK SLP040 T02860250 57007 IEM_DS3505
ZGSZ,2009-07-25 19:00,ZGSZ 251900Z AUTO 17008KT 7SM 29/26 A2962 RMK T02900260 IEM_DS3505
ZGSZ,2009-07-25 20:00,ZGSZ 252000Z AUTO 16008KT 6SM 28/26 A2962 RMK T02800260 IEM_DS3505
ZGSZ,2009-07-25 21:00,ZGSZ 252100Z AUTO 22004KT 16SM 28/24 A2965 RMK 70000 SLP043 T02810239 52003 IEM_DS3505
ZGSZ,2009-07-25 22:00,ZGSZ 252200Z AUTO 15004KT 7SM 28/26 A2962 RMK T02800260 IEM_DS3505
ZGSZ,2009-07-25 23:00,ZGSZ 252300Z AUTO 15004KT 7SM 29/27 A2965 RMK T02900270 IEM_DS3505
ZGSZ,2009-07-26 00:00,ZGSZ 260000Z AUTO 16004KT 12SM 29/25 A2965 RMK 60000 70000 SLP046 T02860248 52003 IEM_DS3505
ZGSZ,2009-07-26 01:00,ZGSZ 260100Z AUTO 15006KT 7SM 31/26 A2965 RMK T03100260 IEM_DS3505
ZGSZ,2009-07-26 02:00,ZGSZ 260200Z AUTO 18008KT 7SM 31/26 A2965 RMK T03100260 IEM_DS3505
ZGSZ,2009-07-26 03:00,ZGSZ 260300Z AUTO 27004KT 16SM 30/25 A2965 RMK SLP043 T03020246 57003 IEM_DS3505
ZGSZ,2009-07-26 04:00,ZGSZ 260400Z AUTO 16008KT 7SM 32/26 A2962 RMK T03200260 IEM_DS3505
ZGSZ,2009-07-26 05:00,ZGSZ 260500Z AUTO 17010KT 7SM 32/26 A2962 RMK T03200260 IEM_DS3505
ZGSZ,2009-07-26 06:00,ZGSZ 260600Z AUTO 22004KT 16SM 33/24 A2959 RMK 60000 SLP028 T03290241 57015 IEM_DS3505
ZGSZ,2009-07-26 07:00,ZGSZ 260700Z AUTO 17014KT 7SM 32/26 A2959 RMK T03200260 IEM_DS3505
ZGSZ,2009-07-26 08:00,ZGSZ 260800Z AUTO 16012KT 7SM 31/26 A2956 RMK T03100260 IEM_DS3505
ZGSZ,2009-07-26 09:00,ZGSZ 260900Z AUTO 22004KT 16SM 30/23 A2956 RMK SLP013 T03000234 57015 IEM_DS3505
ZGSZ,2009-07-26 10:00,ZGSZ 261000Z AUTO 18012KT 6SM 31/25 A2959 RMK T03100250 IEM_DS3505
ZGSZ,2009-07-26 11:00,ZGSZ 261100Z AUTO 15010KT 6SM 30/25 A2959 RMK T03000250 IEM_DS3505
ZGSZ,2009-07-26 12:00,ZGSZ 261200Z AUTO 18004KT 12SM 29/25 A2962 RMK SLP031 T02890251 52018 IEM_DS3505
ZGSZ,2009-07-26 13:00,ZGSZ 261300Z AUTO 15006KT 6SM 30/25 A2962 RMK T03000250 IEM_DS3505
ZGSZ,2009-07-26 14:00,ZGSZ 261400Z AUTO 15006KT 6SM 30/25 A2965 RMK T03000250 IEM_DS3505
ZGSZ,2009-07-26 15:00,ZGSZ 261500Z AUTO 16006KT 12SM 29/26 A2965 RMK SLP045 T02860256 52014 IEM_DS3505
ZGSZ,2009-07-26 16:00,ZGSZ 261600Z AUTO 17012KT 7SM 30/26 A2965 RMK T03000260 IEM_DS3505
ZGSZ,2009-07-26 17:00,ZGSZ 261700Z AUTO 16010KT 7SM 30/25 A2962 RMK T03000250 IEM_DS3505
ZGSZ,2009-07-26 18:00,ZGSZ 261800Z AUTO 14002KT 14SM 28/25 A2962 RMK SLP034 T02830251 57011 IEM_DS3505
ZGSZ,2009-07-26 19:00,ZGSZ 261900Z AUTO 16006KT 7SM 29/26 A2959 RMK T02900260 IEM_DS3505
ZGSZ,2009-07-26 20:00,ZGSZ 262000Z AUTO 18008KT 7SM 29/26 A2959 RMK T02900260 IEM_DS3505
ZGSZ,2009-07-26 21:00,ZGSZ 262100Z AUTO 20002KT 14SM 28/25 A2959 RMK 70000 SLP027 T02830247 57007 IEM_DS3505
ZGSZ,2009-07-26 22:00,ZGSZ 262200Z AUTO 16004KT 7SM 28/26 A2959 RMK T02800260 IEM_DS3505
ZGSZ,2009-07-26 23:00,ZGSZ 262300Z AUTO 15006KT 7SM 28/26 A2962 RMK T02800260 IEM_DS3505
ZGSZ,2009-07-27 00:00,ZGSZ 270000Z AUTO 22002KT 9SM 27/25 A2962 RMK 60003 70003 SLP037 T02730251 52010 IEM_DS3505
ZGSZ,2009-07-27 01:00,ZGSZ 270100Z AUTO 15008KT 7SM 29/26 A2962 RMK T02900260 IEM_DS3505
ZGSZ,2009-07-27 02:00,ZGSZ 270200Z AUTO 15008KT 7SM 30/26 A2962 RMK T03000260 IEM_DS3505
ZGSZ,2009-07-27 03:00,ZGSZ 270300Z AUTO 14004KT 11SM 30/26 A2962 RMK SLP038 T02990256 52001 IEM_DS3505
ZGSZ,2009-07-27 04:00,ZGSZ 270400Z AUTO 16008KT 7SM 31/27 A2962 RMK T03100270 IEM_DS3505
ZGSZ,2009-07-27 05:00,ZGSZ 270500Z AUTO 15010KT 7SM 31/26 A2959 RMK T03100260 IEM_DS3505
ZGSZ,2009-07-27 06:00,ZGSZ 270600Z AUTO 14002KT 14SM 30/26 A2959 RMK 60043 SLP025 T03050256 57013 IEM_DS3505
ZGSZ,2009-07-27 07:00,ZGSZ 270700Z AUTO 16010KT 7SM 31/26 A2956 RMK T03100260 IEM_DS3505
ZGSZ,2009-07-27 08:00,ZGSZ 270800Z AUTO 17012KT 7SM 31/26 A2956 RMK T03100260 IEM_DS3505
ZGSZ,2009-07-27 09:00,ZGSZ 270900Z AUTO 18004KT 14SM 30/24 A2956 RMK SLP012 T03050239 57013 IEM_DS3505
ZGSZ,2009-07-27 10:00,ZGSZ 271000Z AUTO 17010KT 7SM 30/26 A2953 RMK T03000260 IEM_DS3505
ZGSZ,2009-07-27 11:00,ZGSZ 271100Z AUTO 16008KT 6SM 30/25 A2956 RMK T03000250 IEM_DS3505
ZGSZ,2009-07-27 12:00,ZGSZ 271200Z AUTO 16002KT 14SM 29/25 A2956 RMK SLP020 T02870251 52008 IEM_DS3505
ZGSZ,2009-07-27 13:00,ZGSZ 271300Z AUTO 14006KT 6SM 30/25 A2959 RMK T03000250 IEM_DS3505
ZGSZ,2009-07-27 14:00,ZGSZ 271400Z AUTO 15008KT 7SM 29/25 A2959 RMK T02900250 IEM_DS3505
ZGSZ,2009-07-27 15:00,ZGSZ 271500Z AUTO 09002KT 14SM 28/25 A2959 RMK SLP029 T02830247 52009 IEM_DS3505
ZGSZ,2009-07-27 16:00,ZGSZ 271600Z AUTO 15004KT 7SM 29/26 A2959 RMK T02900260 IEM_DS3505
ZGSZ,2009-07-27 17:00,ZGSZ 271700Z AUTO 12004KT 7SM 29/25 A2959 RMK T02900250 IEM_DS3505
ZGSZ,2009-07-27 18:00,ZGSZ 271800Z AUTO 11002KT 12SM 28/24 A2956 RMK SLP017 T02820244 57012 IEM_DS3505
ZGSZ,2009-07-27 19:00,ZGSZ 271900Z AUTO 12006KT 6SM 29/25 A2956 RMK T02900250 IEM_DS3505
ZGSZ,2009-07-27 20:00,ZGSZ 272000Z AUTO 11004KT 6SM 29/25 A2956 RMK T02900250 IEM_DS3505
ZGSZ,2009-07-27 21:00,ZGSZ 272100Z AUTO 27006KT 9SM 26/24 A2956 RMK 70048 SLP018 T02640235 52001 IEM_DS3505
ZGSZ,2009-07-27 22:00,ZGSZ 272200Z AUTO 11006KT 5SM 28/25 A2959 RMK T02800250 IEM_DS3505
ZGSZ,2009-07-27 23:00,ZGSZ 272300Z AUTO 01004KT 7SM 27/25 A2959 RMK T02700250 IEM_DS3505
ZGSZ,2009-07-28 00:00,ZGSZ 280000Z AUTO 04004KT 13SM 25/24 A2959 RMK 60039 70081 SLP032 T02540240 52013 IEM_DS3505
ZGSZ,2009-07-28 01:00,ZGSZ 280100Z AUTO 11006KT 7SM 29/25 A2962 RMK T02900250 IEM_DS3505
ZGSZ,2009-07-28 02:00,ZGSZ 280200Z AUTO 18006KT 7SM 28/25 A2962 RMK T02800250 IEM_DS3505
ZGSZ,2009-07-28 03:00,ZGSZ 280300Z AUTO 27002KT 14SM 30/26 A2962 RMK SLP033 T02980264 52002 IEM_DS3505
ZGSZ,2009-07-28 04:00,ZGSZ 280400Z AUTO 16010KT 7SM 31/26 A2959 RMK T03100260 IEM_DS3505
ZGSZ,2009-07-28 05:00,ZGSZ 280500Z AUTO 17012KT 7SM 31/26 A2959 RMK T03100260 IEM_DS3505
ZGSZ,2009-07-28 06:00,ZGSZ 280600Z AUTO 22002KT 14SM 30/26 A2956 RMK 60000 SLP018 T03000262 57015 IEM_DS3505
ZGSZ,2009-07-28 07:00,ZGSZ 280700Z AUTO 18010KT 7SM 31/27 A2956 RMK T03100270 IEM_DS3505
ZGSZ,2009-07-28 08:00,ZGSZ 280800Z AUTO 17010KT 6SM 32/26 A2953 RMK T03200260 IEM_DS3505
ZGSZ,2009-07-28 09:00,ZGSZ 280900Z AUTO 16004KT 16SM 31/24 A2953 RMK SLP009 T03110240 57009 IEM_DS3505
ZGSZ,2009-07-28 10:00,ZGSZ 281000Z AUTO 16012KT 7SM 31/26 A2953 RMK T03100260 IEM_DS3505
ZGSZ,2009-07-28 11:00,ZGSZ 281100Z AUTO 18010KT 6SM 30/26 A2956 RMK T03000260 IEM_DS3505
ZGSZ,2009-07-28 12:00,ZGSZ 281200Z AUTO 20004KT 12SM 29/25 A2959 RMK SLP022 T02910253 52012 IEM_DS3505
ZGSZ,2009-07-28 13:00,ZGSZ 281300Z AUTO 15004KT 7SM 29/26 A2959 RMK T02900260 IEM_DS3505
ZGSZ,2009-07-28 14:00,ZGSZ 281400Z AUTO 15008KT 7SM 30/25 A2962 RMK T03000250 IEM_DS3505
ZGSZ,2009-07-28 15:00,ZGSZ 281500Z AUTO 11004KT 11SM 29/25 A2962 RMK SLP040 T02880246 52019 IEM_DS3505
ZGSZ,2009-07-28 16:00,ZGSZ 281600Z AUTO 10006KT 6SM 29/25 A2962 RMK T02900250 IEM_DS3505
ZGSZ,2009-07-28 17:00,ZGSZ 281700Z AUTO 10006KT 6SM 29/25 A2959 RMK T02900250 IEM_DS3505
ZGSZ,2009-07-28 18:00,ZGSZ 281800Z AUTO 11004KT 9SM 28/25 A2959 RMK SLP028 T02840250 57012 IEM_DS3505
ZGSZ,2009-07-28 19:00,ZGSZ 281900Z AUTO 10004KT 6SM 29/25 A2959 RMK T02900250 IEM_DS3505
ZGSZ,2009-07-28 20:00,ZGSZ 282000Z AUTO 11006KT 6SM 29/25 A2959 RMK T02900250 IEM_DS3505
ZGSZ,2009-07-28 21:00,ZGSZ 282100Z AUTO 09004KT 9SM 28/25 A2959 RMK 70035 SLP024 T02780246 57004 IEM_DS3505
ZGSZ,2009-07-28 22:00,ZGSZ 282200Z AUTO 10004KT 7SM 28/25 A2959 RMK T02800250 IEM_DS3505
ZGSZ,2009-07-28 23:00,ZGSZ 282300Z AUTO 10006KT 7SM 29/25 A2962 RMK T02900250 IEM_DS3505
ZGSZ,2009-07-29 00:00,ZGSZ 290000Z AUTO 07004KT 10SM 29/25 A2965 RMK 70000 SLP041 T02870249 52017 IEM_DS3505
ZGSZ,2009-07-29 01:00,ZGSZ 290100Z AUTO 11008KT 7SM 31/26 A2965 RMK T03100260 IEM_DS3505
ZGSZ,2009-07-29 02:00,ZGSZ 290200Z AUTO 12010KT 7SM 32/26 A2962 RMK T03200260 IEM_DS3505
ZGSZ,2009-07-29 03:00,ZGSZ 290300Z AUTO 11006KT 12SM 32/25 A2962 RMK SLP039 T03150251 57002 IEM_DS3505
ZGSZ,2009-07-29 04:00,ZGSZ 290400Z AUTO 19008KT 7SM 32/27 A2962 RMK T03200270 IEM_DS3505
ZGSZ,2009-07-29 05:00,ZGSZ 290500Z AUTO 16004KT 7SM 30/26 A2962 RMK T03000260 IEM_DS3505
ZGSZ,2009-07-29 06:00,ZGSZ 290600Z AUTO 18006KT 16SM 31/25 A2962 RMK 60028 SLP033 T03060247 57006 IEM_DS3505
ZGSZ,2009-07-29 07:00,ZGSZ 290700Z AUTO 18008KT 7SM 31/25 A2959 RMK T03100250 IEM_DS3505
ZGSZ,2009-07-29 08:00,ZGSZ 290800Z AUTO 17010KT 7SM 32/25 A2959 RMK T03200250 IEM_DS3505
ZGSZ,2009-07-29 09:00,ZGSZ 290900Z AUTO 20002KT 17SM 31/23 A2959 RMK SLP024 T03130234 57009 IEM_DS3505
ZGSZ,2009-07-29 10:00,ZGSZ 291000Z AUTO 13004KT 6SM 32/24 A2959 RMK T03200240 IEM_DS3505
ZGSZ,2009-07-29 11:00,ZGSZ 291100Z AUTO 15008KT 7SM 30/25 A2962 RMK T03000250 IEM_DS3505
ZGSZ,2009-07-29 12:00,ZGSZ 291200Z AUTO 09004KT 16SM 29/24 A2962 RMK SLP040 T02910244 52016 IEM_DS3505
ZGSZ,2009-07-29 13:00,ZGSZ 291300Z AUTO 09008KT 6SM 30/25 A2965 RMK T03000250 IEM_DS3505
ZGSZ,2009-07-29 14:00,ZGSZ 291400Z AUTO 09008KT 6SM 30/25 A2965 RMK T03000250 IEM_DS3505
ZGSZ,2009-07-29 15:00,ZGSZ 291500Z AUTO 09006KT 16SM 28/24 A2968 RMK SLP050 T02830245 52010 IEM_DS3505
ZGSZ,2009-07-29 16:00,ZGSZ 291600Z AUTO 11010KT 6SM 29/25 A2965 RMK T02900250 IEM_DS3505
ZGSZ,2009-07-29 17:00,ZGSZ 291700Z AUTO 10006KT 6SM 29/25 A2962 RMK T02900250 IEM_DS3505
ZGSZ,2009-07-29 18:00,ZGSZ 291800Z AUTO 09004KT 16SM 28/24 A2962 RMK SLP033 T02830245 57017 IEM_DS3505
ZGSZ,2009-07-29 19:00,ZGSZ 291900Z AUTO 7SM 29/25 A2962 RMK T02900250 IEM_DS3505
ZGSZ,2009-07-29 20:00,ZGSZ 292000Z AUTO 03004KT 7SM 28/25 A2962 RMK T02800250 IEM_DS3505
ZGSZ,2009-07-29 21:00,ZGSZ 292100Z AUTO 07004KT 16SM 28/24 A2962 RMK 70026 SLP029 T02790245 57004 IEM_DS3505
ZGSZ,2009-07-29 22:00,ZGSZ 292200Z AUTO 05004KT 7SM 28/25 A2962 RMK T02800250 IEM_DS3505
ZGSZ,2009-07-29 23:00,ZGSZ 292300Z AUTO 11004KT 7SM 28/25 A2962 RMK T02800250 IEM_DS3505
ZGSZ,2009-07-30 00:00,ZGSZ 300000Z AUTO 04004KT 7SM 28/25 A2965 RMK 60002 70029 SLP040 T02760248 52011 IEM_DS3505
ZGSZ,2009-07-30 01:00,ZGSZ 300100Z AUTO 07008KT 7SM 30/26 A2965 RMK T03000260 IEM_DS3505
ZGSZ,2009-07-30 02:00,ZGSZ 300200Z AUTO 1 1/4SM 27/25 A2965 RMK T02700250 IEM_DS3505
ZGSZ,2009-07-30 03:00,ZGSZ 300300Z AUTO 09006KT 16SM 31/25 A2965 RMK SLP042 T03070248 52002 IEM_DS3505
ZGSZ,2009-07-30 04:00,ZGSZ 300400Z AUTO 12010KT 7SM 32/25 A2962 RMK T03200250 IEM_DS3505
ZGSZ,2009-07-30 05:00,ZGSZ 300500Z AUTO 12014KT 7SM 33/24 A2962 RMK T03300240 IEM_DS3505
ZGSZ,2009-07-30 06:00,ZGSZ 300600Z AUTO 04004KT 19SM 30/24 A2959 RMK 60002 SLP027 T03010245 57015 IEM_DS3505
ZGSZ,2009-07-30 07:00,ZGSZ 300700Z AUTO 11012KT 7SM 33/24 A2956 RMK T03300240 IEM_DS3505
ZGSZ,2009-07-30 08:00,ZGSZ 300800Z AUTO 12012KT 7SM 31/24 A2956 RMK T03100240 IEM_DS3505
ZGSZ,2009-07-30 09:00,ZGSZ 300900Z AUTO 09006KT 17SM 29/24 A2959 RMK SLP021 T02900243 57006 IEM_DS3505
ZGSZ,2009-07-30 10:00,ZGSZ 301000Z AUTO 08006KT 7SM 31/25 A2959 RMK T03100250 IEM_DS3505
ZGSZ,2009-07-30 11:00,ZGSZ 301100Z AUTO 09008KT 7SM 31/25 A2959 RMK T03100250 IEM_DS3505
ZGSZ,2009-07-30 12:00,ZGSZ 301200Z AUTO 11004KT 11SM 28/25 A2959 RMK 60000 SLP031 T02820246 52010 IEM_DS3505
ZGSZ,2009-07-30 13:00,ZGSZ 301300Z AUTO 10008KT 7SM 28/25 A2962 RMK T02800250 IEM_DS3505
ZGSZ,2009-07-30 14:00,ZGSZ 301400Z AUTO 11008KT 7SM 29/25 A2965 RMK T02900250 IEM_DS3505
ZGSZ,2009-07-30 15:00,ZGSZ 301500Z AUTO 11004KT 16SM 28/24 A2965 RMK SLP043 T02820242 52012 IEM_DS3505
ZGSZ,2009-07-30 16:00,ZGSZ 301600Z AUTO 08008KT 6SM 29/24 A2965 RMK T02900240 IEM_DS3505
ZGSZ,2009-07-30 17:00,ZGSZ 301700Z AUTO 08004KT 7SM 29/25 A2962 RMK T02900250 IEM_DS3505
ZGSZ,2009-07-30 18:00,ZGSZ 301800Z AUTO 11006KT 10SM 28/24 A2962 RMK 60002 SLP032 T02760244 57011 IEM_DS3505
ZGSZ,2009-07-30 19:00,ZGSZ 301900Z AUTO 05004KT 7SM 28/25 A2959 RMK T02800250 IEM_DS3505
ZGSZ,2009-07-30 20:00,ZGSZ 302000Z AUTO 09008KT 7SM 28/25 A2959 RMK T02800250 IEM_DS3505
ZGSZ,2009-07-30 21:00,ZGSZ 302100Z AUTO 09006KT 16SM 27/24 A2959 RMK 70019 SLP026 T02730244 57006 IEM_DS3505
ZGSZ,2009-07-30 22:00,ZGSZ 302200Z AUTO 08004KT 7SM 28/25 A2962 RMK T02800250 IEM_DS3505
ZGSZ,2009-07-30 23:00,ZGSZ 302300Z AUTO 10004KT 7SM 28/25 A2962 RMK T02800250 IEM_DS3505
ZGSZ,2009-07-31 00:00,ZGSZ 310000Z AUTO 07006KT 16SM 28/24 A2962 RMK 60012 70017 SLP040 T02810245 52014 IEM_DS3505
ZGSZ,2009-07-31 01:00,ZGSZ 310100Z AUTO 12010KT 7SM 31/24 A2965 RMK T03100240 IEM_DS3505
ZGSZ,2009-07-31 02:00,ZGSZ 310200Z AUTO 12010KT 7SM 32/26 A2965 RMK T03200260 IEM_DS3505
ZGSZ,2009-07-31 03:00,ZGSZ 310300Z AUTO 09008KT 19SM 31/23 A2965 RMK SLP046 T03100231 52006 IEM_DS3505
ZGSZ,2009-07-31 04:00,ZGSZ 310400Z AUTO 13012KT 7SM 33/24 A2965 RMK T03300240 IEM_DS3505
ZGSZ,2009-07-31 05:00,ZGSZ 310500Z AUTO 12012KT 7SM 33/25 A2965 RMK T03300250 IEM_DS3505
ZGSZ,2009-07-31 06:00,ZGSZ 310600Z AUTO 09006KT 19SM 32/23 A2962 RMK 60008 SLP038 T03200227 57008 IEM_DS3505
ZGSZ,2009-07-31 07:00,ZGSZ 310700Z AUTO 10012KT 7SM 33/24 A2962 RMK T03300240 IEM_DS3505
ZGSZ,2009-07-31 08:00,ZGSZ 310800Z AUTO 10014KT 7SM 33/23 A2962 RMK T03300230 IEM_DS3505
ZGSZ,2009-07-31 09:00,ZGSZ 310900Z AUTO 11008KT 19SM 31/22 A2959 RMK SLP032 T03110219 57006 IEM_DS3505
ZGSZ,2009-07-31 10:00,ZGSZ 311000Z AUTO 11012KT 6SM 33/23 A2962 RMK T03300230 IEM_DS3505
ZGSZ,2009-07-31 11:00,ZGSZ 311100Z AUTO 11010KT 6SM 31/23 A2962 RMK T03100230 IEM_DS3505
ZGSZ,2009-07-31 12:00,ZGSZ 311200Z AUTO 11004KT 19SM 29/23 A2962 RMK SLP041 T02900234 52009 IEM_DS3505
ZGSZ,2009-07-31 13:00,ZGSZ 311300Z AUTO 10008KT 6SM 30/23 A2965 RMK T03000230 IEM_DS3505
ZGSZ,2009-07-31 14:00,ZGSZ 311400Z AUTO 10006KT 6SM 30/24 A2968 RMK T03000240 IEM_DS3505
ZGSZ,2009-07-31 15:00,ZGSZ 311500Z AUTO 09006KT 16SM 29/24 A2968 RMK SLP055 T02860237 52014 IEM_DS3505
ZGSZ,2009-07-31 16:00,ZGSZ 311600Z AUTO 10006KT 6SM 29/24 A2968 RMK T02900240 IEM_DS3505
ZGSZ,2009-07-31 17:00,ZGSZ 311700Z AUTO 08004KT 6SM 29/24 A2965 RMK T02900240 IEM_DS3505
ZGSZ,2009-07-31 18:00,ZGSZ 311800Z AUTO 07004KT 16SM 28/24 A2962 RMK SLP037 T02770241 57018 IEM_DS3505
ZGSZ,2009-07-31 19:00,ZGSZ 311900Z AUTO 04004KT 6SM 28/24 A2962 RMK T02800240 IEM_DS3505
ZGSZ,2009-07-31 20:00,ZGSZ 312000Z AUTO 6SM 28/24 A2962 RMK T02800240 IEM_DS3505
ZGSZ,2009-07-31 21:00,ZGSZ 312100Z AUTO 04004KT 16SM 27/24 A2962 RMK 70009 SLP033 T02700237 57004 IEM_DS3505
ZGSZ,2009-07-31 22:00,ZGSZ 312200Z AUTO 02002KT 6SM 28/24 A2962 RMK T02800240 IEM_DS3505
ZGSZ,2009-07-31 23:00,ZGSZ 312300Z AUTO 03004KT 6SM 28/24 A2962 RMK T02800240 IEM_DS3505
ZGSZ,2009-08-01 00:00,ZGSZ 010000Z AUTO 07004KT 11SM 29/24 A2962 RMK 70009 SLP039 T02910238 52006 IEM_DS3505
ZGSZ,2009-08-01 01:00,ZGSZ 010100Z AUTO 6SM 32/23 A2965 RMK T03200230 IEM_DS3505
ZGSZ,2009-08-01 02:00,ZGSZ 010200Z AUTO 6SM 32/25 A2965 RMK T03200250 IEM_DS3505
ZGSZ,2009-08-01 03:00,ZGSZ 010300Z AUTO 04004KT 11SM 32/22 A2965 RMK SLP040 T03240225 52001 IEM_DS3505
ZGSZ,2009-08-01 04:00,ZGSZ 010400Z AUTO 28008KT 7SM 33/22 A2962 RMK T03300220 IEM_DS3505
ZGSZ,2009-08-01 05:00,ZGSZ 010500Z AUTO 28010KT 7SM 33/24 A2962 RMK T03300240 IEM_DS3505
ZGSZ,2009-08-01 06:00,ZGSZ 010600Z AUTO 32004KT 8SM 33/22 A2956 RMK SLP016 T03340216 57024 IEM_DS3505
ZGSZ,2009-08-01 07:00,ZGSZ 010700Z AUTO 29010KT 6SM 35/21 A2953 RMK T03500210 IEM_DS3505
ZGSZ,2009-08-01 08:00,ZGSZ 010800Z AUTO 30010KT 7SM 35/23 A2953 RMK T03500230 IEM_DS3505
ZGSZ,2009-08-01 09:00,ZGSZ 010900Z AUTO 32002KT 8SM 34/22 A2953 RMK SLP999 T03370215 57017 IEM_DS3505
ZGSZ,2009-08-01 10:00,ZGSZ 011000Z AUTO 31006KT 6SM 35/24 A2950 RMK T03500240 IEM_DS3505
ZGSZ,2009-08-01 11:00,ZGSZ 011100Z AUTO 28004KT 6SM 33/26 A2953 RMK T03300260 IEM_DS3505
ZGSZ,2009-08-01 12:00,ZGSZ 011200Z AUTO 22004KT 6SM 32/24 A2953 RMK SLP009 T03160245 52010 IEM_DS3505
ZGSZ,2009-08-01 13:00,ZGSZ 011300Z AUTO 16004KT 3SM 31/27 A2956 RMK T03100270 IEM_DS3505
ZGSZ,2009-08-01 14:00,ZGSZ 011400Z AUTO 16004KT 4SM 31/27 A2956 RMK T03100270 IEM_DS3505
ZGSZ,2009-08-01 15:00,ZGSZ 011500Z AUTO 20008KT 6SM 30/26 A2959 RMK SLP020 T02960258 52011 IEM_DS3505
ZGSZ,2009-08-01 16:00,ZGSZ 011600Z AUTO 15004KT 2SM 30/28 A2956 RMK T03000280 IEM_DS3505
ZGSZ,2009-08-01 17:00,ZGSZ 011700Z AUTO 00000KT 2SM 30/27 A2956 RMK T03000270 IEM_DS3505
ZGSZ,2009-08-01 18:00,ZGSZ 011800Z AUTO 20002KT 2 1/2SM 29/26 A2953 RMK SLP001 T02910261 57018 IEM_DS3505
ZGSZ,2009-08-01 19:00,ZGSZ 011900Z AUTO 00000KT 1 1/2SM 30/27 A2950 RMK T03000270 IEM_DS3505
ZGSZ,2009-08-01 20:00,ZGSZ 012000Z AUTO 00000KT 1 1/2SM 29/26 A2947 RMK T02900260 IEM_DS3505
ZGSZ,2009-08-01 21:00,ZGSZ 012100Z AUTO 20002KT 3SM 29/26 A2947 RMK SLP986 T02870257 57015 IEM_DS3505
ZGSZ,2009-08-01 22:00,ZGSZ 012200Z AUTO 29004KT 3SM 30/26 A2950 RMK T03000260 IEM_DS3505
ZGSZ,2009-08-01 23:00,ZGSZ 012300Z AUTO 14002KT 1 1/2SM 30/26 A2953 RMK T03000260 IEM_DS3505
ZGSZ,2009-08-02 00:00,ZGSZ 020000Z AUTO 02002KT 2 1/2SM 30/26 A2953 RMK SLP000 T02950259 52013 IEM_DS3505
ZGSZ,2009-08-02 01:00,ZGSZ 020100Z AUTO 28004KT 1 1/2SM 31/26 A2953 RMK T03100260 IEM_DS3505
ZGSZ,2009-08-02 02:00,ZGSZ 020200Z AUTO 03008KT 2 1/2SM 34/25 A2953 RMK T03400250 IEM_DS3505
ZGSZ,2009-08-02 03:00,ZGSZ 020300Z AUTO 07004KT 3SM 33/24 A2950 RMK SLP998 T03330242 57001 IEM_DS3505
ZGSZ,2009-08-02 04:00,ZGSZ 020400Z AUTO 04008KT 6SM 36/25 A2950 RMK T03600250 IEM_DS3505
ZGSZ,2009-08-02 05:00,ZGSZ 020500Z AUTO 04010KT 6SM 37/24 A2947 RMK T03700240 IEM_DS3505
ZGSZ,2009-08-02 06:00,ZGSZ 020600Z AUTO 36006KT 4SM 35/24 A2944 RMK SLP975 T03530236 57023 IEM_DS3505
ZGSZ,2009-08-02 07:00,ZGSZ 020700Z AUTO 05008KT 6SM 37/24 A2944 RMK T03700240 IEM_DS3505
ZGSZ,2009-08-02 08:00,ZGSZ 020800Z AUTO 06006KT 6SM 37/24 A2941 RMK T03700240 IEM_DS3505
ZGSZ,2009-08-02 09:00,ZGSZ 020900Z AUTO 18004KT 2 1/2SM 32/26 A2941 RMK SLP968 T03250258 57007 IEM_DS3505
ZGSZ,2009-08-02 10:00,ZGSZ 021000Z AUTO 25004KT 6SM 35/26 A2941 RMK T03500260 IEM_DS3505
ZGSZ,2009-08-02 11:00,ZGSZ 021100Z AUTO 17006KT 3SM 33/27 A2944 RMK T03300270 IEM_DS3505
ZGSZ,2009-08-02 12:00,ZGSZ 021200Z AUTO 16002KT 2SM 32/26 A2944 RMK SLP978 T03170256 52010 IEM_DS3505
ZGSZ,2009-08-02 13:00,ZGSZ 021300Z AUTO 18008KT 2 1/2SM 31/28 A2944 RMK T03100280 IEM_DS3505
ZGSZ,2009-08-02 14:00,ZGSZ 021400Z AUTO 16006KT 2 1/2SM 31/28 A2947 RMK T03100280 IEM_DS3505
ZGSZ,2009-08-02 15:00,ZGSZ 021500Z AUTO 18004KT 1 1/2SM 30/26 A2947 RMK SLP988 T02990263 52010 IEM_DS3505
ZGSZ,2009-08-02 16:00,ZGSZ 021600Z AUTO 16004KT 2 1/2SM 31/27 A2947 RMK T03100270 IEM_DS3505
ZGSZ,2009-08-02 17:00,ZGSZ 021700Z AUTO 16006KT 2 1/2SM 30/27 A2947 RMK T03000270 IEM_DS3505
ZGSZ,2009-08-02 18:00,ZGSZ 021800Z AUTO 09004KT 2SM 29/26 A2944 RMK SLP976 T02940258 57012 IEM_DS3505
ZGSZ,2009-08-02 19:00,ZGSZ 021900Z AUTO 09004KT 2SM 31/27 A2944 RMK T03100270 IEM_DS3505
ZGSZ,2009-08-02 20:00,ZGSZ 022000Z AUTO 11006KT 3SM 31/26 A2944 RMK T03100260 IEM_DS3505
ZGSZ,2009-08-02 21:00,ZGSZ 022100Z AUTO 07004KT 5SM 30/23 A2944 RMK SLP979 T02950234 52003 IEM_DS3505
ZGSZ,2009-08-02 22:00,ZGSZ 022200Z AUTO 00000KT 7SM 31/24 A2944 RMK T03100240 IEM_DS3505
ZGSZ,2009-08-02 23:00,ZGSZ 022300Z AUTO 6SM 31/25 A2947 RMK T03100250 IEM_DS3505
ZGSZ,2009-08-03 00:00,ZGSZ 030000Z AUTO 02004KT 5SM 30/24 A2947 RMK SLP985 T02990243 52006 IEM_DS3505
ZGSZ,2009-08-03 01:00,ZGSZ 030100Z AUTO 00000KT 7SM 34/25 A2947 RMK T03400250 IEM_DS3505
ZGSZ,2009-08-03 02:00,ZGSZ 030200Z AUTO 35004KT 7SM 34/25 A2947 RMK T03400250 IEM_DS3505
ZGSZ,2009-08-03 03:00,ZGSZ 030300Z AUTO 07004KT 6SM 32/24 A2947 RMK SLP983 T03210244 57002 IEM_DS3505
ZGSZ,2009-08-03 04:00,ZGSZ 030400Z AUTO 05008KT 7SM 35/25 A2944 RMK T03500250 IEM_DS3505
ZGSZ,2009-08-03 05:00,ZGSZ 030500Z AUTO 05010KT 7SM 37/24 A2944 RMK T03700240 IEM_DS3505
ZGSZ,2009-08-03 06:00,ZGSZ 030600Z AUTO 07006KT 5SM 35/23 A2941 RMK SLP960 T03490229 57023 IEM_DS3505
ZGSZ,2009-08-03 07:00,ZGSZ 030700Z AUTO 04010KT 7SM 38/23 A2938 RMK T03800230 IEM_DS3505
ZGSZ,2009-08-03 08:00,ZGSZ 030800Z AUTO 11014KT 7SM 35/24 A2935 RMK T03500240 IEM_DS3505
ZGSZ,2009-08-03 09:00,ZGSZ 030900Z AUTO 14012KT 6SM 30/25 A2938 RMK SLP956 T03020248 57004 IEM_DS3505
ZGSZ,2009-08-03 10:00,ZGSZ 031000Z AUTO 11014KT 7SM 31/25 A2938 RMK T03100250 IEM_DS3505
ZGSZ,2009-08-03 11:00,ZGSZ 031100Z AUTO 04010KT 7SM 31/25 A2941 RMK T03100250 IEM_DS3505
ZGSZ,2009-08-03 12:00,ZGSZ 031200Z AUTO 09006KT 14SM 30/23 A2941 RMK SLP968 T02960228 52011 IEM_DS3505
ZGSZ,2009-08-03 13:00,ZGSZ 031300Z AUTO 10008KT 6SM 31/24 A2944 RMK T03100240 IEM_DS3505
ZGSZ,2009-08-03 14:00,ZGSZ 031400Z AUTO 08012KT 6SM 31/24 A2944 RMK T03100240 IEM_DS3505
ZGSZ,2009-08-03 15:00,ZGSZ 031500Z AUTO 09008KT 16SM 30/23 A2944 RMK SLP973 T02990226 52006 IEM_DS3505
ZGSZ,2009-08-03 16:00,ZGSZ 031600Z AUTO 06008KT 6SM 30/23 A2944 RMK T03000230 IEM_DS3505
ZGSZ,2009-08-03 17:00,ZGSZ 031700Z AUTO 06010KT 7SM 31/23 A2944 RMK T03100230 IEM_DS3505
ZGSZ,2009-08-03 18:00,ZGSZ 031800Z AUTO 07010KT 9SM 27/24 A2941 RMK 60002 SLP966 T02710242 57007 IEM_DS3505
ZGSZ,2009-08-03 19:00,ZGSZ 031900Z AUTO 05008KT 7SM 30/23 A2941 RMK T03000230 IEM_DS3505
ZGSZ,2009-08-03 20:00,ZGSZ 032000Z AUTO 05010KT 7SM 29/24 A2941 RMK T02900240 IEM_DS3505
ZGSZ,2009-08-03 21:00,ZGSZ 032100Z AUTO 02004G19KT 16SM 27/24 A2944 RMK 70004 SLP967 T02710242 54000 IEM_DS3505
ZGSZ,2009-08-03 22:00,ZGSZ 032200Z AUTO 06010KT 5SM 28/24 A2944 RMK T02800240 IEM_DS3505
ZGSZ,2009-08-03 23:00,ZGSZ 032300Z AUTO 03012KT 7SM 29/24 A2944 RMK T02900240 IEM_DS3505
ZGSZ,2009-08-04 00:00,ZGSZ 040000Z AUTO 02010KT 14SM 28/24 A2944 RMK 60003 70004 SLP969 T02750239 52002 IEM_DS3505
ZGSZ,2009-08-04 01:00,ZGSZ 040100Z AUTO 02012KT 7SM 30/24 A2944 RMK T03000240 IEM_DS3505
ZGSZ,2009-08-04 02:00,ZGSZ 040200Z AUTO 03014KT 7SM 30/24 A2944 RMK T03000240 IEM_DS3505
ZGSZ,2009-08-04 03:00,ZGSZ 040300Z AUTO 02010KT 7SM 28/25 A2944 RMK SLP970 T02780246 52001 IEM_DS3505
ZGSZ,2009-08-04 04:00,ZGSZ 040400Z AUTO 04012KT 7SM 31/26 A2941 RMK T03100260 IEM_DS3505
ZGSZ,2009-08-04 05:00,ZGSZ 040500Z AUTO 08014KT 2 1/2SM 30/25 A2938 RMK T03000250 IEM_DS3505
ZGSZ,2009-08-04 06:00,ZGSZ 040600Z AUTO 07008G21KT 7SM 28/26 A2938 RMK 60043 SLP955 T02810261 57015 IEM_DS3505
ZGSZ,2009-08-04 07:00,ZGSZ 040700Z AUTO 04014KT 7SM 30/25 A2935 RMK T03000250 IEM_DS3505
ZGSZ,2009-08-04 08:00,ZGSZ 040800Z AUTO 05010KT 7SM 30/25 A2935 RMK T03000250 IEM_DS3505
ZGSZ,2009-08-04 09:00,ZGSZ 040900Z AUTO 07010G25KT 7SM 27/25 A2935 RMK SLP943 T02710249 57012 IEM_DS3505
ZGSZ,2009-08-04 10:00,ZGSZ 041000Z AUTO 05016KT 7SM 29/25 A2935 RMK T02900250 IEM_DS3505
ZGSZ,2009-08-04 11:00,ZGSZ 041100Z AUTO 05014KT 7SM 29/25 A2935 RMK T02900250 IEM_DS3505
ZGSZ,2009-08-04 12:00,ZGSZ 041200Z AUTO 07010G23KT 8SM 28/25 A2938 RMK 60012 SLP947 T02790249 52004 IEM_DS3505
ZGSZ,2009-08-04 13:00,ZGSZ 041300Z AUTO 08012G21KT 1 1/2SM 28/25 A2938 RMK T02800250 IEM_DS3505
ZGSZ,2009-08-04 14:00,ZGSZ 041400Z AUTO 05010KT 7SM 29/25 A2941 RMK T02900250 IEM_DS3505
ZGSZ,2009-08-04 15:00,ZGSZ 041500Z AUTO 09010KT 7SM 28/25 A2941 RMK SLP965 T02770247 52018 IEM_DS3505
ZGSZ,2009-08-04 16:00,ZGSZ 041600Z AUTO 07008KT 7SM 29/25 A2941 RMK T02900250 IEM_DS3505
ZGSZ,2009-08-04 17:00,ZGSZ 041700Z AUTO 06008KT 7SM 28/25 A2941 RMK T02800250 IEM_DS3505
ZGSZ,2009-08-04 18:00,ZGSZ 041800Z AUTO 09006KT 7SM 27/25 A2938 RMK 60016 SLP958 T02720248 57007 IEM_DS3505
ZGSZ,2009-08-04 19:00,ZGSZ 041900Z AUTO 07010KT 7SM 28/25 A2938 RMK T02800250 IEM_DS3505
ZGSZ,2009-08-04 20:00,ZGSZ 042000Z AUTO 07010KT 7SM 28/25 A2938 RMK T02800250 IEM_DS3505
ZGSZ,2009-08-04 21:00,ZGSZ 042100Z AUTO 11006KT 7SM 27/25 A2938 RMK 70070 SLP959 T02690246 52001 IEM_DS3505
ZGSZ,2009-08-04 22:00,ZGSZ 042200Z AUTO 10010KT 7SM 28/25 A2938 RMK T02800250 IEM_DS3505
ZGSZ,2009-08-04 23:00,ZGSZ 042300Z AUTO 08010KT 7SM 28/25 A2941 RMK T02800250 IEM_DS3505
ZGSZ,2009-08-05 00:00,ZGSZ 050000Z AUTO 09004KT 11SM 27/25 A2941 RMK 60012 70078 SLP964 T02720252 52005 IEM_DS3505
ZGSZ,2009-08-05 01:00,ZGSZ 050100Z AUTO 10010KT 7SM 28/25 A2941 RMK T02800250 IEM_DS3505
ZGSZ,2009-08-05 02:00,ZGSZ 050200Z AUTO 11010KT 7SM 29/25 A2944 RMK T02900250 IEM_DS3505
ZGSZ,2009-08-05 03:00,ZGSZ 050300Z AUTO 11008KT 10SM 28/24 A2944 RMK SLP978 T02840244 52014 IEM_DS3505
ZGSZ,2009-08-05 04:00,ZGSZ 050400Z AUTO 17014KT 2 1/2SM 27/25 A2944 RMK T02700250 IEM_DS3505
ZGSZ,2009-08-05 05:00,ZGSZ 050500Z AUTO 11010KT 7SM 30/26 A2944 RMK T03000260 IEM_DS3505
ZGSZ,2009-08-05 06:00,ZGSZ 050600Z AUTO 11008KT 12SM 29/23 A2941 RMK 60003 SLP965 T02920229 57013 IEM_DS3505
ZGSZ,2009-08-05 07:00,ZGSZ 050700Z AUTO 10014KT 7SM 30/25 A2938 RMK T03000250 IEM_DS3505
ZGSZ,2009-08-05 08:00,ZGSZ 050800Z AUTO 12014KT 7SM 29/25 A2938 RMK T02900250 IEM_DS3505
ZGSZ,2009-08-05 09:00,ZGSZ 050900Z AUTO 14004KT 9SM 27/25 A2938 RMK SLP962 T02690249 57003 IEM_DS3505
ZGSZ,2009-08-05 10:00,ZGSZ 051000Z AUTO 12014KT 7SM 29/25 A2941 RMK T02900250 IEM_DS3505
ZGSZ,2009-08-05 11:00,ZGSZ 051100Z AUTO 12012KT 7SM 28/25 A2941 RMK T02800250 IEM_DS3505
ZGSZ,2009-08-05 12:00,ZGSZ 051200Z AUTO 09004KT 9SM 27/25 A2941 RMK 60020 SLP968 T02740248 52006 IEM_DS3505
ZGSZ,2009-08-05 13:00,ZGSZ 051300Z AUTO 11010KT 4SM 28/25 A2944 RMK T02800250 IEM_DS3505
ZGSZ,2009-08-05 14:00,ZGSZ 051400Z AUTO 10012KT 7SM 27/24 A2944 RMK T02700240 IEM_DS3505
ZGSZ,2009-08-05 15:00,ZGSZ 051500Z AUTO 14002KT 12SM 27/25 A2947 RMK SLP985 T02680250 52017 IEM_DS3505
ZGSZ,2009-08-05 16:00,ZGSZ 051600Z AUTO 11010KT 7SM 29/25 A2944 RMK T02900250 IEM_DS3505
ZGSZ,2009-08-05 17:00,ZGSZ 051700Z AUTO 12010KT 7SM 28/25 A2944 RMK T02800250 IEM_DS3505
ZGSZ,2009-08-05 18:00,ZGSZ 051800Z AUTO 14004KT 9SM 28/25 A2941 RMK 60091 SLP973 T02780252 57012 IEM_DS3505
ZGSZ,2009-08-05 19:00,ZGSZ 051900Z AUTO 10010KT 7SM 28/25 A2941 RMK T02800250 IEM_DS3505
ZGSZ,2009-08-05 20:00,ZGSZ 052000Z AUTO 16014KT 1SM 26/25 A2941 RMK T02600250 IEM_DS3505
ZGSZ,2009-08-05 21:00,ZGSZ 052100Z AUTO 22002KT 4SM 26/25 A2941 RMK 70157 SLP967 T02630247 57006 IEM_DS3505
ZGSZ,2009-08-05 22:00,ZGSZ 052200Z AUTO 11006KT 7SM 27/25 A2941 RMK T02700250 IEM_DS3505
ZGSZ,2009-08-05 23:00,ZGSZ 052300Z AUTO 10010KT 7SM 29/25 A2944 RMK T02900250 IEM_DS3505
ZGSZ,2009-08-06 00:00,ZGSZ 060000Z AUTO 07004KT 8SM 28/26 A2944 RMK 60035 70149 SLP982 T02750257 52015 IEM_DS3505
ZGSZ,2009-08-06 01:00,ZGSZ 060100Z AUTO 10010KT 4SM 29/26 A2947 RMK T02900260 IEM_DS3505
ZGSZ,2009-08-06 02:00,ZGSZ 060200Z AUTO 12010KT 7SM 30/27 A2947 RMK T03000270 IEM_DS3505
ZGSZ,2009-08-06 03:00,ZGSZ 060300Z AUTO 18006KT 11SM 31/25 A2947 RMK SLP984 T03070251 52002 IEM_DS3505
ZGSZ,2009-08-06 05:00,ZGSZ 060500Z AUTO 15008KT 7SM 30/26 A2944 RMK T03000260 IEM_DS3505
ZGSZ,2009-08-06 06:00,ZGSZ 060600Z AUTO 07004KT 10SM 28/25 A2944 RMK 60000 SLP979 T02790249 57005 IEM_DS3505
ZGSZ,2009-08-06 07:00,ZGSZ 060700Z AUTO 15006KT 7SM 30/25 A2944 RMK T03000250 IEM_DS3505
ZGSZ,2009-08-06 08:00,ZGSZ 060800Z AUTO 16006KT 7SM 30/25 A2944 RMK T03000250 IEM_DS3505
ZGSZ,2009-08-06 09:00,ZGSZ 060900Z AUTO 16004KT 14SM 30/23 A2944 RMK SLP971 T03040231 57008 IEM_DS3505
ZGSZ,2009-08-06 10:00,ZGSZ 061000Z AUTO 21004KT 7SM 31/25 A2944 RMK T03100250 IEM_DS3505
ZGSZ,2009-08-06 11:00,ZGSZ 061100Z AUTO 7SM 30/25 A2944 RMK T03000250 IEM_DS3505
ZGSZ,2009-08-06 12:00,ZGSZ 061200Z AUTO 11004KT 7SM 28/25 A2944 RMK SLP977 T02850253 52006 IEM_DS3505
ZGSZ,2009-08-06 13:00,ZGSZ 061300Z AUTO 10004KT 4SM 29/25 A2947 RMK T02900250 IEM_DS3505
ZGSZ,2009-08-06 14:00,ZGSZ 061400Z AUTO 04004KT 3SM 29/25 A2947 RMK T02900250 IEM_DS3505
ZGSZ,2009-08-06 15:00,ZGSZ 061500Z AUTO 07004KT 4SM 28/25 A2950 RMK SLP994 T02770253 52017 IEM_DS3505
ZGSZ,2009-08-06 16:00,ZGSZ 061600Z AUTO 15006KT 3SM 28/26 A2950 RMK T02800260 IEM_DS3505
ZGSZ,2009-08-06 17:00,ZGSZ 061700Z AUTO 00000KT 3SM 28/25 A2944 RMK T02800250 IEM_DS3505
ZGSZ,2009-08-06 18:00,ZGSZ 061800Z AUTO 07002KT 6SM 27/25 A2941 RMK SLP965 T02710246 57029 IEM_DS3505
ZGSZ,2009-08-06 19:00,ZGSZ 061900Z AUTO 02004KT 3SM 27/25 A2944 RMK T02700250 IEM_DS3505
ZGSZ,2009-08-06 20:00,ZGSZ 062000Z AUTO 15004KT 2SM 27/25 A2944 RMK T02700250 IEM_DS3505
ZGSZ,2009-08-06 21:00,ZGSZ 062100Z AUTO 34002KT 5SM 26/25 A2941 RMK 70001 SLP967 T02650249 52002 IEM_DS3505
ZGSZ,2009-08-06 22:00,ZGSZ 062200Z AUTO 01002KT 3SM 27/25 A2944 RMK T02700250 IEM_DS3505
ZGSZ,2009-08-06 23:00,ZGSZ 062300Z AUTO 02004KT 3SM 28/25 A2944 RMK T02800250 IEM_DS3505
ZGSZ,2009-08-07 00:00,ZGSZ 070000Z AUTO 29002KT 4SM 28/25 A2947 RMK 70000 SLP981 T02810251 52014 IEM_DS3505
ZGSZ,2009-08-07 01:00,ZGSZ 070100Z AUTO 33004KT 1 1/2SM 30/26 A2947 RMK T03000260 IEM_DS3505
ZGSZ,2009-08-07 02:00,ZGSZ 070200Z AUTO 36006KT 5SM 32/25 A2947 RMK T03200250 IEM_DS3505
ZGSZ,2009-08-07 03:00,ZGSZ 070300Z AUTO 22006KT 3SM 31/25 A2944 RMK SLP977 T03130254 57004 IEM_DS3505
ZGSZ,2009-08-07 04:00,ZGSZ 070400Z AUTO 25006KT 6SM 32/24 A2944 RMK T03200240 IEM_DS3505
ZGSZ,2009-08-07 05:00,ZGSZ 070500Z AUTO 22006KT 6SM 33/26 A2941 RMK T03300260 IEM_DS3505
ZGSZ,2009-08-07 06:00,ZGSZ 070600Z AUTO 22004KT 7SM 33/23 A2938 RMK SLP953 T03330230 57023 IEM_DS3505
ZGSZ,2009-08-07 07:00,ZGSZ 070700Z AUTO 22004KT 6SM 34/26 A2935 RMK T03400260 IEM_DS3505
ZGSZ,2009-08-07 08:00,ZGSZ 070800Z AUTO 19008KT 6SM 34/26 A2935 RMK T03400260 IEM_DS3505
ZGSZ,2009-08-07 09:00,ZGSZ 070900Z AUTO 22008KT 6SM 31/25 A2935 RMK SLP939 T03070246 57015 IEM_DS3505
ZGSZ,2009-08-07 10:00,ZGSZ 071000Z AUTO 19004KT 4SM 30/27 A2935 RMK T03000270 IEM_DS3505
ZGSZ,2009-08-07 11:00,ZGSZ 071100Z AUTO 16006KT 7SM 30/27 A2935 RMK T03000270 IEM_DS3505
ZGSZ,2009-08-07 12:00,ZGSZ 071200Z AUTO 22004KT 9SM 29/26 A2935 RMK 60020 SLP951 T02870263 52012 IEM_DS3505
ZGSZ,2009-08-07 13:00,ZGSZ 071300Z AUTO 15006KT 6SM 30/27 A2938 RMK T03000270 IEM_DS3505
ZGSZ,2009-08-07 14:00,ZGSZ 071400Z AUTO 19004KT 6SM 30/27 A2938 RMK T03000270 IEM_DS3505
ZGSZ,2009-08-07 15:00,ZGSZ 071500Z AUTO 22004KT 10SM 29/26 A2935 RMK SLP947 T02860262 57003 IEM_DS3505
ZGSZ,2009-08-07 16:00,ZGSZ 071600Z AUTO 21006KT 6SM 29/26 A2935 RMK T02900260 IEM_DS3505
ZGSZ,2009-08-07 17:00,ZGSZ 071700Z AUTO 19006KT 6SM 29/26 A2935 RMK T02900260 IEM_DS3505
ZGSZ,2009-08-07 18:00,ZGSZ 071800Z AUTO 22004KT 7SM 28/26 A2932 RMK SLP937 T02820256 57010 IEM_DS3505
ZGSZ,2009-08-07 19:00,ZGSZ 071900Z AUTO 00000KT 6SM 29/26 A2932 RMK T02900260 IEM_DS3505
ZGSZ,2009-08-07 20:00,ZGSZ 072000Z AUTO 3SM 29/27 A2932 RMK T02900270 IEM_DS3505
ZGSZ,2009-08-07 21:00,ZGSZ 072100Z AUTO 22004KT 5SM 28/26 A2932 RMK 70019 SLP932 T02790255 57005 IEM_DS3505
ZGSZ,2009-08-07 22:00,ZGSZ 072200Z AUTO 25004KT 4SM 29/26 A2932 RMK T02900260 IEM_DS3505
ZGSZ,2009-08-07 23:00,ZGSZ 072300Z AUTO 29006KT 2 1/2SM 29/27 A2932 RMK T02900270 IEM_DS3505
ZGSZ,2009-08-08 00:00,ZGSZ 080000Z AUTO 22004KT 2 1/2SM 29/26 A2932 RMK 60000 70019 SLP934 T02910261 52001 IEM_DS3505
ZGSZ,2009-08-08 01:00,ZGSZ 080100Z AUTO 29010KT 3SM 31/26 A2932 RMK T03100260 IEM_DS3505
ZGSZ,2009-08-08 02:00,ZGSZ 080200Z AUTO 31012KT 5SM 32/25 A2932 RMK T03200250 IEM_DS3505
ZGSZ,2009-08-08 03:00,ZGSZ 080300Z AUTO 25004KT 2 1/2SM 32/24 A2932 RMK SLP932 T03240244 57001 IEM_DS3505
ZGSZ,2009-08-08 04:00,ZGSZ 080400Z AUTO 29010KT 6SM 33/25 A2932 RMK T03300250 IEM_DS3505
ZGSZ,2009-08-08 05:00,ZGSZ 080500Z AUTO 30014KT 7SM 34/24 A2929 RMK T03400240 IEM_DS3505
ZGSZ,2009-08-08 06:00,ZGSZ 080600Z AUTO 36006KT 2 1/2SM 32/22 A2929 RMK SLP925 T03240225 57007 IEM_DS3505
ZGSZ,2009-08-08 07:00,ZGSZ 080700Z AUTO 32010KT 7SM 35/25 A2929 RMK T03500250 IEM_DS3505
ZGSZ,2009-08-08 08:00,ZGSZ 080800Z AUTO 31012KT 7SM 34/25 A2926 RMK T03400250 IEM_DS3505
ZGSZ,2009-08-08 09:00,ZGSZ 080900Z AUTO 32006KT 2 1/2SM 33/23 A2926 RMK SLP913 T03310234 57012 IEM_DS3505
ZGSZ,2009-08-08 10:00,ZGSZ 081000Z AUTO 31012KT 6SM 34/25 A2926 RMK T03400250 IEM_DS3505
ZGSZ,2009-08-08 11:00,ZGSZ 081100Z AUTO 30008KT 6SM 33/26 A2929 RMK T03300260 IEM_DS3505
ZGSZ,2009-08-08 12:00,ZGSZ 081200Z AUTO 32004KT 4SM 32/24 A2932 RMK SLP929 T03200238 52016 IEM_DS3505
ZGSZ,2009-08-08 13:00,ZGSZ 081300Z AUTO 31008KT 6SM 32/26 A2932 RMK T03200260 IEM_DS3505
ZGSZ,2009-08-08 14:00,ZGSZ 081400Z AUTO 30008KT 6SM 31/26 A2932 RMK T03100260 IEM_DS3505
ZGSZ,2009-08-08 15:00,ZGSZ 081500Z AUTO 27002KT 4SM 31/24 A2932 RMK SLP936 T03100242 52007 IEM_DS3505
ZGSZ,2009-08-08 16:00,ZGSZ 081600Z AUTO 28006KT 4SM 31/26 A2932 RMK T03100260 IEM_DS3505
ZGSZ,2009-08-08 17:00,ZGSZ 081700Z AUTO 31006KT 4SM 30/26 A2932 RMK T03000260 IEM_DS3505
ZGSZ,2009-08-08 18:00,ZGSZ 081800Z AUTO 29002KT 3SM 30/25 A2929 RMK SLP928 T02960247 57008 IEM_DS3505
ZGSZ,2009-08-08 19:00,ZGSZ 081900Z AUTO 30006KT 4SM 30/25 A2929 RMK T03000250 IEM_DS3505
ZGSZ,2009-08-08 20:00,ZGSZ 082000Z AUTO 29008KT 5SM 30/25 A2929 RMK T03000250 IEM_DS3505
ZGSZ,2009-08-08 21:00,ZGSZ 082100Z AUTO 22004KT 4SM 29/24 A2929 RMK 70000 SLP927 T02890242 57001 IEM_DS3505
ZGSZ,2009-08-08 22:00,ZGSZ 082200Z AUTO 30008KT 5SM 29/24 A2932 RMK T02900240 IEM_DS3505
ZGSZ,2009-08-08 23:00,ZGSZ 082300Z AUTO 30008KT 5SM 30/25 A2932 RMK T03000250 IEM_DS3505
ZGSZ,2009-08-09 00:00,ZGSZ 090000Z AUTO 34002KT 4SM 30/24 A2935 RMK SLP940 T02970243 52013 IEM_DS3505
ZGSZ,2009-08-09 01:00,ZGSZ 090100Z AUTO 30010KT 4SM 31/25 A2935 RMK T03100250 IEM_DS3505
ZGSZ,2009-08-09 02:00,ZGSZ 090200Z AUTO 30010KT 5SM 32/24 A2935 RMK T03200240 IEM_DS3505
ZGSZ,2009-08-09 03:00,ZGSZ 090300Z AUTO 32002KT 4SM 31/23 A2935 RMK SLP946 T03130234 52006 IEM_DS3505
ZGSZ,2009-08-09 04:00,ZGSZ 090400Z AUTO 28006KT 5SM 33/24 A2935 RMK T03300240 IEM_DS3505
ZGSZ,2009-08-09 05:00,ZGSZ 090500Z AUTO 25004KT 4SM 32/25 A2932 RMK T03200250 IEM_DS3505
ZGSZ,2009-08-09 06:00,ZGSZ 090600Z AUTO 29002KT 3SM 32/24 A2932 RMK 60000 SLP936 T03160242 57010 IEM_DS3505
ZGSZ,2009-08-09 07:00,ZGSZ 090700Z AUTO 19006KT 4SM 33/25 A2932 RMK T03300250 IEM_DS3505
ZGSZ,2009-08-09 08:00,ZGSZ 090800Z AUTO 15006KT 3SM 32/26 A2932 RMK T03200260 IEM_DS3505
ZGSZ,2009-08-09 09:00,ZGSZ 090900Z AUTO 25008KT 4SM 30/26 A2932 RMK SLP932 T03010258 57004 IEM_DS3505
ZGSZ,2009-08-09 10:00,ZGSZ 091000Z AUTO 16008KT 6SM 31/27 A2932 RMK T03100270 IEM_DS3505
ZGSZ,2009-08-09 11:00,ZGSZ 091100Z AUTO 18008KT 6SM 31/26 A2935 RMK T03100260 IEM_DS3505
ZGSZ,2009-08-09 12:00,ZGSZ 091200Z AUTO 20006KT 4SM 29/26 A2935 RMK SLP946 T02930263 52014 IEM_DS3505
ZGSZ,2009-08-09 13:00,ZGSZ 091300Z AUTO 17008KT 6SM 30/27 A2938 RMK T03000270 IEM_DS3505
ZGSZ,2009-08-09 14:00,ZGSZ 091400Z AUTO 17008KT 6SM 30/27 A2941 RMK T03000270 IEM_DS3505
ZGSZ,2009-08-09 15:00,ZGSZ 091500Z AUTO 22004KT 3SM 29/26 A2941 RMK SLP961 T02880264 52015 IEM_DS3505
ZGSZ,2009-08-09 16:00,ZGSZ 091600Z AUTO 17012KT 7SM 30/26 A2941 RMK T03000260 IEM_DS3505
ZGSZ,2009-08-09 17:00,ZGSZ 091700Z AUTO 17010KT 7SM 30/26 A2938 RMK T03000260 IEM_DS3505
ZGSZ,2009-08-09 18:00,ZGSZ 091800Z AUTO 27002KT 6SM 28/26 A2941 RMK SLP959 T02840260 57002 IEM_DS3505
ZGSZ,2009-08-09 19:00,ZGSZ 091900Z AUTO 7SM 28/25 A2941 RMK T02800250 IEM_DS3505
ZGSZ,2009-08-09 20:00,ZGSZ 092000Z AUTO 7SM 28/25 A2941 RMK T02800250 IEM_DS3505
ZGSZ,2009-08-09 21:00,ZGSZ 092100Z AUTO 27002KT 5SM 28/26 A2941 RMK 70001 SLP966 T02800256 52006 IEM_DS3505
ZGSZ,2009-08-09 22:00,ZGSZ 092200Z AUTO 00000KT 5SM 28/26 A2944 RMK T02800260 IEM_DS3505
ZGSZ,2009-08-09 23:00,ZGSZ 092300Z AUTO 00000KT 5SM 29/26 A2944 RMK T02900260 IEM_DS3505
ZGSZ,2009-08-10 00:00,ZGSZ 100000Z AUTO 29002KT 5SM 29/26 A2947 RMK 60000 70001 SLP985 T02880264 52019 IEM_DS3505
ZGSZ,2009-08-10 01:00,ZGSZ 100100Z AUTO 32006KT 4SM 31/27 A2947 RMK T03100270 IEM_DS3505
ZGSZ,2009-08-10 02:00,ZGSZ 100200Z AUTO 27006KT 4SM 31/27 A2950 RMK T03100270 IEM_DS3505
ZGSZ,2009-08-10 03:00,ZGSZ 100300Z AUTO 22006KT 4SM 32/25 A2950 RMK SLP993 T03170251 52008 IEM_DS3505
ZGSZ,2009-08-10 04:00,ZGSZ 100400Z AUTO 19006KT 3SM 32/27 A2950 RMK T03200270 IEM_DS3505
ZGSZ,2009-08-10 05:00,ZGSZ 100500Z AUTO 22004KT 3SM 33/27 A2947 RMK T03300270 IEM_DS3505
ZGSZ,2009-08-10 06:00,ZGSZ 100600Z AUTO 18006KT 4SM 31/25 A2947 RMK 60000 SLP981 T03120248 57012 IEM_DS3505
ZGSZ,2009-08-10 07:00,ZGSZ 100700Z AUTO 27006KT 4SM 35/26 A2944 RMK T03500260 IEM_DS3505
ZGSZ,2009-08-10 08:00,ZGSZ 100800Z AUTO 17006KT 4SM 34/25 A2944 RMK T03400250 IEM_DS3505
ZGSZ,2009-08-10 09:00,ZGSZ 100900Z AUTO 07006KT 4SM 29/24 A2947 RMK SLP987 T02890245 52006 IEM_DS3505
ZGSZ,2009-08-10 10:00,ZGSZ 101000Z AUTO 12012KT 5SM 31/25 A2947 RMK T03100250 IEM_DS3505
ZGSZ,2009-08-10 11:00,ZGSZ 101100Z AUTO 12010KT 7SM 31/25 A2950 RMK T03100250 IEM_DS3505
ZGSZ,2009-08-10 12:00,ZGSZ 101200Z AUTO 07004KT 4SM 29/25 A2953 RMK 60008 SLP004 T02920250 52017 IEM_DS3505
ZGSZ,2009-08-10 13:00,ZGSZ 101300Z AUTO 34010KT 3SM 29/26 A2956 RMK T02900260 IEM_DS3505
ZGSZ,2009-08-10 14:00,ZGSZ 101400Z AUTO 22004KT 2SM 28/26 A2956 RMK T02800260 IEM_DS3505
ZGSZ,2009-08-10 15:00,ZGSZ 101500Z AUTO 16004KT 2 1/2SM 29/26 A2956 RMK SLP020 T02870261 52016 IEM_DS3505
ZGSZ,2009-08-10 16:00,ZGSZ 101600Z AUTO 14004KT 3SM 29/27 A2959 RMK T02900270 IEM_DS3505
ZGSZ,2009-08-10 17:00,ZGSZ 101700Z AUTO 01002KT 3SM 29/27 A2959 RMK T02900270 IEM_DS3505
ZGSZ,2009-08-10 18:00,ZGSZ 101800Z AUTO 09002KT 2 1/2SM 28/26 A2959 RMK 60012 SLP020 T02810261 54000 IEM_DS3505
ZGSZ,2009-08-10 19:00,ZGSZ 101900Z AUTO 33012KT 1/2SM 27/26 A2959 RMK T02700260 IEM_DS3505
ZGSZ,2009-08-10 20:00,ZGSZ 102000Z AUTO 11010KT 3SM 26/24 A2959 RMK T02600240 IEM_DS3505
ZGSZ,2009-08-10 21:00,ZGSZ 102100Z AUTO 04006KT 2SM 25/24 A2962 RMK 70174 SLP031 T02530241 52010 IEM_DS3505
ZGSZ,2009-08-10 22:00,ZGSZ 102200Z AUTO 35006KT 7SM 27/25 A2962 RMK T02700250 IEM_DS3505
ZGSZ,2009-08-10 23:00,ZGSZ 102300Z AUTO 05006KT 7SM 26/24 A2962 RMK T02600240 IEM_DS3505
ZGSZ,2009-08-11 00:00,ZGSZ 110000Z AUTO 09004KT 5SM 26/24 A2965 RMK 60197 70217 SLP039 T02570243 52008 IEM_DS3505
ZGSZ,2009-08-11 01:00,ZGSZ 110100Z AUTO 34004KT 7SM 27/25 A2965 RMK T02700250 IEM_DS3505
ZGSZ,2009-08-11 02:00,ZGSZ 110200Z AUTO 4SM 28/25 A2968 RMK T02800250 IEM_DS3505
ZGSZ,2009-08-11 03:00,ZGSZ 110300Z AUTO 04004KT 4SM 27/25 A2968 RMK SLP050 T02720250 52011 IEM_DS3505
ZGSZ,2009-08-11 04:00,ZGSZ 110400Z AUTO 01008KT 4SM 29/25 A2965 RMK T02900250 IEM_DS3505
ZGSZ,2009-08-11 05:00,ZGSZ 110500Z AUTO 04006KT 4SM 31/26 A2962 RMK T03100260 IEM_DS3505
ZGSZ,2009-08-11 06:00,ZGSZ 110600Z AUTO 20004KT 2 1/2SM 30/26 A2962 RMK 60004 SLP031 T02970257 57018 IEM_DS3505
ZGSZ,2009-08-11 07:00,ZGSZ 110700Z AUTO 08004KT 6SM 32/26 A2962 RMK T03200260 IEM_DS3505
ZGSZ,2009-08-11 08:00,ZGSZ 110800Z AUTO 6SM 32/25 A2962 RMK T03200250 IEM_DS3505
ZGSZ,2009-08-11 09:00,ZGSZ 110900Z AUTO 14006KT 3SM 30/25 A2959 RMK SLP027 T02970252 57005 IEM_DS3505
ZGSZ,2009-08-11 10:00,ZGSZ 111000Z AUTO 10010KT 7SM 30/24 A2959 RMK T03000240 IEM_DS3505
ZGSZ,2009-08-11 11:00,ZGSZ 111100Z AUTO 01004KT 7SM 28/25 A2962 RMK T02800250 IEM_DS3505
ZGSZ,2009-08-11 12:00,ZGSZ 111200Z AUTO 20002KT 11SM 28/25 A2965 RMK 60000 SLP043 T02830251 52016 IEM_DS3505
ZGSZ,2009-08-11 13:00,ZGSZ 111300Z AUTO 00000KT 3SM 28/26 A2965 RMK T02800260 IEM_DS3505
ZGSZ,2009-08-11 14:00,ZGSZ 111400Z AUTO 10004KT 2 1/2SM 29/26 A2968 RMK T02900260 IEM_DS3505
ZGSZ,2009-08-11 15:00,ZGSZ 111500Z AUTO 16002KT 7SM 28/26 A2968 RMK SLP054 T02790255 52011 IEM_DS3505
ZGSZ,2009-08-11 16:00,ZGSZ 111600Z AUTO 17006KT 1 1/4SM 27/25 A2968 RMK T02700250 IEM_DS3505
ZGSZ,2009-08-11 17:00,ZGSZ 111700Z AUTO 7SM 28/26 A2965 RMK T02800260 IEM_DS3505
ZGSZ,2009-08-11 18:00,ZGSZ 111800Z AUTO 11002KT 14SM 27/24 A2965 RMK 60004 SLP045 T02700245 57008 IEM_DS3505
ZGSZ,2009-08-11 19:00,ZGSZ 111900Z AUTO 10004KT 7SM 28/26 A2965 RMK T02800260 IEM_DS3505
ZGSZ,2009-08-11 20:00,ZGSZ 112000Z AUTO 7SM 28/26 A2965 RMK T02800260 IEM_DS3505
ZGSZ,2009-08-11 21:00,ZGSZ 112100Z AUTO 09004KT 16SM 27/24 A2962 RMK 70050 SLP042 T02680243 57003 IEM_DS3505
ZGSZ,2009-08-11 22:00,ZGSZ 112200Z AUTO 12004KT 4SM 27/25 A2965 RMK T02700250 IEM_DS3505
ZGSZ,2009-08-11 23:00,ZGSZ 112300Z AUTO 00000KT 3SM 27/25 A2968 RMK T02700250 IEM_DS3505
ZGSZ,2009-08-12 00:00,ZGSZ 120000Z AUTO 07002KT 7SM 27/25 A2971 RMK 60000 70008 SLP058 T02690251 52015 IEM_DS3505
ZGSZ,2009-08-12 01:00,ZGSZ 120100Z AUTO 09004KT 7SM 29/26 A2971 RMK T02900260 IEM_DS3505
ZGSZ,2009-08-12 02:00,ZGSZ 120200Z AUTO 7SM 29/26 A2971 RMK T02900260 IEM_DS3505
ZGSZ,2009-08-12 03:00,ZGSZ 120300Z AUTO 25004KT 7SM 25/24 A2974 RMK SLP070 T02510235 52012 IEM_DS3505
ZGSZ,2009-08-12 04:00,ZGSZ 120400Z AUTO 25008KT 7SM 26/23 A2971 RMK T02600230 IEM_DS3505
ZGSZ,2009-08-12 05:00,ZGSZ 120500Z AUTO 34004KT 7SM 26/24 A2968 RMK T02600240 IEM_DS3505
ZGSZ,2009-08-12 06:00,ZGSZ 120600Z AUTO 11002KT 5SM 26/24 A2968 RMK 60012 SLP061 T02600242 57009 IEM_DS3505
ZGSZ,2009-08-12 07:00,ZGSZ 120700Z AUTO 13004KT 4SM 27/24 A2968 RMK T02700240 IEM_DS3505
ZGSZ,2009-08-12 08:00,ZGSZ 120800Z AUTO 4SM 28/25 A2968 RMK T02800250 IEM_DS3505
ZGSZ,2009-08-12 09:00,ZGSZ 120900Z AUTO 14002KT 7SM 27/24 A2968 RMK SLP056 T02660244 57005 IEM_DS3505
ZGSZ,2009-08-12 10:00,ZGSZ 121000Z AUTO 11004KT 4SM 28/25 A2968 RMK T02800250 IEM_DS3505
ZGSZ,2009-08-12 11:00,ZGSZ 121100Z AUTO 7SM 28/24 A2968 RMK T02800240 IEM_DS3505
ZGSZ,2009-08-12 12:00,ZGSZ 121200Z AUTO 02002KT 7SM 26/25 A2968 RMK 60008 SLP062 T02640246 52006 IEM_DS3505
ZGSZ,2009-08-12 13:00,ZGSZ 121300Z AUTO 12006KT 7SM 28/25 A2971 RMK T02800250 IEM_DS3505
ZGSZ,2009-08-12 14:00,ZGSZ 121400Z AUTO 12006KT 4SM 28/25 A2974 RMK T02800250 IEM_DS3505
ZGSZ,2009-08-12 15:00,ZGSZ 121500Z AUTO 36002KT 7SM 26/24 A2974 RMK SLP075 T02620244 52013 IEM_DS3505
ZGSZ,2009-08-12 16:00,ZGSZ 121600Z AUTO 11004KT 7SM 27/24 A2974 RMK T02700240 IEM_DS3505
ZGSZ,2009-08-12 17:00,ZGSZ 121700Z AUTO 09004KT 7SM 27/25 A2971 RMK T02700250 IEM_DS3505
ZGSZ,2009-08-12 18:00,ZGSZ 121800Z AUTO 02002KT 10SM 26/24 A2971 RMK 60004 SLP060 T02640243 57015 IEM_DS3505
ZGSZ,2009-08-12 19:00,ZGSZ 121900Z AUTO 12004KT 7SM 27/25 A2971 RMK T02700250 IEM_DS3505
ZGSZ,2009-08-12 20:00,ZGSZ 122000Z AUTO 16010KT 3SM 25/24 A2971 RMK T02500240 IEM_DS3505
ZGSZ,2009-08-12 21:00,ZGSZ 122100Z AUTO 18002KT 6SM 26/24 RMK 70050 SLP061 T02550245 52001 IEM_DS3505
ZGSZ,2009-08-12 22:00,ZGSZ 122200Z AUTO 00000KT 7SM 26/24 A2968 RMK T02600240 IEM_DS3505
ZGSZ,2009-08-12 23:00,ZGSZ 122300Z AUTO 7SM 26/25 A2971 RMK T02600250 IEM_DS3505
ZGSZ,2009-08-13 00:00,ZGSZ 130000Z AUTO 14002KT 4SM 26/25 A2974 RMK 60039 70065 SLP073 T02600250 52012 IEM_DS3505
ZGSZ,2009-08-13 01:00,ZGSZ 130100Z AUTO 7SM 27/25 A2974 RMK T02700250 IEM_DS3505
ZGSZ,2009-08-13 02:00,ZGSZ 130200Z AUTO 16004KT 7SM 28/25 A2977 RMK T02800250 IEM_DS3505
ZGSZ,2009-08-13 03:00,ZGSZ 130300Z AUTO 25004KT 6SM 26/25 A2977 RMK SLP085 T02620248 52012 IEM_DS3505
ZGSZ,2009-08-13 04:00,ZGSZ 130400Z AUTO 15006KT 7SM 27/25 A2977 RMK T02700250 IEM_DS3505
ZGSZ,2009-08-13 05:00,ZGSZ 130500Z AUTO 17008KT 7SM 27/25 A2977 RMK T02700250 IEM_DS3505
ZGSZ,2009-08-13 06:00,ZGSZ 130600Z AUTO 20002KT 7SM 26/24 A2974 RMK 60012 SLP079 T02590245 57006 IEM_DS3505
ZGSZ,2009-08-13 07:00,ZGSZ 130700Z AUTO 14008KT 7SM 27/25 A2971 RMK T02700250 IEM_DS3505
ZGSZ,2009-08-13 08:00,ZGSZ 130800Z AUTO 14006KT 7SM 28/25 A2968 RMK T02800250 IEM_DS3505
ZGSZ,2009-08-13 09:00,ZGSZ 130900Z AUTO 20002KT 16SM 28/24 A2971 RMK SLP062 T02780244 57017 IEM_DS3505
ZGSZ,2009-08-13 10:00,ZGSZ 131000Z AUTO 18004KT 7SM 29/24 A2971 RMK T02900240 IEM_DS3505
ZGSZ,2009-08-13 11:00,ZGSZ 131100Z AUTO 7SM 28/24 A2974 RMK T02800240 IEM_DS3505
ZGSZ,2009-08-13 12:00,ZGSZ 131200Z AUTO 32002KT 16SM 27/23 A2974 RMK 60000 SLP076 T02680233 52014 IEM_DS3505
ZGSZ,2009-08-13 13:00,ZGSZ 131300Z AUTO 00000KT 7SM 28/25 A2977 RMK T02800250 IEM_DS3505
ZGSZ,2009-08-13 14:00,ZGSZ 131400Z AUTO 17004KT 7SM 28/24 A2977 RMK T02800240 IEM_DS3505
ZGSZ,2009-08-13 15:00,ZGSZ 131500Z AUTO 18004KT 16SM 27/23 A2980 RMK SLP093 T02690229 52017 IEM_DS3505
ZGSZ,2009-08-13 16:00,ZGSZ 131600Z AUTO 6SM 28/24 A2977 RMK T02800240 IEM_DS3505
ZGSZ,2009-08-13 17:00,ZGSZ 131700Z AUTO 11006KT 6SM 27/24 A2977 RMK T02700240 IEM_DS3505
ZGSZ,2009-08-13 18:00,ZGSZ 131800Z AUTO 07004KT 14SM 26/24 A2977 RMK SLP080 T02640237 57013 IEM_DS3505
ZGSZ,2009-08-13 19:00,ZGSZ 131900Z AUTO 13006KT 4SM 26/24 A2977 RMK T02600240 IEM_DS3505
ZGSZ,2009-08-13 20:00,ZGSZ 132000Z AUTO 12006KT 4SM 26/24 A2977 RMK T02600240 IEM_DS3505
ZGSZ,2009-08-13 21:00,ZGSZ 132100Z AUTO 18002KT 3SM 26/24 A2977 RMK 70051 SLP087 T02550243 52007 IEM_DS3505
ZGSZ,2009-08-13 22:00,ZGSZ 132200Z AUTO 16002KT 7SM 26/24 A2980 RMK T02600240 IEM_DS3505
ZGSZ,2009-08-13 23:00,ZGSZ 132300Z AUTO 00000KT 7SM 26/24 A2980 RMK T02600240 IEM_DS3505
ZGSZ,2009-08-14 00:00,ZGSZ 140000Z AUTO 02002KT 3SM 26/25 A2983 RMK 60063 70076 SLP104 T02560247 52017 IEM_DS3505
ZGSZ,2009-08-14 01:00,ZGSZ 140100Z AUTO 09006KT 7SM 27/24 A2983 RMK T02700240 IEM_DS3505
ZGSZ,2009-08-14 02:00,ZGSZ 140200Z AUTO 13004KT 7SM 27/25 A2985 RMK T02700250 IEM_DS3505
ZGSZ,2009-08-14 03:00,ZGSZ 140300Z AUTO 11004KT 4SM 28/26 A2985 RMK SLP112 T02840256 52008 IEM_DS3505
ZGSZ,2009-08-14 04:00,ZGSZ 140400Z AUTO 16004KT 7SM 31/25 A2983 RMK T03100250 IEM_DS3505
ZGSZ,2009-08-14 05:00,ZGSZ 140500Z AUTO 16006KT 7SM 30/26 A2983 RMK T03000260 IEM_DS3505
ZGSZ,2009-08-14 06:00,ZGSZ 140600Z AUTO 25004KT 10SM 29/25 A2980 RMK 60039 SLP094 T02920250 57018 IEM_DS3505
ZGSZ,2009-08-14 07:00,ZGSZ 140700Z AUTO 17010KT 7SM 31/25 A2977 RMK T03100250 IEM_DS3505
ZGSZ,2009-08-14 08:00,ZGSZ 140800Z AUTO 18008KT 6SM 31/26 A2977 RMK T03100260 IEM_DS3505
ZGSZ,2009-08-14 09:00,ZGSZ 140900Z AUTO 20004KT 11SM 30/25 A2977 RMK SLP089 T02990248 57005 IEM_DS3505
ZGSZ,2009-08-14 10:00,ZGSZ 141000Z AUTO 17010KT 7SM 30/25 A2977 RMK T03000250 IEM_DS3505
ZGSZ,2009-08-14 11:00,ZGSZ 141100Z AUTO 15006KT 7SM 29/25 A2977 RMK T02900250 IEM_DS3505
ZGSZ,2009-08-14 12:00,ZGSZ 141200Z AUTO 16004KT 9SM 28/24 A2977 RMK 60004 SLP092 T02820244 52003 IEM_DS3505
ZGSZ,2009-08-14 13:00,ZGSZ 141300Z AUTO 17004KT 6SM 29/26 A2983 RMK T02900260 IEM_DS3505
ZGSZ,2009-08-14 14:00,ZGSZ 141400Z AUTO 16006KT 7SM 29/26 A2985 RMK T02900260 IEM_DS3505
ZGSZ,2009-08-14 15:00,ZGSZ 141500Z AUTO 18002KT 5SM 28/25 A2985 RMK SLP117 T02770253 52025 IEM_DS3505
ZGSZ,2009-08-14 16:00,ZGSZ 141600Z AUTO 16006KT 7SM 29/26 A2985 RMK T02900260 IEM_DS3505
ZGSZ,2009-08-14 17:00,ZGSZ 141700Z AUTO 15006KT 7SM 28/26 A2983 RMK T02800260 IEM_DS3505
ZGSZ,2009-08-14 18:00,ZGSZ 141800Z AUTO 11002KT 4SM 28/25 A2983 RMK SLP103 T02750249 57014 IEM_DS3505
ZGSZ,2009-08-14 19:00,ZGSZ 141900Z AUTO 16004KT 7SM 28/25 A2983 RMK T02800250 IEM_DS3505
ZGSZ,2009-08-14 20:00,ZGSZ 142000Z AUTO 15004KT 7SM 28/26 A2980 RMK T02800260 IEM_DS3505
ZGSZ,2009-08-14 21:00,ZGSZ 142100Z AUTO 04002KT 4SM 27/25 A2983 RMK 70082 SLP101 T02660250 57002 IEM_DS3505
ZGSZ,2009-08-14 22:00,ZGSZ 142200Z AUTO 06002KT 7SM 28/25 A2983 RMK T02800250 IEM_DS3505
ZGSZ,2009-08-14 23:00,ZGSZ 142300Z AUTO 2 1/2SM 28/25 A2985 RMK T02800250 IEM_DS3505
ZGSZ,2009-08-15 00:00,ZGSZ 150000Z AUTO 09002KT 4SM 28/25 A2985 RMK 70042 SLP115 T02820250 52014 IEM_DS3505
ZGSZ,2009-08-15 01:00,ZGSZ 150100Z AUTO 13004KT 7SM 29/26 A2985 RMK T02900260 IEM_DS3505
ZGSZ,2009-08-15 02:00,ZGSZ 150200Z AUTO 7SM 30/26 A2988 RMK T03000260 IEM_DS3505
ZGSZ,2009-08-15 03:00,ZGSZ 150300Z AUTO 25006KT 9SM 31/24 A2985 RMK SLP113 T03100236 57002 IEM_DS3505
ZGSZ,2009-08-15 04:00,ZGSZ 150400Z AUTO 20006KT 7SM 32/25 A2983 RMK T03200250 IEM_DS3505
ZGSZ,2009-08-15 05:00,ZGSZ 150500Z AUTO 20008KT 7SM 32/26 A2983 RMK T03200260 IEM_DS3505
ZGSZ,2009-08-15 06:00,ZGSZ 150600Z AUTO 22006KT 14SM 30/23 A2983 RMK 60000 SLP100 T03020231 57013 IEM_DS3505
ZGSZ,2009-08-15 07:00,ZGSZ 150700Z AUTO 19010KT 7SM 32/27 A2980 RMK T03200270 IEM_DS3505
ZGSZ,2009-08-15 08:00,ZGSZ 150800Z AUTO 17012KT 7SM 32/26 A2977 RMK T03200260 IEM_DS3505
ZGSZ,2009-08-15 09:00,ZGSZ 150900Z AUTO 16004KT 12SM 29/25 A2977 RMK SLP083 T02920254 57017 IEM_DS3505
ZGSZ,2009-08-15 10:00,ZGSZ 151000Z AUTO 17010KT 6SM 31/26 A2977 RMK T03100260 IEM_DS3505
ZGSZ,2009-08-15 11:00,ZGSZ 151100Z AUTO 16010KT 6SM 30/26 A2977 RMK T03000260 IEM_DS3505
ZGSZ,2009-08-15 12:00,ZGSZ 151200Z AUTO 14002KT 9SM 28/26 A2980 RMK 60000 SLP093 T02840256 52010 IEM_DS3505
ZGSZ,2009-08-15 13:00,ZGSZ 151300Z AUTO 16008KT 7SM 30/26 A2980 RMK T03000260 IEM_DS3505
ZGSZ,2009-08-15 14:00,ZGSZ 151400Z AUTO 17008KT 7SM 29/26 A2983 RMK T02900260 IEM_DS3505
ZGSZ,2009-08-15 15:00,ZGSZ 151500Z AUTO 16004KT 9SM 28/26 A2983 RMK SLP109 T02810255 52016 IEM_DS3505
ZGSZ,2009-08-15 16:00,ZGSZ 151600Z AUTO 16008KT 7SM 29/26 A2983 RMK T02900260 IEM_DS3505
ZGSZ,2009-08-15 17:00,ZGSZ 151700Z AUTO 16008KT 7SM 29/26 A2983 RMK T02900260 IEM_DS3505
ZGSZ,2009-08-15 18:00,ZGSZ 151800Z AUTO 09002KT 9SM 28/25 A2983 RMK SLP104 T02760254 57005 IEM_DS3505
ZGSZ,2009-08-15 19:00,ZGSZ 151900Z AUTO 7SM 28/26 A2983 RMK T02800260 IEM_DS3505
ZGSZ,2009-08-15 20:00,ZGSZ 152000Z AUTO 22006KT 7SM 29/26 A2983 RMK T02900260 IEM_DS3505
ZGSZ,2009-08-15 21:00,ZGSZ 152100Z AUTO 20002KT 8SM 28/26 A2983 RMK 70000 SLP103 T02750255 57001 IEM_DS3505
ZGSZ,2009-08-15 22:00,ZGSZ 152200Z AUTO 23004KT 7SM 29/26 A2983 RMK T02900260 IEM_DS3505
ZGSZ,2009-08-15 23:00,ZGSZ 152300Z AUTO 00000KT 7SM 29/26 A2983 RMK T02900260 IEM_DS3505
ZGSZ,2009-08-16 00:00,ZGSZ 160000Z AUTO 14004KT 8SM 29/26 A2985 RMK 70000 SLP117 T02910255 52014 IEM_DS3505
ZGSZ,2009-08-16 01:00,ZGSZ 160100Z AUTO 25004KT 7SM 30/25 A2988 RMK T03000250 IEM_DS3505
ZGSZ,2009-08-16 02:00,ZGSZ 160200Z AUTO 7SM 30/25 A2988 RMK T03000250 IEM_DS3505
ZGSZ,2009-08-16 03:00,ZGSZ 160300Z AUTO 32004KT 7SM 30/25 A2988 RMK SLP119 T03010247 52002 IEM_DS3505
ZGSZ,2009-08-16 04:00,ZGSZ 160400Z AUTO 7SM 33/24 A2985 RMK T03300240 IEM_DS3505
ZGSZ,2009-08-16 05:00,ZGSZ 160500Z AUTO 20006KT 7SM 33/24 A2983 RMK T03300240 IEM_DS3505
ZGSZ,2009-08-16 06:00,ZGSZ 160600Z AUTO 22006KT 14SM 33/23 A2980 RMK SLP092 T03270231 57026 IEM_DS3505
ZGSZ,2009-08-16 07:00,ZGSZ 160700Z AUTO 19010KT 7SM 32/26 A2977 RMK T03200260 IEM_DS3505
ZGSZ,2009-08-16 08:00,ZGSZ 160800Z AUTO 19010KT 7SM 32/25 A2977 RMK T03200250 IEM_DS3505
ZGSZ,2009-08-16 09:00,ZGSZ 160900Z AUTO 25004KT 19SM 31/25 A2977 RMK SLP081 T03130247 57011 IEM_DS3505
ZGSZ,2009-08-16 10:00,ZGSZ 161000Z AUTO 18012KT 6SM 31/25 A2977 RMK T03100250 IEM_DS3505
ZGSZ,2009-08-16 11:00,ZGSZ 161100Z AUTO 17010KT 6SM 30/25 A2980 RMK T03000250 IEM_DS3505
ZGSZ,2009-08-16 12:00,ZGSZ 161200Z AUTO 22006KT 16SM 29/24 A2983 RMK SLP101 T02940245 52019 IEM_DS3505
ZGSZ,2009-08-16 13:00,ZGSZ 161300Z AUTO 18008KT 7SM 30/26 A2983 RMK T03000260 IEM_DS3505
ZGSZ,2009-08-16 14:00,ZGSZ 161400Z AUTO 17008KT 6SM 30/25 A2985 RMK T03000250 IEM_DS3505
ZGSZ,2009-08-16 15:00,ZGSZ 161500Z AUTO 20002KT 12SM 29/25 A2985 RMK SLP119 T02870251 52018 IEM_DS3505
ZGSZ,2009-08-16 16:00,ZGSZ 161600Z AUTO 17008KT 7SM 30/25 A2985 RMK T03000250 IEM_DS3505
ZGSZ,2009-08-16 17:00,ZGSZ 161700Z AUTO 16004KT 7SM 29/26 A2985 RMK T02900260 IEM_DS3505
ZGSZ,2009-08-16 18:00,ZGSZ 161800Z AUTO 14002KT 9SM 28/25 A2983 RMK SLP110 T02820248 57008 IEM_DS3505
ZGSZ,2009-08-16 19:00,ZGSZ 161900Z AUTO 14004KT 7SM 28/25 A2983 RMK T02800250 IEM_DS3505
ZGSZ,2009-08-16 20:00,ZGSZ 162000Z AUTO 15004KT 6SM 28/25 A2983 RMK T02800250 IEM_DS3505
ZGSZ,2009-08-16 21:00,ZGSZ 162100Z AUTO 18002KT 9SM 28/25 A2983 RMK SLP106 T02770249 57005 IEM_DS3505
ZGSZ,2009-08-16 22:00,ZGSZ 162200Z AUTO 15004KT 7SM 28/25 A2983 RMK T02800250 IEM_DS3505
ZGSZ,2009-08-16 23:00,ZGSZ 162300Z AUTO 17002KT 7SM 29/26 A2985 RMK T02900260 IEM_DS3505
ZGSZ,2009-08-17 00:00,ZGSZ 170000Z AUTO 11002KT 9SM 29/25 A2985 RMK SLP118 T02860254 52012 IEM_DS3505
ZGSZ,2009-08-17 01:00,ZGSZ 170100Z AUTO 28004KT 7SM 30/25 A2988 RMK T03000250 IEM_DS3505
ZGSZ,2009-08-17 02:00,ZGSZ 170200Z AUTO 27004KT 7SM 31/25 A2988 RMK T03100250 IEM_DS3505
ZGSZ,2009-08-17 03:00,ZGSZ 170300Z AUTO 20004KT 11SM 32/24 A2988 RMK SLP122 T03200238 52004 IEM_DS3505
ZGSZ,2009-08-17 04:00,ZGSZ 170400Z AUTO 24004KT 7SM 33/25 A2985 RMK T03300250 IEM_DS3505
ZGSZ,2009-08-17 05:00,ZGSZ 170500Z AUTO 23006KT 7SM 33/23 A2985 RMK T03300230 IEM_DS3505
ZGSZ,2009-08-17 06:00,ZGSZ 170600Z AUTO 20006KT 12SM 33/24 A2983 RMK SLP101 T03260235 57020 IEM_DS3505
ZGSZ,2009-08-17 07:00,ZGSZ 170700Z AUTO 19010KT 7SM 32/24 A2980 RMK T03200240 IEM_DS3505
ZGSZ,2009-08-17 08:00,ZGSZ 170800Z AUTO 16008KT 7SM 31/24 A2980 RMK T03100240 IEM_DS3505
ZGSZ,2009-08-17 09:00,ZGSZ 170900Z AUTO 07004KT 11SM 28/24 A2980 RMK SLP095 T02830243 57007 IEM_DS3505
ZGSZ,2009-08-17 10:00,ZGSZ 171000Z AUTO 18008KT 6SM 31/25 A2980 RMK T03100250 IEM_DS3505
ZGSZ,2009-08-17 11:00,ZGSZ 171100Z AUTO 18008KT 6SM 31/25 A2980 RMK T03100250 IEM_DS3505
ZGSZ,2009-08-17 12:00,ZGSZ 171200Z AUTO 11004KT 8SM 29/24 A2983 RMK SLP107 T02890242 52012 IEM_DS3505
ZGSZ,2009-08-17 13:00,ZGSZ 171300Z AUTO 12006KT 6SM 30/24 A2985 RMK T03000240 IEM_DS3505
ZGSZ,2009-08-17 14:00,ZGSZ 171400Z AUTO 13006KT 6SM 30/24 A2985 RMK T03000240 IEM_DS3505
ZGSZ,2009-08-17 15:00,ZGSZ 171500Z AUTO 16002KT 9SM 29/25 A2988 RMK SLP123 T02860246 52016 IEM_DS3505
ZGSZ,2009-08-17 16:00,ZGSZ 171600Z AUTO 11004KT 7SM 30/25 A2985 RMK T03000250 IEM_DS3505
ZGSZ,2009-08-17 17:00,ZGSZ 171700Z AUTO 12002KT 7SM 29/25 A2985 RMK T02900250 IEM_DS3505
ZGSZ,2009-08-17 18:00,ZGSZ 171800Z AUTO 02004KT 9SM 28/24 A2983 RMK SLP104 T02770239 57018 IEM_DS3505
ZGSZ,2009-08-17 19:00,ZGSZ 171900Z AUTO 10004KT 6SM 29/24 A2980 RMK T02900240 IEM_DS3505
ZGSZ,2009-08-17 20:00,ZGSZ 172000Z AUTO 09002KT 6SM 28/24 A2980 RMK T02800240 IEM_DS3505
ZGSZ,2009-08-17 21:00,ZGSZ 172100Z AUTO 36002KT 7SM 27/24 A2980 RMK SLP099 T02710244 57006 IEM_DS3505
ZGSZ,2009-08-17 22:00,ZGSZ 172200Z AUTO 03004KT 7SM 28/24 A2983 RMK T02800240 IEM_DS3505
ZGSZ,2009-08-17 23:00,ZGSZ 172300Z AUTO 01004KT 4SM 29/25 A2983 RMK T02900250 IEM_DS3505
ZGSZ,2009-08-18 00:00,ZGSZ 180000Z AUTO 04002KT 4SM 29/24 A2985 RMK SLP113 T02900243 52014 IEM_DS3505
ZGSZ,2009-08-18 01:00,ZGSZ 180100Z AUTO 7SM 30/25 A2988 RMK T03000250 IEM_DS3505
ZGSZ,2009-08-18 02:00,ZGSZ 180200Z AUTO 28004KT 3SM 30/25 A2988 RMK T03000250 IEM_DS3505
ZGSZ,2009-08-18 03:00,ZGSZ 180300Z AUTO 22004KT 6SM 31/24 A2988 RMK SLP120 T03130237 52007 IEM_DS3505
ZGSZ,2009-08-18 04:00,ZGSZ 180400Z AUTO 26008KT 5SM 33/25 A2988 RMK T03300250 IEM_DS3505
ZGSZ,2009-08-18 05:00,ZGSZ 180500Z AUTO 23006KT 7SM 34/24 A2985 RMK T03400240 IEM_DS3505
ZGSZ,2009-08-18 06:00,ZGSZ 180600Z AUTO 07006KT 7SM A2983 RMK 60024 SLP109 57011 IEM_DS3505
ZGSZ,2009-08-18 07:00,ZGSZ 180700Z AUTO 16008KT 7SM 31/24 A2980 RMK T03100240 IEM_DS3505
ZGSZ,2009-08-18 08:00,ZGSZ 180800Z AUTO 16008KT 7SM 31/24 A2980 RMK T03100240 IEM_DS3505
ZGSZ,2009-08-18 09:00,ZGSZ 180900Z AUTO 02004KT 9SM 29/25 A2980 RMK SLP097 T02900246 57012 IEM_DS3505
ZGSZ,2009-08-18 10:00,ZGSZ 181000Z AUTO 17006KT 7SM 31/25 A2980 RMK T03100250 IEM_DS3505
ZGSZ,2009-08-18 11:00,ZGSZ 181100Z AUTO 16006KT 6SM 30/25 A2983 RMK T03000250 IEM_DS3505
ZGSZ,2009-08-18 12:00,ZGSZ 181200Z AUTO 11004KT 11SM 29/25 A2983 RMK 60004 SLP107 T02880246 52010 IEM_DS3505
ZGSZ,2009-08-18 13:00,ZGSZ 181300Z AUTO 11008KT 6SM 30/25 A2985 RMK T03000250 IEM_DS3505
ZGSZ,2009-08-18 14:00,ZGSZ 181400Z AUTO 12008KT 6SM 30/25 A2985 RMK T03000250 IEM_DS3505
ZGSZ,2009-08-18 15:00,ZGSZ 181500Z AUTO 11004KT 14SM 28/25 A2985 RMK SLP118 T02820246 52011 IEM_DS3505
ZGSZ,2009-08-18 16:00,ZGSZ 181600Z AUTO 10004KT 6SM 29/25 A2985 RMK T02900250 IEM_DS3505
ZGSZ,2009-08-18 17:00,ZGSZ 181700Z AUTO 13004KT 6SM 29/25 A2985 RMK T02900250 IEM_DS3505
ZGSZ,2009-08-18 18:00,ZGSZ 181800Z AUTO 04002KT 14SM 27/25 A2983 RMK SLP105 T02740250 57013 IEM_DS3505
ZGSZ,2009-08-18 19:00,ZGSZ 181900Z AUTO 04002KT 6SM 28/24 A2983 RMK T02800240 IEM_DS3505
ZGSZ,2009-08-18 20:00,ZGSZ 182000Z AUTO 04002KT 6SM 28/25 A2980 RMK T02800250 IEM_DS3505
ZGSZ,2009-08-18 21:00,ZGSZ 182100Z AUTO 02002KT 16SM 27/25 A2983 RMK 70028 SLP103 T02700248 57002 IEM_DS3505
ZGSZ,2009-08-18 22:00,ZGSZ 182200Z AUTO 05004KT 7SM 27/24 A2983 RMK T02700240 IEM_DS3505
ZGSZ,2009-08-18 23:00,ZGSZ 182300Z AUTO 02004KT 7SM 28/25 A2985 RMK T02800250 IEM_DS3505
ZGSZ,2009-08-19 00:00,ZGSZ 190000Z AUTO 07002KT 12SM 29/25 A2988 RMK 70028 SLP123 T02930251 52020 IEM_DS3505
ZGSZ,2009-08-19 01:00,ZGSZ 190100Z AUTO 00000KT 7SM 30/25 A2988 RMK T03000250 IEM_DS3505
ZGSZ,2009-08-19 02:00,ZGSZ 190200Z AUTO 29004KT 7SM 31/25 A2988 RMK T03100250 IEM_DS3505
ZGSZ,2009-08-19 03:00,ZGSZ 190300Z AUTO 27004KT 12SM 30/25 A2988 RMK SLP127 T03020246 52004 IEM_DS3505
ZGSZ,2009-08-19 04:00,ZGSZ 190400Z AUTO 25004KT 6SM 33/23 A2988 RMK T03300230 IEM_DS3505
ZGSZ,2009-08-19 05:00,ZGSZ 190500Z AUTO 24006KT 6SM 34/24 A2985 RMK T03400240 IEM_DS3505
ZGSZ,2009-08-19 06:00,ZGSZ 190600Z AUTO 18004KT 10SM 33/24 A2983 RMK SLP106 T03260235 57021 IEM_DS3505
ZGSZ,2009-08-19 07:00,ZGSZ 190700Z AUTO 17006KT 7SM 33/22 A2983 RMK T03300220 IEM_DS3505
ZGSZ,2009-08-19 08:00,ZGSZ 190800Z AUTO 18010KT 7SM 33/23 A2980 RMK T03300230 IEM_DS3505
ZGSZ,2009-08-19 09:00,ZGSZ 190900Z AUTO 25004KT 12SM 32/24 A2980 RMK SLP094 T03150244 57012 IEM_DS3505
ZGSZ,2009-08-19 10:00,ZGSZ 191000Z AUTO 18010KT 6SM 31/25 A2977 RMK T03100250 IEM_DS3505
ZGSZ,2009-08-19 11:00,ZGSZ 191100Z AUTO 18010KT 6SM 31/25 A2980 RMK T03100250 IEM_DS3505
ZGSZ,2009-08-19 12:00,ZGSZ 191200Z AUTO 18004KT 11SM 29/24 A2980 RMK 60004 SLP101 T02890242 52007 IEM_DS3505
ZGSZ,2009-08-19 13:00,ZGSZ 191300Z AUTO 18010KT 6SM 30/25 A2983 RMK T03000250 IEM_DS3505
ZGSZ,2009-08-19 14:00,ZGSZ 191400Z AUTO 17008KT 6SM 30/25 A2983 RMK T03000250 IEM_DS3505
ZGSZ,2009-08-19 15:00,ZGSZ 191500Z AUTO 16004KT 12SM 28/24 A2985 RMK SLP112 T02850245 52011 IEM_DS3505
ZGSZ,2009-08-19 16:00,ZGSZ 191600Z AUTO 15006KT 6SM 29/25 A2983 RMK T02900250 IEM_DS3505
ZGSZ,2009-08-19 17:00,ZGSZ 191700Z AUTO 16006KT 6SM 29/25 A2983 RMK T02900250 IEM_DS3505
ZGSZ,2009-08-19 18:00,ZGSZ 191800Z AUTO 00000KT 12SM 28/24 A2980 RMK SLP097 T02770245 57014 IEM_DS3505
ZGSZ,2009-08-19 19:00,ZGSZ 191900Z AUTO 15004KT 6SM 28/25 A2980 RMK T02800250 IEM_DS3505
ZGSZ,2009-08-19 20:00,ZGSZ 192000Z AUTO 27008KT 6SM 29/25 A2980 RMK T02900250 IEM_DS3505
ZGSZ,2009-08-19 21:00,ZGSZ 192100Z AUTO 09002KT 12SM 27/25 A2980 RMK 70004 SLP097 T02740248 57001 IEM_DS3505
ZGSZ,2009-08-19 22:00,ZGSZ 192200Z AUTO 28004KT 6SM 28/24 A2980 RMK T02800240 IEM_DS3505
ZGSZ,2009-08-19 23:00,ZGSZ 192300Z AUTO 6SM 29/25 A2983 RMK T02900250 IEM_DS3505
ZGSZ,2009-08-20 00:00,ZGSZ 200000Z AUTO 34002KT 11SM 29/25 A2983 RMK 70004 SLP103 T02920250 52006 IEM_DS3505
ZGSZ,2009-08-20 01:00,ZGSZ 200100Z AUTO 7SM 31/25 A2983 RMK T03100250 IEM_DS3505
ZGSZ,2009-08-20 02:00,ZGSZ 200200Z AUTO 22004KT 7SM 32/25 A2983 RMK T03200250 IEM_DS3505
ZGSZ,2009-08-20 03:00,ZGSZ 200300Z AUTO 16004KT 12SM 32/23 A2983 RMK SLP103 T03210228 52001 IEM_DS3505
ZGSZ,2009-08-20 04:00,ZGSZ 200400Z AUTO 21008KT 7SM 33/22 A2980 RMK T03300220 IEM_DS3505
ZGSZ,2009-08-20 05:00,ZGSZ 200500Z AUTO 22008KT 7SM 33/20 A2980 RMK T03300200 IEM_DS3505
ZGSZ,2009-08-20 06:00,ZGSZ 200600Z AUTO 22010KT 14SM 32/22 A2977 RMK SLP081 T03240219 57022 IEM_DS3505
ZGSZ,2009-08-20 07:00,ZGSZ 200700Z AUTO 20008KT 7SM 34/23 A2974 RMK T03400230 IEM_DS3505
ZGSZ,2009-08-20 08:00,ZGSZ 200800Z AUTO 19008KT 6SM 34/23 A2971 RMK T03400230 IEM_DS3505
ZGSZ,2009-08-20 09:00,ZGSZ 200900Z AUTO 25006KT 16SM 32/21 A2971 RMK SLP061 T03180213 57020 IEM_DS3505
ZGSZ,2009-08-20 10:00,ZGSZ 201000Z AUTO 18012KT 6SM 31/24 A2971 RMK T03100240 IEM_DS3505
ZGSZ,2009-08-20 11:00,ZGSZ 201100Z AUTO 17010KT 6SM 31/23 A2971 RMK T03100230 IEM_DS3505
ZGSZ,2009-08-20 12:00,ZGSZ 201200Z AUTO 20004KT 16SM 29/23 A2974 RMK SLP071 T02920234 52010 IEM_DS3505
ZGSZ,2009-08-20 13:00,ZGSZ 201300Z AUTO 17010KT 6SM 30/24 A2974 RMK T03000240 IEM_DS3505
ZGSZ,2009-08-20 14:00,ZGSZ 201400Z AUTO 17010KT 6SM 30/24 A2974 RMK T03000240 IEM_DS3505
ZGSZ,2009-08-20 15:00,ZGSZ 201500Z AUTO 18002KT 17SM 28/24 A2977 RMK SLP080 T02850236 52009 IEM_DS3505
ZGSZ,2009-08-20 16:00,ZGSZ 201600Z AUTO 16008KT 6SM 30/25 A2974 RMK T03000250 IEM_DS3505
ZGSZ,2009-08-20 17:00,ZGSZ 201700Z AUTO 17006KT 6SM 30/25 A2974 RMK T03000250 IEM_DS3505
ZGSZ,2009-08-20 18:00,ZGSZ 201800Z AUTO 20004KT 16SM 28/24 A2974 RMK SLP075 T02800240 57005 IEM_DS3505
ZGSZ,2009-08-20 19:00,ZGSZ 201900Z AUTO 19008KT 6SM 30/25 A2974 RMK T03000250 IEM_DS3505
ZGSZ,2009-08-20 20:00,ZGSZ 202000Z AUTO 21008KT 7SM 29/24 A2974 RMK T02900240 IEM_DS3505
ZGSZ,2009-08-20 21:00,ZGSZ 202100Z AUTO 25002KT 16SM 28/24 A2974 RMK SLP073 T02800242 57002 IEM_DS3505
ZGSZ,2009-08-20 22:00,ZGSZ 202200Z AUTO 21006KT 7SM 29/25 A2974 RMK T02900250 IEM_DS3505
ZGSZ,2009-08-20 23:00,ZGSZ 202300Z AUTO 21006KT 7SM 29/25 A2977 RMK T02900250 IEM_DS3505
ZGSZ,2009-08-21 00:00,ZGSZ 210000Z AUTO 22004KT 16SM 30/24 A2977 RMK SLP079 T02950237 52006 IEM_DS3505
ZGSZ,2009-08-21 01:00,ZGSZ 210100Z AUTO 26004KT 7SM 31/24 A2977 RMK T03100240 IEM_DS3505
ZGSZ,2009-08-21 02:00,ZGSZ 210200Z AUTO 25004KT 7SM 32/24 A2977 RMK T03200240 IEM_DS3505
ZGSZ,2009-08-21 03:00,ZGSZ 210300Z AUTO 18004KT 17SM 31/23 A2977 RMK SLP081 T03140232 52002 IEM_DS3505
ZGSZ,2009-08-21 04:00,ZGSZ 210400Z AUTO 24006KT 6SM 33/23 A2974 RMK T03300230 IEM_DS3505
ZGSZ,2009-08-21 05:00,ZGSZ 210500Z AUTO 23006KT 6SM 34/21 A2974 RMK T03400210 IEM_DS3505
ZGSZ,2009-08-21 06:00,ZGSZ 210600Z AUTO 20006KT 19SM 33/19 A2971 RMK SLP065 T03330186 57016 IEM_DS3505
ZGSZ,2009-08-21 07:00,ZGSZ 210700Z AUTO 20008KT 6SM 35/18 A2968 RMK T03500180 IEM_DS3505
ZGSZ,2009-08-21 08:00,ZGSZ 210800Z AUTO 19010KT 6SM 34/23 A2968 RMK T03400230 IEM_DS3505
ZGSZ,2009-08-21 09:00,ZGSZ 210900Z AUTO 25006KT 19SM 32/22 A2968 RMK SLP051 T03250223 57014 IEM_DS3505
ZGSZ,2009-08-21 10:00,ZGSZ 211000Z AUTO 18010KT 6SM 32/24 A2968 RMK T03200240 IEM_DS3505
ZGSZ,2009-08-21 11:00,ZGSZ 211100Z AUTO 18010KT 6SM 31/23 A2968 RMK T03100230 IEM_DS3505
ZGSZ,2009-08-21 12:00,ZGSZ 211200Z AUTO 22004KT 17SM 30/23 A2971 RMK SLP062 T02950227 52011 IEM_DS3505
ZGSZ,2009-08-21 13:00,ZGSZ 211300Z AUTO 17010KT 6SM 30/24 A2971 RMK T03000240 IEM_DS3505
ZGSZ,2009-08-21 14:00,ZGSZ 211400Z AUTO 17010KT 6SM 30/24 A2971 RMK T03000240 IEM_DS3505
ZGSZ,2009-08-21 15:00,ZGSZ 211500Z AUTO 36002KT 17SM 29/23 A2971 RMK SLP070 T02870232 52008 IEM_DS3505
ZGSZ,2009-08-21 16:00,ZGSZ 211600Z AUTO 18008KT 6SM 30/25 A2974 RMK T03000250 IEM_DS3505
ZGSZ,2009-08-21 17:00,ZGSZ 211700Z AUTO 17008KT 7SM 30/25 A2974 RMK T03000250 IEM_DS3505
ZGSZ,2009-08-21 18:00,ZGSZ 211800Z AUTO 25002KT 17SM 28/24 A2974 RMK SLP069 T02830239 57001 IEM_DS3505
ZGSZ,2009-08-21 19:00,ZGSZ 211900Z AUTO 21006KT 7SM 29/25 A2971 RMK T02900250 IEM_DS3505
ZGSZ,2009-08-21 20:00,ZGSZ 212000Z AUTO 21004KT 7SM 29/25 A2971 RMK T02900250 IEM_DS3505
ZGSZ,2009-08-21 21:00,ZGSZ 212100Z AUTO 27002KT 17SM 28/24 A2974 RMK SLP068 T02800240 57001 IEM_DS3505
ZGSZ,2009-08-21 22:00,ZGSZ 212200Z AUTO 23004KT 7SM 29/25 A2974 RMK T02900250 IEM_DS3505
ZGSZ,2009-08-21 23:00,ZGSZ 212300Z AUTO 6SM 29/25 A2977 RMK T02900250 IEM_DS3505
ZGSZ,2009-08-22 00:00,ZGSZ 220000Z AUTO 27004KT 16SM 29/25 A2977 RMK SLP085 T02900246 52016 IEM_DS3505
ZGSZ,2009-08-22 01:00,ZGSZ 220100Z AUTO 25004KT 6SM 31/24 A2977 RMK T03100240 IEM_DS3505
ZGSZ,2009-08-22 02:00,ZGSZ 220200Z AUTO 23004KT 6SM 32/24 A2977 RMK T03200240 IEM_DS3505
ZGSZ,2009-08-22 03:00,ZGSZ 220300Z AUTO 22006KT 19SM 32/24 A2977 RMK SLP086 T03150236 52002 IEM_DS3505
ZGSZ,2009-08-22 04:00,ZGSZ 220400Z AUTO 6SM 33/23 A2977 RMK T03300230 IEM_DS3505
ZGSZ,2009-08-22 05:00,ZGSZ 220500Z AUTO 24004KT 6SM 34/23 A2974 RMK T03400230 IEM_DS3505
ZGSZ,2009-08-22 06:00,ZGSZ 220600Z AUTO 20004KT 17SM 33/20 A2974 RMK SLP070 T03290204 57016 IEM_DS3505
ZGSZ,2009-08-22 07:00,ZGSZ 220700Z AUTO 24004KT 6SM 34/23 A2971 RMK T03400230 IEM_DS3505
ZGSZ,2009-08-22 08:00,ZGSZ 220800Z AUTO 19008KT 6SM 34/24 A2968 RMK T03400240 IEM_DS3505
ZGSZ,2009-08-22 09:00,ZGSZ 220900Z AUTO 20006KT 14SM 32/24 A2968 RMK SLP053 T03190237 57017 IEM_DS3505
ZGSZ,2009-08-22 10:00,ZGSZ 221000Z AUTO 18008KT 6SM 33/25 A2968 RMK T03300250 IEM_DS3505
ZGSZ,2009-08-22 11:00,ZGSZ 221100Z AUTO 17008KT 6SM 31/25 A2968 RMK T03100250 IEM_DS3505
ZGSZ,2009-08-22 12:00,ZGSZ 221200Z AUTO 22006KT 12SM 30/25 A2971 RMK SLP062 T02990248 52009 IEM_DS3505
ZGSZ,2009-08-22 13:00,ZGSZ 221300Z AUTO 18010KT 6SM 31/25 A2971 RMK T03100250 IEM_DS3505
ZGSZ,2009-08-22 14:00,ZGSZ 221400Z AUTO 17010KT 6SM 31/25 A2974 RMK T03100250 IEM_DS3505
ZGSZ,2009-08-22 15:00,ZGSZ 221500Z AUTO 25002KT 12SM 29/24 A2974 RMK SLP075 T02930244 52013 IEM_DS3505
ZGSZ,2009-08-22 16:00,ZGSZ 221600Z AUTO 17006KT 6SM 30/25 A2974 RMK T03000250 IEM_DS3505
ZGSZ,2009-08-22 17:00,ZGSZ 221700Z AUTO 17008KT 6SM 30/25 A2974 RMK T03000250 IEM_DS3505
ZGSZ,2009-08-22 18:00,ZGSZ 221800Z AUTO 29002KT 15SM 29/24 A2974 RMK SLP071 T02870245 57004 IEM_DS3505
ZGSZ,2009-08-22 19:00,ZGSZ 221900Z AUTO 17004KT 6SM 30/26 A2971 RMK T03000260 IEM_DS3505
ZGSZ,2009-08-22 20:00,ZGSZ 222000Z AUTO 19004KT 6SM 30/25 A2974 RMK T03000250 IEM_DS3505
ZGSZ,2009-08-22 21:00,ZGSZ 222100Z AUTO 22006KT 16SM 28/26 A2974 RMK SLP074 T02850255 52003 IEM_DS3505
ZGSZ,2009-08-22 22:00,ZGSZ 222200Z AUTO 27004KT 7SM 29/26 A2974 RMK T02900260 IEM_DS3505
ZGSZ,2009-08-22 23:00,ZGSZ 222300Z AUTO 29002KT 6SM 30/26 A2977 RMK T03000260 IEM_DS3505
ZGSZ,2009-08-23 00:00,ZGSZ 230000Z AUTO 34002KT 13SM 30/26 A2980 RMK SLP088 T03000255 52014 IEM_DS3505
ZGSZ,2009-08-23 01:00,ZGSZ 230100Z AUTO 30006KT 6SM 31/25 A2980 RMK T03100250 IEM_DS3505
ZGSZ,2009-08-23 02:00,ZGSZ 230200Z AUTO 27006KT 6SM 32/25 A2980 RMK T03200250 IEM_DS3505
ZGSZ,2009-08-23 03:00,ZGSZ 230300Z AUTO 25004KT 7SM 31/24 A2980 RMK SLP092 T03110242 52004 IEM_DS3505
ZGSZ,2009-08-23 04:00,ZGSZ 230400Z AUTO 25006KT 6SM 33/25 A2977 RMK T03300250 IEM_DS3505
ZGSZ,2009-08-23 05:00,ZGSZ 230500Z AUTO 24006KT 6SM 34/25 A2974 RMK T03400250 IEM_DS3505
ZGSZ,2009-08-23 06:00,ZGSZ 230600Z AUTO 22012KT 6SM 33/25 A2971 RMK SLP066 T03340248 57026 IEM_DS3505
ZGSZ,2009-08-23 07:00,ZGSZ 230700Z AUTO 21008KT 6SM 35/25 A2971 RMK T03500250 IEM_DS3505
ZGSZ,2009-08-23 08:00,ZGSZ 230800Z AUTO 18010KT 7SM 33/26 A2968 RMK T03300260 IEM_DS3505
ZGSZ,2009-08-23 09:00,ZGSZ 230900Z AUTO 04002KT 5SM 28/22 A2968 RMK SLP063 T02780225 57004 IEM_DS3505
ZGSZ,2009-08-23 10:00,ZGSZ 231000Z AUTO 16008KT 4SM 32/25 A2971 RMK T03200250 IEM_DS3505
ZGSZ,2009-08-23 11:00,ZGSZ 231100Z AUTO 04019G31KT 7SM 29/22 A2974 RMK T02900220 IEM_DS3505
ZGSZ,2009-08-23 12:00,ZGSZ 231200Z AUTO 04004KT 4SM 27/22 A2977 RMK SLP080 T02740219 52017 IEM_DS3505
ZGSZ,2009-08-23 13:00,ZGSZ 231300Z AUTO 7SM 28/22 A2977 RMK T02800220 IEM_DS3505
ZGSZ,2009-08-23 14:00,ZGSZ 231400Z AUTO 10008KT 7SM 28/21 A2974 RMK T02800210 IEM_DS3505
ZGSZ,2009-08-23 15:00,ZGSZ 231500Z AUTO 32004KT 4SM 28/21 A2980 RMK SLP089 T02750213 52009 IEM_DS3505
ZGSZ,2009-08-23 16:00,ZGSZ 231600Z AUTO 08006KT 6SM 29/21 A2977 RMK T02900210 IEM_DS3505
ZGSZ,2009-08-23 17:00,ZGSZ 231700Z AUTO 00000KT 6SM 29/22 A2977 RMK T02900220 IEM_DS3505
ZGSZ,2009-08-23 18:00,ZGSZ 231800Z AUTO 04006KT 2 1/2SM 28/22 A2977 RMK SLP081 T02750225 57007 IEM_DS3505
ZGSZ,2009-08-23 19:00,ZGSZ 231900Z AUTO 36008KT 4SM 28/23 A2977 RMK T02800230 IEM_DS3505
ZGSZ,2009-08-23 20:00,ZGSZ 232000Z AUTO 16004KT 3SM 28/23 A2977 RMK T02800230 IEM_DS3505
ZGSZ,2009-08-23 21:00,ZGSZ 232100Z AUTO 36002KT 2 1/2SM 27/23 A2977 RMK 70001 SLP085 T02700230 52003 IEM_DS3505
ZGSZ,2009-08-23 22:00,ZGSZ 232200Z AUTO 2 1/2SM 27/24 A2977 RMK T02700240 IEM_DS3505
ZGSZ,2009-08-23 23:00,ZGSZ 232300Z AUTO 02006KT 2 1/2SM 27/24 A2980 RMK T02700240 IEM_DS3505
ZGSZ,2009-08-24 00:00,ZGSZ 240000Z AUTO 07002KT 3SM 29/24 A2980 RMK 70001 SLP094 T02940238 52009 IEM_DS3505
ZGSZ,2009-08-24 01:00,ZGSZ 240100Z AUTO 3SM 31/24 A2983 RMK T03100240 IEM_DS3505
ZGSZ,2009-08-24 02:00,ZGSZ 240200Z AUTO 33004KT 3SM 32/24 A2980 RMK T03200240 IEM_DS3505
ZGSZ,2009-08-24 03:00,ZGSZ 240300Z AUTO 00000KT 3SM 31/24 A2980 RMK SLP093 T03130242 57001 IEM_DS3505
ZGSZ,2009-08-24 04:00,ZGSZ 240400Z AUTO 28006KT 3SM 33/24 A2977 RMK T03300240 IEM_DS3505
ZGSZ,2009-08-24 06:00,ZGSZ 240600Z AUTO 20004KT 2 1/2SM 33/24 A2974 RMK SLP076 T03280243 57016 IEM_DS3505
ZGSZ,2009-08-24 07:00,ZGSZ 240700Z AUTO 5SM 34/23 A2974 RMK T03400230 IEM_DS3505
ZGSZ,2009-08-24 08:00,ZGSZ 240800Z AUTO 15012KT 3SM 30/25 A2971 RMK T03000250 IEM_DS3505
ZGSZ,2009-08-24 09:00,ZGSZ 240900Z AUTO 29004KT 2 1/2SM 30/23 A2971 RMK SLP070 T02990234 57007 IEM_DS3505
ZGSZ,2009-08-24 10:00,ZGSZ 241000Z AUTO 07006KT 7SM 31/21 A2974 RMK T03100210 IEM_DS3505
ZGSZ,2009-08-24 11:00,ZGSZ 241100Z AUTO 10008KT 7SM 31/22 A2974 RMK T03100220 IEM_DS3505
ZGSZ,2009-08-24 12:00,ZGSZ 241200Z AUTO 09004KT 12SM 30/22 A2974 RMK 60000 SLP080 T02990224 52011 IEM_DS3505
ZGSZ,2009-08-24 13:00,ZGSZ 241300Z AUTO 13006KT 6SM 30/23 A2977 RMK T03000230 IEM_DS3505
ZGSZ,2009-08-24 14:00,ZGSZ 241400Z AUTO 11006KT 6SM 30/23 A2980 RMK T03000230 IEM_DS3505
ZGSZ,2009-08-24 15:00,ZGSZ 241500Z AUTO 11002KT 9SM 29/23 A2983 RMK SLP099 T02910231 52019 IEM_DS3505
ZGSZ,2009-08-24 16:00,ZGSZ 241600Z AUTO 11004KT 6SM 30/24 A2980 RMK T03000240 IEM_DS3505
ZGSZ,2009-08-24 17:00,ZGSZ 241700Z AUTO 00000KT 7SM 30/24 A2980 RMK T03000240 IEM_DS3505
ZGSZ,2009-08-24 18:00,ZGSZ 241800Z AUTO 04002KT 7SM 28/23 A2980 RMK SLP088 T02840233 57011 IEM_DS3505
ZGSZ,2009-08-24 19:00,ZGSZ 241900Z AUTO 04002KT 6SM 29/24 A2980 RMK T02900240 IEM_DS3505
ZGSZ,2009-08-24 20:00,ZGSZ 242000Z AUTO 03002KT 3SM 29/24 A2977 RMK T02900240 IEM_DS3505
ZGSZ,2009-08-24 21:00,ZGSZ 242100Z AUTO 02004KT 4SM 28/23 A2980 RMK 70000 SLP086 T02800234 57003 IEM_DS3505
ZGSZ,2009-08-24 22:00,ZGSZ 242200Z AUTO 36004KT 4SM 28/24 A2977 RMK T02800240 IEM_DS3505
ZGSZ,2009-08-24 23:00,ZGSZ 242300Z AUTO 05004KT 4SM 29/24 A2980 RMK T02900240 IEM_DS3505
ZGSZ,2009-08-25 00:00,ZGSZ 250000Z AUTO 04006KT 6SM 29/24 A2980 RMK 70000 SLP094 T02900237 52008 IEM_DS3505
ZGSZ,2009-08-25 01:00,ZGSZ 250100Z AUTO 03008KT 7SM 31/23 A2980 RMK T03100230 IEM_DS3505
ZGSZ,2009-08-25 02:00,ZGSZ 250200Z AUTO 04006KT 7SM 33/24 A2980 RMK T03300240 IEM_DS3505
ZGSZ,2009-08-25 03:00,ZGSZ 250300Z AUTO 07002KT 9SM 32/24 A2980 RMK SLP097 T03170238 52004 IEM_DS3505
ZGSZ,2009-08-25 04:00,ZGSZ 250400Z AUTO 23004KT 7SM 33/24 A2980 RMK T03300240 IEM_DS3505
ZGSZ,2009-08-25 05:00,ZGSZ 250500Z AUTO 18008KT 7SM 30/25 A2980 RMK T03000250 IEM_DS3505
ZGSZ,2009-08-25 06:00,ZGSZ 250600Z AUTO 11008KT 16SM 31/23 A2977 RMK 60001 SLP085 T03110230 57012 IEM_DS3505
ZGSZ,2009-08-25 07:00,ZGSZ 250700Z AUTO 22004KT 7SM 32/26 A2977 RMK T03200260 IEM_DS3505
ZGSZ,2009-08-25 08:00,ZGSZ 250800Z AUTO 22004KT 7SM 32/25 A2974 RMK T03200250 IEM_DS3505
ZGSZ,2009-08-25 09:00,ZGSZ 250900Z AUTO 11006KT 19SM 31/23 A2974 RMK SLP072 T03140230 57013 IEM_DS3505
ZGSZ,2009-08-25 10:00,ZGSZ 251000Z AUTO 00000KT 7SM 31/25 A2974 RMK T03100250 IEM_DS3505
ZGSZ,2009-08-25 11:00,ZGSZ 251100Z AUTO 14004KT 6SM 31/25 A2974 RMK T03100250 IEM_DS3505
ZGSZ,2009-08-25 12:00,ZGSZ 251200Z AUTO 14004KT 19SM 29/24 A2977 RMK SLP084 T02940238 52011 IEM_DS3505
ZGSZ,2009-08-25 13:00,ZGSZ 251300Z AUTO 09006KT 6SM 30/24 A2980 RMK T03000240 IEM_DS3505
ZGSZ,2009-08-25 14:00,ZGSZ 251400Z AUTO 10006KT 6SM 30/24 A2980 RMK T03000240 IEM_DS3505
ZGSZ,2009-08-25 15:00,ZGSZ 251500Z AUTO 07004KT 19SM 29/24 A2983 RMK SLP099 T02880244 52016 IEM_DS3505
ZGSZ,2009-08-25 16:00,ZGSZ 251600Z AUTO 09004KT 6SM 29/24 A2980 RMK T02900240 IEM_DS3505
ZGSZ,2009-08-25 17:00,ZGSZ 251700Z AUTO 09004KT 6SM 29/25 A2980 RMK T02900250 IEM_DS3505
ZGSZ,2009-08-25 18:00,ZGSZ 251800Z AUTO 11004KT 19SM 28/25 A2980 RMK SLP089 T02850247 57010 IEM_DS3505
ZGSZ,2009-08-25 19:00,ZGSZ 251900Z AUTO 10004KT 6SM 29/25 A2977 RMK T02900250 IEM_DS3505
ZGSZ,2009-08-25 20:00,ZGSZ 252000Z AUTO 6SM 29/24 A2977 RMK T02900240 IEM_DS3505
ZGSZ,2009-08-25 21:00,ZGSZ 252100Z AUTO 09002KT 19SM 28/24 A2977 RMK 70001 SLP085 T02810237 57004 IEM_DS3505
ZGSZ,2009-08-25 22:00,ZGSZ 252200Z AUTO 03004KT 7SM 28/25 A2977 RMK T02800250 IEM_DS3505
ZGSZ,2009-08-25 23:00,ZGSZ 252300Z AUTO 03004KT 7SM 29/25 A2980 RMK T02900250 IEM_DS3505
ZGSZ,2009-08-26 00:00,ZGSZ 260000Z AUTO 02002KT 17SM 30/25 A2980 RMK 70001 SLP096 T02950246 52010 IEM_DS3505
ZGSZ,2009-08-26 01:00,ZGSZ 260100Z AUTO 7SM 31/24 A2983 RMK T03100240 IEM_DS3505
ZGSZ,2009-08-26 02:00,ZGSZ 260200Z AUTO 27002KT 7SM 31/25 A2983 RMK T03100250 IEM_DS3505
ZGSZ,2009-08-26 03:00,ZGSZ 260300Z AUTO 09004KT 17SM 32/23 A2980 RMK SLP097 T03220234 52002 IEM_DS3505
ZGSZ,2009-08-26 04:00,ZGSZ 260400Z AUTO 24008KT 7SM 33/24 A2980 RMK T03300240 IEM_DS3505
ZGSZ,2009-08-26 05:00,ZGSZ 260500Z AUTO 22008KT 7SM 33/25 A2977 RMK T03300250 IEM_DS3505
ZGSZ,2009-08-26 06:00,ZGSZ 260600Z AUTO 32002KT 14SM 26/24 A2977 RMK 60055 SLP085 T02560237 57013 IEM_DS3505
ZGSZ,2009-08-26 07:00,ZGSZ 260700Z AUTO 12006KT 7SM 31/24 A2977 RMK T03100240 IEM_DS3505
ZGSZ,2009-08-26 08:00,ZGSZ 260800Z AUTO 02008KT 7SM 31/25 A2974 RMK T03100250 IEM_DS3505
ZGSZ,2009-08-26 09:00,ZGSZ 260900Z AUTO 29004KT 11SM 30/24 A2974 RMK SLP072 T02980237 57013 IEM_DS3505
ZGSZ,2009-08-26 10:00,ZGSZ 261000Z AUTO 21004KT 6SM 31/25 A2974 RMK T03100250 IEM_DS3505
ZGSZ,2009-08-26 11:00,ZGSZ 261100Z AUTO 20004KT 6SM 31/25 A2974 RMK T03100250 IEM_DS3505
ZGSZ,2009-08-26 12:00,ZGSZ 261200Z AUTO 18004KT 11SM 29/25 A2974 RMK 60000 SLP077 T02920250 52006 IEM_DS3505
ZGSZ,2009-08-26 13:00,ZGSZ 261300Z AUTO 16006KT 6SM 30/25 A2974 RMK T03000250 IEM_DS3505
ZGSZ,2009-08-26 14:00,ZGSZ 261400Z AUTO 15004KT 6SM 29/25 A2977 RMK T02900250 IEM_DS3505
ZGSZ,2009-08-26 15:00,ZGSZ 261500Z AUTO 16002KT 9SM 28/24 A2977 RMK SLP084 T02840244 52007 IEM_DS3505
ZGSZ,2009-08-26 16:00,ZGSZ 261600Z AUTO 00000KT 6SM 29/25 A2977 RMK T02900250 IEM_DS3505
ZGSZ,2009-08-26 17:00,ZGSZ 261700Z AUTO 09004KT 6SM 29/25 A2977 RMK T02900250 IEM_DS3505
ZGSZ,2009-08-26 18:00,ZGSZ 261800Z AUTO 07002KT 6SM 28/25 A2974 RMK SLP080 T02760247 57005 IEM_DS3505
ZGSZ,2009-08-26 19:00,ZGSZ 261900Z AUTO 09004KT 6SM 29/25 A2974 RMK T02900250 IEM_DS3505
ZGSZ,2009-08-26 20:00,ZGSZ 262000Z AUTO 6SM 29/24 A2974 RMK T02900240 IEM_DS3505
ZGSZ,2009-08-26 21:00,ZGSZ 262100Z AUTO 04002KT 5SM 27/25 A2977 RMK 70053 SLP079 T02740247 57001 IEM_DS3505
ZGSZ,2009-08-26 22:00,ZGSZ 262200Z AUTO 03004KT 4SM 28/25 A2977 RMK T02800250 IEM_DS3505
ZGSZ,2009-08-26 23:00,ZGSZ 262300Z AUTO 04004KT 3SM 29/25 A2980 RMK T02900250 IEM_DS3505
ZGSZ,2009-08-27 00:00,ZGSZ 270000Z AUTO 07002KT 5SM 30/25 A2980 RMK 70053 SLP090 T02970246 52011 IEM_DS3505
ZGSZ,2009-08-27 01:00,ZGSZ 270100Z AUTO 7SM 32/24 A2980 RMK T03200240 IEM_DS3505
ZGSZ,2009-08-27 02:00,ZGSZ 270200Z AUTO 00000KT 7SM 32/24 A2980 RMK T03200240 IEM_DS3505
ZGSZ,2009-08-27 03:00,ZGSZ 270300Z AUTO 36002KT 4SM 32/24 A2980 RMK SLP091 T03210244 52002 IEM_DS3505
ZGSZ,2009-08-27 04:00,ZGSZ 270400Z AUTO 22008KT 7SM 33/24 A2980 RMK T03300240 IEM_DS3505
ZGSZ,2009-08-27 05:00,ZGSZ 270500Z AUTO 22008KT 7SM 34/25 A2977 RMK T03400250 IEM_DS3505
ZGSZ,2009-08-27 06:00,ZGSZ 270600Z AUTO 25004KT 7SM 32/24 A2977 RMK SLP079 T03170243 57012 IEM_DS3505
ZGSZ,2009-08-27 07:00,ZGSZ 270700Z AUTO 19008KT 7SM 32/24 A2974 RMK T03200240 IEM_DS3505
ZGSZ,2009-08-27 08:00,ZGSZ 270800Z AUTO 17010KT 7SM 32/25 A2974 RMK T03200250 IEM_DS3505
ZGSZ,2009-08-27 09:00,ZGSZ 270900Z AUTO 25002KT 6SM 31/24 A2974 RMK SLP069 T03070244 57010 IEM_DS3505
ZGSZ,2009-08-27 10:00,ZGSZ 271000Z AUTO 18010KT 6SM 32/25 A2974 RMK T03200250 IEM_DS3505
ZGSZ,2009-08-27 11:00,ZGSZ 271100Z AUTO 18008KT 6SM 31/25 A2974 RMK T03100250 IEM_DS3505
ZGSZ,2009-08-27 12:00,ZGSZ 271200Z AUTO 00000KT 10SM 30/24 A2977 RMK SLP084 T02960242 52015 IEM_DS3505
ZGSZ,2009-08-27 13:00,ZGSZ 271300Z AUTO 17008KT 6SM 31/25 A2980 RMK T03100250 IEM_DS3505
ZGSZ,2009-08-27 14:00,ZGSZ 271400Z AUTO 15006KT 6SM 30/25 A2980 RMK T03000250 IEM_DS3505
ZGSZ,2009-08-27 15:00,ZGSZ 271500Z AUTO 16002KT 12SM 28/25 A2980 RMK SLP090 T02850249 52006 IEM_DS3505
ZGSZ,2009-08-27 16:00,ZGSZ 271600Z AUTO 17004KT 6SM 30/25 A2977 RMK T03000250 IEM_DS3505
ZGSZ,2009-08-27 17:00,ZGSZ 271700Z AUTO 17006KT 6SM 30/25 A2977 RMK T03000250 IEM_DS3505
ZGSZ,2009-08-27 18:00,ZGSZ 271800Z AUTO 00000KT 14SM 28/25 A2974 RMK SLP079 T02790251 57011 IEM_DS3505
ZGSZ,2009-08-27 19:00,ZGSZ 271900Z AUTO 16002KT 6SM 29/25 A2974 RMK T02900250 IEM_DS3505
ZGSZ,2009-08-27 20:00,ZGSZ 272000Z AUTO 20004KT 7SM 30/25 A2977 RMK T03000250 IEM_DS3505
ZGSZ,2009-08-27 21:00,ZGSZ 272100Z AUTO 25002KT 14SM 28/25 A2977 RMK SLP088 T02780250 52008 IEM_DS3505
ZGSZ,2009-08-27 22:00,ZGSZ 272200Z AUTO 26006KT 7SM 29/25 A2980 RMK T02900250 IEM_DS3505
ZGSZ,2009-08-27 23:00,ZGSZ 272300Z AUTO 28006KT 7SM 29/25 A2980 RMK T02900250 IEM_DS3505
ZGSZ,2009-08-28 00:00,ZGSZ 280000Z AUTO 20002KT 14SM 29/26 A2980 RMK SLP097 T02930255 52009 IEM_DS3505
ZGSZ,2009-08-28 01:00,ZGSZ 280100Z AUTO 28004KT 7SM 31/25 A2983 RMK T03100250 IEM_DS3505
ZGSZ,2009-08-28 02:00,ZGSZ 280200Z AUTO 29006KT 7SM 32/24 A2980 RMK T03200240 IEM_DS3505
ZGSZ,2009-08-28 03:00,ZGSZ 280300Z AUTO 22004KT 11SM 32/23 A2980 RMK SLP095 T03210228 57001 IEM_DS3505
ZGSZ,2009-08-28 04:00,ZGSZ 280400Z AUTO 28006KT 7SM 33/25 A2980 RMK T03300250 IEM_DS3505
ZGSZ,2009-08-28 05:00,ZGSZ 280500Z AUTO 29006KT 6SM 34/24 A2977 RMK T03400240 IEM_DS3505
ZGSZ,2009-08-28 06:00,ZGSZ 280600Z AUTO 29004KT 7SM 34/24 A2974 RMK SLP071 T03380235 57024 IEM_DS3505
ZGSZ,2009-08-28 07:00,ZGSZ 280700Z AUTO 25006KT 6SM 35/24 A2971 RMK T03500240 IEM_DS3505
ZGSZ,2009-08-28 08:00,ZGSZ 280800Z AUTO 24004KT 6SM 35/23 A2968 RMK T03500230 IEM_DS3505
ZGSZ,2009-08-28 09:00,ZGSZ 280900Z AUTO 25002KT 9SM 34/20 A2965 RMK SLP047 T03400200 57024 IEM_DS3505
ZGSZ,2009-08-28 10:00,ZGSZ 281000Z AUTO 19006KT 6SM 34/25 A2965 RMK T03400250 IEM_DS3505
ZGSZ,2009-08-28 11:00,ZGSZ 281100Z AUTO 17008KT 6SM 32/25 A2965 RMK T03200250 IEM_DS3505
ZGSZ,2009-08-28 12:00,ZGSZ 281200Z AUTO 22008KT 4SM 31/25 A2968 RMK SLP058 T03060250 52011 IEM_DS3505
ZGSZ,2009-08-28 13:00,ZGSZ 281300Z AUTO 18008KT 6SM 32/26 A2971 RMK T03200260 IEM_DS3505
ZGSZ,2009-08-28 14:00,ZGSZ 281400Z AUTO 17008KT 6SM 32/26 A2974 RMK T03200260 IEM_DS3505
ZGSZ,2009-08-28 15:00,ZGSZ 281500Z AUTO 22006KT 5SM 30/26 A2977 RMK SLP083 T02990259 52025 IEM_DS3505
ZGSZ,2009-08-28 16:00,ZGSZ 281600Z AUTO 17008KT 7SM 31/26 A2977 RMK T03100260 IEM_DS3505
ZGSZ,2009-08-28 17:00,ZGSZ 281700Z AUTO 16006KT 6SM 31/26 A2977 RMK T03100260 IEM_DS3505
ZGSZ,2009-08-28 18:00,ZGSZ 281800Z AUTO 25004KT 7SM 29/26 A2977 RMK SLP081 T02930259 57002 IEM_DS3505
ZGSZ,2009-08-28 19:00,ZGSZ 281900Z AUTO 18006KT 6SM 30/26 A2974 RMK T03000260 IEM_DS3505
ZGSZ,2009-08-28 20:00,ZGSZ 282000Z AUTO 25006KT 7SM 30/26 A2971 RMK T03000260 IEM_DS3505
ZGSZ,2009-08-28 21:00,ZGSZ 282100Z AUTO 18002KT 9SM 29/26 A2971 RMK SLP070 T02900258 57011 IEM_DS3505
ZGSZ,2009-08-28 22:00,ZGSZ 282200Z AUTO 29004KT 6SM 30/26 A2974 RMK T03000260 IEM_DS3505
ZGSZ,2009-08-28 23:00,ZGSZ 282300Z AUTO 31002KT 6SM 30/26 A2974 RMK T03000260 IEM_DS3505
ZGSZ,2009-08-29 00:00,ZGSZ 290000Z AUTO 29002KT 6SM 30/25 A2977 RMK SLP081 T03030254 52011 IEM_DS3505
ZGSZ,2009-08-29 01:00,ZGSZ 290100Z AUTO 27004KT 4SM 31/27 A2977 RMK T03100270 IEM_DS3505
ZGSZ,2009-08-29 02:00,ZGSZ 290200Z AUTO 26004KT 7SM 32/26 A2977 RMK T03200260 IEM_DS3505
ZGSZ,2009-08-29 03:00,ZGSZ 290300Z AUTO 27002KT 4SM 32/26 A2977 RMK SLP080 T03230261 57001 IEM_DS3505
ZGSZ,2009-08-29 04:00,ZGSZ 290400Z AUTO 27006KT 5SM 34/25 A2974 RMK T03400250 IEM_DS3505
ZGSZ,2009-08-29 05:00,ZGSZ 290500Z AUTO 26006KT 5SM 34/25 A2971 RMK T03400250 IEM_DS3505
ZGSZ,2009-08-29 06:00,ZGSZ 290600Z AUTO 07008KT 2 1/2SM A2971 RMK 60047 SLP073 57008 IEM_DS3505
ZGSZ,2009-08-29 07:00,ZGSZ 290700Z AUTO 10008KT 4SM 31/24 A2968 RMK T03100240 IEM_DS3505
ZGSZ,2009-08-29 08:00,ZGSZ 290800Z AUTO 11010KT 4SM 31/24 A2971 RMK T03100240 IEM_DS3505
ZGSZ,2009-08-29 09:00,ZGSZ 290900Z AUTO 07004KT 6SM 28/22 A2968 RMK SLP058 T02760225 57015 IEM_DS3505
ZGSZ,2009-08-29 10:00,ZGSZ 291000Z AUTO 12006KT 5SM 31/22 A2968 RMK T03100220 IEM_DS3505
ZGSZ,2009-08-29 11:00,ZGSZ 291100Z AUTO 11006KT 3SM 31/22 A2971 RMK T03100220 IEM_DS3505
ZGSZ,2009-08-29 12:00,ZGSZ 291200Z AUTO 07004KT 3SM 29/24 A2974 RMK 60012 SLP073 T02880239 52016 IEM_DS3505
ZGSZ,2009-08-29 13:00,ZGSZ 291300Z AUTO 08006KT 3SM 31/23 A2977 RMK T03100230 IEM_DS3505
ZGSZ,2009-08-29 14:00,ZGSZ 291400Z AUTO 02004KT 2SM 30/23 A2977 RMK T03000230 IEM_DS3505
ZGSZ,2009-08-29 15:00,ZGSZ 291500Z AUTO 07004KT 3SM 29/24 A2980 RMK SLP090 T02880244 52017 IEM_DS3505
ZGSZ,2009-08-29 16:00,ZGSZ 291600Z AUTO 08004KT 1 1/2SM 30/24 A2980 RMK T03000240 IEM_DS3505
ZGSZ,2009-08-29 17:00,ZGSZ 291700Z AUTO 1 1/2SM 29/24 A2980 RMK T02900240 IEM_DS3505
ZGSZ,2009-08-29 18:00,ZGSZ 291800Z AUTO 09002KT 2 1/2SM 28/25 A2977 RMK SLP084 T02850251 57007 IEM_DS3505
ZGSZ,2009-08-29 19:00,ZGSZ 291900Z AUTO 10004KT 1 1/4SM 29/25 A2974 RMK T02900250 IEM_DS3505
ZGSZ,2009-08-29 20:00,ZGSZ 292000Z AUTO 1SM 29/25 A2977 RMK T02900250 IEM_DS3505
ZGSZ,2009-08-29 21:00,ZGSZ 292100Z AUTO 29002KT 2SM 28/26 A2977 RMK 70061 SLP082 T02770255 57002 IEM_DS3505
ZGSZ,2009-08-29 22:00,ZGSZ 292200Z AUTO 04004KT 1SM 28/25 A2977 RMK T02800250 IEM_DS3505
ZGSZ,2009-08-29 23:00,ZGSZ 292300Z AUTO 02006KT 1SM 29/25 A2977 RMK T02900250 IEM_DS3505
ZGSZ,2009-08-30 00:00,ZGSZ 300000Z AUTO 04004KT 1SM 28/26 A2980 RMK 70061 SLP093 T02850257 52011 IEM_DS3505
ZGSZ,2009-08-30 01:00,ZGSZ 300100Z AUTO 02004KT 3SM 31/25 A2980 RMK T03100250 IEM_DS3505
ZGSZ,2009-08-30 02:00,ZGSZ 300200Z AUTO 3SM 33/25 A2980 RMK T03300250 IEM_DS3505
ZGSZ,2009-08-30 03:00,ZGSZ 300300Z AUTO 20004KT 1 1/4SM 30/25 A2980 RMK SLP096 T03000253 52003 IEM_DS3505
ZGSZ,2009-08-30 04:00,ZGSZ 300400Z AUTO 19008KT 4SM 33/25 A2980 RMK T03300250 IEM_DS3505
ZGSZ,2009-08-30 05:00,ZGSZ 300500Z AUTO 16006KT 7SM 33/23 A2977 RMK T03300230 IEM_DS3505
ZGSZ,2009-08-30 06:00,ZGSZ 300600Z AUTO 22012KT 3SM 32/24 A2977 RMK SLP077 T03160242 57018 IEM_DS3505
ZGSZ,2009-08-30 07:00,ZGSZ 300700Z AUTO 19006KT 7SM 32/25 A2974 RMK T03200250 IEM_DS3505
ZGSZ,2009-08-30 08:00,ZGSZ 300800Z AUTO 22006KT 7SM 33/24 A2974 RMK T03300240 IEM_DS3505
ZGSZ,2009-08-30 09:00,ZGSZ 300900Z AUTO 32002KT 3SM 31/24 A2974 RMK SLP067 T03140240 57010 IEM_DS3505
ZGSZ,2009-08-30 10:00,ZGSZ 301000Z AUTO 32012KT 4SM 30/23 A2974 RMK T03000230 IEM_DS3505
ZGSZ,2009-08-30 11:00,ZGSZ 301100Z AUTO 31002KT 3SM 30/23 A2977 RMK T03000230 IEM_DS3505
ZGSZ,2009-08-30 12:00,ZGSZ 301200Z AUTO 07004KT 1 1/2SM 28/25 A2980 RMK 60002 SLP092 T02750253 52024 IEM_DS3505
ZGSZ,2009-08-30 13:00,ZGSZ 301300Z AUTO 03004KT 5SM 29/22 A2980 RMK T02900220 IEM_DS3505
ZGSZ,2009-08-30 14:00,ZGSZ 301400Z AUTO 4SM 29/22 A2980 RMK T02900220 IEM_DS3505
ZGSZ,2009-08-30 15:00,ZGSZ 301500Z AUTO 07004KT 4SM 28/22 A2980 RMK SLP096 T02750222 52004 IEM_DS3505
ZGSZ,2009-08-30 16:00,ZGSZ 301600Z AUTO 01006KT 4SM 28/23 A2980 RMK T02800230 IEM_DS3505
ZGSZ,2009-08-30 17:00,ZGSZ 301700Z AUTO 4SM 28/23 A2980 RMK T02800230 IEM_DS3505
ZGSZ,2009-08-30 18:00,ZGSZ 301800Z AUTO 02004KT 2 1/2SM 27/23 A2977 RMK SLP087 T02710227 57009 IEM_DS3505
ZGSZ,2009-08-30 19:00,ZGSZ 301900Z AUTO 02002KT 3SM 27/23 A2977 RMK T02700230 IEM_DS3505
ZGSZ,2009-08-30 20:00,ZGSZ 302000Z AUTO 02006KT 3SM 28/23 A2977 RMK T02800230 IEM_DS3505
ZGSZ,2009-08-30 21:00,ZGSZ 302100Z AUTO 02002KT 2 1/2SM 26/22 A2980 RMK 70002 SLP087 T02650221 54000 IEM_DS3505
ZGSZ,2009-08-30 22:00,ZGSZ 302200Z AUTO 01006KT 4SM 27/23 A2980 RMK T02700230 IEM_DS3505
ZGSZ,2009-08-30 23:00,ZGSZ 302300Z AUTO 03006KT 3SM 27/23 A2980 RMK T02700230 IEM_DS3505
ZGSZ,2009-08-31 00:00,ZGSZ 310000Z AUTO 02004KT 2 1/2SM 27/23 A2983 RMK 70002 SLP101 T02720226 52014 IEM_DS3505
ZGSZ,2009-08-31 01:00,ZGSZ 310100Z AUTO 02008KT 4SM 30/23 A2983 RMK T03000230 IEM_DS3505
ZGSZ,2009-08-31 02:00,ZGSZ 310200Z AUTO 36010KT 4SM 31/23 A2983 RMK T03100230 IEM_DS3505
ZGSZ,2009-08-31 03:00,ZGSZ 310300Z AUTO 02008KT 4SM 31/22 A2983 RMK SLP101 T03120220 54000 IEM_DS3505
ZGSZ,2009-08-31 04:00,ZGSZ 310400Z AUTO 03006KT 4SM 33/24 A2983 RMK T03300240 IEM_DS3505
ZGSZ,2009-08-31 05:00,ZGSZ 310500Z AUTO 05004KT 4SM 34/23 A2980 RMK T03400230 IEM_DS3505
ZGSZ,2009-08-31 06:00,ZGSZ 310600Z AUTO 34002KT 4SM 33/22 A2977 RMK SLP082 T03270222 57018 IEM_DS3505
ZGSZ,2009-08-31 07:00,ZGSZ 310700Z AUTO 03006KT 7SM 34/23 A2974 RMK T03400230 IEM_DS3505
ZGSZ,2009-08-31 08:00,ZGSZ 310800Z AUTO 7SM 34/23 A2974 RMK T03400230 IEM_DS3505
ZGSZ,2009-08-31 09:00,ZGSZ 310900Z AUTO 34006KT 4SM 27/25 A2974 RMK SLP078 T02660248 57005 IEM_DS3505
ZGSZ,2009-08-31 10:00,ZGSZ 311000Z AUTO 10010KT 5SM 31/23 A2974 RMK T03100230 IEM_DS3505
ZGSZ,2009-08-31 11:00,ZGSZ 311100Z AUTO 16004KT 3SM 29/24 A2977 RMK T02900240 IEM_DS3505
ZGSZ,2009-08-31 12:00,ZGSZ 311200Z AUTO 04004KT 9SM 25/21 A2980 RMK 60047 SLP091 T02510206 52013 IEM_DS3505
ZGSZ,2009-08-31 14:00,ZGSZ 311400Z AUTO 6SM 29/21 A2983 RMK T02900210 IEM_DS3505
ZGSZ,2009-08-31 15:00,ZGSZ 311500Z AUTO 04002KT 9SM 26/22 A2983 RMK SLP102 T02610218 52011 IEM_DS3505
ZGSZ,2009-08-31 16:00,ZGSZ 311600Z AUTO 09004KT 7SM 30/23 A2980 RMK T03000230 IEM_DS3505
ZGSZ,2009-08-31 17:00,ZGSZ 311700Z AUTO 6SM 29/23 A2980 RMK T02900230 IEM_DS3505
ZGSZ,2009-08-31 18:00,ZGSZ 311800Z AUTO 09002KT 4SM 27/23 A2980 RMK 60000 SLP092 T02680233 57009 IEM_DS3505
ZGSZ,2009-08-31 19:00,ZGSZ 311900Z AUTO 03004KT 7SM 28/23 A2980 RMK T02800230 IEM_DS3505
ZGSZ,2009-08-31 20:00,ZGSZ 312000Z AUTO 04008KT 7SM 28/23 A2980 RMK T02800230 IEM_DS3505
ZGSZ,2009-08-31 21:00,ZGSZ 312100Z AUTO 04004KT 4SM 27/23 A2980 RMK 70047 SLP091 T02660231 57002 IEM_DS3505
ZGSZ,2009-08-31 22:00,ZGSZ 312200Z AUTO 07006KT 6SM 28/23 A2980 RMK T02800230 IEM_DS3505
ZGSZ,2009-08-31 23:00,ZGSZ 312300Z AUTO 04004KT 6SM 28/22 A2983 RMK T02800220 IEM_DS3505
ZGSZ,2009-09-01 00:00,ZGSZ 010000Z AUTO 04004KT 4SM 27/22 A2980 RMK 70047 SLP099 T02730220 52008 IEM_DS3505
ZGSZ,2009-09-01 01:00,ZGSZ 010100Z AUTO 01010KT 4SM 29/22 A2983 RMK T02900220 IEM_DS3505
ZGSZ,2009-09-01 02:00,ZGSZ 010200Z AUTO 02010KT 7SM 31/22 A2983 RMK T03100220 IEM_DS3505
ZGSZ,2009-09-01 03:00,ZGSZ 010300Z AUTO 07008KT 6SM 30/22 A2983 RMK SLP102 T03010220 52003 IEM_DS3505
ZGSZ,2009-09-01 04:00,ZGSZ 010400Z AUTO 03008KT 7SM 33/23 A2980 RMK T03300230 IEM_DS3505
ZGSZ,2009-09-01 05:00,ZGSZ 010500Z AUTO 02006KT 7SM 32/23 A2980 RMK T03200230 IEM_DS3505
ZGSZ,2009-09-01 06:00,ZGSZ 010600Z AUTO 04004KT 7SM 32/21 A2977 RMK SLP082 T03210210 57019 IEM_DS3505
ZGSZ,2009-09-01 07:00,ZGSZ 010700Z AUTO 03006KT 7SM 34/23 A2974 RMK T03400230 IEM_DS3505
ZGSZ,2009-09-01 08:00,ZGSZ 010800Z AUTO 07004KT 7SM 34/22 A2971 RMK T03400220 IEM_DS3505
ZGSZ,2009-09-01 09:00,ZGSZ 010900Z AUTO 20002KT 11SM 30/22 A2974 RMK SLP074 T03040220 57009 IEM_DS3505
ZGSZ,2009-09-01 10:00,ZGSZ 011000Z AUTO 17008KT 7SM 32/23 A2974 RMK T03200230 IEM_DS3505
ZGSZ,2009-09-01 11:00,ZGSZ 011100Z AUTO 08008KT 7SM 32/23 A2977 RMK T03200230 IEM_DS3505
ZGSZ,2009-09-01 12:00,ZGSZ 011200Z AUTO 14008KT 12SM 30/22 A2977 RMK SLP089 T02950220 52015 IEM_DS3505
ZGSZ,2009-09-01 13:00,ZGSZ 011300Z AUTO 10006KT 7SM 31/23 A2980 RMK T03100230 IEM_DS3505
ZGSZ,2009-09-01 14:00,ZGSZ 011400Z AUTO 10006KT 6SM 30/23 A2980 RMK T03000230 IEM_DS3505
ZGSZ,2009-09-01 15:00,ZGSZ 011500Z AUTO 36002KT 11SM 27/24 A2980 RMK SLP097 T02720239 52008 IEM_DS3505
ZGSZ,2009-09-01 16:00,ZGSZ 011600Z AUTO 7SM 29/24 A2980 RMK T02900240 IEM_DS3505
ZGSZ,2009-09-01 17:00,ZGSZ 011700Z AUTO 04004KT 5SM 28/24 A2980 RMK T02800240 IEM_DS3505
ZGSZ,2009-09-01 18:00,ZGSZ 011800Z AUTO 36002KT 9SM 27/23 A2977 RMK 60000 SLP084 T02700230 57012 IEM_DS3505
ZGSZ,2009-09-01 19:00,ZGSZ 011900Z AUTO 01004KT 6SM 28/23 A2977 RMK T02800230 IEM_DS3505
ZGSZ,2009-09-01 20:00,ZGSZ 012000Z AUTO 02008KT 6SM 27/24 A2974 RMK T02700240 IEM_DS3505
ZGSZ,2009-09-01 21:00,ZGSZ 012100Z AUTO 36004KT 10SM 27/22 A2977 RMK 70001 SLP079 T02670225 57006 IEM_DS3505
ZGSZ,2009-09-01 22:00,ZGSZ 012200Z AUTO 02008KT 5SM 27/23 A2977 RMK T02700230 IEM_DS3505
ZGSZ,2009-09-01 23:00,ZGSZ 012300Z AUTO 04006KT 6SM 28/23 A2977 RMK T02800230 IEM_DS3505
ZGSZ,2009-09-02 00:00,ZGSZ 020000Z AUTO 04008KT 6SM 28/22 A2980 RMK 70001 SLP089 T02760225 52010 IEM_DS3505
ZGSZ,2009-09-02 01:00,ZGSZ 020100Z AUTO 08006KT 6SM 31/23 A2980 RMK T03100230 IEM_DS3505
ZGSZ,2009-09-02 02:00,ZGSZ 020200Z AUTO 02006KT 7SM 32/22 A2980 RMK T03200220 IEM_DS3505
ZGSZ,2009-09-02 03:00,ZGSZ 020300Z AUTO 07004KT 7SM 30/22 A2980 RMK SLP092 T03030217 52003 IEM_DS3505
ZGSZ,2009-09-02 04:00,ZGSZ 020400Z AUTO 05006KT 7SM 33/23 A2977 RMK T03300230 IEM_DS3505
ZGSZ,2009-09-02 05:00,ZGSZ 020500Z AUTO 03010KT 7SM 33/22 A2974 RMK T03300220 IEM_DS3505
ZGSZ,2009-09-02 06:00,ZGSZ 020600Z AUTO 04006KT 7SM 32/21 A2971 RMK SLP067 T03230206 57024 IEM_DS3505
ZGSZ,2009-09-02 07:00,ZGSZ 020700Z AUTO 04010KT 7SM 35/20 A2971 RMK T03500200 IEM_DS3505
ZGSZ,2009-09-02 08:00,ZGSZ 020800Z AUTO 03010KT 7SM 35/21 A2968 RMK T03500210 IEM_DS3505
ZGSZ,2009-09-02 09:00,ZGSZ 020900Z AUTO 02002KT 9SM 33/20 A2968 RMK SLP052 T03290201 57015 IEM_DS3505
ZGSZ,2009-09-02 10:00,ZGSZ 021000Z AUTO 04006KT 6SM 34/21 A2968 RMK T03400210 IEM_DS3505
ZGSZ,2009-09-02 11:00,ZGSZ 021100Z AUTO 17008KT 7SM 31/23 A2971 RMK T03100230 IEM_DS3505
ZGSZ,2009-09-02 12:00,ZGSZ 021200Z AUTO 09006KT 8SM 30/23 A2971 RMK SLP071 T02950227 52018 IEM_DS3505
ZGSZ,2009-09-02 13:00,ZGSZ 021300Z AUTO 10008KT 7SM 31/23 A2974 RMK T03100230 IEM_DS3505
ZGSZ,2009-09-02 14:00,ZGSZ 021400Z AUTO 11010KT 6SM 31/23 A2974 RMK T03100230 IEM_DS3505
ZGSZ,2009-09-02 15:00,ZGSZ 021500Z AUTO 09004KT 10SM 29/24 A2977 RMK SLP079 T02910235 52009 IEM_DS3505
ZGSZ,2009-09-02 16:00,ZGSZ 021600Z AUTO 09006KT 6SM 30/23 A2974 RMK T03000230 IEM_DS3505
ZGSZ,2009-09-02 17:00,ZGSZ 021700Z AUTO 09004KT 6SM 30/24 A2974 RMK T03000240 IEM_DS3505
ZGSZ,2009-09-02 18:00,ZGSZ 021800Z AUTO 09004KT 9SM 29/24 A2971 RMK SLP066 T02860237 57013 IEM_DS3505
ZGSZ,2009-09-02 19:00,ZGSZ 021900Z AUTO 5SM 29/24 A2971 RMK T02900240 IEM_DS3505
ZGSZ,2009-09-02 20:00,ZGSZ 022000Z AUTO 01004KT 4SM 29/24 A2971 RMK T02900240 IEM_DS3505
ZGSZ,2009-09-02 21:00,ZGSZ 022100Z AUTO 36004KT 7SM 28/23 A2971 RMK SLP062 T02760234 57004 IEM_DS3505
ZGSZ,2009-09-02 22:00,ZGSZ 022200Z AUTO 04004KT 4SM 29/24 A2971 RMK T02900240 IEM_DS3505
ZGSZ,2009-09-02 23:00,ZGSZ 022300Z AUTO 04004KT 4SM 29/24 A2971 RMK T02900240 IEM_DS3505
ZGSZ,2009-09-03 00:00,ZGSZ 030000Z AUTO 02006KT 5SM 29/23 A2974 RMK SLP069 T02860233 52007 IEM_DS3505
ZGSZ,2009-09-03 01:00,ZGSZ 030100Z AUTO 04008KT 7SM 31/24 A2974 RMK T03100240 IEM_DS3505
ZGSZ,2009-09-03 02:00,ZGSZ 030200Z AUTO 06008KT 5SM 32/24 A2974 RMK T03200240 IEM_DS3505
ZGSZ,2009-09-03 03:00,ZGSZ 030300Z AUTO 02006KT 5SM 31/22 A2974 RMK SLP069 T03110224 54000 IEM_DS3505
ZGSZ,2009-09-03 04:00,ZGSZ 030400Z AUTO 03008KT 7SM 33/22 A2971 RMK T03300220 IEM_DS3505
ZGSZ,2009-09-03 05:00,ZGSZ 030500Z AUTO 04008KT 7SM 34/22 A2971 RMK T03400220 IEM_DS3505
ZGSZ,2009-09-03 06:00,ZGSZ 030600Z AUTO 07006KT 8SM 32/21 A2968 RMK SLP053 T03210213 57016 IEM_DS3505
ZGSZ,2009-09-03 07:00,ZGSZ 030700Z AUTO 04008KT 7SM 35/21 A2965 RMK T03500210 IEM_DS3505
ZGSZ,2009-09-03 08:00,ZGSZ 030800Z AUTO 18010KT 7SM 34/22 A2965 RMK T03400220 IEM_DS3505
ZGSZ,2009-09-03 09:00,ZGSZ 030900Z AUTO 07004KT 9SM 31/22 A2965 RMK SLP043 T03090222 57010 IEM_DS3505
ZGSZ,2009-09-03 10:00,ZGSZ 031000Z AUTO 04004KT 7SM 29/24 A2965 RMK T02900240 IEM_DS3505
ZGSZ,2009-09-03 11:00,ZGSZ 031100Z AUTO 11004KT 7SM 31/23 A2968 RMK T03100230 IEM_DS3505
ZGSZ,2009-09-03 12:00,ZGSZ 031200Z AUTO 16006KT 7SM 30/24 A2968 RMK 60000 SLP056 T02960235 52013 IEM_DS3505
ZGSZ,2009-09-03 13:00,ZGSZ 031300Z AUTO 09006KT 6SM 30/24 A2971 RMK T03000240 IEM_DS3505
ZGSZ,2009-09-03 14:00,ZGSZ 031400Z AUTO 10004KT 6SM 30/24 A2974 RMK T03000240 IEM_DS3505
ZGSZ,2009-09-03 15:00,ZGSZ 031500Z AUTO 09004KT 9SM 29/24 A2974 RMK SLP072 T02910240 52016 IEM_DS3505
ZGSZ,2009-09-03 16:00,ZGSZ 031600Z AUTO 10004KT 6SM 30/24 A2971 RMK T03000240 IEM_DS3505
ZGSZ,2009-09-03 17:00,ZGSZ 031700Z AUTO 08004KT 7SM 30/24 A2971 RMK T03000240 IEM_DS3505
ZGSZ,2009-09-03 18:00,ZGSZ 031800Z AUTO 04004KT 7SM 26/24 A2971 RMK 60055 SLP059 T02580238 57013 IEM_DS3505
ZGSZ,2009-09-03 19:00,ZGSZ 031900Z AUTO 05002KT 6SM 29/24 A2968 RMK T02900240 IEM_DS3505
ZGSZ,2009-09-03 20:00,ZGSZ 032000Z AUTO 00000KT 6SM 29/25 A2968 RMK T02900250 IEM_DS3505
ZGSZ,2009-09-03 21:00,ZGSZ 032100Z AUTO 36002KT 7SM 27/25 A2968 RMK 70055 SLP052 T02710247 57007 IEM_DS3505
ZGSZ,2009-09-03 22:00,ZGSZ 032200Z AUTO 04004KT 6SM 28/25 A2968 RMK T02800250 IEM_DS3505
ZGSZ,2009-09-03 23:00,ZGSZ 032300Z AUTO 04004KT 5SM 29/24 A2968 RMK T02900240 IEM_DS3505
ZGSZ,2009-09-04 00:00,ZGSZ 040000Z AUTO 04002KT 4SM 28/25 A2971 RMK 60000 70055 SLP061 T02830251 52009 IEM_DS3505
ZGSZ,2009-09-04 01:00,ZGSZ 040100Z AUTO 7SM 32/24 A2971 RMK T03200240 IEM_DS3505
ZGSZ,2009-09-04 02:00,ZGSZ 040200Z AUTO 7SM 33/24 A2971 RMK T03300240 IEM_DS3505
ZGSZ,2009-09-04 03:00,ZGSZ 040300Z AUTO 02006KT 4SM 32/24 A2971 RMK SLP060 T03160237 57001 IEM_DS3505
ZGSZ,2009-09-04 04:00,ZGSZ 040400Z AUTO 5SM 33/24 A2968 RMK T03300240 IEM_DS3505
ZGSZ,2009-09-04 05:00,ZGSZ 040500Z AUTO 4SM 34/24 A2965 RMK T03400240 IEM_DS3505
ZGSZ,2009-09-04 06:00,ZGSZ 040600Z AUTO 34004KT 5SM 33/22 A2962 RMK SLP038 T03330215 57022 IEM_DS3505
ZGSZ,2009-09-04 07:00,ZGSZ 040700Z AUTO 04008G17KT 7SM 36/21 A2962 RMK T03600210 IEM_DS3505
ZGSZ,2009-09-04 08:00,ZGSZ 040800Z AUTO 08006KT 4SM 36/20 A2959 RMK T03600200 IEM_DS3505
ZGSZ,2009-09-04 09:00,ZGSZ 040900Z AUTO 20006KT 6SM 31/24 A2959 RMK SLP031 T03130239 57007 IEM_DS3505
ZGSZ,2009-09-04 10:00,ZGSZ 041000Z AUTO 16010KT 4SM 32/24 A2962 RMK T03200240 IEM_DS3505
ZGSZ,2009-09-04 11:00,ZGSZ 041100Z AUTO 13010KT 6SM 31/23 A2965 RMK T03100230 IEM_DS3505
ZGSZ,2009-09-04 12:00,ZGSZ 041200Z AUTO 09002KT 5SM 29/24 A2965 RMK 60024 SLP048 T02890236 52017 IEM_DS3505
ZGSZ,2009-09-04 13:00,ZGSZ 041300Z AUTO 17008KT 6SM 30/24 A2968 RMK T03000240 IEM_DS3505
ZGSZ,2009-09-04 14:00,ZGSZ 041400Z AUTO 16006KT 6SM 30/23 A2968 RMK T03000230 IEM_DS3505
ZGSZ,2009-09-04 15:00,ZGSZ 041500Z AUTO 09004KT 8SM 29/23 A2971 RMK SLP061 T02890233 52013 IEM_DS3505
ZGSZ,2009-09-04 16:00,ZGSZ 041600Z AUTO 11006KT 6SM 30/23 A2968 RMK T03000230 IEM_DS3505
ZGSZ,2009-09-04 17:00,ZGSZ 041700Z AUTO 11004KT 6SM 30/24 A2968 RMK T03000240 IEM_DS3505
ZGSZ,2009-09-04 18:00,ZGSZ 041800Z AUTO 09004KT 8SM 28/23 A2968 RMK SLP050 T02850232 57011 IEM_DS3505
ZGSZ,2009-09-04 19:00,ZGSZ 041900Z AUTO 7SM 30/24 A2965 RMK T03000240 IEM_DS3505
ZGSZ,2009-09-04 20:00,ZGSZ 042000Z AUTO 14002KT 7SM 29/24 A2965 RMK T02900240 IEM_DS3505
ZGSZ,2009-09-04 21:00,ZGSZ 042100Z AUTO 09004KT 9SM 28/23 A2965 RMK 70025 SLP048 T02800229 57002 IEM_DS3505
ZGSZ,2009-09-04 22:00,ZGSZ 042200Z AUTO 00000KT 7SM 29/24 A2968 RMK T02900240 IEM_DS3505
ZGSZ,2009-09-04 23:00,ZGSZ 042300Z AUTO 10006KT 7SM 29/24 A2971 RMK T02900240 IEM_DS3505
ZGSZ,2009-09-05 00:00,ZGSZ 050000Z AUTO 07004KT 10SM 29/22 A2971 RMK 70025 SLP064 T02880225 52016 IEM_DS3505
ZGSZ,2009-09-05 01:00,ZGSZ 050100Z AUTO 09006KT 6SM 31/22 A2971 RMK T03100220 IEM_DS3505
ZGSZ,2009-09-05 02:00,ZGSZ 050200Z AUTO 7SM 32/21 A2974 RMK T03200210 IEM_DS3505
ZGSZ,2009-09-05 03:00,ZGSZ 050300Z AUTO 16004KT 13SM 32/21 A2971 RMK SLP064 T03210213 54000 IEM_DS3505
ZGSZ,2009-09-05 04:00,ZGSZ 050400Z AUTO 22006KT 7SM 33/23 A2968 RMK T03300230 IEM_DS3505
ZGSZ,2009-09-05 05:00,ZGSZ 050500Z AUTO 22010KT 7SM 33/24 A2965 RMK T03300240 IEM_DS3505
ZGSZ,2009-09-05 06:00,ZGSZ 050600Z AUTO 25002KT 16SM 33/20 A2962 RMK SLP036 T03310203 57028 IEM_DS3505
ZGSZ,2009-09-05 07:00,ZGSZ 050700Z AUTO 22008KT 6SM 33/24 A2962 RMK T03300240 IEM_DS3505
ZGSZ,2009-09-05 08:00,ZGSZ 050800Z AUTO 20010KT 6SM 33/24 A2959 RMK T03300240 IEM_DS3505
ZGSZ,2009-09-05 09:00,ZGSZ 050900Z AUTO 20004KT 14SM 32/22 A2959 RMK SLP026 T03180222 57010 IEM_DS3505
ZGSZ,2009-09-05 10:00,ZGSZ 051000Z AUTO 18010KT 6SM 31/23 A2959 RMK T03100230 IEM_DS3505
ZGSZ,2009-09-05 11:00,ZGSZ 051100Z AUTO 17010KT 7SM 31/24 A2962 RMK T03100240 IEM_DS3505
ZGSZ,2009-09-05 12:00,ZGSZ 051200Z AUTO 11006KT 14SM 29/21 A2962 RMK SLP041 T02930207 52015 IEM_DS3505
ZGSZ,2009-09-05 13:00,ZGSZ 051300Z AUTO 11008KT 6SM 31/21 A2965 RMK T03100210 IEM_DS3505
ZGSZ,2009-09-05 14:00,ZGSZ 051400Z AUTO 11008KT 6SM 30/21 A2968 RMK T03000210 IEM_DS3505
ZGSZ,2009-09-05 15:00,ZGSZ 051500Z AUTO 09004KT 12SM 28/22 A2968 RMK SLP058 T02850225 52017 IEM_DS3505
ZGSZ,2009-09-05 16:00,ZGSZ 051600Z AUTO 12008KT 6SM 30/23 A2968 RMK T03000230 IEM_DS3505
ZGSZ,2009-09-05 17:00,ZGSZ 051700Z AUTO 09004KT 6SM 30/23 A2968 RMK T03000230 IEM_DS3505
ZGSZ,2009-09-05 18:00,ZGSZ 051800Z AUTO 09004KT 12SM 28/22 A2968 RMK SLP054 T02830223 57004 IEM_DS3505
ZGSZ,2009-09-05 19:00,ZGSZ 051900Z AUTO 00000KT 7SM 29/22 A2968 RMK T02900220 IEM_DS3505
ZGSZ,2009-09-05 20:00,ZGSZ 052000Z AUTO 08004KT 7SM 29/22 A2968 RMK T02900220 IEM_DS3505
ZGSZ,2009-09-05 21:00,ZGSZ 052100Z AUTO 36004KT 12SM 28/23 A2968 RMK SLP051 T02760228 57003 IEM_DS3505
ZGSZ,2009-09-05 22:00,ZGSZ 052200Z AUTO 07002KT 7SM 28/23 A2968 RMK T02800230 IEM_DS3505
ZGSZ,2009-09-05 23:00,ZGSZ 052300Z AUTO 05002KT 7SM 29/23 A2971 RMK T02900230 IEM_DS3505
ZGSZ,2009-09-06 00:00,ZGSZ 060000Z AUTO 02002KT 10SM 28/23 A2971 RMK SLP063 T02850234 52012 IEM_DS3505
ZGSZ,2009-09-06 01:00,ZGSZ 060100Z AUTO 02006KT 7SM 31/23 A2971 RMK T03100230 IEM_DS3505
ZGSZ,2009-09-06 02:00,ZGSZ 060200Z AUTO 7SM 32/22 A2971 RMK T03200220 IEM_DS3505
ZGSZ,2009-09-06 03:00,ZGSZ 060300Z AUTO 04002KT 12SM 32/20 A2971 RMK SLP066 T03150205 52003 IEM_DS3505
ZGSZ,2009-09-06 04:00,ZGSZ 060400Z AUTO 7SM 33/21 A2971 RMK T03300210 IEM_DS3505
ZGSZ,2009-09-06 05:00,ZGSZ 060500Z AUTO 24004KT 7SM 33/22 A2968 RMK T03300220 IEM_DS3505
ZGSZ,2009-09-06 06:00,ZGSZ 060600Z AUTO 07006KT 16SM 33/20 A2965 RMK SLP046 T03320200 57020 IEM_DS3505
ZGSZ,2009-09-06 07:00,ZGSZ 060700Z AUTO 21010KT 7SM 34/22 A2965 RMK T03400220 IEM_DS3505
ZGSZ,2009-09-06 08:00,ZGSZ 060800Z AUTO 20010KT 7SM 33/23 A2962 RMK T03300230 IEM_DS3505
ZGSZ,2009-09-06 09:00,ZGSZ 060900Z AUTO 22004KT 14SM 32/22 A2962 RMK SLP036 T03150225 57010 IEM_DS3505
ZGSZ,2009-09-06 10:00,ZGSZ 061000Z AUTO 18008KT 7SM 32/22 A2962 RMK T03200220 IEM_DS3505
ZGSZ,2009-09-06 11:00,ZGSZ 061100Z AUTO 17006KT 6SM 31/23 A2965 RMK T03100230 IEM_DS3505
ZGSZ,2009-09-06 12:00,ZGSZ 061200Z AUTO 07004KT 14SM 29/21 A2965 RMK SLP053 T02940214 52017 IEM_DS3505
ZGSZ,2009-09-06 13:00,ZGSZ 061300Z AUTO 11012KT 6SM 31/22 A2971 RMK T03100220 IEM_DS3505
ZGSZ,2009-09-06 14:00,ZGSZ 061400Z AUTO 11010KT 6SM 30/22 A2971 RMK T03000220 IEM_DS3505
ZGSZ,2009-09-06 15:00,ZGSZ 061500Z AUTO 09004KT 14SM 28/23 A2971 RMK SLP067 T02840229 52014 IEM_DS3505
ZGSZ,2009-09-06 16:00,ZGSZ 061600Z AUTO 10008KT 6SM 30/23 A2971 RMK T03000230 IEM_DS3505
ZGSZ,2009-09-06 17:00,ZGSZ 061700Z AUTO 11006KT 6SM 29/23 A2971 RMK T02900230 IEM_DS3505
ZGSZ,2009-09-06 18:00,ZGSZ 061800Z AUTO 09004KT 14SM 28/23 A2971 RMK SLP062 T02800227 57005 IEM_DS3505
ZGSZ,2009-09-06 19:00,ZGSZ 061900Z AUTO 10004KT 6SM 29/23 A2971 RMK T02900230 IEM_DS3505
ZGSZ,2009-09-06 20:00,ZGSZ 062000Z AUTO 10004KT 6SM 29/23 A2971 RMK T02900230 IEM_DS3505
ZGSZ,2009-09-06 21:00,ZGSZ 062100Z AUTO 11002KT 14SM 28/23 A2971 RMK SLP062 T02800229 54000 IEM_DS3505
ZGSZ,2009-09-06 22:00,ZGSZ 062200Z AUTO 06002KT 6SM 28/23 A2971 RMK T02800230 IEM_DS3505
ZGSZ,2009-09-06 23:00,ZGSZ 062300Z AUTO 00000KT 6SM 29/24 A2974 RMK T02900240 IEM_DS3505
ZGSZ,2009-09-07 00:00,ZGSZ 070000Z AUTO 11002KT 7SM 29/23 A2977 RMK SLP080 T02870234 52017 IEM_DS3505
ZGSZ,2009-09-07 01:00,ZGSZ 070100Z AUTO 04004KT 7SM 32/23 A2977 RMK T03200230 IEM_DS3505
ZGSZ,2009-09-07 02:00,ZGSZ 070200Z AUTO 7SM 32/23 A2977 RMK T03200230 IEM_DS3505
ZGSZ,2009-09-07 03:00,ZGSZ 070300Z AUTO 34002KT 14SM 32/21 A2977 RMK SLP081 T03180213 52002 IEM_DS3505
ZGSZ,2009-09-07 04:00,ZGSZ 070400Z AUTO 23006KT 7SM 33/24 A2974 RMK T03300240 IEM_DS3505
ZGSZ,2009-09-07 05:00,ZGSZ 070500Z AUTO 25006KT 7SM 33/23 A2971 RMK T03300230 IEM_DS3505
ZGSZ,2009-09-07 06:00,ZGSZ 070600Z AUTO 29002KT 14SM 33/20 A2971 RMK SLP060 T03280200 57021 IEM_DS3505
ZGSZ,2009-09-07 07:00,ZGSZ 070700Z AUTO 21008KT 7SM 34/22 A2968 RMK T03400220 IEM_DS3505
ZGSZ,2009-09-07 08:00,ZGSZ 070800Z AUTO 20010KT 7SM 33/24 A2968 RMK T03300240 IEM_DS3505
ZGSZ,2009-09-07 09:00,ZGSZ 070900Z AUTO 22006KT 9SM 32/23 A2968 RMK SLP051 T03160232 57009 IEM_DS3505
ZGSZ,2009-09-07 10:00,ZGSZ 071000Z AUTO 19010KT 6SM 31/24 A2968 RMK T03100240 IEM_DS3505
ZGSZ,2009-09-07 11:00,ZGSZ 071100Z AUTO 17010KT 6SM 31/23 A2968 RMK T03100230 IEM_DS3505
ZGSZ,2009-09-07 12:00,ZGSZ 071200Z AUTO 14008KT 11SM 30/21 A2968 RMK SLP061 T02960207 52010 IEM_DS3505
ZGSZ,2009-09-07 13:00,ZGSZ 071300Z AUTO 12008KT 6SM 31/21 A2971 RMK T03100210 IEM_DS3505
ZGSZ,2009-09-07 14:00,ZGSZ 071400Z AUTO 12008KT 6SM 30/21 A2974 RMK T03000210 IEM_DS3505
ZGSZ,2009-09-07 15:00,ZGSZ 071500Z AUTO 07004KT 10SM 28/22 A2974 RMK SLP074 T02830218 52013 IEM_DS3505
ZGSZ,2009-09-07 16:00,ZGSZ 071600Z AUTO 10006KT 6SM 30/21 A2974 RMK T03000210 IEM_DS3505
ZGSZ,2009-09-07 17:00,ZGSZ 071700Z AUTO 10004KT 6SM 29/21 A2974 RMK T02900210 IEM_DS3505
ZGSZ,2009-09-07 18:00,ZGSZ 071800Z AUTO 09004KT 11SM 28/22 A2971 RMK SLP067 T02780225 57007 IEM_DS3505
ZGSZ,2009-09-07 19:00,ZGSZ 071900Z AUTO 10002KT 6SM 29/21 A2971 RMK T02900210 IEM_DS3505
ZGSZ,2009-09-07 20:00,ZGSZ 072000Z AUTO 03002KT 6SM 28/22 A2971 RMK T02800220 IEM_DS3505
ZGSZ,2009-09-07 21:00,ZGSZ 072100Z AUTO 02002KT 11SM 27/22 A2974 RMK SLP069 T02690219 52002 IEM_DS3505
ZGSZ,2009-09-07 22:00,ZGSZ 072200Z AUTO 02004KT 6SM 28/22 A2974 RMK T02800220 IEM_DS3505
ZGSZ,2009-09-07 23:00,ZGSZ 072300Z AUTO 01004KT 6SM 28/22 A2977 RMK T02800220 IEM_DS3505
ZGSZ,2009-09-08 00:00,ZGSZ 080000Z AUTO 22002KT 7SM 28/24 A2977 RMK SLP087 T02820238 52017 IEM_DS3505
ZGSZ,2009-09-08 01:00,ZGSZ 080100Z AUTO 05004KT 6SM 32/20 A2980 RMK T03200200 IEM_DS3505
ZGSZ,2009-09-08 02:00,ZGSZ 080200Z AUTO 6SM 32/20 A2980 RMK T03200200 IEM_DS3505
ZGSZ,2009-09-08 03:00,ZGSZ 080300Z AUTO 14006KT 9SM 32/21 A2977 RMK SLP088 T03160209 52002 IEM_DS3505
ZGSZ,2009-09-08 04:00,ZGSZ 080400Z AUTO 23008KT 6SM 34/23 A2974 RMK T03400230 IEM_DS3505
ZGSZ,2009-09-08 05:00,ZGSZ 080500Z AUTO 24008KT 7SM 34/23 A2974 RMK T03400230 IEM_DS3505
ZGSZ,2009-09-08 06:00,ZGSZ 080600Z AUTO 18006KT 9SM 34/21 A2971 RMK SLP060 T03360214 57028 IEM_DS3505
ZGSZ,2009-09-08 07:00,ZGSZ 080700Z AUTO 20010KT 7SM 34/23 A2968 RMK T03400230 IEM_DS3505
ZGSZ,2009-09-08 08:00,ZGSZ 080800Z AUTO 19010KT 7SM 33/24 A2968 RMK T03300240 IEM_DS3505
ZGSZ,2009-09-08 09:00,ZGSZ 080900Z AUTO 25002KT 7SM 31/23 A2968 RMK SLP051 T03120231 57009 IEM_DS3505
ZGSZ,2009-09-08 10:00,ZGSZ 081000Z AUTO 16008KT 7SM 32/24 A2968 RMK T03200240 IEM_DS3505
ZGSZ,2009-09-08 11:00,ZGSZ 081100Z AUTO 17010KT 6SM 31/24 A2968 RMK T03100240 IEM_DS3505
ZGSZ,2009-09-08 12:00,ZGSZ 081200Z AUTO 09006KT 8SM 30/23 A2971 RMK SLP065 T02960226 52014 IEM_DS3505
ZGSZ,2009-09-08 13:00,ZGSZ 081300Z AUTO 10010KT 7SM 31/22 A2974 RMK T03100220 IEM_DS3505
ZGSZ,2009-09-08 14:00,ZGSZ 081400Z AUTO 11006KT 6SM 30/23 A2974 RMK T03000230 IEM_DS3505
ZGSZ,2009-09-08 15:00,ZGSZ 081500Z AUTO 09004KT 6SM 29/23 A2974 RMK SLP075 T02860233 52010 IEM_DS3505
ZGSZ,2009-09-08 16:00,ZGSZ 081600Z AUTO 10006KT 4SM 30/24 A2974 RMK T03000240 IEM_DS3505
ZGSZ,2009-09-08 17:00,ZGSZ 081700Z AUTO 10004KT 3SM 30/24 A2974 RMK T03000240 IEM_DS3505
ZGSZ,2009-09-08 18:00,ZGSZ 081800Z AUTO 09004KT 7SM 28/22 A2974 RMK SLP073 T02850223 57002 IEM_DS3505
ZGSZ,2009-09-08 19:00,ZGSZ 081900Z AUTO 10004KT 5SM 30/24 A2974 RMK T03000240 IEM_DS3505
ZGSZ,2009-09-08 20:00,ZGSZ 082000Z AUTO 09006KT 6SM 29/23 A2974 RMK T02900230 IEM_DS3505
ZGSZ,2009-09-08 21:00,ZGSZ 082100Z AUTO 14006KT 7SM 28/22 A2974 RMK SLP074 T02850225 52001 IEM_DS3505
ZGSZ,2009-09-08 22:00,ZGSZ 082200Z AUTO 08004KT 6SM 29/23 A2977 RMK T02900230 IEM_DS3505
ZGSZ,2009-09-08 23:00,ZGSZ 082300Z AUTO 04004KT 7SM 29/23 A2977 RMK T02900230 IEM_DS3505
ZGSZ,2009-09-09 00:00,ZGSZ 090000Z AUTO 02002KT 7SM 28/23 A2977 RMK SLP086 T02850227 52011 IEM_DS3505
ZGSZ,2009-09-09 01:00,ZGSZ 090100Z AUTO 08004KT 5SM 31/23 A2977 RMK T03100230 IEM_DS3505
ZGSZ,2009-09-09 02:00,ZGSZ 090200Z AUTO 33006KT 4SM 30/24 A2980 RMK T03000240 IEM_DS3505
ZGSZ,2009-09-09 03:00,ZGSZ 090300Z AUTO 07004KT 7SM 30/21 A2977 RMK SLP090 T02990213 52004 IEM_DS3505
ZGSZ,2009-09-09 04:00,ZGSZ 090400Z AUTO 08008KT 7SM 34/21 A2977 RMK T03400210 IEM_DS3505
ZGSZ,2009-09-09 05:00,ZGSZ 090500Z AUTO 08006KT 7SM 33/20 A2974 RMK T03300200 IEM_DS3505
ZGSZ,2009-09-09 06:00,ZGSZ 090600Z AUTO 11004KT 7SM 32/22 A2971 RMK SLP060 T03220217 57029 IEM_DS3505
ZGSZ,2009-09-09 07:00,ZGSZ 090700Z AUTO 03004KT 5SM 34/20 A2968 RMK T03400200 IEM_DS3505
ZGSZ,2009-09-09 08:00,ZGSZ 090800Z AUTO 21008KT 5SM 33/22 A2968 RMK T03300220 IEM_DS3505
ZGSZ,2009-09-09 09:00,ZGSZ 090900Z AUTO 09006KT 6SM 31/22 A2968 RMK SLP053 T03100215 57007 IEM_DS3505
ZGSZ,2009-09-09 10:00,ZGSZ 091000Z AUTO 19008KT 6SM 31/23 A2968 RMK T03100230 IEM_DS3505
ZGSZ,2009-09-09 11:00,ZGSZ 091100Z AUTO 20006KT 7SM 30/24 A2971 RMK T03000240 IEM_DS3505
ZGSZ,2009-09-09 12:00,ZGSZ 091200Z AUTO 07004KT 6SM 29/22 A2971 RMK SLP068 T02920219 52014 IEM_DS3505
ZGSZ,2009-09-09 13:00,ZGSZ 091300Z AUTO 11008KT 4SM 30/23 A2974 RMK T03000230 IEM_DS3505
ZGSZ,2009-09-09 14:00,ZGSZ 091400Z AUTO 10008KT 4SM 30/23 A2974 RMK T03000230 IEM_DS3505
ZGSZ,2009-09-09 15:00,ZGSZ 091500Z AUTO 09004KT 4SM 29/22 A2974 RMK SLP075 T02890224 52008 IEM_DS3505
ZGSZ,2009-09-09 16:00,ZGSZ 091600Z AUTO 10006KT 4SM 30/23 A2974 RMK T03000230 IEM_DS3505
ZGSZ,2009-09-09 17:00,ZGSZ 091700Z AUTO 06002KT 4SM 30/23 A2971 RMK T03000230 IEM_DS3505
ZGSZ,2009-09-09 18:00,ZGSZ 091800Z AUTO 07004KT 4SM 29/20 A2971 RMK SLP062 T02870199 57013 IEM_DS3505
ZGSZ,2009-09-09 19:00,ZGSZ 091900Z AUTO 10004KT 4SM 29/21 A2971 RMK T02900210 IEM_DS3505
ZGSZ,2009-09-09 20:00,ZGSZ 092000Z AUTO 07006KT 4SM 29/20 A2971 RMK T02900200 IEM_DS3505
ZGSZ,2009-09-09 21:00,ZGSZ 092100Z AUTO 02004KT 5SM 28/20 A2971 RMK SLP063 T02790199 52001 IEM_DS3505
ZGSZ,2009-09-09 22:00,ZGSZ 092200Z AUTO 06006KT 4SM 29/21 A2971 RMK T02900210 IEM_DS3505
ZGSZ,2009-09-09 23:00,ZGSZ 092300Z AUTO 02004KT 4SM 28/22 A2974 RMK T02800220 IEM_DS3505
ZGSZ,2009-09-10 00:00,ZGSZ 100000Z AUTO 07006KT 4SM 28/20 A2974 RMK SLP072 T02850202 52008 IEM_DS3505
ZGSZ,2009-09-10 01:00,ZGSZ 100100Z AUTO 06010KT 5SM 31/21 A2977 RMK T03100210 IEM_DS3505
ZGSZ,2009-09-10 02:00,ZGSZ 100200Z AUTO 05012KT 6SM 31/19 A2977 RMK T03100190 IEM_DS3505
ZGSZ,2009-09-10 03:00,ZGSZ 100300Z AUTO 04004KT 5SM 30/21 A2974 RMK SLP073 T02950206 52002 IEM_DS3505
ZGSZ,2009-09-10 04:00,ZGSZ 100400Z AUTO 06008KT 7SM 31/21 A2974 RMK T03100210 IEM_DS3505
ZGSZ,2009-09-10 05:00,ZGSZ 100500Z AUTO 06010KT 7SM 33/21 A2971 RMK T03300210 IEM_DS3505
ZGSZ,2009-09-10 06:00,ZGSZ 100600Z AUTO 07008KT 6SM 31/20 A2968 RMK SLP059 T03100197 57014 IEM_DS3505
ZGSZ,2009-09-10 07:00,ZGSZ 100700Z AUTO 04010G19KT 7SM 33/20 A2968 RMK T03300200 IEM_DS3505
ZGSZ,2009-09-10 08:00,ZGSZ 100800Z AUTO 05012KT 7SM 33/20 A2968 RMK T03300200 IEM_DS3505
ZGSZ,2009-09-10 09:00,ZGSZ 100900Z AUTO 09008KT 6SM 30/22 A2968 RMK SLP052 T02970216 57007 IEM_DS3505
ZGSZ,2009-09-10 10:00,ZGSZ 101000Z AUTO 07014KT 7SM 28/23 A2971 RMK T02800230 IEM_DS3505
ZGSZ,2009-09-10 11:00,ZGSZ 101100Z AUTO 08012KT 7SM 30/22 A2971 RMK T03000220 IEM_DS3505
ZGSZ,2009-09-10 12:00,ZGSZ 101200Z AUTO 09014KT 7SM 29/21 A2971 RMK 60000 SLP067 T02910213 52014 IEM_DS3505
ZGSZ,2009-09-10 13:00,ZGSZ 101300Z AUTO 08010KT 7SM 30/22 A2974 RMK T03000220 IEM_DS3505
ZGSZ,2009-09-10 14:00,ZGSZ 101400Z AUTO 08012KT 7SM 30/22 A2974 RMK T03000220 IEM_DS3505
ZGSZ,2009-09-10 15:00,ZGSZ 101500Z AUTO 07010KT 8SM 28/21 A2974 RMK SLP077 T02840212 52010 IEM_DS3505
ZGSZ,2009-09-10 16:00,ZGSZ 101600Z AUTO 07010KT 6SM 29/21 A2974 RMK T02900210 IEM_DS3505
ZGSZ,2009-09-10 17:00,ZGSZ 101700Z AUTO 07010KT 7SM 28/21 A2974 RMK T02800210 IEM_DS3505
ZGSZ,2009-09-10 18:00,ZGSZ 101800Z AUTO 04008KT 9SM 28/22 A2971 RMK SLP067 T02800220 57009 IEM_DS3505
ZGSZ,2009-09-10 19:00,ZGSZ 101900Z AUTO 06008KT 6SM 28/22 A2971 RMK T02800220 IEM_DS3505
ZGSZ,2009-09-10 20:00,ZGSZ 102000Z AUTO 08008KT 6SM 28/22 A2971 RMK T02800220 IEM_DS3505
ZGSZ,2009-09-10 21:00,ZGSZ 102100Z AUTO 04004KT 8SM 28/22 A2974 RMK 70002 SLP069 T02750225 52001 IEM_DS3505
ZGSZ,2009-09-10 22:00,ZGSZ 102200Z AUTO 08004KT 6SM 28/22 A2974 RMK T02800220 IEM_DS3505
ZGSZ,2009-09-10 23:00,ZGSZ 102300Z AUTO 07006KT 6SM 28/21 A2974 RMK T02800210 IEM_DS3505
ZGSZ,2009-09-11 00:00,ZGSZ 110000Z AUTO 04006KT 8SM 28/22 A2977 RMK 60002 70002 SLP079 T02820217 52010 IEM_DS3505
ZGSZ,2009-09-11 01:00,ZGSZ 110100Z AUTO 08008KT 7SM 30/21 A2977 RMK T03000210 IEM_DS3505
ZGSZ,2009-09-11 02:00,ZGSZ 110200Z AUTO 06006KT 7SM 30/21 A2977 RMK T03000210 IEM_DS3505
ZGSZ,2009-09-11 03:00,ZGSZ 110300Z AUTO 14010KT 9SM 29/21 A2977 RMK SLP087 T02890214 52008 IEM_DS3505
ZGSZ,2009-09-11 04:00,ZGSZ 110400Z AUTO 11014KT 7SM 30/23 A2977 RMK T03000230 IEM_DS3505
ZGSZ,2009-09-11 05:00,ZGSZ 110500Z AUTO 7SM 29/23 A2977 RMK T02900230 IEM_DS3505
ZGSZ,2009-09-11 06:00,ZGSZ 110600Z AUTO 09006KT 8SM 29/22 A2974 RMK 60000 SLP074 T02880223 57013 IEM_DS3505
ZGSZ,2009-09-11 07:00,ZGSZ 110700Z AUTO 08006KT 7SM 31/23 A2971 RMK T03100230 IEM_DS3505
ZGSZ,2009-09-11 08:00,ZGSZ 110800Z AUTO 10008KT 7SM 31/23 A2971 RMK T03100230 IEM_DS3505
ZGSZ,2009-09-11 09:00,ZGSZ 110900Z AUTO 07008KT 10SM 30/22 A2971 RMK SLP068 T02990221 57006 IEM_DS3505
ZGSZ,2009-09-11 10:00,ZGSZ 111000Z AUTO 7SM 31/22 A2974 RMK T03100220 IEM_DS3505
ZGSZ,2009-09-11 11:00,ZGSZ 111100Z AUTO 10006KT 7SM 30/23 A2974 RMK T03000230 IEM_DS3505
ZGSZ,2009-09-11 12:00,ZGSZ 111200Z AUTO 07002KT 11SM 29/22 A2977 RMK SLP081 T02900225 52013 IEM_DS3505
ZGSZ,2009-09-11 13:00,ZGSZ 111300Z AUTO 09010KT 6SM 30/22 A2977 RMK T03000220 IEM_DS3505
ZGSZ,2009-09-11 14:00,ZGSZ 111400Z AUTO 10006KT 6SM 30/23 A2980 RMK T03000230 IEM_DS3505
ZGSZ,2009-09-11 15:00,ZGSZ 111500Z AUTO 07006KT 12SM 28/23 A2977 RMK SLP090 T02820227 52009 IEM_DS3505
ZGSZ,2009-09-11 16:00,ZGSZ 111600Z AUTO 08008KT 6SM 30/22 A2977 RMK T03000220 IEM_DS3505
ZGSZ,2009-09-11 17:00,ZGSZ 111700Z AUTO 07008KT 6SM 29/22 A2977 RMK T02900220 IEM_DS3505
ZGSZ,2009-09-11 18:00,ZGSZ 111800Z AUTO 09006KT 11SM 28/22 A2974 RMK SLP078 T02820224 57012 IEM_DS3505
ZGSZ,2009-09-11 19:00,ZGSZ 111900Z AUTO 08006KT 6SM 29/22 A2977 RMK T02900220 IEM_DS3505
ZGSZ,2009-09-11 20:00,ZGSZ 112000Z AUTO 04004KT 6SM 28/22 A2974 RMK T02800220 IEM_DS3505
ZGSZ,2009-09-11 21:00,ZGSZ 112100Z AUTO 07004KT 11SM 28/22 A2974 RMK 70000 SLP076 T02820215 57002 IEM_DS3505
ZGSZ,2009-09-11 22:00,ZGSZ 112200Z AUTO 06004KT 6SM 29/22 A2974 RMK T02900220 IEM_DS3505
ZGSZ,2009-09-11 23:00,ZGSZ 112300Z AUTO 06006KT 6SM 29/22 A2977 RMK T02900220 IEM_DS3505
ZGSZ,2009-09-12 00:00,ZGSZ 120000Z AUTO 04006KT 8SM 30/22 A2980 RMK 70000 SLP089 T02950220 52013 IEM_DS3505
ZGSZ,2009-09-12 01:00,ZGSZ 120100Z AUTO 05004KT 7SM 31/22 A2980 RMK T03100220 IEM_DS3505
ZGSZ,2009-09-12 02:00,ZGSZ 120200Z AUTO 10010KT 7SM 31/22 A2980 RMK T03100220 IEM_DS3505
ZGSZ,2009-09-12 03:00,ZGSZ 120300Z AUTO 04010KT 7SM 29/24 A2980 RMK SLP096 T02900241 52007 IEM_DS3505
ZGSZ,2009-09-12 04:00,ZGSZ 120400Z AUTO 10010KT 7SM 33/23 A2977 RMK T03300230 IEM_DS3505
ZGSZ,2009-09-12 05:00,ZGSZ 120500Z AUTO 09010G19KT 7SM 33/23 A2977 RMK T03300230 IEM_DS3505
ZGSZ,2009-09-12 06:00,ZGSZ 120600Z AUTO 07006KT 9SM 32/23 A2974 RMK 60003 SLP075 T03160229 57020 IEM_DS3505
ZGSZ,2009-09-12 07:00,ZGSZ 120700Z AUTO 10010KT 7SM 34/21 A2974 RMK T03400210 IEM_DS3505
ZGSZ,2009-09-12 08:00,ZGSZ 120800Z AUTO 12008KT 6SM 34/21 A2971 RMK T03400210 IEM_DS3505
ZGSZ,2009-09-12 09:00,ZGSZ 120900Z AUTO 09004KT 10SM 32/22 A2974 RMK SLP072 T03160218 57003 IEM_DS3505
ZGSZ,2009-09-12 10:00,ZGSZ 121000Z AUTO 11008KT 6SM 33/21 A2974 RMK T03300210 IEM_DS3505
ZGSZ,2009-09-12 11:00,ZGSZ 121100Z AUTO 16006KT 6SM 31/22 A2974 RMK T03100220 IEM_DS3505
ZGSZ,2009-09-12 12:00,ZGSZ 121200Z AUTO 11006KT 8SM 30/22 A2977 RMK SLP082 T02960218 52010 IEM_DS3505
ZGSZ,2009-09-12 13:00,ZGSZ 121300Z AUTO 08006KT 7SM 31/21 A2977 RMK T03100210 IEM_DS3505
ZGSZ,2009-09-12 14:00,ZGSZ 121400Z AUTO 7SM 31/21 A2980 RMK T03100210 IEM_DS3505
ZGSZ,2009-09-12 15:00,ZGSZ 121500Z AUTO 02002KT 7SM 29/22 A2980 RMK SLP092 T02890224 52009 IEM_DS3505
ZGSZ,2009-09-12 16:00,ZGSZ 121600Z AUTO 6SM 30/23 A2980 RMK T03000230 IEM_DS3505
ZGSZ,2009-09-12 17:00,ZGSZ 121700Z AUTO 00000KT 5SM 29/25 A2977 RMK T02900250 IEM_DS3505
ZGSZ,2009-09-12 18:00,ZGSZ 121800Z AUTO 25002KT 7SM 28/24 A2977 RMK SLP085 T02800242 57006 IEM_DS3505
ZGSZ,2009-09-12 19:00,ZGSZ 121900Z AUTO 29006KT 3SM 29/26 A2980 RMK T02900260 IEM_DS3505
ZGSZ,2009-09-12 20:00,ZGSZ 122000Z AUTO 31002KT 2 1/2SM 29/26 A2980 RMK T02900260 IEM_DS3505
ZGSZ,2009-09-12 21:00,ZGSZ 122100Z AUTO 22002KT 7SM 28/23 A2977 RMK 70004 SLP083 T02780232 57002 IEM_DS3505
ZGSZ,2009-09-12 22:00,ZGSZ 122200Z AUTO 31006KT 2 1/2SM 28/25 A2977 RMK T02800250 IEM_DS3505
ZGSZ,2009-09-12 23:00,ZGSZ 122300Z AUTO 33004KT 3SM 29/24 A2977 RMK T02900240 IEM_DS3505
ZGSZ,2009-09-13 00:00,ZGSZ 130000Z AUTO 18002KT 5SM 29/24 A2980 RMK 70004 SLP093 T02880244 52009 IEM_DS3505
ZGSZ,2009-09-13 01:00,ZGSZ 130100Z AUTO 2 1/2SM 30/25 A2983 RMK T03000250 IEM_DS3505
ZGSZ,2009-09-13 02:00,ZGSZ 130200Z AUTO 28006KT 2SM 31/26 A2980 RMK T03100260 IEM_DS3505
ZGSZ,2009-09-13 03:00,ZGSZ 130300Z AUTO 34002KT 4SM 32/24 A2977 RMK SLP086 T03180239 57006 IEM_DS3505
ZGSZ,2009-09-13 04:00,ZGSZ 130400Z AUTO 30008KT 3SM 32/25 A2977 RMK T03200250 IEM_DS3505
ZGSZ,2009-09-13 05:00,ZGSZ 130500Z AUTO 28008KT 3SM 34/25 A2974 RMK T03400250 IEM_DS3505
ZGSZ,2009-09-13 06:00,ZGSZ 130600Z AUTO 25004KT 4SM 33/24 A2971 RMK SLP065 T03320241 57021 IEM_DS3505
ZGSZ,2009-09-13 07:00,ZGSZ 130700Z AUTO 28008KT 2 1/2SM 35/25 A2968 RMK T03500250 IEM_DS3505
ZGSZ,2009-09-13 08:00,ZGSZ 130800Z AUTO 28006KT 2SM 35/25 A2965 RMK T03500250 IEM_DS3505
ZGSZ,2009-09-13 09:00,ZGSZ 130900Z AUTO 32006KT 3SM 33/24 A2965 RMK SLP044 T03310240 57021 IEM_DS3505
ZGSZ,2009-09-13 10:00,ZGSZ 131000Z AUTO 30004KT 2SM 35/24 A2965 RMK T03500240 IEM_DS3505
ZGSZ,2009-09-13 11:00,ZGSZ 131100Z AUTO 2 1/2SM 33/26 A2965 RMK T03300260 IEM_DS3505
ZGSZ,2009-09-13 12:00,ZGSZ 131200Z AUTO 04008KT 6SM 28/22 A2968 RMK SLP065 T02760216 52020 IEM_DS3505
ZGSZ,2009-09-13 13:00,ZGSZ 131300Z AUTO 12012KT 7SM 28/24 A2974 RMK T02800240 IEM_DS3505
ZGSZ,2009-09-13 14:00,ZGSZ 131400Z AUTO 08010KT 4SM 28/24 A2977 RMK T02800240 IEM_DS3505
ZGSZ,2009-09-13 15:00,ZGSZ 131500Z AUTO 14004KT 5SM 28/24 A2974 RMK SLP071 T02850239 52007 IEM_DS3505
ZGSZ,2009-09-13 16:00,ZGSZ 131600Z AUTO 7SM 29/23 A2974 RMK T02900230 IEM_DS3505
ZGSZ,2009-09-13 17:00,ZGSZ 131700Z AUTO 3SM 27/24 A2971 RMK T02700240 IEM_DS3505
ZGSZ,2009-09-13 18:00,ZGSZ 131800Z AUTO 25004KT 4SM 27/25 A2971 RMK 60016 SLP058 T02680246 57013 IEM_DS3505
ZGSZ,2009-09-13 19:00,ZGSZ 131900Z AUTO 2 1/2SM 28/25 A2968 RMK T02800250 IEM_DS3505
ZGSZ,2009-09-13 20:00,ZGSZ 132000Z AUTO 33006KT 2 1/2SM 28/25 A2968 RMK T02800250 IEM_DS3505
ZGSZ,2009-09-13 21:00,ZGSZ 132100Z AUTO 02006KT 3SM 27/24 A2968 RMK 70015 SLP054 T02680239 57004 IEM_DS3505
ZGSZ,2009-09-13 22:00,ZGSZ 132200Z AUTO 02006KT 3SM 28/24 A2971 RMK T02800240 IEM_DS3505
ZGSZ,2009-09-13 23:00,ZGSZ 132300Z AUTO 02008KT 3SM 28/25 A2971 RMK T02800250 IEM_DS3505
ZGSZ,2009-09-14 00:00,ZGSZ 140000Z AUTO 34004KT 4SM 27/24 A2968 RMK 60004 70019 SLP058 T02720245 52003 IEM_DS3505
ZGSZ,2009-09-14 01:00,ZGSZ 140100Z AUTO 02010KT 4SM 30/25 A2971 RMK T03000250 IEM_DS3505
ZGSZ,2009-09-14 02:00,ZGSZ 140200Z AUTO 03014KT 5SM 31/24 A2971 RMK T03100240 IEM_DS3505
ZGSZ,2009-09-14 03:00,ZGSZ 140300Z AUTO 04014KT 11SM 30/22 A2968 RMK SLP049 T02970219 57008 IEM_DS3505
ZGSZ,2009-09-14 04:00,ZGSZ 140400Z AUTO 04016KT 6SM 31/23 A2965 RMK T03100230 IEM_DS3505
ZGSZ,2009-09-14 05:00,ZGSZ 140500Z AUTO 03014KT 7SM 32/23 A2962 RMK T03200230 IEM_DS3505
ZGSZ,2009-09-14 06:00,ZGSZ 140600Z AUTO 36016G23KT 11SM 28/23 A2959 RMK 60004 SLP016 T02820231 57033 IEM_DS3505
ZGSZ,2009-09-14 07:00,ZGSZ 140700Z AUTO 02016G25KT 7SM 31/23 A2956 RMK T03100230 IEM_DS3505
ZGSZ,2009-09-14 08:00,ZGSZ 140800Z AUTO 03014KT 5SM 28/24 A2956 RMK T02800240 IEM_DS3505
ZGSZ,2009-09-14 09:00,ZGSZ 140900Z AUTO 02016KT 5SM 26/24 RMK SLP009 T02590236 57008 IEM_DS3505
ZGSZ,2009-09-14 10:00,ZGSZ 141000Z AUTO 04014G23KT 7SM 27/24 A2953 RMK T02700240 IEM_DS3505
ZGSZ,2009-09-14 11:00,ZGSZ 141100Z AUTO 02017G27KT 7SM 28/24 A2953 RMK T02800240 IEM_DS3505
ZGSZ,2009-09-14 12:00,ZGSZ 141200Z AUTO 04016G35KT 10SM 27/23 A2950 RMK 60067 SLP989 T02690227 57019 IEM_DS3505
ZGSZ,2009-09-14 13:00,ZGSZ 141300Z AUTO 03023G39KT 7SM 29/22 A2950 RMK T02900220 IEM_DS3505
ZGSZ,2009-09-14 14:00,ZGSZ 141400Z AUTO 04017G31KT 7SM 29/23 A2950 RMK T02900230 IEM_DS3505
ZGSZ,2009-09-14 15:00,ZGSZ 141500Z AUTO 07023G37KT 8SM 26/23 A2947 RMK SLP985 T02580231 57004 IEM_DS3505
ZGSZ,2009-09-14 16:00,ZGSZ 141600Z AUTO 06016G33KT 1 1/2SM 26/23 A2947 RMK T02600230 IEM_DS3505
ZGSZ,2009-09-14 17:00,ZGSZ 141700Z AUTO 06021G37KT 3SM 26/24 A2941 RMK T02600240 IEM_DS3505
ZGSZ,2009-09-14 18:00,ZGSZ 141800Z AUTO 11010G27KT 2 1/2SM 26/24 A2941 RMK 60157 SLP968 T02590238 40301//// 57017 IEM_DS3505
ZGSZ,2009-09-14 19:00,ZGSZ 141900Z AUTO 10019G33KT 2 1/2SM 27/24 A2944 RMK T02700240 IEM_DS3505
ZGSZ,2009-09-14 20:00,ZGSZ 142000Z AUTO 08025G39KT 3SM 26/23 A2941 RMK T02600230 IEM_DS3505
ZGSZ,2009-09-14 21:00,ZGSZ 142100Z AUTO 11014G35KT 6SM 26/23 A2941 RMK 70418 SLP974 T02630230 52006 IEM_DS3505
ZGSZ,2009-09-14 22:00,ZGSZ 142200Z AUTO 10019G29KT 7SM 27/23 A2947 RMK T02700230 IEM_DS3505
ZGSZ,2009-09-14 23:00,ZGSZ 142300Z AUTO 11017KT 7SM 27/23 A2950 RMK T02700230 IEM_DS3505
ZGSZ,2009-09-15 00:00,ZGSZ 150000Z AUTO 14008KT 4SM 26/23 A2956 RMK 60240 70467 SLP024 T02550226 52049 IEM_DS3505
ZGSZ,2009-09-15 01:00,ZGSZ 150100Z AUTO 12016KT 7SM 28/24 A2959 RMK T02800240 IEM_DS3505
ZGSZ,2009-09-15 02:00,ZGSZ 150200Z AUTO 13017KT 7SM 27/24 A2965 RMK T02700240 IEM_DS3505
ZGSZ,2009-09-15 03:00,ZGSZ 150300Z AUTO 14006G27KT 6SM 27/23 A2965 RMK T02680233 52031 IEM_DS3505
ZGSZ,2009-09-15 04:00,ZGSZ 150400Z AUTO 14017KT 7SM 30/24 A2965 RMK T03000240 IEM_DS3505
ZGSZ,2009-09-15 05:00,ZGSZ 150500Z AUTO 16021G35KT 2SM 26/24 A2968 RMK T02600240 IEM_DS3505
ZGSZ,2009-09-15 06:00,ZGSZ 150600Z AUTO 16004KT 11SM 29/23 A2965 RMK 60020 SLP049 T02900227 57006 IEM_DS3505
ZGSZ,2009-09-15 07:00,ZGSZ 150700Z AUTO 14016KT 7SM 27/24 A2965 RMK T02700240 IEM_DS3505
ZGSZ,2009-09-15 08:00,ZGSZ 150800Z AUTO 15012KT 7SM 28/23 A2965 RMK T02800230 IEM_DS3505
ZGSZ,2009-09-15 09:00,ZGSZ 150900Z AUTO 16004KT 11SM 27/24 A2968 RMK SLP056 T02710236 52007 IEM_DS3505
ZGSZ,2009-09-15 10:00,ZGSZ 151000Z AUTO 11012KT 7SM 29/24 A2968 RMK T02900240 IEM_DS3505
ZGSZ,2009-09-15 11:00,ZGSZ 151100Z AUTO 11010KT 7SM 28/24 A2971 RMK T02800240 IEM_DS3505
ZGSZ,2009-09-15 12:00,ZGSZ 151200Z AUTO 04002KT 12SM 26/23 A2974 RMK 60079 SLP074 T02550232 52018 IEM_DS3505
ZGSZ,2009-09-15 13:00,ZGSZ 151300Z AUTO 12008KT 7SM 28/24 A2977 RMK T02800240 IEM_DS3505
ZGSZ,2009-09-15 14:00,ZGSZ 151400Z AUTO 12010KT 6SM 28/23 A2977 RMK T02800230 IEM_DS3505
ZGSZ,2009-09-15 15:00,ZGSZ 151500Z AUTO 07004KT 14SM 26/24 A2977 RMK SLP089 T02650238 52015 IEM_DS3505
ZGSZ,2009-09-15 16:00,ZGSZ 151600Z AUTO 07004KT 7SM 28/24 A2977 RMK T02800240 IEM_DS3505
ZGSZ,2009-09-15 17:00,ZGSZ 151700Z AUTO 07004KT 7SM 28/24 A2977 RMK T02800240 IEM_DS3505
ZGSZ,2009-09-15 18:00,ZGSZ 151800Z AUTO 14006KT 12SM 28/24 A2974 RMK SLP079 T02750239 57010 IEM_DS3505
ZGSZ,2009-09-15 19:00,ZGSZ 151900Z AUTO 12008KT 6SM 28/24 A2974 RMK T02800240 IEM_DS3505
ZGSZ,2009-09-15 20:00,ZGSZ 152000Z AUTO 12008KT 6SM 28/24 A2974 RMK T02800240 IEM_DS3505
ZGSZ,2009-09-15 21:00,ZGSZ 152100Z AUTO 11006KT 14SM 27/24 A2977 RMK 70153 SLP083 T02740243 52004 IEM_DS3505
ZGSZ,2009-09-15 22:00,ZGSZ 152200Z AUTO 7SM 27/24 A2977 RMK T02700240 IEM_DS3505
ZGSZ,2009-09-15 23:00,ZGSZ 152300Z AUTO 10006KT 7SM 28/25 A2980 RMK T02800250 IEM_DS3505
ZGSZ,2009-09-16 00:00,ZGSZ 160000Z AUTO 11004KT 11SM 28/24 A2983 RMK 70099 SLP103 T02790241 52020 IEM_DS3505
ZGSZ,2009-09-16 01:00,ZGSZ 160100Z AUTO 13010KT 7SM 30/24 A2983 RMK T03000240 IEM_DS3505
ZGSZ,2009-09-16 02:00,ZGSZ 160200Z AUTO 13012KT 7SM 32/24 A2985 RMK T03200240 IEM_DS3505
ZGSZ,2009-09-16 03:00,ZGSZ 160300Z AUTO 11004KT 9SM 30/23 A2983 RMK SLP109 T03040233 52006 IEM_DS3505
ZGSZ,2009-09-16 04:00,ZGSZ 160400Z AUTO 15010KT 7SM 31/24 A2983 RMK T03100240 IEM_DS3505
ZGSZ,2009-09-16 05:00,ZGSZ 160500Z AUTO 12008KT 7SM 29/24 A2983 RMK T02900240 IEM_DS3505
ZGSZ,2009-09-16 06:00,ZGSZ 160600Z AUTO 18002KT 7SM 29/25 A2980 RMK 60071 SLP095 T02860250 57014 IEM_DS3505
ZGSZ,2009-09-16 07:00,ZGSZ 160700Z AUTO 18008KT 4SM 30/25 A2980 RMK T03000250 IEM_DS3505
ZGSZ,2009-09-16 08:00,ZGSZ 160800Z AUTO 16008KT 7SM 30/25 A2980 RMK T03000250 IEM_DS3505
ZGSZ,2009-09-16 09:00,ZGSZ 160900Z AUTO 09002KT 7SM 28/25 A2980 RMK SLP097 T02810247 52002 IEM_DS3505
ZGSZ,2009-09-16 10:00,ZGSZ 161000Z AUTO 13006KT 7SM 30/25 A2980 RMK T03000250 IEM_DS3505
ZGSZ,2009-09-16 11:00,ZGSZ 161100Z AUTO 12008KT 7SM 29/25 A2980 RMK T02900250 IEM_DS3505
ZGSZ,2009-09-16 12:00,ZGSZ 161200Z AUTO 07002KT 5SM 27/25 A2983 RMK 60002 SLP108 T02730246 52011 IEM_DS3505
ZGSZ,2009-09-16 13:00,ZGSZ 161300Z AUTO 10006KT 6SM 29/25 A2985 RMK T02900250 IEM_DS3505
ZGSZ,2009-09-16 14:00,ZGSZ 161400Z AUTO 12008KT 6SM 29/24 A2988 RMK T02900240 IEM_DS3505
ZGSZ,2009-09-16 15:00,ZGSZ 161500Z AUTO 07002KT 7SM 27/25 A2988 RMK SLP122 T02710246 52014 IEM_DS3505
ZGSZ,2009-09-16 16:00,ZGSZ 161600Z AUTO 10004KT 6SM 28/24 A2988 RMK T02800240 IEM_DS3505
ZGSZ,2009-09-16 17:00,ZGSZ 161700Z AUTO 00000KT 6SM 28/24 A2985 RMK T02800240 IEM_DS3505
ZGSZ,2009-09-16 18:00,ZGSZ 161800Z AUTO 07002KT 6SM 27/24 A2985 RMK SLP116 T02700245 57006 IEM_DS3505
ZGSZ,2009-09-16 19:00,ZGSZ 161900Z AUTO 12006KT 4SM 28/24 A2985 RMK T02800240 IEM_DS3505
ZGSZ,2009-09-16 20:00,ZGSZ 162000Z AUTO 10002KT 6SM 28/24 A2985 RMK T02800240 IEM_DS3505
ZGSZ,2009-09-16 21:00,ZGSZ 162100Z AUTO 07002KT 7SM 27/24 A2985 RMK 70074 SLP115 T02670244 57001 IEM_DS3505
ZGSZ,2009-09-16 22:00,ZGSZ 162200Z AUTO 07002KT 7SM 28/25 A2985 RMK T02800250 IEM_DS3505
ZGSZ,2009-09-16 23:00,ZGSZ 162300Z AUTO 6SM 28/25 A2988 RMK T02800250 IEM_DS3505
ZGSZ,2009-09-17 00:00,ZGSZ 170000Z AUTO 18002KT 5SM 28/24 A2988 RMK 70074 SLP126 T02830245 52011 IEM_DS3505
ZGSZ,2009-09-17 01:00,ZGSZ 170100Z AUTO 11006KT 7SM 30/24 A2991 RMK T03000240 IEM_DS3505
ZGSZ,2009-09-17 02:00,ZGSZ 170200Z AUTO 22006KT 7SM 30/25 A2991 RMK T03000250 IEM_DS3505
ZGSZ,2009-09-17 03:00,ZGSZ 170300Z AUTO 22006KT 7SM 31/24 A2991 RMK SLP130 T03110237 52004 IEM_DS3505
ZGSZ,2009-09-17 04:00,ZGSZ 170400Z AUTO 22006KT 7SM 32/26 A2988 RMK T03200260 IEM_DS3505
ZGSZ,2009-09-17 05:00,ZGSZ 170500Z AUTO 20010KT 6SM 32/26 A2988 RMK T03200260 IEM_DS3505
ZGSZ,2009-09-17 06:00,ZGSZ 170600Z AUTO 22010KT 11SM 32/24 A2985 RMK SLP114 T03150241 57016 IEM_DS3505
ZGSZ,2009-09-17 07:00,ZGSZ 170700Z AUTO 18010KT 6SM 31/25 A2985 RMK T03100250 IEM_DS3505
ZGSZ,2009-09-17 08:00,ZGSZ 170800Z AUTO 18010KT 7SM 32/26 A2983 RMK T03200260 IEM_DS3505
ZGSZ,2009-09-17 09:00,ZGSZ 170900Z AUTO 25006KT 11SM 31/24 A2983 RMK SLP105 T03070236 57009 IEM_DS3505
ZGSZ,2009-09-17 10:00,ZGSZ 171000Z AUTO 17010KT 6SM 30/24 A2983 RMK T03000240 IEM_DS3505
ZGSZ,2009-09-17 11:00,ZGSZ 171100Z AUTO 17008KT 6SM 30/25 A2983 RMK T03000250 IEM_DS3505
ZGSZ,2009-09-17 12:00,ZGSZ 171200Z AUTO 25002KT 10SM 28/25 A2985 RMK SLP111 T02840248 52006 IEM_DS3505
ZGSZ,2009-09-17 13:00,ZGSZ 171300Z AUTO 16006KT 6SM 29/25 A2985 RMK T02900250 IEM_DS3505
ZGSZ,2009-09-17 14:00,ZGSZ 171400Z AUTO 16008KT 6SM 29/25 A2985 RMK T02900250 IEM_DS3505
ZGSZ,2009-09-17 15:00,ZGSZ 171500Z AUTO 25002KT 10SM 28/25 A2985 RMK SLP117 T02760247 52006 IEM_DS3505
ZGSZ,2009-09-17 16:00,ZGSZ 171600Z AUTO 17004KT 6SM 29/25 A2985 RMK T02900250 IEM_DS3505
ZGSZ,2009-09-17 17:00,ZGSZ 171700Z AUTO 18004KT 7SM 28/25 A2985 RMK T02800250 IEM_DS3505
ZGSZ,2009-09-17 18:00,ZGSZ 171800Z AUTO 22002KT 7SM 27/25 A2985 RMK SLP110 T02730246 57007 IEM_DS3505
ZGSZ,2009-09-17 19:00,ZGSZ 171900Z AUTO 18004KT 7SM 28/25 A2983 RMK T02800250 IEM_DS3505
ZGSZ,2009-09-17 20:00,ZGSZ 172000Z AUTO 22004KT 7SM 28/25 A2983 RMK T02800250 IEM_DS3505
ZGSZ,2009-09-17 21:00,ZGSZ 172100Z AUTO 32002KT 7SM 27/25 A2983 RMK SLP106 T02680248 57004 IEM_DS3505
ZGSZ,2009-09-17 22:00,ZGSZ 172200Z AUTO 00000KT 5SM 27/25 A2985 RMK T02700250 IEM_DS3505
ZGSZ,2009-09-17 23:00,ZGSZ 172300Z AUTO 28004KT 7SM 28/25 A2985 RMK T02800250 IEM_DS3505
ZGSZ,2009-09-18 00:00,ZGSZ 180000Z AUTO 20004KT 5SM 28/25 A2985 RMK SLP116 T02820250 52010 IEM_DS3505
ZGSZ,2009-09-18 01:00,ZGSZ 180100Z AUTO 27006KT 5SM 30/25 A2988 RMK T03000250 IEM_DS3505
ZGSZ,2009-09-18 02:00,ZGSZ 180200Z AUTO 29006KT 5SM 31/25 A2988 RMK T03100250 IEM_DS3505
ZGSZ,2009-09-18 03:00,ZGSZ 180300Z AUTO 27004KT 6SM 31/24 A2988 RMK SLP119 T03090238 52003 IEM_DS3505
ZGSZ,2009-09-18 04:00,ZGSZ 180400Z AUTO 29006KT 4SM 32/25 A2985 RMK T03200250 IEM_DS3505
ZGSZ,2009-09-18 05:00,ZGSZ 180500Z AUTO 29004KT 6SM 33/24 A2983 RMK T03300240 IEM_DS3505
ZGSZ,2009-09-18 06:00,ZGSZ 180600Z AUTO 34002KT 7SM 33/22 A2980 RMK SLP094 T03310222 57024 IEM_DS3505
ZGSZ,2009-09-18 07:00,ZGSZ 180700Z AUTO 30006KT 6SM 34/23 A2977 RMK T03400230 IEM_DS3505
ZGSZ,2009-09-18 08:00,ZGSZ 180800Z AUTO 23006KT 6SM 34/24 A2977 RMK T03400240 IEM_DS3505
ZGSZ,2009-09-18 09:00,ZGSZ 180900Z AUTO 22006KT 4SM 32/24 A2974 RMK SLP078 T03220243 57016 IEM_DS3505
ZGSZ,2009-09-18 10:00,ZGSZ 181000Z AUTO 18008KT 6SM 31/25 A2974 RMK T03100250 IEM_DS3505
ZGSZ,2009-09-18 11:00,ZGSZ 181100Z AUTO 17006KT 6SM 30/26 A2974 RMK T03000260 IEM_DS3505
ZGSZ,2009-09-18 12:00,ZGSZ 181200Z AUTO 22006KT 6SM 29/26 A2977 RMK SLP085 T02920260 52006 IEM_DS3505
ZGSZ,2009-09-18 13:00,ZGSZ 181300Z AUTO 16006KT 6SM 30/27 A2977 RMK T03000270 IEM_DS3505
ZGSZ,2009-09-18 14:00,ZGSZ 181400Z AUTO 15006KT 6SM 30/27 A2980 RMK T03000270 IEM_DS3505
ZGSZ,2009-09-18 15:00,ZGSZ 181500Z AUTO 22002KT 7SM 29/26 A2980 RMK SLP093 T02860260 52009 IEM_DS3505
ZGSZ,2009-09-18 16:00,ZGSZ 181600Z AUTO 16006KT 6SM 30/27 A2980 RMK T03000270 IEM_DS3505
ZGSZ,2009-09-18 17:00,ZGSZ 181700Z AUTO 17004KT 6SM 29/27 A2977 RMK T02900270 IEM_DS3505
ZGSZ,2009-09-18 18:00,ZGSZ 181800Z AUTO 25004KT 7SM 28/26 A2977 RMK SLP082 T02830261 57011 IEM_DS3505
ZGSZ,2009-09-18 19:00,ZGSZ 181900Z AUTO 18002KT 6SM 29/27 A2977 RMK T02900270 IEM_DS3505
ZGSZ,2009-09-18 20:00,ZGSZ 182000Z AUTO 00000KT 6SM 29/26 A2977 RMK T02900260 IEM_DS3505
ZGSZ,2009-09-18 21:00,ZGSZ 182100Z AUTO 22002KT 6SM 28/26 A2977 RMK SLP079 T02810261 57003 IEM_DS3505
ZGSZ,2009-09-18 22:00,ZGSZ 182200Z AUTO 26004KT 6SM 29/26 A2977 RMK T02900260 IEM_DS3505
ZGSZ,2009-09-18 23:00,ZGSZ 182300Z AUTO 25006KT 4SM 29/26 A2980 RMK T02900260 IEM_DS3505
ZGSZ,2009-09-19 00:00,ZGSZ 190000Z AUTO 27002KT 7SM 29/26 A2980 RMK SLP094 T02930263 52014 IEM_DS3505
ZGSZ,2009-09-19 01:00,ZGSZ 190100Z AUTO 29006KT 4SM 31/26 A2980 RMK T03100260 IEM_DS3505
ZGSZ,2009-09-19 02:00,ZGSZ 190200Z AUTO 29004KT 4SM 32/26 A2980 RMK T03200260 IEM_DS3505
ZGSZ,2009-09-19 03:00,ZGSZ 190300Z AUTO 34004KT 7SM 32/24 A2980 RMK SLP093 T03230241 54000 IEM_DS3505
ZGSZ,2009-09-19 04:00,ZGSZ 190400Z AUTO 26006KT 5SM 33/25 A2977 RMK T03300250 IEM_DS3505
ZGSZ,2009-09-19 05:00,ZGSZ 190500Z AUTO 27006KT 6SM 34/25 A2974 RMK T03400250 IEM_DS3505
ZGSZ,2009-09-19 06:00,ZGSZ 190600Z AUTO 25004KT 6SM 34/23 A2971 RMK SLP064 T03430230 57029 IEM_DS3505
ZGSZ,2009-09-19 07:00,ZGSZ 190700Z AUTO 21004KT 6SM 34/25 A2968 RMK T03400250 IEM_DS3505
ZGSZ,2009-09-19 08:00,ZGSZ 190800Z AUTO 19008KT 5SM 33/27 A2968 RMK T03300270 IEM_DS3505
ZGSZ,2009-09-19 09:00,ZGSZ 190900Z AUTO 22004KT 5SM 32/26 A2968 RMK SLP051 T03200256 57013 IEM_DS3505
ZGSZ,2009-09-19 10:00,ZGSZ 191000Z AUTO 18008KT 5SM 32/27 A2968 RMK T03200270 IEM_DS3505
ZGSZ,2009-09-19 11:00,ZGSZ 191100Z AUTO 18008KT 6SM 31/27 A2968 RMK T03100270 IEM_DS3505
ZGSZ,2009-09-19 12:00,ZGSZ 191200Z AUTO 25004KT 5SM 30/26 A2971 RMK SLP066 T02990265 52015 IEM_DS3505
ZGSZ,2009-09-19 13:00,ZGSZ 191300Z AUTO 16008KT 6SM 31/27 A2974 RMK T03100270 IEM_DS3505
ZGSZ,2009-09-19 14:00,ZGSZ 191400Z AUTO 17008KT 6SM 31/27 A2974 RMK T03100270 IEM_DS3505
ZGSZ,2009-09-19 15:00,ZGSZ 191500Z AUTO 22002KT 4SM 30/26 A2977 RMK SLP083 T02960264 52017 IEM_DS3505
ZGSZ,2009-09-19 16:00,ZGSZ 191600Z AUTO 15008KT 6SM 30/27 A2977 RMK T03000270 IEM_DS3505
ZGSZ,2009-09-19 17:00,ZGSZ 191700Z AUTO 16008KT 6SM 30/26 A2977 RMK T03000260 IEM_DS3505
ZGSZ,2009-09-19 18:00,ZGSZ 191800Z AUTO 11002KT 4SM 29/25 A2977 RMK SLP083 T02880254 54000 IEM_DS3505
ZGSZ,2009-09-19 19:00,ZGSZ 191900Z AUTO 17008KT 7SM 30/26 A2974 RMK T03000260 IEM_DS3505
ZGSZ,2009-09-19 20:00,ZGSZ 192000Z AUTO 16004KT 7SM 30/26 A2977 RMK T03000260 IEM_DS3505
ZGSZ,2009-09-19 21:00,ZGSZ 192100Z AUTO 14004KT 4SM 28/25 A2977 RMK SLP083 T02850249 54000 IEM_DS3505
ZGSZ,2009-09-19 22:00,ZGSZ 192200Z AUTO 15004KT 7SM 29/26 A2977 RMK T02900260 IEM_DS3505
ZGSZ,2009-09-19 23:00,ZGSZ 192300Z AUTO 14004KT 7SM 29/26 A2980 RMK T02900260 IEM_DS3505
ZGSZ,2009-09-20 00:00,ZGSZ 200000Z AUTO 00000KT 6SM 29/25 A2980 RMK SLP100 T02910251 52016 IEM_DS3505
ZGSZ,2009-09-20 01:00,ZGSZ 200100Z AUTO 17006KT 7SM 31/25 A2983 RMK T03100250 IEM_DS3505
ZGSZ,2009-09-20 02:00,ZGSZ 200200Z AUTO 19008KT 7SM 31/25 A2983 RMK T03100250 IEM_DS3505
ZGSZ,2009-09-20 03:00,ZGSZ 200300Z AUTO 25004KT 6SM 32/25 A2980 RMK SLP096 T03170251 57003 IEM_DS3505
ZGSZ,2009-09-20 04:00,ZGSZ 200400Z AUTO 19006KT 6SM 33/23 A2980 RMK T03300230 IEM_DS3505
ZGSZ,2009-09-20 05:00,ZGSZ 200500Z AUTO 20008KT 6SM 34/22 A2977 RMK T03400220 IEM_DS3505
ZGSZ,2009-09-20 06:00,ZGSZ 200600Z AUTO 22010KT 7SM 32/24 A2974 RMK SLP073 T03230235 57023 IEM_DS3505
ZGSZ,2009-09-20 07:00,ZGSZ 200700Z AUTO 18006KT 6SM 34/25 A2974 RMK T03400250 IEM_DS3505
ZGSZ,2009-09-20 08:00,ZGSZ 200800Z AUTO 18008KT 6SM 33/24 A2974 RMK T03300240 IEM_DS3505
ZGSZ,2009-09-20 09:00,ZGSZ 200900Z AUTO 16004KT 8SM 32/25 A2974 RMK SLP071 T03230249 57002 IEM_DS3505
ZGSZ,2009-09-20 10:00,ZGSZ 201000Z AUTO 17010KT 6SM 32/25 A2971 RMK T03200250 IEM_DS3505
ZGSZ,2009-09-20 11:00,ZGSZ 201100Z AUTO 16010KT 7SM 31/26 A2974 RMK T03100260 IEM_DS3505
ZGSZ,2009-09-20 12:00,ZGSZ 201200Z AUTO 09004KT 6SM 29/25 A2977 RMK SLP088 T02930248 52016 IEM_DS3505
ZGSZ,2009-09-20 13:00,ZGSZ 201300Z AUTO 16006KT 7SM 31/25 A2980 RMK T03100250 IEM_DS3505
ZGSZ,2009-09-20 14:00,ZGSZ 201400Z AUTO 11006KT 4SM 30/25 A2980 RMK T03000250 IEM_DS3505
ZGSZ,2009-09-20 15:00,ZGSZ 201500Z AUTO 11006KT 6SM 29/25 A2980 RMK SLP099 T02880246 52012 IEM_DS3505
ZGSZ,2009-09-20 16:00,ZGSZ 201600Z AUTO 11008KT 5SM 30/25 A2980 RMK T03000250 IEM_DS3505
ZGSZ,2009-09-20 17:00,ZGSZ 201700Z AUTO 11006KT 4SM 30/25 A2980 RMK T03000250 IEM_DS3505
ZGSZ,2009-09-20 18:00,ZGSZ 201800Z AUTO 11002KT 4SM 28/24 A2980 RMK SLP098 T02830241 57001 IEM_DS3505
ZGSZ,2009-09-20 19:00,ZGSZ 201900Z AUTO 14004KT 3SM 29/25 A2980 RMK T02900250 IEM_DS3505
ZGSZ,2009-09-20 20:00,ZGSZ 202000Z AUTO 11006KT 3SM 29/25 A2980 RMK T02900250 IEM_DS3505
ZGSZ,2009-09-20 21:00,ZGSZ 202100Z AUTO 09002KT 4SM 28/24 A2977 RMK SLP086 T02790245 57012 IEM_DS3505
ZGSZ,2009-09-20 22:00,ZGSZ 202200Z AUTO 11006KT 3SM 29/25 A2977 RMK T02900250 IEM_DS3505
ZGSZ,2009-09-20 23:00,ZGSZ 202300Z AUTO 07004KT 4SM 29/24 A2980 RMK T02900240 IEM_DS3505
ZGSZ,2009-09-21 00:00,ZGSZ 210000Z AUTO 14002KT 4SM 29/24 A2980 RMK SLP100 T02910240 52013 IEM_DS3505
ZGSZ,2009-09-21 01:00,ZGSZ 210100Z AUTO 3SM 31/25 A2983 RMK T03100250 IEM_DS3505
ZGSZ,2009-09-21 02:00,ZGSZ 210200Z AUTO 23004KT 4SM 32/25 A2983 RMK T03200250 IEM_DS3505
ZGSZ,2009-09-21 03:00,ZGSZ 210300Z AUTO 25002KT 4SM 32/25 A2983 RMK SLP101 T03170248 52002 IEM_DS3505
ZGSZ,2009-09-21 04:00,ZGSZ 210400Z AUTO 22006KT 5SM 33/25 A2980 RMK T03300250 IEM_DS3505
ZGSZ,2009-09-21 05:00,ZGSZ 210500Z AUTO 23004KT 7SM 33/24 A2977 RMK T03300240 IEM_DS3505
ZGSZ,2009-09-21 06:00,ZGSZ 210600Z AUTO 22002KT 4SM 33/24 A2974 RMK SLP077 T03310237 57024 IEM_DS3505
ZGSZ,2009-09-21 07:00,ZGSZ 210700Z AUTO 24004KT 5SM 34/24 A2971 RMK T03400240 IEM_DS3505
ZGSZ,2009-09-21 08:00,ZGSZ 210800Z AUTO 23006KT 4SM 33/25 A2971 RMK T03300250 IEM_DS3505
ZGSZ,2009-09-21 09:00,ZGSZ 210900Z AUTO 20004KT 3SM 25/22 A2974 RMK SLP076 T02510218 57002 IEM_DS3505
ZGSZ,2009-09-21 10:00,ZGSZ 211000Z AUTO 13004KT 7SM 29/23 A2974 RMK T02900230 IEM_DS3505
ZGSZ,2009-09-21 11:00,ZGSZ 211100Z AUTO 10006KT 2 1/2SM 29/25 A2977 RMK T02900250 IEM_DS3505
ZGSZ,2009-09-21 12:00,ZGSZ 211200Z AUTO 36002KT 3SM 27/24 A2980 RMK 60059 SLP096 T02700241 52020 IEM_DS3505
ZGSZ,2009-09-21 13:00,ZGSZ 211300Z AUTO 15002KT 3SM 28/24 A2980 RMK T02800240 IEM_DS3505
ZGSZ,2009-09-21 14:00,ZGSZ 211400Z AUTO 26004KT 2 1/2SM 28/25 A2983 RMK T02800250 IEM_DS3505
ZGSZ,2009-09-21 15:00,ZGSZ 211500Z AUTO 09002KT 4SM 28/24 A2983 RMK SLP104 T02770235 52008 IEM_DS3505
ZGSZ,2009-09-21 16:00,ZGSZ 211600Z AUTO 01006KT 3SM 29/23 A2983 RMK T02900230 IEM_DS3505
ZGSZ,2009-09-21 17:00,ZGSZ 211700Z AUTO 03006KT 4SM 29/23 A2983 RMK T02900230 IEM_DS3505
ZGSZ,2009-09-21 18:00,ZGSZ 211800Z AUTO 04006KT 4SM 27/22 A2980 RMK SLP093 T02730220 57010 IEM_DS3505
ZGSZ,2009-09-21 19:00,ZGSZ 211900Z AUTO 03010KT 5SM 28/22 A2980 RMK T02800220 IEM_DS3505
ZGSZ,2009-09-21 20:00,ZGSZ 212000Z AUTO 02008KT 6SM 27/22 A2980 RMK T02700220 IEM_DS3505
ZGSZ,2009-09-21 21:00,ZGSZ 212100Z AUTO 04010KT 5SM 26/20 A2980 RMK 70058 SLP089 T02600203 57005 IEM_DS3505
ZGSZ,2009-09-21 22:00,ZGSZ 212200Z AUTO 03008KT 6SM 26/21 A2980 RMK T02600210 IEM_DS3505
ZGSZ,2009-09-21 23:00,ZGSZ 212300Z AUTO 02010KT 7SM 26/21 A2983 RMK T02600210 IEM_DS3505
ZGSZ,2009-09-22 00:00,ZGSZ 220000Z AUTO 02008KT 5SM 26/20 A2983 RMK 70058 SLP100 T02610202 52011 IEM_DS3505
ZGSZ,2009-09-22 01:00,ZGSZ 220100Z AUTO 03012KT 7SM 28/21 A2983 RMK T02800210 IEM_DS3505
ZGSZ,2009-09-22 02:00,ZGSZ 220200Z AUTO 04008KT 7SM 29/20 A2985 RMK T02900200 IEM_DS3505
ZGSZ,2009-09-22 03:00,ZGSZ 220300Z AUTO 36006KT 6SM 28/20 A2985 RMK SLP105 T02830203 52005 IEM_DS3505
ZGSZ,2009-09-22 04:00,ZGSZ 220400Z AUTO 01010KT 7SM 31/22 A2983 RMK T03100220 IEM_DS3505
ZGSZ,2009-09-22 05:00,ZGSZ 220500Z AUTO 04010KT 7SM 30/21 A2980 RMK T03000210 IEM_DS3505
ZGSZ,2009-09-22 06:00,ZGSZ 220600Z AUTO 04004KT 6SM 29/21 A2977 RMK SLP088 T02920209 57017 IEM_DS3505
ZGSZ,2009-09-22 07:00,ZGSZ 220700Z AUTO 04008KT 7SM 30/22 A2977 RMK T03000220 IEM_DS3505
ZGSZ,2009-09-22 08:00,ZGSZ 220800Z AUTO 02008KT 7SM 30/22 A2977 RMK T03000220 IEM_DS3505
ZGSZ,2009-09-22 09:00,ZGSZ 220900Z AUTO 36004KT 6SM 29/21 A2977 RMK SLP084 T02900212 57004 IEM_DS3505
ZGSZ,2009-09-22 10:00,ZGSZ 221000Z AUTO 04008KT 7SM 29/21 A2977 RMK T02900210 IEM_DS3505
ZGSZ,2009-09-22 11:00,ZGSZ 221100Z AUTO 04008KT 6SM 28/21 A2977 RMK T02800210 IEM_DS3505
ZGSZ,2009-09-22 12:00,ZGSZ 221200Z AUTO 02008KT 7SM 28/20 A2980 RMK SLP095 T02770200 52011 IEM_DS3505
ZGSZ,2009-09-22 13:00,ZGSZ 221300Z AUTO 05008KT 7SM 28/21 A2983 RMK T02800210 IEM_DS3505
ZGSZ,2009-09-22 14:00,ZGSZ 221400Z AUTO 03008KT 7SM 28/21 A2983 RMK T02800210 IEM_DS3505
ZGSZ,2009-09-22 15:00,ZGSZ 221500Z AUTO 02006KT 9SM 27/19 A2983 RMK SLP100 T02690190 52005 IEM_DS3505
ZGSZ,2009-09-22 16:00,ZGSZ 221600Z AUTO 04008KT 7SM 27/20 A2983 RMK T02700200 IEM_DS3505
ZGSZ,2009-09-22 17:00,ZGSZ 221700Z AUTO 04006KT 6SM 26/19 A2983 RMK T02600190 IEM_DS3505
ZGSZ,2009-09-22 18:00,ZGSZ 221800Z AUTO 02008KT 9SM 26/19 A2980 RMK SLP093 T02570189 57007 IEM_DS3505
ZGSZ,2009-09-22 19:00,ZGSZ 221900Z AUTO 03006KT 7SM 26/19 A2980 RMK T02600190 IEM_DS3505
ZGSZ,2009-09-22 20:00,ZGSZ 222000Z AUTO 04006KT 7SM 26/19 A2980 RMK T02600190 IEM_DS3505
ZGSZ,2009-09-22 21:00,ZGSZ 222100Z AUTO 02004KT 9SM 25/19 A2980 RMK SLP093 T02490186 54000 IEM_DS3505
ZGSZ,2009-09-22 22:00,ZGSZ 222200Z AUTO 03006KT 7SM 25/19 A2980 RMK T02500190 IEM_DS3505
ZGSZ,2009-09-22 23:00,ZGSZ 222300Z AUTO 02006KT 7SM 26/19 A2983 RMK T02600190 IEM_DS3505
ZGSZ,2009-09-23 00:00,ZGSZ 230000Z AUTO 04008KT 6SM 26/19 A2983 RMK SLP105 T02550187 52012 IEM_DS3505
ZGSZ,2009-09-23 01:00,ZGSZ 230100Z AUTO 01010KT 4SM 28/20 A2985 RMK T02800200 IEM_DS3505
ZGSZ,2009-09-23 02:00,ZGSZ 230200Z AUTO 36008KT 4SM 29/21 A2985 RMK T02900210 IEM_DS3505
ZGSZ,2009-09-23 03:00,ZGSZ 230300Z AUTO 04006KT 4SM 29/20 A2985 RMK SLP110 T02900205 52005 IEM_DS3505
ZGSZ,2009-09-23 04:00,ZGSZ 230400Z AUTO 7SM 31/21 A2983 RMK T03100210 IEM_DS3505
ZGSZ,2009-09-23 05:00,ZGSZ 230500Z AUTO 13004KT 7SM 32/21 A2980 RMK T03200210 IEM_DS3505
ZGSZ,2009-09-23 06:00,ZGSZ 230600Z AUTO 07006KT 10SM 31/21 A2977 RMK SLP081 T03130206 57029 IEM_DS3505
ZGSZ,2009-09-23 07:00,ZGSZ 230700Z AUTO 05008KT 7SM 33/21 A2974 RMK T03300210 IEM_DS3505
ZGSZ,2009-09-23 08:00,ZGSZ 230800Z AUTO 03008KT 7SM 33/22 A2971 RMK T03300220 IEM_DS3505
ZGSZ,2009-09-23 09:00,ZGSZ 230900Z AUTO 11006KT 9SM 31/21 A2974 RMK SLP075 T03070206 57006 IEM_DS3505
ZGSZ,2009-09-23 10:00,ZGSZ 231000Z AUTO 03006KT 7SM 32/21 A2974 RMK T03200210 IEM_DS3505
ZGSZ,2009-09-23 11:00,ZGSZ 231100Z AUTO 05006KT 5SM 32/22 A2977 RMK T03200220 IEM_DS3505
ZGSZ,2009-09-23 12:00,ZGSZ 231200Z AUTO 09004KT 9SM 29/23 A2977 RMK 60001 SLP091 T02860233 52016 IEM_DS3505
ZGSZ,2009-09-23 13:00,ZGSZ 231300Z AUTO 12006KT 6SM 30/23 A2980 RMK T03000230 IEM_DS3505
ZGSZ,2009-09-23 14:00,ZGSZ 231400Z AUTO 11008KT 6SM 30/24 A2980 RMK T03000240 IEM_DS3505
ZGSZ,2009-09-23 15:00,ZGSZ 231500Z AUTO 07004KT 7SM 28/23 A2983 RMK SLP102 T02830234 52011 IEM_DS3505
ZGSZ,2009-09-23 16:00,ZGSZ 231600Z AUTO 12006KT 6SM 29/24 A2983 RMK T02900240 IEM_DS3505
ZGSZ,2009-09-23 17:00,ZGSZ 231700Z AUTO 10006KT 6SM 29/23 A2983 RMK T02900230 IEM_DS3505
ZGSZ,2009-09-23 18:00,ZGSZ 231800Z AUTO 07006KT 9SM 28/21 A2980 RMK SLP100 T02820207 57002 IEM_DS3505
ZGSZ,2009-09-23 19:00,ZGSZ 231900Z AUTO 08008KT 6SM 29/21 A2980 RMK T02900210 IEM_DS3505
ZGSZ,2009-09-23 20:00,ZGSZ 232000Z AUTO 07006KT 6SM 28/21 A2980 RMK T02800210 IEM_DS3505
ZGSZ,2009-09-23 21:00,ZGSZ 232100Z AUTO 04004KT 9SM 28/21 A2980 RMK 70002 SLP089 T02760209 57011 IEM_DS3505
ZGSZ,2009-09-23 22:00,ZGSZ 232200Z AUTO 07008KT 6SM 28/22 A2980 RMK T02800220 IEM_DS3505
ZGSZ,2009-09-23 23:00,ZGSZ 232300Z AUTO 07006KT 6SM 28/22 A2983 RMK T02800220 IEM_DS3505
ZGSZ,2009-09-24 00:00,ZGSZ 240000Z AUTO 07006KT 10SM 28/21 A2983 RMK 70002 SLP099 T02780209 52010 IEM_DS3505
ZGSZ,2009-09-24 01:00,ZGSZ 240100Z AUTO 05008KT 6SM 30/22 A2983 RMK T03000220 IEM_DS3505
ZGSZ,2009-09-24 02:00,ZGSZ 240200Z AUTO 10010KT 7SM 32/21 A2983 RMK T03200210 IEM_DS3505
ZGSZ,2009-09-24 03:00,ZGSZ 240300Z AUTO 02004G17KT 12SM 31/20 A2983 RMK SLP104 T03120202 52005 IEM_DS3505
ZGSZ,2009-09-24 04:00,ZGSZ 240400Z AUTO 05010KT 6SM 34/21 A2983 RMK T03400210 IEM_DS3505
ZGSZ,2009-09-24 05:00,ZGSZ 240500Z AUTO 08008KT 7SM 33/21 A2980 RMK T03300210 IEM_DS3505
ZGSZ,2009-09-24 06:00,ZGSZ 240600Z AUTO 11006KT 7SM 34/21 A2977 RMK T03400210 IEM_DS3505
ZGSZ,2009-09-24 07:00,ZGSZ 240700Z AUTO 7SM 34/20 A2974 RMK T03400200 IEM_DS3505
ZGSZ,2009-09-24 08:00,ZGSZ 240800Z AUTO 04006KT 7SM 34/20 A2974 RMK T03400200 IEM_DS3505
ZGSZ,2009-09-24 09:00,ZGSZ 240900Z AUTO 14006KT 14SM 30/22 A2974 RMK SLP082 T03040223 57003 IEM_DS3505
ZGSZ,2009-09-24 10:00,ZGSZ 241000Z AUTO 10012KT 7SM 32/22 A2977 RMK T03200220 IEM_DS3505
ZGSZ,2009-09-24 11:00,ZGSZ 241100Z AUTO 10012KT 6SM 31/23 A2977 RMK T03100230 IEM_DS3505
ZGSZ,2009-09-24 12:00,ZGSZ 241200Z AUTO 14004KT 14SM 29/22 A2980 RMK SLP096 T02870224 52014 IEM_DS3505
ZGSZ,2009-09-24 13:00,ZGSZ 241300Z AUTO 12012KT 6SM 30/23 A2980 RMK T03000230 IEM_DS3505
ZGSZ,2009-09-24 14:00,ZGSZ 241400Z AUTO 11012KT 6SM 30/22 A2983 RMK T03000220 IEM_DS3505
ZGSZ,2009-09-24 15:00,ZGSZ 241500Z AUTO 09006KT 16SM 28/22 A2983 RMK SLP102 T02840219 52006 IEM_DS3505
ZGSZ,2009-09-24 16:00,ZGSZ 241600Z AUTO 11010KT 6SM 29/22 A2983 RMK T02900220 IEM_DS3505
ZGSZ,2009-09-24 17:00,ZGSZ 241700Z AUTO 11008KT 6SM 29/22 A2983 RMK T02900220 IEM_DS3505
ZGSZ,2009-09-24 18:00,ZGSZ 241800Z AUTO 14004KT 16SM 28/21 A2980 RMK SLP094 T02810214 57007 IEM_DS3505
ZGSZ,2009-09-24 19:00,ZGSZ 241900Z AUTO 08006KT 6SM 29/22 A2980 RMK T02900220 IEM_DS3505
ZGSZ,2009-09-24 21:00,ZGSZ 242100Z AUTO 07006KT 16SM 28/20 RMK SLP095 T02770205 54000 IEM_DS3505
ZGSZ,2009-09-24 22:00,ZGSZ 242200Z AUTO 03006KT 6SM 27/22 A2983 RMK T02700220 IEM_DS3505
ZGSZ,2009-09-24 23:00,ZGSZ 242300Z AUTO 04004KT 6SM 28/22 A2983 RMK T02800220 IEM_DS3505
ZGSZ,2009-09-25 00:00,ZGSZ 250000Z AUTO 04004KT 16SM 28/21 A2985 RMK SLP109 T02850208 52014 IEM_DS3505
ZGSZ,2009-09-25 01:00,ZGSZ 250100Z AUTO 07006KT 6SM 31/21 A2985 RMK T03100210 IEM_DS3505
ZGSZ,2009-09-25 02:00,ZGSZ 250200Z AUTO 08008KT 7SM 32/21 A2985 RMK T03200210 IEM_DS3505
ZGSZ,2009-09-25 03:00,ZGSZ 250300Z AUTO 02006KT 14SM 31/21 A2985 RMK SLP111 T03070206 52002 IEM_DS3505
ZGSZ,2009-09-25 04:00,ZGSZ 250400Z AUTO 04008KT 7SM 34/19 A2983 RMK T03400190 IEM_DS3505
ZGSZ,2009-09-25 05:00,ZGSZ 250500Z AUTO 08006KT 7SM 34/20 A2980 RMK T03400200 IEM_DS3505
ZGSZ,2009-09-25 06:00,ZGSZ 250600Z AUTO 36004KT 16SM 32/21 A2977 RMK SLP085 T03210210 57025 IEM_DS3505
ZGSZ,2009-09-25 07:00,ZGSZ 250700Z AUTO 21008KT 7SM 33/22 A2974 RMK T03300220 IEM_DS3505
ZGSZ,2009-09-25 08:00,ZGSZ 250800Z AUTO 20008KT 7SM 33/23 A2974 RMK T03300230 IEM_DS3505
ZGSZ,2009-09-25 09:00,ZGSZ 250900Z AUTO 07004KT 16SM 31/21 A2974 RMK SLP079 T03070212 57007 IEM_DS3505
ZGSZ,2009-09-25 10:00,ZGSZ 251000Z AUTO 18010KT 7SM 31/23 A2977 RMK T03100230 IEM_DS3505
ZGSZ,2009-09-25 11:00,ZGSZ 251100Z AUTO 17008KT 7SM 31/22 A2977 RMK T03100220 IEM_DS3505
ZGSZ,2009-09-25 12:00,ZGSZ 251200Z AUTO 16004KT 16SM 28/22 A2980 RMK SLP098 T02850218 52019 IEM_DS3505
ZGSZ,2009-09-25 13:00,ZGSZ 251300Z AUTO 12010KT 6SM 30/22 A2980 RMK T03000220 IEM_DS3505
ZGSZ,2009-09-25 14:00,ZGSZ 251400Z AUTO 10008KT 6SM 29/22 A2983 RMK T02900220 IEM_DS3505
ZGSZ,2009-09-25 15:00,ZGSZ 251500Z AUTO 07004KT 16SM 28/22 A2983 RMK SLP101 T02810219 52003 IEM_DS3505
ZGSZ,2009-09-25 16:00,ZGSZ 251600Z AUTO 10006KT 7SM 30/21 A2980 RMK T03000210 IEM_DS3505
ZGSZ,2009-09-25 17:00,ZGSZ 251700Z AUTO 08004KT 7SM 29/21 A2980 RMK T02900210 IEM_DS3505
ZGSZ,2009-09-25 18:00,ZGSZ 251800Z AUTO 07004KT 16SM 28/22 A2980 RMK SLP090 T02780221 57010 IEM_DS3505
ZGSZ,2009-09-25 19:00,ZGSZ 251900Z AUTO 08004KT 6SM 29/21 A2977 RMK T02900210 IEM_DS3505
ZGSZ,2009-09-25 20:00,ZGSZ 252000Z AUTO 00000KT 7SM 28/22 A2977 RMK T02800220 IEM_DS3505
ZGSZ,2009-09-25 21:00,ZGSZ 252100Z AUTO 36004KT 10SM 27/23 A2977 RMK SLP086 T02710227 57005 IEM_DS3505
ZGSZ,2009-09-25 22:00,ZGSZ 252200Z AUTO 03002KT 7SM 28/22 A2977 RMK T02800220 IEM_DS3505
ZGSZ,2009-09-25 23:00,ZGSZ 252300Z AUTO 00000KT 6SM 28/23 A2980 RMK T02800230 IEM_DS3505
ZGSZ,2009-09-26 00:00,ZGSZ 260000Z AUTO 04004KT 8SM 29/22 A2980 RMK SLP095 T02860219 52009 IEM_DS3505
ZGSZ,2009-09-26 01:00,ZGSZ 260100Z AUTO 01006KT 7SM 31/23 A2980 RMK T03100230 IEM_DS3505
ZGSZ,2009-09-26 02:00,ZGSZ 260200Z AUTO 04010KT 4SM 32/23 A2980 RMK T03200230 IEM_DS3505
ZGSZ,2009-09-26 03:00,ZGSZ 260300Z AUTO 36004KT 8SM 32/22 A2977 RMK SLP084 T03160220 57010 IEM_DS3505
ZGSZ,2009-09-26 04:00,ZGSZ 260400Z AUTO 02012KT 7SM 34/21 A2977 RMK T03400210 IEM_DS3505
ZGSZ,2009-09-26 05:00,ZGSZ 260500Z AUTO 7SM 35/20 A2974 RMK T03500200 IEM_DS3505
ZGSZ,2009-09-26 06:00,ZGSZ 260600Z AUTO 36010KT 9SM 34/20 A2971 RMK SLP061 T03350196 57023 IEM_DS3505
ZGSZ,2009-09-26 07:00,ZGSZ 260700Z AUTO 05010KT 7SM 36/19 A2968 RMK T03600190 IEM_DS3505
ZGSZ,2009-09-26 08:00,ZGSZ 260800Z AUTO 04008KT 7SM 35/20 A2968 RMK T03500200 IEM_DS3505
ZGSZ,2009-09-26 09:00,ZGSZ 260900Z AUTO 14004KT 9SM 32/23 A2968 RMK SLP055 T03240228 57006 IEM_DS3505
ZGSZ,2009-09-26 10:00,ZGSZ 261000Z AUTO 18010KT 7SM 31/25 A2968 RMK T03100250 IEM_DS3505
ZGSZ,2009-09-26 11:00,ZGSZ 261100Z AUTO 18006KT 6SM 30/25 A2968 RMK T03000250 IEM_DS3505
ZGSZ,2009-09-26 12:00,ZGSZ 261200Z AUTO 07004KT 9SM 29/22 A2971 RMK SLP067 T02880216 52011 IEM_DS3505
ZGSZ,2009-09-26 13:00,ZGSZ 261300Z AUTO 10006KT 7SM 31/23 A2974 RMK T03100230 IEM_DS3505
ZGSZ,2009-09-26 14:00,ZGSZ 261400Z AUTO 10004KT 7SM 30/23 A2974 RMK T03000230 IEM_DS3505
ZGSZ,2009-09-26 15:00,ZGSZ 261500Z AUTO 09004KT 10SM 28/22 A2974 RMK SLP077 T02850218 52011 IEM_DS3505
ZGSZ,2009-09-26 16:00,ZGSZ 261600Z AUTO 11004KT 7SM 30/22 A2974 RMK T03000220 IEM_DS3505
ZGSZ,2009-09-26 17:00,ZGSZ 261700Z AUTO 00000KT 6SM 29/22 A2971 RMK T02900220 IEM_DS3505
ZGSZ,2009-09-26 18:00,ZGSZ 261800Z AUTO 04004KT 10SM 28/22 A2971 RMK SLP062 T02790222 57015 IEM_DS3505
ZGSZ,2009-09-26 19:00,ZGSZ 261900Z AUTO 00000KT 3SM 29/25 A2971 RMK T02900250 IEM_DS3505
ZGSZ,2009-09-26 20:00,ZGSZ 262000Z AUTO 03006KT 4SM 29/22 A2968 RMK T02900220 IEM_DS3505
ZGSZ,2009-09-26 21:00,ZGSZ 262100Z AUTO 04006KT 7SM 28/22 A2971 RMK SLP057 T02780218 57005 IEM_DS3505
ZGSZ,2009-09-26 22:00,ZGSZ 262200Z AUTO 03008KT 4SM 29/21 A2971 RMK T02900210 IEM_DS3505
ZGSZ,2009-09-26 23:00,ZGSZ 262300Z AUTO 03008KT 4SM 29/22 A2971 RMK T02900220 IEM_DS3505
ZGSZ,2009-09-27 00:00,ZGSZ 270000Z AUTO 04008KT 4SM 28/21 A2971 RMK SLP062 T02830206 52004 IEM_DS3505
ZGSZ,2009-09-27 01:00,ZGSZ 270100Z AUTO 02010KT 4SM 30/22 A2971 RMK T03000220 IEM_DS3505
ZGSZ,2009-09-27 02:00,ZGSZ 270200Z AUTO 04012KT 4SM 31/21 A2971 RMK T03100210 IEM_DS3505
ZGSZ,2009-09-27 03:00,ZGSZ 270300Z AUTO 04004KT 5SM 30/20 A2971 RMK SLP057 T03040197 57004 IEM_DS3505
ZGSZ,2009-09-27 04:00,ZGSZ 270400Z AUTO 03012KT 6SM 33/21 A2968 RMK T03300210 IEM_DS3505
ZGSZ,2009-09-27 05:00,ZGSZ 270500Z AUTO 05010KT 6SM 33/21 A2965 RMK T03300210 IEM_DS3505
ZGSZ,2009-09-27 06:00,ZGSZ 270600Z AUTO 04008KT 6SM 31/20 A2965 RMK SLP038 T03080198 57019 IEM_DS3505
ZGSZ,2009-09-27 07:00,ZGSZ 270700Z AUTO 03010KT 6SM 33/20 A2962 RMK T03300200 IEM_DS3505
ZGSZ,2009-09-27 08:00,ZGSZ 270800Z AUTO 04010KT 6SM 33/20 A2962 RMK T03300200 IEM_DS3505
ZGSZ,2009-09-27 09:00,ZGSZ 270900Z AUTO 36008KT 6SM 31/20 A2962 RMK SLP034 T03110198 57004 IEM_DS3505
ZGSZ,2009-09-27 10:00,ZGSZ 271000Z AUTO 06010KT 6SM 32/21 A2965 RMK T03200210 IEM_DS3505
ZGSZ,2009-09-27 11:00,ZGSZ 271100Z AUTO 05014KT 6SM 32/20 A2965 RMK T03200200 IEM_DS3505
ZGSZ,2009-09-27 12:00,ZGSZ 271200Z AUTO 04006KT 6SM 31/20 A2965 RMK SLP047 T03080195 52013 IEM_DS3505
ZGSZ,2009-09-27 13:00,ZGSZ 271300Z AUTO 06006KT 6SM 32/20 A2968 RMK T03200200 IEM_DS3505
ZGSZ,2009-09-27 14:00,ZGSZ 271400Z AUTO 05008KT 6SM 32/21 A2968 RMK T03200210 IEM_DS3505
ZGSZ,2009-09-27 15:00,ZGSZ 271500Z AUTO 02006KT 6SM 30/20 A2968 RMK SLP055 T03000200 52008 IEM_DS3505
ZGSZ,2009-09-27 16:00,ZGSZ 271600Z AUTO 04010KT 6SM 31/21 A2968 RMK T03100210 IEM_DS3505
ZGSZ,2009-09-27 17:00,ZGSZ 271700Z AUTO 04010KT 6SM 31/21 A2968 RMK T03100210 IEM_DS3505
ZGSZ,2009-09-27 18:00,ZGSZ 271800Z AUTO 07008KT 6SM 29/20 A2965 RMK SLP043 T02910205 57012 IEM_DS3505
ZGSZ,2009-09-27 19:00,ZGSZ 271900Z AUTO 04014KT 6SM 30/21 A2965 RMK T03000210 IEM_DS3505
ZGSZ,2009-09-27 20:00,ZGSZ 272000Z AUTO 04010KT 6SM 30/21 A2962 RMK T03000210 IEM_DS3505
ZGSZ,2009-09-27 21:00,ZGSZ 272100Z AUTO 04012KT 6SM 28/20 A2962 RMK SLP032 T02850200 57011 IEM_DS3505
ZGSZ,2009-09-27 22:00,ZGSZ 272200Z AUTO 04012G21KT 6SM 29/20 A2962 RMK T02900200 IEM_DS3505
ZGSZ,2009-09-27 23:00,ZGSZ 272300Z AUTO 05016KT 7SM 29/20 A2965 RMK T02900200 IEM_DS3505
ZGSZ,2009-09-28 00:00,ZGSZ 280000Z AUTO 04010KT 5SM 28/20 A2965 RMK SLP045 T02780201 52013 IEM_DS3505
ZGSZ,2009-09-28 01:00,ZGSZ 280100Z AUTO 04012KT 6SM 29/21 A2968 RMK T02900210 IEM_DS3505
ZGSZ,2009-09-28 02:00,ZGSZ 280200Z AUTO 04014KT 7SM 29/21 A2971 RMK T02900210 IEM_DS3505
ZGSZ,2009-09-28 03:00,ZGSZ 280300Z AUTO 04006KT 4SM 26/21 A2971 RMK SLP063 T02610211 52017 IEM_DS3505
ZGSZ,2009-09-28 04:00,ZGSZ 280400Z AUTO 04012KT 5SM 27/22 A2968 RMK T02700220 IEM_DS3505
ZGSZ,2009-09-28 05:00,ZGSZ 280500Z AUTO 04008KT 4SM 27/22 A2968 RMK T02700220 IEM_DS3505
ZGSZ,2009-09-28 06:00,ZGSZ 280600Z AUTO 04008KT 4SM 24/22 A2965 RMK 60024 SLP042 T02450220 57021 IEM_DS3505
ZGSZ,2009-09-28 07:00,ZGSZ 280700Z AUTO 03010KT 2 1/2SM 26/22 A2962 RMK T02600220 IEM_DS3505
ZGSZ,2009-09-28 08:00,ZGSZ 280800Z AUTO 05012KT 3SM 26/22 A2965 RMK T02600220 IEM_DS3505
ZGSZ,2009-09-28 09:00,ZGSZ 280900Z AUTO 07008KT 3SM 24/22 A2968 RMK SLP051 T02440223 52009 IEM_DS3505
ZGSZ,2009-09-28 10:00,ZGSZ 281000Z AUTO 04010KT 3SM 26/23 A2968 RMK T02600230 IEM_DS3505
ZGSZ,2009-09-28 11:00,ZGSZ 281100Z AUTO 03010KT 2 1/2SM 26/22 A2968 RMK T02600220 IEM_DS3505
ZGSZ,2009-09-28 12:00,ZGSZ 281200Z AUTO 02008KT 2 1/2SM 25/22 A2971 RMK 60055 SLP061 T02470224 52010 IEM_DS3505
ZGSZ,2009-09-28 13:00,ZGSZ 281300Z AUTO 03008KT 2 1/2SM 26/23 A2971 RMK T02600230 IEM_DS3505
ZGSZ,2009-09-28 14:00,ZGSZ 281400Z AUTO 04012KT 2 1/2SM 26/22 A2971 RMK T02600220 IEM_DS3505
ZGSZ,2009-09-28 15:00,ZGSZ 281500Z AUTO 04006KT 2 1/2SM 25/23 A2971 RMK SLP064 T02460227 52003 IEM_DS3505
ZGSZ,2009-09-28 16:00,ZGSZ 281600Z AUTO 03006KT 3SM 26/22 A2971 RMK T02600220 IEM_DS3505
ZGSZ,2009-09-28 17:00,ZGSZ 281700Z AUTO 05004KT 2 1/2SM 25/22 A2968 RMK T02500220 IEM_DS3505
ZGSZ,2009-09-28 18:00,ZGSZ 281800Z AUTO 02006KT 4SM 24/22 A2965 RMK 60012 SLP044 T02450222 57020 IEM_DS3505
ZGSZ,2009-09-28 19:00,ZGSZ 281900Z AUTO 04012KT 4SM 26/22 A2965 RMK T02600220 IEM_DS3505
ZGSZ,2009-09-28 20:00,ZGSZ 282000Z AUTO 03006KT 4SM 26/22 A2965 RMK T02600220 IEM_DS3505
ZGSZ,2009-09-28 21:00,ZGSZ 282100Z AUTO 07006KT 5SM 25/22 A2965 RMK 70090 SLP042 T02490216 57002 IEM_DS3505
ZGSZ,2009-09-28 22:00,ZGSZ 282200Z AUTO 03008KT 6SM 26/22 A2965 RMK T02600220 IEM_DS3505
ZGSZ,2009-09-28 23:00,ZGSZ 282300Z AUTO 02006KT 4SM 26/22 A2968 RMK T02600220 IEM_DS3505
ZGSZ,2009-09-29 00:00,ZGSZ 290000Z AUTO 07006KT 4SM 24/22 A2968 RMK 60012 70102 SLP058 T02410222 52015 IEM_DS3505
ZGSZ,2009-09-29 01:00,ZGSZ 290100Z AUTO 04008KT 3SM 26/23 A2971 RMK T02600230 IEM_DS3505
ZGSZ,2009-09-29 02:00,ZGSZ 290200Z AUTO 03010KT 3SM 26/23 A2971 RMK T02600230 IEM_DS3505
ZGSZ,2009-09-29 03:00,ZGSZ 290300Z AUTO 02008KT 4SM 24/22 A2971 RMK SLP064 T02440223 52006 IEM_DS3505
ZGSZ,2009-09-29 04:00,ZGSZ 290400Z AUTO 04012G21KT 3SM 26/23 A2971 RMK T02600230 IEM_DS3505
ZGSZ,2009-09-29 05:00,ZGSZ 290500Z AUTO 03010KT 2 1/2SM 25/23 A2968 RMK T02500230 IEM_DS3505
ZGSZ,2009-09-29 06:00,ZGSZ 290600Z AUTO 04006KT 4SM 25/23 RMK 60110 SLP051 T02460228 57012 IEM_DS3505
ZGSZ,2009-09-29 07:00,ZGSZ 290700Z AUTO 06014G25KT 5SM 26/23 A2965 RMK T02600230 IEM_DS3505
ZGSZ,2009-09-29 08:00,ZGSZ 290800Z AUTO 07014KT 7SM 26/23 A2965 RMK T02600230 IEM_DS3505
ZGSZ,2009-09-29 09:00,ZGSZ 290900Z AUTO 04008KT 9SM 25/22 A2968 RMK SLP052 T02530224 52001 IEM_DS3505
ZGSZ,2009-09-29 10:00,ZGSZ 291000Z AUTO 06006KT 7SM 27/22 A2968 RMK T02700220 IEM_DS3505
ZGSZ,2009-09-29 11:00,ZGSZ 291100Z AUTO 03008KT 7SM 26/23 A2971 RMK T02600230 IEM_DS3505
ZGSZ,2009-09-29 12:00,ZGSZ 291200Z AUTO 04006KT 8SM 24/23 A2974 RMK 60008 SLP070 T02450228 52017 IEM_DS3505
ZGSZ,2009-09-29 13:00,ZGSZ 291300Z AUTO 05008KT 7SM 26/23 A2974 RMK T02600230 IEM_DS3505
ZGSZ,2009-09-29 14:00,ZGSZ 291400Z AUTO 04006KT 7SM 26/23 A2977 RMK T02600230 IEM_DS3505
ZGSZ,2009-09-29 15:00,ZGSZ 291500Z AUTO 02004KT 9SM 25/23 A2977 RMK SLP080 T02530226 52010 IEM_DS3505
ZGSZ,2009-09-29 16:00,ZGSZ 291600Z AUTO 05008KT 7SM 26/22 A2974 RMK T02600220 IEM_DS3505
ZGSZ,2009-09-29 17:00,ZGSZ 291700Z AUTO 04004KT 7SM 26/22 A2974 RMK T02600220 IEM_DS3505
ZGSZ,2009-09-29 18:00,ZGSZ 291800Z AUTO 04006KT 9SM 25/22 A2974 RMK 60000 SLP073 T02520219 57007 IEM_DS3505
ZGSZ,2009-09-29 19:00,ZGSZ 291900Z AUTO 02004G14KT 6SM 26/22 A2974 RMK T02600220 IEM_DS3505
ZGSZ,2009-09-29 20:00,ZGSZ 292000Z AUTO 36006KT 6SM 25/22 A2974 RMK T02500220 IEM_DS3505
ZGSZ,2009-09-29 21:00,ZGSZ 292100Z AUTO 02008KT 9SM 25/22 A2974 RMK 70129 SLP070 T02480215 57002 IEM_DS3505
ZGSZ,2009-09-29 22:00,ZGSZ 292200Z AUTO 02006KT 7SM 26/22 A2974 RMK T02600220 IEM_DS3505
ZGSZ,2009-09-29 23:00,ZGSZ 292300Z AUTO 06004KT 7SM 26/21 A2977 RMK T02600210 IEM_DS3505
ZGSZ,2009-09-30 00:00,ZGSZ 300000Z AUTO 04006KT 8SM 26/22 A2980 RMK 70117 SLP090 T02590216 52019 IEM_DS3505
ZGSZ,2009-09-30 01:00,ZGSZ 300100Z AUTO 06006KT 7SM 27/22 A2983 RMK T02700220 IEM_DS3505
ZGSZ,2009-09-30 02:00,ZGSZ 300200Z AUTO 06010KT 7SM 29/22 A2983 RMK T02900220 IEM_DS3505
ZGSZ,2009-09-30 03:00,ZGSZ 300300Z AUTO 04004KT 7SM 28/22 A2983 RMK SLP104 T02750225 52015 IEM_DS3505
ZGSZ,2009-09-30 04:00,ZGSZ 300400Z AUTO 05008KT 7SM 30/23 A2983 RMK T03000230 IEM_DS3505
ZGSZ,2009-09-30 05:00,ZGSZ 300500Z AUTO 05008KT 7SM 31/23 A2980 RMK T03100230 IEM_DS3505
ZGSZ,2009-09-30 06:00,ZGSZ 300600Z AUTO 07004KT 7SM 27/24 A2977 RMK 60002 SLP090 T02660239 57014 IEM_DS3505
ZGSZ,2009-09-30 07:00,ZGSZ 300700Z AUTO 06008KT 7SM 29/24 A2977 RMK T02900240 IEM_DS3505
ZGSZ,2009-09-30 08:00,ZGSZ 300800Z AUTO 05006KT 7SM 28/24 A2977 RMK T02800240 IEM_DS3505
ZGSZ,2009-09-30 09:00,ZGSZ 300900Z AUTO 04006KT 8SM 28/23 A2980 RMK SLP091 T02760232 52001 IEM_DS3505
ZGSZ,2009-09-30 10:00,ZGSZ 301000Z AUTO 04006KT 7SM 28/23 A2980 RMK T02800230 IEM_DS3505
ZGSZ,2009-09-30 11:00,ZGSZ 301100Z AUTO 17006KT 3SM 25/23 A2983 RMK T02500230 IEM_DS3505
ZGSZ,2009-09-30 12:00,ZGSZ 301200Z AUTO 36004KT 2 1/2SM 25/23 A2985 RMK 60071 SLP117 T02470231 52025 IEM_DS3505
ZGSZ,2009-09-30 13:00,ZGSZ 301300Z AUTO 02006KT 2SM 25/23 A2988 RMK T02500230 IEM_DS3505
ZGSZ,2009-09-30 14:00,ZGSZ 301400Z AUTO 03010KT 7SM 26/23 A2988 RMK T02600230 IEM_DS3505
ZGSZ,2009-09-30 15:00,ZGSZ 301500Z AUTO 04006KT 7SM 25/22 A2988 RMK SLP124 T02470224 52007 IEM_DS3505
ZGSZ,2009-09-30 16:00,ZGSZ 301600Z AUTO 02008KT 7SM 25/22 A2988 RMK T02500220 IEM_DS3505
ZGSZ,2009-09-30 17:00,ZGSZ 301700Z AUTO 04008KT 6SM 26/22 A2985 RMK T02600220 IEM_DS3505
ZGSZ,2009-09-30 18:00,ZGSZ 301800Z AUTO 07004G16KT 11SM 25/22 A2985 RMK 60067 SLP111 T02470218 57013 IEM_DS3505
ZGSZ,2009-09-30 19:00,ZGSZ 301900Z AUTO 36006KT 7SM 25/22 A2985 RMK T02500220 IEM_DS3505
ZGSZ,2009-09-30 20:00,ZGSZ 302000Z AUTO 01004KT 7SM 25/22 A2985 RMK T02500220 IEM_DS3505
ZGSZ,2009-09-30 21:00,ZGSZ 302100Z AUTO 02004KT 12SM 24/21 A2985 RMK 70138 SLP114 T02440209 52003 IEM_DS3505
ZGSZ,2009-09-30 22:00,ZGSZ 302200Z AUTO 02004KT 7SM 25/21 A2985 RMK T02500210 IEM_DS3505
ZGSZ,2009-09-30 23:00,ZGSZ 302300Z AUTO 02004KT 7SM 25/21 A2988 RMK T02500210 IEM_DS3505
ZGSZ,2009-10-01 00:00,ZGSZ 010000Z AUTO 04004KT 9SM 25/21 A2991 RMK 70138 SLP132 T02510210 52018 IEM_DS3505
ZGSZ,2009-10-01 01:00,ZGSZ 010100Z AUTO 03004KT 7SM 27/21 A2991 RMK T02700210 IEM_DS3505
ZGSZ,2009-10-01 02:00,ZGSZ 010200Z AUTO 05006KT 7SM 28/22 A2991 RMK T02800220 IEM_DS3505
ZGSZ,2009-10-01 03:00,ZGSZ 010300Z AUTO 07006KT 10SM 28/21 A2988 RMK SLP127 T02840212 57004 IEM_DS3505
ZGSZ,2009-10-01 04:00,ZGSZ 010400Z AUTO 01010KT 7SM 31/22 A2988 RMK T03100220 IEM_DS3505
ZGSZ,2009-10-01 05:00,ZGSZ 010500Z AUTO 03008KT 7SM 32/23 A2985 RMK T03200230 IEM_DS3505
ZGSZ,2009-10-01 06:00,ZGSZ 010600Z AUTO 02006KT 10SM 30/21 A2983 RMK SLP103 T03000214 57024 IEM_DS3505
ZGSZ,2009-10-01 07:00,ZGSZ 010700Z AUTO 03008KT 7SM 32/21 A2980 RMK T03200210 IEM_DS3505
ZGSZ,2009-10-01 08:00,ZGSZ 010800Z AUTO 02008KT 7SM 32/22 A2980 RMK T03200220 IEM_DS3505
ZGSZ,2009-10-01 09:00,ZGSZ 010900Z AUTO 02004KT 14SM 29/22 A2983 RMK SLP100 T02940216 57003 IEM_DS3505
ZGSZ,2009-10-01 10:00,ZGSZ 011000Z AUTO 04006KT 7SM 31/22 A2983 RMK T03100220 IEM_DS3505
ZGSZ,2009-10-01 11:00,ZGSZ 011100Z AUTO 04006KT 7SM 30/21 A2983 RMK T03000210 IEM_DS3505
ZGSZ,2009-10-01 12:00,ZGSZ 011200Z AUTO 02012G16KT 12SM 29/20 A2985 RMK SLP114 T02870202 52014 IEM_DS3505
ZGSZ,2009-10-01 13:00,ZGSZ 011300Z AUTO 02006KT 7SM 29/22 A2988 RMK T02900220 IEM_DS3505
ZGSZ,2009-10-01 14:00,ZGSZ 011400Z AUTO 02006KT 7SM 29/21 A2988 RMK T02900210 IEM_DS3505
ZGSZ,2009-10-01 15:00,ZGSZ 011500Z AUTO 32002KT 11SM 27/20 A2988 RMK SLP122 T02720195 52008 IEM_DS3505
ZGSZ,2009-10-01 16:00,ZGSZ 011600Z AUTO 04004KT 7SM 28/21 A2985 RMK T02800210 IEM_DS3505
ZGSZ,2009-10-01 17:00,ZGSZ 011700Z AUTO 05004KT 6SM 27/20 A2985 RMK T02700200 IEM_DS3505
ZGSZ,2009-10-01 18:00,ZGSZ 011800Z AUTO 36002KT 9SM 26/20 A2985 RMK SLP110 T02600196 57012 IEM_DS3505
ZGSZ,2009-10-01 19:00,ZGSZ 011900Z AUTO 01004KT 6SM 27/20 A2983 RMK T02700200 IEM_DS3505
ZGSZ,2009-10-01 20:00,ZGSZ 012000Z AUTO 03006KT 6SM 26/20 A2983 RMK T02600200 IEM_DS3505
ZGSZ,2009-10-01 21:00,ZGSZ 012100Z AUTO 32002KT 7SM 25/20 A2983 RMK SLP106 T02520196 57004 IEM_DS3505
ZGSZ,2009-10-01 22:00,ZGSZ 012200Z AUTO 01008KT 6SM 26/20 A2985 RMK T02600200 IEM_DS3505
ZGSZ,2009-10-01 23:00,ZGSZ 012300Z AUTO 01010KT 5SM 26/20 A2985 RMK T02600200 IEM_DS3505
ZGSZ,2009-10-02 00:00,ZGSZ 020000Z AUTO 04006KT 6SM 26/19 A2988 RMK SLP120 T02650194 52014 IEM_DS3505
ZGSZ,2009-10-02 01:00,ZGSZ 020100Z AUTO 02012KT 6SM 29/20 A2988 RMK T02900200 IEM_DS3505
ZGSZ,2009-10-02 02:00,ZGSZ 020200Z AUTO 02010KT 7SM 30/21 A2988 RMK T03000210 IEM_DS3505
ZGSZ,2009-10-02 03:00,ZGSZ 020300Z AUTO 07010KT 7SM 29/20 A2988 RMK SLP121 T02900196 52001 IEM_DS3505
ZGSZ,2009-10-02 04:00,ZGSZ 020400Z AUTO 03008KT 7SM 32/20 A2985 RMK T03200200 IEM_DS3505
ZGSZ,2009-10-02 05:00,ZGSZ 020500Z AUTO 03008KT 7SM 32/21 A2983 RMK T03200210 IEM_DS3505
ZGSZ,2009-10-02 06:00,ZGSZ 020600Z AUTO 02006KT 11SM 30/20 A2980 RMK SLP096 T03050198 57025 IEM_DS3505
ZGSZ,2009-10-02 07:00,ZGSZ 020700Z AUTO 05008KT 7SM 33/21 A2980 RMK T03300210 IEM_DS3505
ZGSZ,2009-10-02 08:00,ZGSZ 020800Z AUTO 02008KT 7SM 32/21 A2977 RMK T03200210 IEM_DS3505
ZGSZ,2009-10-02 09:00,ZGSZ 020900Z AUTO 11002KT 11SM 30/20 A2977 RMK SLP087 T02960205 57009 IEM_DS3505
ZGSZ,2009-10-02 10:00,ZGSZ 021000Z AUTO 05006KT 6SM 31/21 A2980 RMK T03100210 IEM_DS3505
ZGSZ,2009-10-02 11:00,ZGSZ 021100Z AUTO 04006KT 6SM 31/21 A2980 RMK T03100210 IEM_DS3505
ZGSZ,2009-10-02 12:00,ZGSZ 021200Z AUTO 02002KT 11SM 28/21 A2983 RMK SLP104 T02850213 52017 IEM_DS3505
ZGSZ,2009-10-02 13:00,ZGSZ 021300Z AUTO 20002KT 6SM 29/24 A2983 RMK T02900240 IEM_DS3505
ZGSZ,2009-10-02 14:00,ZGSZ 021400Z AUTO 00000KT 6SM 28/24 A2985 RMK T02800240 IEM_DS3505
ZGSZ,2009-10-02 15:00,ZGSZ 021500Z AUTO 36002KT 9SM 27/22 A2983 RMK SLP107 T02710218 52003 IEM_DS3505
ZGSZ,2009-10-02 16:00,ZGSZ 021600Z AUTO 34002KT 6SM 27/24 A2983 RMK T02700240 IEM_DS3505
ZGSZ,2009-10-02 17:00,ZGSZ 021700Z AUTO 33002KT 6SM 27/24 A2980 RMK T02700240 IEM_DS3505
ZGSZ,2009-10-02 18:00,ZGSZ 021800Z AUTO 14002KT 9SM 26/22 A2980 RMK SLP094 T02610222 57013 IEM_DS3505
ZGSZ,2009-10-02 19:00,ZGSZ 021900Z AUTO 02004KT 6SM 27/19 A2980 RMK T02700190 IEM_DS3505
ZGSZ,2009-10-02 20:00,ZGSZ 022000Z AUTO 02006KT 6SM 27/19 A2980 RMK T02700190 IEM_DS3505
ZGSZ,2009-10-02 21:00,ZGSZ 022100Z AUTO 02004KT 9SM 26/18 A2980 RMK SLP096 T02620176 52002 IEM_DS3505
ZGSZ,2009-10-02 22:00,ZGSZ 022200Z AUTO 36006KT 6SM 26/18 A2983 RMK T02600180 IEM_DS3505
ZGSZ,2009-10-02 23:00,ZGSZ 022300Z AUTO 01008KT 6SM 26/19 A2983 RMK T02600190 IEM_DS3505
ZGSZ,2009-10-03 00:00,ZGSZ 030000Z AUTO 04002KT 7SM 26/18 A2985 RMK SLP115 T02630177 52019 IEM_DS3505
ZGSZ,2009-10-03 01:00,ZGSZ 030100Z AUTO 03006KT 6SM 29/20 A2988 RMK T02900200 IEM_DS3505
ZGSZ,2009-10-03 02:00,ZGSZ 030200Z AUTO 03008KT 6SM 30/18 A2988 RMK T03000180 IEM_DS3505
ZGSZ,2009-10-03 03:00,ZGSZ 030300Z AUTO 02006KT 6SM 29/17 A2985 RMK SLP114 T02890174 57001 IEM_DS3505
ZGSZ,2009-10-03 04:00,ZGSZ 030400Z AUTO 04008KT 6SM 31/18 A2983 RMK T03100180 IEM_DS3505
ZGSZ,2009-10-03 05:00,ZGSZ 030500Z AUTO 02006KT 6SM 32/18 A2980 RMK T03200180 IEM_DS3505
ZGSZ,2009-10-03 06:00,ZGSZ 030600Z AUTO 16002KT 6SM 31/17 A2977 RMK SLP081 T03110174 57033 IEM_DS3505
ZGSZ,2009-10-03 07:00,ZGSZ 030700Z AUTO 7SM 33/20 A2974 RMK T03300200 IEM_DS3505
ZGSZ,2009-10-03 08:00,ZGSZ 030800Z AUTO 29008KT 7SM 32/20 A2974 RMK T03200200 IEM_DS3505
ZGSZ,2009-10-03 09:00,ZGSZ 030900Z AUTO 36006KT 7SM 30/18 A2974 RMK SLP076 T03010179 57005 IEM_DS3505
ZGSZ,2009-10-03 10:00,ZGSZ 031000Z AUTO 06004KT 7SM 31/19 A2977 RMK T03100190 IEM_DS3505
ZGSZ,2009-10-03 11:00,ZGSZ 031100Z AUTO 07004KT 6SM 30/19 A2977 RMK T03000190 IEM_DS3505
ZGSZ,2009-10-03 12:00,ZGSZ 031200Z AUTO 25002KT 6SM 27/22 A2980 RMK SLP095 T02730218 52019 IEM_DS3505
ZGSZ,2009-10-03 13:00,ZGSZ 031300Z AUTO 6SM 29/21 A2983 RMK T02900210 IEM_DS3505
ZGSZ,2009-10-03 14:00,ZGSZ 031400Z AUTO 00000KT 4SM 28/23 A2983 RMK T02800230 IEM_DS3505
ZGSZ,2009-10-03 15:00,ZGSZ 031500Z AUTO 09004KT 6SM 27/21 A2983 RMK SLP101 T02680213 52006 IEM_DS3505
ZGSZ,2009-10-03 16:00,ZGSZ 031600Z AUTO 3SM 27/22 A2983 RMK T02700220 IEM_DS3505
ZGSZ,2009-10-03 17:00,ZGSZ 031700Z AUTO 00000KT 3SM 27/21 A2983 RMK T02700210 IEM_DS3505
ZGSZ,2009-10-03 18:00,ZGSZ 031800Z AUTO 04002KT 5SM 26/22 A2980 RMK SLP095 T02560217 57006 IEM_DS3505
ZGSZ,2009-10-03 19:00,ZGSZ 031900Z AUTO 3SM 26/21 A2980 RMK T02600210 IEM_DS3505
ZGSZ,2009-10-03 20:00,ZGSZ 032000Z AUTO 03004KT 2 1/2SM 26/21 A2980 RMK T02600210 IEM_DS3505
ZGSZ,2009-10-03 21:00,ZGSZ 032100Z AUTO 07002KT 3SM 25/21 A2980 RMK SLP094 T02500209 57001 IEM_DS3505
ZGSZ,2009-10-03 22:00,ZGSZ 032200Z AUTO 02006KT 5SM 26/16 A2980 RMK T02600160 IEM_DS3505
ZGSZ,2009-10-03 23:00,ZGSZ 032300Z AUTO 36004KT 6SM 25/16 A2983 RMK T02500160 IEM_DS3505
ZGSZ,2009-10-04 00:00,ZGSZ 040000Z AUTO 04002KT 4SM 25/18 A2985 RMK SLP110 T02530178 52016 IEM_DS3505
ZGSZ,2009-10-04 01:00,ZGSZ 040100Z AUTO 04006KT 6SM 28/16 A2985 RMK T02800160 IEM_DS3505
ZGSZ,2009-10-04 02:00,ZGSZ 040200Z AUTO 02010KT 6SM 29/16 A2985 RMK T02900160 IEM_DS3505
ZGSZ,2009-10-04 03:00,ZGSZ 040300Z AUTO 02004KT 6SM 28/15 A2983 RMK SLP100 T02840153 57010 IEM_DS3505
ZGSZ,2009-10-04 04:00,ZGSZ 040400Z AUTO 35010KT 6SM 31/16 A2980 RMK T03100160 IEM_DS3505
ZGSZ,2009-10-04 05:00,ZGSZ 040500Z AUTO 02008KT 6SM 32/15 A2977 RMK T03200150 IEM_DS3505
ZGSZ,2009-10-04 06:00,ZGSZ 040600Z AUTO 32006KT 7SM 30/15 A2974 RMK SLP073 T03010150 57027 IEM_DS3505
ZGSZ,2009-10-04 07:00,ZGSZ 040700Z AUTO 35010KT 6SM 32/15 A2974 RMK T03200150 IEM_DS3505
ZGSZ,2009-10-04 08:00,ZGSZ 040800Z AUTO 35010KT 6SM 32/14 A2974 RMK T03200140 IEM_DS3505
ZGSZ,2009-10-04 09:00,ZGSZ 040900Z AUTO 36006KT 8SM 29/14 A2974 RMK SLP076 T02930135 52003 IEM_DS3505
ZGSZ,2009-10-04 10:00,ZGSZ 041000Z AUTO 36008KT 6SM 30/15 A2974 RMK T03000150 IEM_DS3505
ZGSZ,2009-10-04 11:00,ZGSZ 041100Z AUTO 34006KT 6SM 29/16 A2977 RMK T02900160 IEM_DS3505
ZGSZ,2009-10-04 12:00,ZGSZ 041200Z AUTO 36004KT 7SM 28/16 A2977 RMK SLP085 T02780155 52009 IEM_DS3505
ZGSZ,2009-10-04 13:00,ZGSZ 041300Z AUTO 33004KT 5SM 28/18 A2977 RMK T02800180 IEM_DS3505
ZGSZ,2009-10-04 14:00,ZGSZ 041400Z AUTO 33004KT 5SM 27/18 A2977 RMK T02700180 IEM_DS3505
ZGSZ,2009-10-04 15:00,ZGSZ 041500Z AUTO 36008KT 6SM 28/14 A2977 RMK SLP084 T02770140 57001 IEM_DS3505
ZGSZ,2009-10-04 16:00,ZGSZ 041600Z AUTO 01008KT 6SM 28/15 A2977 RMK T02800150 IEM_DS3505
ZGSZ,2009-10-04 17:00,ZGSZ 041700Z AUTO 03006KT 6SM 28/15 A2977 RMK T02800150 IEM_DS3505
ZGSZ,2009-10-04 18:00,ZGSZ 041800Z AUTO 34002KT 7SM 27/10 A2977 RMK SLP082 T02660103 57002 IEM_DS3505
ZGSZ,2009-10-04 19:00,ZGSZ 041900Z AUTO 01012KT 6SM 27/10 A2977 RMK T02700100 IEM_DS3505
ZGSZ,2009-10-04 20:00,ZGSZ 042000Z AUTO 02008KT 6SM 26/11 A2977 RMK T02600110 IEM_DS3505
ZGSZ,2009-10-04 21:00,ZGSZ 042100Z AUTO 36002KT 7SM 25/12 A2977 RMK SLP082 T02460119 54000 IEM_DS3505
ZGSZ,2009-10-04 22:00,ZGSZ 042200Z AUTO 01006KT 6SM 25/12 A2980 RMK T02500120 IEM_DS3505
ZGSZ,2009-10-04 23:00,ZGSZ 042300Z AUTO 01006KT 6SM 25/12 A2980 RMK T02500120 IEM_DS3505
ZGSZ,2009-10-05 00:00,ZGSZ 050000Z AUTO 36006KT 6SM 25/13 A2983 RMK SLP099 T02470133 52017 IEM_DS3505
ZGSZ,2009-10-05 01:00,ZGSZ 050100Z AUTO 01012KT 6SM 28/14 A2983 RMK T02800140 IEM_DS3505
ZGSZ,2009-10-05 02:00,ZGSZ 050200Z AUTO 36012KT 6SM 29/14 A2983 RMK T02900140 IEM_DS3505
ZGSZ,2009-10-05 03:00,ZGSZ 050300Z AUTO 36008KT 6SM 28/14 A2980 RMK SLP091 T02810144 57008 IEM_DS3505
ZGSZ,2009-10-05 04:00,ZGSZ 050400Z AUTO 01012KT 6SM 31/13 A2977 RMK T03100130 IEM_DS3505
ZGSZ,2009-10-05 05:00,ZGSZ 050500Z AUTO 35012KT 6SM 32/14 A2974 RMK T03200140 IEM_DS3505
ZGSZ,2009-10-05 06:00,ZGSZ 050600Z AUTO 04004KT 7SM 30/13 A2971 RMK SLP069 T03000133 57022 IEM_DS3505
ZGSZ,2009-10-05 07:00,ZGSZ 050700Z AUTO 02008KT 6SM 33/13 A2971 RMK T03300130 IEM_DS3505
ZGSZ,2009-10-05 08:00,ZGSZ 050800Z AUTO 05008KT 6SM 33/13 A2971 RMK T03300130 IEM_DS3505
ZGSZ,2009-10-05 09:00,ZGSZ 050900Z AUTO 02004KT 9SM 30/12 A2971 RMK SLP067 T03010125 57002 IEM_DS3505
ZGSZ,2009-10-05 10:00,ZGSZ 051000Z AUTO 06006KT 6SM 31/13 A2974 RMK T03100130 IEM_DS3505
ZGSZ,2009-10-05 11:00,ZGSZ 051100Z AUTO 02004KT 6SM 30/13 A2974 RMK T03000130 IEM_DS3505
ZGSZ,2009-10-05 12:00,ZGSZ 051200Z AUTO 34004KT 8SM 28/13 A2974 RMK SLP080 T02790134 52013 IEM_DS3505
ZGSZ,2009-10-05 13:00,ZGSZ 051300Z AUTO 07006KT 5SM 28/14 A2977 RMK T02800140 IEM_DS3505
ZGSZ,2009-10-05 14:00,ZGSZ 051400Z AUTO 03004KT 5SM 29/14 A2977 RMK T02900140 IEM_DS3505
ZGSZ,2009-10-05 15:00,ZGSZ 051500Z AUTO 36004KT 7SM 27/14 A2977 RMK SLP087 T02720135 52007 IEM_DS3505
ZGSZ,2009-10-05 16:00,ZGSZ 051600Z AUTO 02008KT 6SM 28/12 A2977 RMK T02800120 IEM_DS3505
ZGSZ,2009-10-05 17:00,ZGSZ 051700Z AUTO 04008KT 6SM 27/11 A2977 RMK T02700110 IEM_DS3505
ZGSZ,2009-10-05 18:00,ZGSZ 051800Z AUTO 36004KT 6SM 26/13 A2977 RMK SLP082 T02630134 57005 IEM_DS3505
ZGSZ,2009-10-05 19:00,ZGSZ 051900Z AUTO 01010KT 7SM 27/12 A2977 RMK T02700120 IEM_DS3505
ZGSZ,2009-10-05 20:00,ZGSZ 052000Z AUTO 01008KT 7SM 27/13 A2977 RMK T02700130 IEM_DS3505
ZGSZ,2009-10-05 21:00,ZGSZ 052100Z AUTO 32002KT 6SM 25/13 A2977 RMK SLP086 T02530132 52004 IEM_DS3505
ZGSZ,2009-10-05 22:00,ZGSZ 052200Z AUTO 01006KT 7SM 26/14 A2980 RMK T02600140 IEM_DS3505
ZGSZ,2009-10-05 23:00,ZGSZ 052300Z AUTO 02006KT 7SM 26/14 A2980 RMK T02600140 IEM_DS3505
ZGSZ,2009-10-06 00:00,ZGSZ 060000Z AUTO 02008KT 10SM 26/15 A2983 RMK SLP103 T02570148 52017 IEM_DS3505
ZGSZ,2009-10-06 01:00,ZGSZ 060100Z AUTO 02008KT 7SM 27/16 A2985 RMK T02700160 IEM_DS3505
ZGSZ,2009-10-06 02:00,ZGSZ 060200Z AUTO 01008KT 6SM 29/17 A2983 RMK T02900170 IEM_DS3505
ZGSZ,2009-10-06 03:00,ZGSZ 060300Z AUTO 07004KT 10SM 28/16 A2980 RMK SLP097 T02850158 57006 IEM_DS3505
ZGSZ,2009-10-06 04:00,ZGSZ 060400Z AUTO 36008KT 6SM 31/17 A2977 RMK T03100170 IEM_DS3505
ZGSZ,2009-10-06 05:00,ZGSZ 060500Z AUTO 02008KT 6SM 32/17 A2977 RMK T03200170 IEM_DS3505
ZGSZ,2009-10-06 06:00,ZGSZ 060600Z AUTO 36006KT 9SM 30/16 A2974 RMK SLP071 T03050165 57026 IEM_DS3505
ZGSZ,2009-10-06 07:00,ZGSZ 060700Z AUTO 32006KT 7SM 32/19 A2971 RMK T03200190 IEM_DS3505
ZGSZ,2009-10-06 08:00,ZGSZ 060800Z AUTO 7SM 33/18 A2971 RMK T03300180 IEM_DS3505
ZGSZ,2009-10-06 09:00,ZGSZ 060900Z AUTO 34004KT 9SM 30/17 A2971 RMK SLP069 T02990174 57002 IEM_DS3505
ZGSZ,2009-10-06 10:00,ZGSZ 061000Z AUTO 35004KT 7SM 30/18 A2974 RMK T03000180 IEM_DS3505
ZGSZ,2009-10-06 11:00,ZGSZ 061100Z AUTO 7SM 31/19 A2974 RMK T03100190 IEM_DS3505
ZGSZ,2009-10-06 12:00,ZGSZ 061200Z AUTO 20004KT 9SM 28/20 A2977 RMK SLP081 T02820205 52012 IEM_DS3505
ZGSZ,2009-10-06 13:00,ZGSZ 061300Z AUTO 00000KT 7SM 30/20 A2977 RMK T03000200 IEM_DS3505
ZGSZ,2009-10-06 14:00,ZGSZ 061400Z AUTO 00000KT 7SM 30/19 A2977 RMK T03000190 IEM_DS3505
ZGSZ,2009-10-06 15:00,ZGSZ 061500Z AUTO 11002KT 6SM 29/20 A2977 RMK SLP090 T02860203 52009 IEM_DS3505
ZGSZ,2009-10-06 16:00,ZGSZ 061600Z AUTO 3SM 30/19 A2977 RMK T03000190 IEM_DS3505
ZGSZ,2009-10-06 17:00,ZGSZ 061700Z AUTO 05004KT 5SM 30/19 A2977 RMK T03000190 IEM_DS3505
ZGSZ,2009-10-06 18:00,ZGSZ 061800Z AUTO 09004KT 9SM 28/21 A2977 RMK SLP083 T02750206 57007 IEM_DS3505
ZGSZ,2009-10-06 19:00,ZGSZ 061900Z AUTO 08006KT 6SM 29/17 A2977 RMK T02900170 IEM_DS3505
ZGSZ,2009-10-06 20:00,ZGSZ 062000Z AUTO 6SM 28/19 A2977 RMK T02800190 IEM_DS3505
ZGSZ,2009-10-06 21:00,ZGSZ 062100Z AUTO 34004KT 9SM 26/20 A2977 RMK SLP084 T02630204 52001 IEM_DS3505
ZGSZ,2009-10-06 22:00,ZGSZ 062200Z AUTO 05004KT 6SM 28/16 A2980 RMK T02800160 IEM_DS3505
ZGSZ,2009-10-06 23:00,ZGSZ 062300Z AUTO 02004KT 6SM 27/16 A2983 RMK T02700160 IEM_DS3505
ZGSZ,2009-10-07 00:00,ZGSZ 070000Z AUTO 02004KT 8SM 26/13 A2983 RMK SLP104 T02610132 52020 IEM_DS3505
ZGSZ,2009-10-07 01:00,ZGSZ 070100Z AUTO 03008KT 6SM 29/15 A2983 RMK T02900150 IEM_DS3505
ZGSZ,2009-10-07 02:00,ZGSZ 070200Z AUTO 03006KT 6SM 30/16 A2983 RMK T03000160 IEM_DS3505
ZGSZ,2009-10-07 03:00,ZGSZ 070300Z AUTO 07006KT 7SM 29/13 A2983 RMK SLP104 T02870130 54000 IEM_DS3505
ZGSZ,2009-10-07 04:00,ZGSZ 070400Z AUTO 02008KT 6SM 31/15 A2980 RMK T03100150 IEM_DS3505
ZGSZ,2009-10-07 05:00,ZGSZ 070500Z AUTO 6SM 32/14 A2974 RMK T03200140 IEM_DS3505
ZGSZ,2009-10-07 06:00,ZGSZ 070600Z AUTO 02002KT 7SM 31/14 A2971 RMK SLP067 T03070139 57036 IEM_DS3505
ZGSZ,2009-10-07 07:00,ZGSZ 070700Z AUTO 29008KT 5SM 32/15 A2971 RMK T03200150 IEM_DS3505
ZGSZ,2009-10-07 08:00,ZGSZ 070800Z AUTO 29008KT 5SM 32/15 A2968 RMK T03200150 IEM_DS3505
ZGSZ,2009-10-07 09:00,ZGSZ 070900Z AUTO 36004KT 7SM 30/14 A2971 RMK SLP060 T03000137 57008 IEM_DS3505
ZGSZ,2009-10-07 10:00,ZGSZ 071000Z AUTO 4SM 30/17 A2971 RMK T03000170 IEM_DS3505
ZGSZ,2009-10-07 11:00,ZGSZ 071100Z AUTO 06004KT 6SM 29/16 A2971 RMK T02900160 IEM_DS3505
ZGSZ,2009-10-07 12:00,ZGSZ 071200Z AUTO 16002KT 7SM 28/18 A2974 RMK SLP077 T02770176 52017 IEM_DS3505
ZGSZ,2009-10-07 13:00,ZGSZ 071300Z AUTO 13004KT 6SM 29/17 A2977 RMK T02900170 IEM_DS3505
ZGSZ,2009-10-07 14:00,ZGSZ 071400Z AUTO 4SM 28/18 A2977 RMK T02800180 IEM_DS3505
ZGSZ,2009-10-07 15:00,ZGSZ 071500Z AUTO 09004KT 7SM 26/19 A2977 RMK SLP089 T02650186 52012 IEM_DS3505
ZGSZ,2009-10-07 16:00,ZGSZ 071600Z AUTO 12008KT 4SM 27/19 A2977 RMK T02700190 IEM_DS3505
ZGSZ,2009-10-07 17:00,ZGSZ 071700Z AUTO 10006KT 4SM 27/19 A2977 RMK T02700190 IEM_DS3505
ZGSZ,2009-10-07 18:00,ZGSZ 071800Z AUTO 07004KT 9SM 25/18 A2977 RMK SLP086 T02530185 57003 IEM_DS3505
ZGSZ,2009-10-07 19:00,ZGSZ 071900Z AUTO 09006KT 6SM 26/19 A2977 RMK T02600190 IEM_DS3505
ZGSZ,2009-10-07 20:00,ZGSZ 072000Z AUTO 02004KT 6SM 25/19 A2977 RMK T02500190 IEM_DS3505
ZGSZ,2009-10-07 21:00,ZGSZ 072100Z AUTO 02002KT 8SM 25/20 A2980 RMK SLP089 T02460197 52003 IEM_DS3505
ZGSZ,2009-10-07 22:00,ZGSZ 072200Z AUTO 4SM 24/19 A2980 RMK T02400190 IEM_DS3505
ZGSZ,2009-10-07 23:00,ZGSZ 072300Z AUTO 03006KT 4SM 25/20 A2983 RMK T02500200 IEM_DS3505
ZGSZ,2009-10-08 00:00,ZGSZ 080000Z AUTO 02006KT 7SM 25/17 A2983 RMK SLP104 T02490166 52015 IEM_DS3505
ZGSZ,2009-10-08 01:00,ZGSZ 080100Z AUTO 10006KT 4SM 27/19 A2985 RMK T02700190 IEM_DS3505
ZGSZ,2009-10-08 02:00,ZGSZ 080200Z AUTO 08004KT 5SM 28/19 A2985 RMK T02800190 IEM_DS3505
ZGSZ,2009-10-08 03:00,ZGSZ 080300Z AUTO 02006KT 8SM 27/16 A2983 RMK SLP108 T02710155 52004 IEM_DS3505
ZGSZ,2009-10-08 04:00,ZGSZ 080400Z AUTO 03004KT 6SM 30/14 A2980 RMK T03000140 IEM_DS3505
ZGSZ,2009-10-08 05:00,ZGSZ 080500Z AUTO 06006KT 6SM 31/14 A2977 RMK T03100140 IEM_DS3505
ZGSZ,2009-10-08 06:00,ZGSZ 080600Z AUTO 27004KT 6SM 30/15 A2974 RMK SLP076 T02970154 57032 IEM_DS3505
ZGSZ,2009-10-08 07:00,ZGSZ 080700Z AUTO 31006KT 6SM 31/14 A2974 RMK T03100140 IEM_DS3505
ZGSZ,2009-10-08 08:00,ZGSZ 080800Z AUTO 30008KT 5SM 30/14 A2974 RMK T03000140 IEM_DS3505
ZGSZ,2009-10-08 09:00,ZGSZ 080900Z AUTO 36002KT 5SM 29/13 A2974 RMK SLP071 T02860129 57005 IEM_DS3505
ZGSZ,2009-10-08 10:00,ZGSZ 081000Z AUTO 07004KT 4SM 29/13 A2974 RMK T02900130 IEM_DS3505
ZGSZ,2009-10-08 11:00,ZGSZ 081100Z AUTO 05004KT 5SM 29/14 A2974 RMK T02900140 IEM_DS3505
ZGSZ,2009-10-08 12:00,ZGSZ 081200Z AUTO 18002KT 4SM 26/20 A2977 RMK SLP086 T02580197 52015 IEM_DS3505
ZGSZ,2009-10-08 13:00,ZGSZ 081300Z AUTO 12006KT 6SM 28/16 A2980 RMK T02800160 IEM_DS3505
ZGSZ,2009-10-08 14:00,ZGSZ 081400Z AUTO 20004KT 5SM 27/21 A2980 RMK T02700210 IEM_DS3505
ZGSZ,2009-10-08 15:00,ZGSZ 081500Z AUTO 09004KT 4SM 25/19 A2980 RMK SLP091 T02510190 52005 IEM_DS3505
ZGSZ,2009-10-08 16:00,ZGSZ 081600Z AUTO 20004KT 4SM 26/20 A2977 RMK T02600200 IEM_DS3505
ZGSZ,2009-10-08 17:00,ZGSZ 081700Z AUTO 10004KT 2 1/2SM 26/20 A2977 RMK T02600200 IEM_DS3505
ZGSZ,2009-10-08 18:00,ZGSZ 081800Z AUTO 07002KT 4SM 24/19 A2977 RMK SLP083 T02390194 57008 IEM_DS3505
ZGSZ,2009-10-08 19:00,ZGSZ 081900Z AUTO 10006KT 3SM 25/20 A2977 RMK T02500200 IEM_DS3505
ZGSZ,2009-10-08 20:00,ZGSZ 082000Z AUTO 10004KT 3SM 25/19 A2977 RMK T02500190 IEM_DS3505
ZGSZ,2009-10-08 21:00,ZGSZ 082100Z AUTO 07002KT 4SM 24/19 A2977 RMK SLP088 T02380187 52005 IEM_DS3505
ZGSZ,2009-10-08 22:00,ZGSZ 082200Z AUTO 10004KT 2 1/2SM 25/19 A2980 RMK T02500190 IEM_DS3505
ZGSZ,2009-10-08 23:00,ZGSZ 082300Z AUTO 09004KT 2 1/2SM 25/19 A2983 RMK T02500190 IEM_DS3505
ZGSZ,2009-10-09 00:00,ZGSZ 090000Z AUTO 02002KT 4SM 25/18 A2983 RMK SLP104 T02510185 52015 IEM_DS3505
ZGSZ,2009-10-09 01:00,ZGSZ 090100Z AUTO 07008KT 4SM 28/16 A2985 RMK T02800160 IEM_DS3505
ZGSZ,2009-10-09 02:00,ZGSZ 090200Z AUTO 03008KT 6SM 28/15 A2985 RMK T02800150 IEM_DS3505
ZGSZ,2009-10-09 03:00,ZGSZ 090300Z AUTO 02006KT 4SM 28/14 A2983 RMK SLP106 T02780137 52003 IEM_DS3505
ZGSZ,2009-10-09 04:00,ZGSZ 090400Z AUTO 05008KT 6SM 30/15 A2980 RMK T03000150 IEM_DS3505
ZGSZ,2009-10-09 05:00,ZGSZ 090500Z AUTO 05006KT 6SM 31/14 A2980 RMK T03100140 IEM_DS3505
ZGSZ,2009-10-09 06:00,ZGSZ 090600Z AUTO 34004KT 9SM 30/12 A2977 RMK SLP081 T02950124 57025 IEM_DS3505
ZGSZ,2009-10-09 07:00,ZGSZ 090700Z AUTO 01010KT 6SM 31/12 A2974 RMK T03100120 IEM_DS3505
ZGSZ,2009-10-09 08:00,ZGSZ 090800Z AUTO 06008KT 6SM 31/14 A2974 RMK T03100140 IEM_DS3505
ZGSZ,2009-10-09 09:00,ZGSZ 090900Z AUTO 34004KT 9SM 29/12 A2974 RMK SLP073 T02860125 57008 IEM_DS3505
ZGSZ,2009-10-09 10:00,ZGSZ 091000Z AUTO 04006KT 6SM 30/12 A2974 RMK T03000120 IEM_DS3505
ZGSZ,2009-10-09 11:00,ZGSZ 091100Z AUTO 04008KT 6SM 29/12 A2977 RMK T02900120 IEM_DS3505
ZGSZ,2009-10-09 12:00,ZGSZ 091200Z AUTO 36004KT 7SM 27/12 A2980 RMK SLP094 T02680125 52021 IEM_DS3505
ZGSZ,2009-10-09 13:00,ZGSZ 091300Z AUTO 01006KT 6SM 28/13 A2983 RMK T02800130 IEM_DS3505
ZGSZ,2009-10-09 14:00,ZGSZ 091400Z AUTO 06004KT 6SM 28/13 A2983 RMK T02800130 IEM_DS3505
ZGSZ,2009-10-09 15:00,ZGSZ 091500Z AUTO 07002KT 7SM 26/13 A2983 RMK SLP103 T02650126 52009 IEM_DS3505
ZGSZ,2009-10-09 16:00,ZGSZ 091600Z AUTO 03006KT 6SM 27/14 A2983 RMK T02700140 IEM_DS3505
ZGSZ,2009-10-09 17:00,ZGSZ 091700Z AUTO 07002KT 6SM 27/13 A2983 RMK T02700130 IEM_DS3505
ZGSZ,2009-10-09 18:00,ZGSZ 091800Z AUTO 02004KT 7SM 25/14 A2983 RMK SLP101 T02500142 57002 IEM_DS3505
ZGSZ,2009-10-09 19:00,ZGSZ 091900Z AUTO 06004KT 6SM 26/13 A2983 RMK T02600130 IEM_DS3505
ZGSZ,2009-10-09 20:00,ZGSZ 092000Z AUTO 04004KT 6SM 25/13 A2983 RMK T02500130 IEM_DS3505
ZGSZ,2009-10-09 21:00,ZGSZ 092100Z AUTO 04004KT 8SM 25/12 A2983 RMK SLP106 T02470123 52005 IEM_DS3505
ZGSZ,2009-10-09 22:00,ZGSZ 092200Z AUTO 05004KT 6SM 25/14 A2985 RMK T02500140 IEM_DS3505
ZGSZ,2009-10-09 23:00,ZGSZ 092300Z AUTO 05004KT 6SM 24/14 A2985 RMK T02400140 IEM_DS3505
ZGSZ,2009-10-10 00:00,ZGSZ 100000Z AUTO 02010KT 9SM 25/13 A2988 RMK SLP122 T02470130 52015 IEM_DS3505
ZGSZ,2009-10-10 01:00,ZGSZ 100100Z AUTO 02006G16KT 6SM 27/15 A2991 RMK T02700150 IEM_DS3505
ZGSZ,2009-10-10 02:00,ZGSZ 100200Z AUTO 02006KT 6SM 28/15 A2991 RMK T02800150 IEM_DS3505
ZGSZ,2009-10-10 03:00,ZGSZ 100300Z AUTO 02008KT 8SM 27/13 A2988 RMK SLP124 T02700130 52003 IEM_DS3505
ZGSZ,2009-10-10 04:00,ZGSZ 100400Z AUTO 03008KT 6SM 30/15 A2985 RMK T03000150 IEM_DS3505
ZGSZ,2009-10-10 05:00,ZGSZ 100500Z AUTO 08006G19KT 6SM 31/15 A2983 RMK T03100150 IEM_DS3505
ZGSZ,2009-10-10 06:00,ZGSZ 100600Z AUTO 04008KT 8SM 29/14 A2983 RMK SLP101 T02890136 57023 IEM_DS3505
ZGSZ,2009-10-10 07:00,ZGSZ 100700Z AUTO 04006KT 6SM 32/14 A2980 RMK T03200140 IEM_DS3505
ZGSZ,2009-10-10 08:00,ZGSZ 100800Z AUTO 04008KT 6SM 31/14 A2980 RMK T03100140 IEM_DS3505
ZGSZ,2009-10-10 09:00,ZGSZ 100900Z AUTO 02006KT 10SM 29/12 A2983 RMK SLP100 T02910125 57001 IEM_DS3505
ZGSZ,2009-10-10 10:00,ZGSZ 101000Z AUTO 04008KT 6SM 30/14 A2983 RMK T03000140 IEM_DS3505
ZGSZ,2009-10-10 11:00,ZGSZ 101100Z AUTO 06008KT 6SM 29/15 A2985 RMK T02900150 IEM_DS3505
ZGSZ,2009-10-10 12:00,ZGSZ 101200Z AUTO 07002KT 9SM 28/15 A2985 RMK SLP118 T02750152 52017 IEM_DS3505
ZGSZ,2009-10-10 13:00,ZGSZ 101300Z AUTO 02004KT 6SM 29/15 A2988 RMK T02900150 IEM_DS3505
ZGSZ,2009-10-10 14:00,ZGSZ 101400Z AUTO 05004KT 6SM 29/14 A2988 RMK T02900140 IEM_DS3505
ZGSZ,2009-10-10 15:00,ZGSZ 101500Z AUTO 07002KT 9SM 26/19 A2988 RMK SLP124 T02600187 52007 IEM_DS3505
ZGSZ,2009-10-10 16:00,ZGSZ 101600Z AUTO 5SM 27/16 A2988 RMK T02700160 IEM_DS3505
ZGSZ,2009-10-10 17:00,ZGSZ 101700Z AUTO 05002KT 5SM 27/18 A2988 RMK T02700180 IEM_DS3505
ZGSZ,2009-10-10 18:00,ZGSZ 101800Z AUTO 36002KT 8SM 26/20 A2985 RMK SLP117 T02550203 57007 IEM_DS3505
ZGSZ,2009-10-10 19:00,ZGSZ 101900Z AUTO 00000KT 5SM 26/18 A2985 RMK T02600180 IEM_DS3505
ZGSZ,2009-10-10 20:00,ZGSZ 102000Z AUTO 06006KT 5SM 27/19 A2985 RMK T02700190 IEM_DS3505
ZGSZ,2009-10-10 21:00,ZGSZ 102100Z AUTO 02004KT 4SM 25/20 A2988 RMK SLP119 T02520200 52002 IEM_DS3505
ZGSZ,2009-10-10 22:00,ZGSZ 102200Z AUTO 05006KT 6SM 26/17 A2988 RMK T02600170 IEM_DS3505
ZGSZ,2009-10-10 23:00,ZGSZ 102300Z AUTO 02006KT 6SM 27/16 A2991 RMK T02700160 IEM_DS3505
ZGSZ,2009-10-11 00:00,ZGSZ 110000Z AUTO 04008KT 6SM 25/16 A2994 RMK SLP140 T02520158 52020 IEM_DS3505
ZGSZ,2009-10-11 01:00,ZGSZ 110100Z AUTO 06004KT 6SM 28/17 A2994 RMK T02800170 IEM_DS3505
ZGSZ,2009-10-11 02:00,ZGSZ 110200Z AUTO 04006KT 7SM 29/17 A2994 RMK T02900170 IEM_DS3505
ZGSZ,2009-10-11 03:00,ZGSZ 110300Z AUTO 07004KT 7SM 27/18 A2994 RMK SLP146 T02670175 52006 IEM_DS3505
ZGSZ,2009-10-11 04:00,ZGSZ 110400Z AUTO 08010KT 7SM 30/18 A2991 RMK T03000180 IEM_DS3505
ZGSZ,2009-10-11 05:00,ZGSZ 110500Z AUTO 03008KT 7SM 31/18 A2988 RMK T03100180 IEM_DS3505
ZGSZ,2009-10-11 06:00,ZGSZ 110600Z AUTO 04004KT 8SM 29/19 A2985 RMK SLP117 T02900188 57028 IEM_DS3505
ZGSZ,2009-10-11 07:00,ZGSZ 110700Z AUTO 04008KT 6SM 31/19 A2985 RMK T03100190 IEM_DS3505
ZGSZ,2009-10-11 08:00,ZGSZ 110800Z AUTO 04008KT 7SM 30/19 A2985 RMK T03000190 IEM_DS3505
ZGSZ,2009-10-11 09:00,ZGSZ 110900Z AUTO 04004KT 6SM 25/22 A2988 RMK SLP128 T02480219 52010 IEM_DS3505
ZGSZ,2009-10-11 10:00,ZGSZ 111000Z AUTO 05004KT 7SM 26/22 A2991 RMK T02600220 IEM_DS3505
ZGSZ,2009-10-11 11:00,ZGSZ 111100Z AUTO 10006KT 3SM 25/22 A2991 RMK T02500220 IEM_DS3505
ZGSZ,2009-10-11 12:00,ZGSZ 111200Z AUTO 07004KT 5SM 25/22 A2994 RMK 60008 SLP139 T02500219 52011 IEM_DS3505
ZGSZ,2009-10-11 13:00,ZGSZ 111300Z AUTO 4SM 26/23 A2994 RMK T02600230 IEM_DS3505
ZGSZ,2009-10-11 14:00,ZGSZ 111400Z AUTO 06004KT 4SM 26/22 A2994 RMK T02600220 IEM_DS3505
ZGSZ,2009-10-11 15:00,ZGSZ 111500Z AUTO 11006KT 6SM 25/21 A2994 RMK SLP145 T02520211 52006 IEM_DS3505
ZGSZ,2009-10-11 16:00,ZGSZ 111600Z AUTO 09008KT 7SM 26/21 A2994 RMK T02600210 IEM_DS3505
ZGSZ,2009-10-11 17:00,ZGSZ 111700Z AUTO 07008KT 6SM 26/21 A2991 RMK T02600210 IEM_DS3505
ZGSZ,2009-10-11 18:00,ZGSZ 111800Z AUTO 09006KT 7SM 24/21 A2994 RMK 60000 SLP138 T02440209 57007 IEM_DS3505
ZGSZ,2009-10-11 19:00,ZGSZ 111900Z AUTO 07004KT 7SM 26/20 A2991 RMK T02600200 IEM_DS3505
ZGSZ,2009-10-11 20:00,ZGSZ 112000Z AUTO 7SM 26/21 A2991 RMK T02600210 IEM_DS3505
ZGSZ,2009-10-11 21:00,ZGSZ 112100Z AUTO 07008KT 10SM 25/20 A2991 RMK 70008 SLP131 T02500196 57007 IEM_DS3505
ZGSZ,2009-10-11 22:00,ZGSZ 112200Z AUTO 06006KT 7SM 26/20 A2991 RMK T02600200 IEM_DS3505
ZGSZ,2009-10-11 23:00,ZGSZ 112300Z AUTO 07004KT 7SM 26/19 A2994 RMK T02600190 IEM_DS3505
ZGSZ,2009-10-12 00:00,ZGSZ 120000Z AUTO 07008KT 11SM 25/20 A2997 RMK 70008 SLP151 T02490199 52020 IEM_DS3505
ZGSZ,2009-10-12 01:00,ZGSZ 120100Z AUTO 07006KT 7SM 27/20 A2997 RMK T02700200 IEM_DS3505
ZGSZ,2009-10-12 02:00,ZGSZ 120200Z AUTO 06006KT 7SM 27/20 A2997 RMK T02700200 IEM_DS3505
ZGSZ,2009-10-12 03:00,ZGSZ 120300Z AUTO 07008KT 12SM 27/20 A2997 RMK SLP150 T02660197 57001 IEM_DS3505
ZGSZ,2009-10-12 04:00,ZGSZ 120400Z AUTO 7SM 29/20 A2994 RMK T02900200 IEM_DS3505
ZGSZ,2009-10-12 05:00,ZGSZ 120500Z AUTO 11008KT 7SM 29/20 A2991 RMK T02900200 IEM_DS3505
ZGSZ,2009-10-12 06:00,ZGSZ 120600Z AUTO 07006KT 12SM 27/20 A2988 RMK SLP126 T02660204 57024 IEM_DS3505
ZGSZ,2009-10-12 07:00,ZGSZ 120700Z AUTO 10004KT 7SM 29/20 A2988 RMK T02900200 IEM_DS3505
ZGSZ,2009-10-12 08:00,ZGSZ 120800Z AUTO 11006KT 7SM 29/21 A2988 RMK T02900210 IEM_DS3505
ZGSZ,2009-10-12 09:00,ZGSZ 120900Z AUTO 07006KT 12SM 27/20 A2988 RMK SLP123 T02690205 57003 IEM_DS3505
ZGSZ,2009-10-12 10:00,ZGSZ 121000Z AUTO 09006KT 7SM 28/20 A2988 RMK T02800200 IEM_DS3505
ZGSZ,2009-10-12 11:00,ZGSZ 121100Z AUTO 11006KT 7SM 28/20 A2991 RMK T02800200 IEM_DS3505
ZGSZ,2009-10-12 12:00,ZGSZ 121200Z AUTO 09006KT 9SM 26/21 A2991 RMK SLP138 T02600212 52015 IEM_DS3505
ZGSZ,2009-10-12 13:00,ZGSZ 121300Z AUTO 11008KT 7SM 27/21 A2994 RMK T02700210 IEM_DS3505
ZGSZ,2009-10-12 14:00,ZGSZ 121400Z AUTO 10006KT 7SM 28/21 A2994 RMK T02800210 IEM_DS3505
ZGSZ,2009-10-12 15:00,ZGSZ 121500Z AUTO 07006KT 7SM 26/21 A2994 RMK SLP147 T02590213 52009 IEM_DS3505
ZGSZ,2009-10-12 16:00,ZGSZ 121600Z AUTO 11006KT 7SM 27/22 A2994 RMK T02700220 IEM_DS3505
ZGSZ,2009-10-12 17:00,ZGSZ 121700Z AUTO 11008KT 7SM 27/21 A2994 RMK T02700210 IEM_DS3505
ZGSZ,2009-10-12 18:00,ZGSZ 121800Z AUTO 09006KT 10SM 25/21 A2991 RMK SLP139 T02540206 57008 IEM_DS3505
ZGSZ,2009-10-12 19:00,ZGSZ 121900Z AUTO 11008KT 6SM 26/21 A2991 RMK T02600210 IEM_DS3505
ZGSZ,2009-10-12 20:00,ZGSZ 122000Z AUTO 08004KT 6SM 26/21 A2991 RMK T02600210 IEM_DS3505
ZGSZ,2009-10-12 21:00,ZGSZ 122100Z AUTO 07006KT 12SM 26/21 A2991 RMK SLP133 T02550210 57006 IEM_DS3505
ZGSZ,2009-10-12 22:00,ZGSZ 122200Z AUTO 05004KT 7SM 25/21 A2994 RMK T02500210 IEM_DS3505
ZGSZ,2009-10-12 23:00,ZGSZ 122300Z AUTO 08010KT 7SM 26/21 A2994 RMK T02600210 IEM_DS3505
ZGSZ,2009-10-13 00:00,ZGSZ 130000Z AUTO 07004KT 14SM 26/21 A2997 RMK SLP154 T02580208 52021 IEM_DS3505
ZGSZ,2009-10-13 01:00,ZGSZ 130100Z AUTO 10008KT 7SM 29/20 A3000 RMK T02900200 IEM_DS3505
ZGSZ,2009-10-13 02:00,ZGSZ 130200Z AUTO 7SM 30/20 A3000 RMK T03000200 IEM_DS3505
ZGSZ,2009-10-13 03:00,ZGSZ 130300Z AUTO 11006KT 14SM 27/21 A2997 RMK SLP161 T02730206 52007 IEM_DS3505
ZGSZ,2009-10-13 04:00,ZGSZ 130400Z AUTO 11008KT 7SM 30/19 A2994 RMK T03000190 IEM_DS3505
ZGSZ,2009-10-13 05:00,ZGSZ 130500Z AUTO 11008KT 7SM 31/19 A2991 RMK T03100190 IEM_DS3505
ZGSZ,2009-10-13 06:00,ZGSZ 130600Z AUTO 09006KT 16SM 29/19 RMK SLP130 T02940191 57030 IEM_DS3505
ZGSZ,2009-10-13 07:00,ZGSZ 130700Z AUTO 12010KT 7SM 32/19 A2988 RMK T03200190 IEM_DS3505
ZGSZ,2009-10-13 08:00,ZGSZ 130800Z AUTO 09008KT 7SM 32/19 A2988 RMK T03200190 IEM_DS3505
ZGSZ,2009-10-13 09:00,ZGSZ 130900Z AUTO 14006KT 16SM 29/19 A2991 RMK SLP131 T02890192 52001 IEM_DS3505
ZGSZ,2009-10-13 10:00,ZGSZ 131000Z AUTO 09006KT 6SM 30/20 A2991 RMK T03000200 IEM_DS3505
ZGSZ,2009-10-13 11:00,ZGSZ 131100Z AUTO 07004KT 6SM 29/20 A2991 RMK T02900200 IEM_DS3505
ZGSZ,2009-10-13 12:00,ZGSZ 131200Z AUTO 09004KT 11SM 26/21 A2994 RMK SLP148 T02620212 52016 IEM_DS3505
ZGSZ,2009-10-13 13:00,ZGSZ 131300Z AUTO 10006KT 6SM 28/21 A2997 RMK T02800210 IEM_DS3505
ZGSZ,2009-10-13 14:00,ZGSZ 131400Z AUTO 06004KT 6SM 27/21 A2997 RMK T02700210 IEM_DS3505
ZGSZ,2009-10-13 15:00,ZGSZ 131500Z AUTO 09004KT 9SM 26/22 A3000 RMK SLP161 T02570216 52013 IEM_DS3505
ZGSZ,2009-10-13 16:00,ZGSZ 131600Z AUTO 09006KT 7SM 27/22 A3000 RMK T02700220 IEM_DS3505
ZGSZ,2009-10-13 17:00,ZGSZ 131700Z AUTO 07004KT 7SM 27/22 A2997 RMK T02700220 IEM_DS3505
ZGSZ,2009-10-13 18:00,ZGSZ 131800Z AUTO 07004KT 9SM 26/22 A2997 RMK SLP149 T02580217 57011 IEM_DS3505
ZGSZ,2009-10-13 19:00,ZGSZ 131900Z AUTO 00000KT 3SM 26/22 A2994 RMK T02600220 IEM_DS3505
ZGSZ,2009-10-13 20:00,ZGSZ 132000Z AUTO 03004KT 4SM 27/22 A2994 RMK T02700220 IEM_DS3505
ZGSZ,2009-10-13 21:00,ZGSZ 132100Z AUTO 02002KT 7SM 26/22 A2994 RMK SLP145 T02550216 57004 IEM_DS3505
ZGSZ,2009-10-13 22:00,ZGSZ 132200Z AUTO 03008KT 4SM 26/19 A2997 RMK T02600190 IEM_DS3505
ZGSZ,2009-10-13 23:00,ZGSZ 132300Z AUTO 02006KT 3SM 26/19 A2997 RMK T02600190 IEM_DS3505
ZGSZ,2009-10-14 00:00,ZGSZ 140000Z AUTO 02006KT 4SM 25/19 A3000 RMK SLP161 T02530192 52015 IEM_DS3505
ZGSZ,2009-10-14 01:00,ZGSZ 140100Z AUTO 06006KT 4SM 28/19 A3000 RMK T02800190 IEM_DS3505
ZGSZ,2009-10-14 02:00,ZGSZ 140200Z AUTO 04006KT 3SM 29/19 A3000 RMK T02900190 IEM_DS3505
ZGSZ,2009-10-14 03:00,ZGSZ 140300Z AUTO 07006KT 3SM 27/19 A3000 RMK SLP162 T02730189 52001 IEM_DS3505
ZGSZ,2009-10-14 04:00,ZGSZ 140400Z AUTO 01008KT 3SM 30/19 A2997 RMK T03000190 IEM_DS3505
ZGSZ,2009-10-14 05:00,ZGSZ 140500Z AUTO 03006KT 4SM 30/19 A2994 RMK T03000190 IEM_DS3505
ZGSZ,2009-10-14 06:00,ZGSZ 140600Z AUTO 09004KT 4SM 29/19 A2994 RMK SLP142 T02860192 57019 IEM_DS3505
ZGSZ,2009-10-14 07:00,ZGSZ 140700Z AUTO 02008KT 4SM 30/19 A2994 RMK T03000190 IEM_DS3505
ZGSZ,2009-10-14 08:00,ZGSZ 140800Z AUTO 03010KT 3SM 29/19 A2994 RMK T02900190 IEM_DS3505
ZGSZ,2009-10-14 09:00,ZGSZ 140900Z AUTO 07008KT 4SM 27/19 A2994 RMK SLP146 T02730194 52003 IEM_DS3505
ZGSZ,2009-10-14 10:00,ZGSZ 141000Z AUTO 05008KT 3SM 28/19 A2997 RMK T02800190 IEM_DS3505
ZGSZ,2009-10-14 11:00,ZGSZ 141100Z AUTO 03008KT 4SM 28/19 A2997 RMK T02800190 IEM_DS3505
ZGSZ,2009-10-14 12:00,ZGSZ 141200Z AUTO 07002KT 4SM 26/18 A3000 RMK SLP162 T02620181 52016 IEM_DS3505
ZGSZ,2009-10-14 13:00,ZGSZ 141300Z AUTO 03006KT 3SM 27/19 A3000 RMK T02700190 IEM_DS3505
ZGSZ,2009-10-14 14:00,ZGSZ 141400Z AUTO 02006KT 3SM 27/19 A3000 RMK T02700190 IEM_DS3505
ZGSZ,2009-10-14 15:00,ZGSZ 141500Z AUTO 07008KT 2 1/2SM 25/18 A3000 RMK SLP166 T02510178 52004 IEM_DS3505
ZGSZ,2009-10-14 16:00,ZGSZ 141600Z AUTO 01010KT 2 1/2SM 25/18 A3000 RMK T02500180 IEM_DS3505
ZGSZ,2009-10-14 17:00,ZGSZ 141700Z AUTO 05006KT 3SM 25/17 A3000 RMK T02500170 IEM_DS3505
ZGSZ,2009-10-14 18:00,ZGSZ 141800Z AUTO 02004KT 3SM 24/18 A2997 RMK SLP155 T02380175 57011 IEM_DS3505
ZGSZ,2009-10-14 19:00,ZGSZ 141900Z AUTO 02008KT 3SM 24/17 A2997 RMK T02400170 IEM_DS3505
ZGSZ,2009-10-14 20:00,ZGSZ 142000Z AUTO 05008KT 3SM 24/17 A2997 RMK T02400170 IEM_DS3505
ZGSZ,2009-10-14 21:00,ZGSZ 142100Z AUTO 02010KT 4SM 23/17 A2997 RMK SLP156 T02300168 52001 IEM_DS3505
ZGSZ,2009-10-14 22:00,ZGSZ 142200Z AUTO 02004KT 3SM 24/17 A2997 RMK T02400170 IEM_DS3505
ZGSZ,2009-10-14 23:00,ZGSZ 142300Z AUTO 04008KT 3SM 23/17 A3000 RMK T02300170 IEM_DS3505
ZGSZ,2009-10-15 00:00,ZGSZ 150000Z AUTO 36006KT 4SM 24/17 A3003 RMK SLP171 T02350170 52015 IEM_DS3505
ZGSZ,2009-10-15 01:00,ZGSZ 150100Z AUTO 04008KT 4SM 25/17 A3003 RMK T02500170 IEM_DS3505
ZGSZ,2009-10-15 02:00,ZGSZ 150200Z AUTO 05006KT 4SM 26/18 A3003 RMK T02600180 IEM_DS3505
ZGSZ,2009-10-15 03:00,ZGSZ 150300Z AUTO 04002KT 4SM 26/18 A3003 RMK SLP169 T02580177 57002 IEM_DS3505
ZGSZ,2009-10-15 04:00,ZGSZ 150400Z AUTO 4SM 28/19 A3000 RMK T02800190 IEM_DS3505
ZGSZ,2009-10-15 05:00,ZGSZ 150500Z AUTO 4SM 30/18 A2997 RMK T03000180 IEM_DS3505
ZGSZ,2009-10-15 06:00,ZGSZ 150600Z AUTO 27002KT 4SM 28/18 A2994 RMK SLP141 T02850177 57028 IEM_DS3505
ZGSZ,2009-10-15 07:00,ZGSZ 150700Z AUTO 26006KT 3SM 29/20 A2991 RMK T02900200 IEM_DS3505
ZGSZ,2009-10-15 08:00,ZGSZ 150800Z AUTO 26006KT 3SM 29/20 A2991 RMK T02900200 IEM_DS3505
ZGSZ,2009-10-15 09:00,ZGSZ 150900Z AUTO 18004KT 3SM 28/20 A2991 RMK SLP136 T02760197 57005 IEM_DS3505
ZGSZ,2009-10-15 10:00,ZGSZ 151000Z AUTO 19004KT 2 1/2SM 28/20 A2991 RMK T02800200 IEM_DS3505
ZGSZ,2009-10-15 11:00,ZGSZ 151100Z AUTO 17006KT 3SM 27/20 A2994 RMK T02700200 IEM_DS3505
ZGSZ,2009-10-15 12:00,ZGSZ 151200Z AUTO 11004KT 3SM 26/20 A2997 RMK SLP153 T02560200 52017 IEM_DS3505
ZGSZ,2009-10-15 13:00,ZGSZ 151300Z AUTO 11008KT 3SM 27/20 A2997 RMK T02700200 IEM_DS3505
ZGSZ,2009-10-15 14:00,ZGSZ 151400Z AUTO 11006KT 3SM 27/20 A3000 RMK T02700200 IEM_DS3505
ZGSZ,2009-10-15 15:00,ZGSZ 151500Z AUTO 09004KT 3SM 25/21 A2997 RMK SLP156 T02510206 52003 IEM_DS3505
ZGSZ,2009-10-15 16:00,ZGSZ 151600Z AUTO 00000KT 4SM 25/20 A2997 RMK T02500200 IEM_DS3505
ZGSZ,2009-10-15 18:00,ZGSZ 151800Z AUTO 04002KT 2 1/2SM 24/21 RMK SLP142 T02440207 57014 IEM_DS3505
ZGSZ,2009-10-15 19:00,ZGSZ 151900Z AUTO 04004KT 4SM 25/20 A2994 RMK T02500200 IEM_DS3505
ZGSZ,2009-10-15 20:00,ZGSZ 152000Z AUTO 03004KT 4SM 25/20 A2994 RMK T02500200 IEM_DS3505
ZGSZ,2009-10-15 21:00,ZGSZ 152100Z AUTO 36004KT 2SM 24/21 A2991 RMK SLP137 T02400207 57005 IEM_DS3505
ZGSZ,2009-10-15 22:00,ZGSZ 152200Z AUTO 03006KT 4SM 24/20 A2994 RMK T02400200 IEM_DS3505
ZGSZ,2009-10-15 23:00,ZGSZ 152300Z AUTO 04004KT 3SM 25/19 A2994 RMK T02500190 IEM_DS3505
ZGSZ,2009-10-16 00:00,ZGSZ 160000Z AUTO 04004KT 3SM 25/19 A2997 RMK SLP150 T02490186 52013 IEM_DS3505
ZGSZ,2009-10-16 01:00,ZGSZ 160100Z AUTO 03004KT 4SM 28/19 A2997 RMK T02800190 IEM_DS3505
ZGSZ,2009-10-16 02:00,ZGSZ 160200Z AUTO 02006KT 4SM 28/18 A2994 RMK T02800180 IEM_DS3505
ZGSZ,2009-10-16 03:00,ZGSZ 160300Z AUTO 07006KT 4SM 28/19 A2994 RMK SLP137 T02760189 57013 IEM_DS3505
ZGSZ,2009-10-16 04:00,ZGSZ 160400Z AUTO 5SM 29/18 A2988 RMK T02900180 IEM_DS3505
ZGSZ,2009-10-16 05:00,ZGSZ 160500Z AUTO 04004KT 4SM 30/18 A2985 RMK T03000180 IEM_DS3505
ZGSZ,2009-10-16 06:00,ZGSZ 160600Z AUTO 22002KT 4SM 28/20 A2983 RMK SLP107 T02810201 57029 IEM_DS3505
ZGSZ,2009-10-16 07:00,ZGSZ 160700Z AUTO 19008KT 3SM 30/20 A2983 RMK T03000200 IEM_DS3505
ZGSZ,2009-10-16 08:00,ZGSZ 160800Z AUTO 19006KT 2 1/2SM 30/20 A2983 RMK T03000200 IEM_DS3505
ZGSZ,2009-10-16 09:00,ZGSZ 160900Z AUTO 22010KT 2 1/2SM 27/21 A2983 RMK SLP105 T02710209 57003 IEM_DS3505
ZGSZ,2009-10-16 10:00,ZGSZ 161000Z AUTO 17008KT 3SM 28/21 A2983 RMK T02800210 IEM_DS3505
ZGSZ,2009-10-16 11:00,ZGSZ 161100Z AUTO 17006KT 3SM 27/21 A2983 RMK T02700210 IEM_DS3505
ZGSZ,2009-10-16 12:00,ZGSZ 161200Z AUTO 09004KT 3SM 25/20 A2985 RMK SLP117 T02540200 52012 IEM_DS3505
ZGSZ,2009-10-16 13:00,ZGSZ 161300Z AUTO 17004KT 2 1/2SM 27/21 A2988 RMK T02700210 IEM_DS3505
ZGSZ,2009-10-16 14:00,ZGSZ 161400Z AUTO 10004KT 2SM 27/21 A2988 RMK T02700210 IEM_DS3505
ZGSZ,2009-10-16 15:00,ZGSZ 161500Z AUTO 09002KT 3SM 25/20 A2988 RMK SLP124 T02480201 52007 IEM_DS3505
ZGSZ,2009-10-16 16:00,ZGSZ 161600Z AUTO 11008KT 2 1/2SM 26/21 A2988 RMK T02600210 IEM_DS3505
ZGSZ,2009-10-16 17:00,ZGSZ 161700Z AUTO 10004KT 3SM 26/20 A2985 RMK T02600200 IEM_DS3505
ZGSZ,2009-10-16 18:00,ZGSZ 161800Z AUTO 04006KT 3SM 24/20 A2985 RMK SLP107 T02450198 57016 IEM_DS3505
ZGSZ,2009-10-16 19:00,ZGSZ 161900Z AUTO 03004KT 2 1/2SM 25/20 A2983 RMK T02500200 IEM_DS3505
ZGSZ,2009-10-16 20:00,ZGSZ 162000Z AUTO 03002KT 2SM 25/20 A2983 RMK T02500200 IEM_DS3505
ZGSZ,2009-10-16 21:00,ZGSZ 162100Z AUTO 36002KT 2 1/2SM 24/20 A2983 RMK SLP101 T02360195 57007 IEM_DS3505
ZGSZ,2009-10-16 22:00,ZGSZ 162200Z AUTO 36002KT 3SM 24/20 A2983 RMK T02400200 IEM_DS3505
ZGSZ,2009-10-16 23:00,ZGSZ 162300Z AUTO 01006KT 3SM 25/20 A2985 RMK T02500200 IEM_DS3505
ZGSZ,2009-10-17 00:00,ZGSZ 170000Z AUTO 04004KT 3SM 25/18 A2985 RMK SLP116 T02510181 52015 IEM_DS3505
ZGSZ,2009-10-17 01:00,ZGSZ 170100Z AUTO 04006KT 3SM 28/18 A2985 RMK T02800180 IEM_DS3505
ZGSZ,2009-10-17 02:00,ZGSZ 170200Z AUTO 03006KT 4SM 30/17 A2985 RMK T03000170 IEM_DS3505
ZGSZ,2009-10-17 03:00,ZGSZ 170300Z AUTO 02004KT 4SM 29/14 A2985 RMK SLP111 T02900144 57004 IEM_DS3505
ZGSZ,2009-10-17 04:00,ZGSZ 170400Z AUTO 04008KT 6SM 32/13 A2983 RMK T03200130 IEM_DS3505
ZGSZ,2009-10-17 05:00,ZGSZ 170500Z AUTO 04008KT 6SM 32/12 A2980 RMK T03200120 IEM_DS3505
ZGSZ,2009-10-17 06:00,ZGSZ 170600Z AUTO 04008KT 4SM 31/13 A2977 RMK SLP080 T03060130 57031 IEM_DS3505
ZGSZ,2009-10-17 07:00,ZGSZ 170700Z AUTO 02008KT 6SM 33/13 A2974 RMK T03300130 IEM_DS3505
ZGSZ,2009-10-17 08:00,ZGSZ 170800Z AUTO 03008KT 6SM 32/13 A2974 RMK T03200130 IEM_DS3505
ZGSZ,2009-10-17 09:00,ZGSZ 170900Z AUTO 09002KT 5SM 30/14 A2974 RMK SLP075 T03020135 57005 IEM_DS3505
ZGSZ,2009-10-17 10:00,ZGSZ 171000Z AUTO 04006KT 6SM 31/13 A2974 RMK T03100130 IEM_DS3505
ZGSZ,2009-10-17 11:00,ZGSZ 171100Z AUTO 18006KT 4SM 28/21 A2977 RMK T02800210 IEM_DS3505
ZGSZ,2009-10-17 12:00,ZGSZ 171200Z AUTO 09004KT 4SM 26/19 A2980 RMK SLP095 T02650186 52020 IEM_DS3505
ZGSZ,2009-10-17 13:00,ZGSZ 171300Z AUTO 10006KT 4SM 27/19 A2983 RMK T02700190 IEM_DS3505
ZGSZ,2009-10-17 14:00,ZGSZ 171400Z AUTO 11010KT 6SM 27/19 A2983 RMK T02700190 IEM_DS3505
ZGSZ,2009-10-17 15:00,ZGSZ 171500Z AUTO 11002KT 4SM 25/20 A2983 RMK SLP104 T02540195 52009 IEM_DS3505
ZGSZ,2009-10-17 16:00,ZGSZ 171600Z AUTO 11012KT 4SM 26/19 A2983 RMK T02600190 IEM_DS3505
ZGSZ,2009-10-17 17:00,ZGSZ 171700Z AUTO 11012KT 4SM 26/19 A2980 RMK T02600190 IEM_DS3505
ZGSZ,2009-10-17 18:00,ZGSZ 171800Z AUTO 07006KT 6SM 25/18 A2980 RMK SLP100 T02480180 57004 IEM_DS3505
ZGSZ,2009-10-17 19:00,ZGSZ 171900Z AUTO 08006KT 4SM 25/20 A2983 RMK T02500200 IEM_DS3505
ZGSZ,2009-10-17 20:00,ZGSZ 172000Z AUTO 06004KT 4SM 25/19 A2980 RMK T02500190 IEM_DS3505
ZGSZ,2009-10-17 21:00,ZGSZ 172100Z AUTO 09006KT 6SM 25/16 A2983 RMK SLP098 T02460163 57002 IEM_DS3505
ZGSZ,2009-10-17 22:00,ZGSZ 172200Z AUTO 6SM 25/15 A2983 RMK T02500150 IEM_DS3505
ZGSZ,2009-10-17 23:00,ZGSZ 172300Z AUTO 08004KT 6SM 25/16 A2985 RMK T02500160 IEM_DS3505
ZGSZ,2009-10-18 00:00,ZGSZ 180000Z AUTO 04008KT 7SM 26/13 A2985 RMK SLP114 T02550130 52015 IEM_DS3505
ZGSZ,2009-10-18 01:00,ZGSZ 180100Z AUTO 09006KT 6SM 28/14 A2988 RMK T02800140 IEM_DS3505
ZGSZ,2009-10-18 02:00,ZGSZ 180200Z AUTO 11010KT 6SM 30/12 A2988 RMK T03000120 IEM_DS3505
ZGSZ,2009-10-18 03:00,ZGSZ 180300Z AUTO 11006KT 9SM 29/10 A2985 RMK SLP119 T02870099 52006 IEM_DS3505
ZGSZ,2009-10-18 04:00,ZGSZ 180400Z AUTO 12010KT 6SM 32/10 A2985 RMK T03200100 IEM_DS3505
ZGSZ,2009-10-18 05:00,ZGSZ 180500Z AUTO 09010KT 6SM 32/11 A2983 RMK T03200110 IEM_DS3505
ZGSZ,2009-10-18 06:00,ZGSZ 180600Z AUTO 09006KT 11SM 29/10 A2980 RMK SLP096 T02900097 57023 IEM_DS3505
ZGSZ,2009-10-18 07:00,ZGSZ 180700Z AUTO 12008KT 6SM 32/11 A2980 RMK T03200110 IEM_DS3505
ZGSZ,2009-10-18 08:00,ZGSZ 180800Z AUTO 12008KT 6SM 31/12 A2980 RMK T03100120 IEM_DS3505
ZGSZ,2009-10-18 09:00,ZGSZ 180900Z AUTO 07006KT 7SM 27/17 A2980 RMK SLP098 T02700169 52002 IEM_DS3505
ZGSZ,2009-10-18 10:00,ZGSZ 181000Z AUTO 10010KT 7SM 28/18 A2980 RMK T02800180 IEM_DS3505
ZGSZ,2009-10-18 11:00,ZGSZ 181100Z AUTO 11008KT 6SM 28/19 A2983 RMK T02800190 IEM_DS3505
ZGSZ,2009-10-18 12:00,ZGSZ 181200Z AUTO 11006KT 7SM 25/19 A2983 RMK SLP110 T02530187 52011 IEM_DS3505
ZGSZ,2009-10-18 13:00,ZGSZ 181300Z AUTO 12004KT 5SM 26/19 A2985 RMK T02600190 IEM_DS3505
ZGSZ,2009-10-18 14:00,ZGSZ 181400Z AUTO 10006KT 4SM 27/20 A2985 RMK T02700200 IEM_DS3505
ZGSZ,2009-10-18 15:00,ZGSZ 181500Z AUTO 09006KT 6SM 25/20 A2985 RMK SLP115 T02510197 52006 IEM_DS3505
ZGSZ,2009-10-18 16:00,ZGSZ 181600Z AUTO 11004KT 4SM 27/20 A2985 RMK T02700200 IEM_DS3505
ZGSZ,2009-10-18 17:00,ZGSZ 181700Z AUTO 10004KT 4SM 26/20 A2985 RMK T02600200 IEM_DS3505
ZGSZ,2009-10-18 18:00,ZGSZ 181800Z AUTO 09006KT 7SM 25/19 A2983 RMK SLP109 T02530190 57006 IEM_DS3505
ZGSZ,2009-10-18 19:00,ZGSZ 181900Z AUTO 09004KT 3SM 26/20 A2983 RMK T02600200 IEM_DS3505
ZGSZ,2009-10-18 20:00,ZGSZ 182000Z AUTO 09004KT 3SM 26/20 A2983 RMK T02600200 IEM_DS3505
ZGSZ,2009-10-18 21:00,ZGSZ 182100Z AUTO 09004KT 7SM 25/18 A2983 RMK SLP100 T02490176 57009 IEM_DS3505
ZGSZ,2009-10-18 22:00,ZGSZ 182200Z AUTO 11004KT 4SM 26/19 A2983 RMK T02600190 IEM_DS3505
ZGSZ,2009-10-18 23:00,ZGSZ 182300Z AUTO 08004KT 6SM 26/19 A2983 RMK T02600190 IEM_DS3505
ZGSZ,2009-10-19 00:00,ZGSZ 190000Z AUTO 11004KT 7SM 27/17 A2985 RMK SLP114 T02690171 52013 IEM_DS3505
ZGSZ,2009-10-19 01:00,ZGSZ 190100Z AUTO 11008KT 6SM 29/18 A2985 RMK T02900180 IEM_DS3505
ZGSZ,2009-10-19 02:00,ZGSZ 190200Z AUTO 12010KT 6SM 30/19 A2985 RMK T03000190 IEM_DS3505
ZGSZ,2009-10-19 03:00,ZGSZ 190300Z AUTO 11006KT 7SM 28/19 A2985 RMK SLP116 T02850189 52003 IEM_DS3505
ZGSZ,2009-10-19 04:00,ZGSZ 190400Z AUTO 12010KT 7SM 31/20 A2985 RMK T03100200 IEM_DS3505
ZGSZ,2009-10-19 05:00,ZGSZ 190500Z AUTO 10008KT 7SM 30/20 A2983 RMK T03000200 IEM_DS3505
ZGSZ,2009-10-19 06:00,ZGSZ 190600Z AUTO 09006KT 6SM 27/21 A2980 RMK SLP099 T02740207 57017 IEM_DS3505
ZGSZ,2009-10-19 07:00,ZGSZ 190700Z AUTO 09008G17KT 7SM 30/21 A2980 RMK T03000210 IEM_DS3505
ZGSZ,2009-10-19 08:00,ZGSZ 190800Z AUTO 10010KT 7SM 29/21 A2980 RMK T02900210 IEM_DS3505
ZGSZ,2009-10-19 09:00,ZGSZ 190900Z AUTO 07008KT 4SM 27/21 A2983 RMK SLP100 T02670212 52001 IEM_DS3505
ZGSZ,2009-10-19 10:00,ZGSZ 191000Z AUTO 09008KT 7SM 28/21 A2983 RMK T02800210 IEM_DS3505
ZGSZ,2009-10-19 11:00,ZGSZ 191100Z AUTO 09006KT 7SM 28/21 A2983 RMK T02800210 IEM_DS3505
ZGSZ,2009-10-19 12:00,ZGSZ 191200Z AUTO 14008KT 2 1/2SM 26/22 A2985 RMK SLP116 T02650215 52016 IEM_DS3505
ZGSZ,2009-10-19 13:00,ZGSZ 191300Z AUTO 07004KT 7SM 28/21 A2988 RMK T02800210 IEM_DS3505
ZGSZ,2009-10-19 14:00,ZGSZ 191400Z AUTO 09004KT 7SM 28/21 A2988 RMK T02800210 IEM_DS3505
ZGSZ,2009-10-19 15:00,ZGSZ 191500Z AUTO 07008KT 2 1/2SM 26/22 A2988 RMK SLP126 T02590218 52010 IEM_DS3505
ZGSZ,2009-10-19 16:00,ZGSZ 191600Z AUTO 06006KT 5SM 27/21 A2988 RMK T02700210 IEM_DS3505
ZGSZ,2009-10-19 17:00,ZGSZ 191700Z AUTO 06010KT 7SM 27/21 A2988 RMK T02700210 IEM_DS3505
ZGSZ,2009-10-19 18:00,ZGSZ 191800Z AUTO 04004KT 5SM 25/21 A2985 RMK 60000 SLP116 T02510214 57010 IEM_DS3505
ZGSZ,2009-10-19 19:00,ZGSZ 191900Z AUTO 06008KT 7SM 26/21 A2985 RMK T02600210 IEM_DS3505
ZGSZ,2009-10-19 20:00,ZGSZ 192000Z AUTO 06010KT 7SM 26/20 A2985 RMK T02600200 IEM_DS3505
ZGSZ,2009-10-19 21:00,ZGSZ 192100Z AUTO 09004KT 4SM 24/21 A2985 RMK 70000 SLP117 T02390212 54000 IEM_DS3505
ZGSZ,2009-10-19 22:00,ZGSZ 192200Z AUTO 06014KT 7SM 25/19 A2988 RMK T02500190 IEM_DS3505
ZGSZ,2009-10-19 23:00,ZGSZ 192300Z AUTO 07006KT 7SM 25/19 A2988 RMK T02500190 IEM_DS3505
ZGSZ,2009-10-20 00:00,ZGSZ 200000Z AUTO 07008KT 5SM 24/18 A2991 RMK 60000 70000 SLP137 T02380185 52020 IEM_DS3505
ZGSZ,2009-10-20 01:00,ZGSZ 200100Z AUTO 05004KT 4SM 26/19 A2994 RMK T02600190 IEM_DS3505
ZGSZ,2009-10-20 02:00,ZGSZ 200200Z AUTO 01008KT 5SM 25/19 A2994 RMK T02500190 IEM_DS3505
ZGSZ,2009-10-20 03:00,ZGSZ 200300Z AUTO 09008KT 6SM 25/19 A2994 RMK SLP143 T02470186 52006 IEM_DS3505
ZGSZ,2009-10-20 04:00,ZGSZ 200400Z AUTO 05006KT 7SM 26/19 A2991 RMK T02600190 IEM_DS3505
ZGSZ,2009-10-20 05:00,ZGSZ 200500Z AUTO 08006KT 5SM 27/19 A2991 RMK T02700190 IEM_DS3505
ZGSZ,2009-10-20 06:00,ZGSZ 200600Z AUTO 04006KT 5SM 25/18 A2991 RMK 60000 SLP127 T02480185 57016 IEM_DS3505
ZGSZ,2009-10-20 07:00,ZGSZ 200700Z AUTO 03008KT 4SM 25/19 A2988 RMK T02500190 IEM_DS3505
ZGSZ,2009-10-20 08:00,ZGSZ 200800Z AUTO 05008KT 4SM 25/20 A2988 RMK T02500200 IEM_DS3505
ZGSZ,2009-10-20 09:00,ZGSZ 200900Z AUTO 07006KT 4SM 24/18 A2991 RMK SLP129 T02410183 52002 IEM_DS3505
ZGSZ,2009-10-20 10:00,ZGSZ 201000Z AUTO 06006KT 4SM 24/19 A2991 RMK T02400190 IEM_DS3505
ZGSZ,2009-10-20 11:00,ZGSZ 201100Z AUTO 07008KT 4SM 24/19 A2994 RMK T02400190 IEM_DS3505
ZGSZ,2009-10-20 12:00,ZGSZ 201200Z AUTO 04006KT 3SM 24/18 A2997 RMK SLP149 T02350177 52020 IEM_DS3505
ZGSZ,2009-10-20 13:00,ZGSZ 201300Z AUTO 03006KT 4SM 24/18 A2997 RMK T02400180 IEM_DS3505
ZGSZ,2009-10-20 14:00,ZGSZ 201400Z AUTO 07006KT 4SM 24/19 A2997 RMK T02400190 IEM_DS3505
ZGSZ,2009-10-20 15:00,ZGSZ 201500Z AUTO 04004KT 3SM 23/18 A2997 RMK SLP158 T02330180 52009 IEM_DS3505
ZGSZ,2009-10-20 16:00,ZGSZ 201600Z AUTO 09004KT 4SM 24/18 A2997 RMK T02400180 IEM_DS3505
ZGSZ,2009-10-20 17:00,ZGSZ 201700Z AUTO 08006KT 4SM 25/18 A2997 RMK T02500180 IEM_DS3505
ZGSZ,2009-10-20 18:00,ZGSZ 201800Z AUTO 07004KT 3SM 24/18 A2994 RMK SLP146 T02410178 57012 IEM_DS3505
ZGSZ,2009-10-20 19:00,ZGSZ 201900Z AUTO 2 1/2SM 24/19 A2994 RMK T02400190 IEM_DS3505
ZGSZ,2009-10-20 20:00,ZGSZ 202000Z AUTO 36004KT 3SM 24/19 A2994 RMK T02400190 IEM_DS3505
ZGSZ,2009-10-20 21:00,ZGSZ 202100Z AUTO 04004KT 2 1/2SM 24/19 A2994 RMK 70000 SLP143 T02370186 57003 IEM_DS3505
ZGSZ,2009-10-20 22:00,ZGSZ 202200Z AUTO 06004KT 3SM 24/19 A2994 RMK T02400190 IEM_DS3505
ZGSZ,2009-10-20 23:00,ZGSZ 202300Z AUTO 04004KT 2 1/2SM 24/19 A2997 RMK T02400190 IEM_DS3505
ZGSZ,2009-10-21 00:00,ZGSZ 210000Z AUTO 04004KT 3SM 24/19 A3000 RMK 70000 SLP159 T02360189 52016 IEM_DS3505
ZGSZ,2009-10-21 01:00,ZGSZ 210100Z AUTO 03008KT 3SM 25/19 A3000 RMK T02500190 IEM_DS3505
ZGSZ,2009-10-21 02:00,ZGSZ 210200Z AUTO 05006KT 3SM 27/19 A3000 RMK T02700190 IEM_DS3505
ZGSZ,2009-10-21 03:00,ZGSZ 210300Z AUTO 04008KT 3SM 25/18 A3000 RMK SLP165 T02470179 52006 IEM_DS3505
ZGSZ,2009-10-21 04:00,ZGSZ 210400Z AUTO 04004KT 4SM 27/19 A2997 RMK T02700190 IEM_DS3505
ZGSZ,2009-10-21 05:00,ZGSZ 210500Z AUTO 10004KT 3SM 28/18 A2994 RMK T02800180 IEM_DS3505
ZGSZ,2009-10-21 06:00,ZGSZ 210600Z AUTO 09004KT 3SM 26/17 A2991 RMK SLP136 T02630174 57029 IEM_DS3505
ZGSZ,2009-10-21 07:00,ZGSZ 210700Z AUTO 25006KT 3SM 28/19 A2991 RMK T02800190 IEM_DS3505
ZGSZ,2009-10-21 08:00,ZGSZ 210800Z AUTO 26004KT 2 1/2SM 28/19 A2988 RMK T02800190 IEM_DS3505
ZGSZ,2009-10-21 09:00,ZGSZ 210900Z AUTO 18002KT 3SM 26/20 A2991 RMK SLP132 T02650196 57004 IEM_DS3505
ZGSZ,2009-10-21 10:00,ZGSZ 211000Z AUTO 19006KT 3SM 27/19 A2991 RMK T02700190 IEM_DS3505
ZGSZ,2009-10-21 11:00,ZGSZ 211100Z AUTO 17004KT 2 1/2SM 27/20 A2994 RMK T02700200 IEM_DS3505
ZGSZ,2009-10-21 12:00,ZGSZ 211200Z AUTO 09006KT 3SM 25/19 A2994 RMK SLP148 T02490191 52016 IEM_DS3505
ZGSZ,2009-10-21 13:00,ZGSZ 211300Z AUTO 19004KT 2 1/2SM 26/20 A2997 RMK T02600200 IEM_DS3505
ZGSZ,2009-10-21 14:00,ZGSZ 211400Z AUTO 14004KT 3SM 26/20 A2997 RMK T02600200 IEM_DS3505
ZGSZ,2009-10-21 15:00,ZGSZ 211500Z AUTO 09004KT 3SM 24/19 A2997 RMK SLP155 T02420188 52007 IEM_DS3505
ZGSZ,2009-10-21 16:00,ZGSZ 211600Z AUTO 12004KT 3SM 25/19 A2997 RMK T02500190 IEM_DS3505
ZGSZ,2009-10-21 17:00,ZGSZ 211700Z AUTO 10004KT 3SM 25/19 A2997 RMK T02500190 IEM_DS3505
ZGSZ,2009-10-21 18:00,ZGSZ 211800Z AUTO 09002KT 4SM 24/19 A2994 RMK SLP146 T02370190 57009 IEM_DS3505
ZGSZ,2009-10-21 19:00,ZGSZ 211900Z AUTO 10002KT 3SM 24/19 A2994 RMK T02400190 IEM_DS3505
ZGSZ,2009-10-21 20:00,ZGSZ 212000Z AUTO 00000KT 3SM 25/20 A2991 RMK T02500200 IEM_DS3505
ZGSZ,2009-10-21 21:00,ZGSZ 212100Z AUTO 04002KT 3SM 23/19 A2994 RMK SLP140 T02340193 57006 IEM_DS3505
ZGSZ,2009-10-21 22:00,ZGSZ 212200Z AUTO 04004KT 3SM 24/19 A2994 RMK T02400190 IEM_DS3505
ZGSZ,2009-10-21 23:00,ZGSZ 212300Z AUTO 3SM 24/19 A2997 RMK T02400190 IEM_DS3505
ZGSZ,2009-10-22 00:00,ZGSZ 220000Z AUTO 02002KT 4SM 24/18 A2997 RMK SLP156 T02370184 52016 IEM_DS3505
ZGSZ,2009-10-22 01:00,ZGSZ 220100Z AUTO 01006KT 3SM 27/19 A3000 RMK T02700190 IEM_DS3505
ZGSZ,2009-10-22 02:00,ZGSZ 220200Z AUTO 01010KT 4SM 28/18 A3000 RMK T02800180 IEM_DS3505
ZGSZ,2009-10-22 03:00,ZGSZ 220300Z AUTO 07004KT 4SM 27/17 A2997 RMK SLP154 T02730172 57002 IEM_DS3505
ZGSZ,2009-10-22 04:00,ZGSZ 220400Z AUTO 02008KT 4SM 29/18 A2994 RMK T02900180 IEM_DS3505
ZGSZ,2009-10-22 05:00,ZGSZ 220500Z AUTO 03008KT 3SM 29/18 A2991 RMK T02900180 IEM_DS3505
ZGSZ,2009-10-22 06:00,ZGSZ 220600Z AUTO 36004KT 4SM 28/17 A2988 RMK SLP123 T02840173 57031 IEM_DS3505
ZGSZ,2009-10-22 07:00,ZGSZ 220700Z AUTO 29010KT 2 1/2SM 30/18 A2985 RMK T03000180 IEM_DS3505
ZGSZ,2009-10-22 08:00,ZGSZ 220800Z AUTO 30008KT 4SM 30/18 A2985 RMK T03000180 IEM_DS3505
ZGSZ,2009-10-22 09:00,ZGSZ 220900Z AUTO 34004KT 3SM 28/18 A2985 RMK SLP116 T02830175 57007 IEM_DS3505
ZGSZ,2009-10-22 10:00,ZGSZ 221000Z AUTO 33006KT 4SM 29/18 A2985 RMK T02900180 IEM_DS3505
ZGSZ,2009-10-22 11:00,ZGSZ 221100Z AUTO 33006KT 4SM 28/18 A2988 RMK T02800180 IEM_DS3505
ZGSZ,2009-10-22 12:00,ZGSZ 221200Z AUTO 04002KT 4SM 27/18 A2988 RMK SLP128 T02690177 52012 IEM_DS3505
ZGSZ,2009-10-22 13:00,ZGSZ 221300Z AUTO 02006KT 4SM 29/18 A2991 RMK T02900180 IEM_DS3505
ZGSZ,2009-10-22 14:00,ZGSZ 221400Z AUTO 35006KT 4SM 27/18 A2991 RMK T02700180 IEM_DS3505
ZGSZ,2009-10-22 15:00,ZGSZ 221500Z AUTO 04002KT 3SM 26/18 A2991 RMK SLP132 T02570184 52004 IEM_DS3505
ZGSZ,2009-10-22 16:00,ZGSZ 221600Z AUTO 05006KT 4SM 27/18 A2988 RMK T02700180 IEM_DS3505
ZGSZ,2009-10-22 17:00,ZGSZ 221700Z AUTO 02004KT 3SM 26/18 A2988 RMK T02600180 IEM_DS3505
ZGSZ,2009-10-22 18:00,ZGSZ 221800Z AUTO 11002KT 2 1/2SM 24/20 A2988 RMK SLP125 T02410204 57007 IEM_DS3505
ZGSZ,2009-10-22 19:00,ZGSZ 221900Z AUTO 06004KT 3SM 25/18 A2988 RMK T02500180 IEM_DS3505
ZGSZ,2009-10-22 20:00,ZGSZ 222000Z AUTO 3SM 25/17 A2988 RMK T02500170 IEM_DS3505
ZGSZ,2009-10-22 21:00,ZGSZ 222100Z AUTO 02004KT 2SM 23/19 A2988 RMK SLP123 T02330188 57002 IEM_DS3505
ZGSZ,2009-10-22 22:00,ZGSZ 222200Z AUTO 01004KT 4SM 24/16 A2988 RMK T02400160 IEM_DS3505
ZGSZ,2009-10-22 23:00,ZGSZ 222300Z AUTO 05004KT 4SM 24/16 A2991 RMK T02400160 IEM_DS3505
ZGSZ,2009-10-23 00:00,ZGSZ 230000Z AUTO 04002KT 4SM 24/15 A2991 RMK SLP135 T02450154 52012 IEM_DS3505
ZGSZ,2009-10-23 01:00,ZGSZ 230100Z AUTO 36006KT 4SM 26/16 A2991 RMK T02600160 IEM_DS3505
ZGSZ,2009-10-23 02:00,ZGSZ 230200Z AUTO 02006KT 4SM 28/16 A2991 RMK T02800160 IEM_DS3505
ZGSZ,2009-10-23 03:00,ZGSZ 230300Z AUTO 36006KT 4SM 28/14 A2991 RMK SLP127 T02760143 57007 IEM_DS3505
ZGSZ,2009-10-23 04:00,ZGSZ 230400Z AUTO 4SM 30/16 A2985 RMK T03000160 IEM_DS3505
ZGSZ,2009-10-23 05:00,ZGSZ 230500Z AUTO 02006KT 5SM 31/15 A2985 RMK T03100150 IEM_DS3505
ZGSZ,2009-10-23 06:00,ZGSZ 230600Z AUTO 34004KT 4SM 30/15 A2983 RMK SLP098 T02980148 57029 IEM_DS3505
ZGSZ,2009-10-23 07:00,ZGSZ 230700Z AUTO 28008KT 3SM 30/16 A2980 RMK T03000160 IEM_DS3505
ZGSZ,2009-10-23 08:00,ZGSZ 230800Z AUTO 28008KT 3SM 30/16 A2977 RMK T03000160 IEM_DS3505
ZGSZ,2009-10-23 09:00,ZGSZ 230900Z AUTO 36004KT 4SM 29/16 A2980 RMK SLP089 T02870156 57009 IEM_DS3505
ZGSZ,2009-10-23 10:00,ZGSZ 231000Z AUTO 31008KT 3SM 29/18 A2980 RMK T02900180 IEM_DS3505
ZGSZ,2009-10-23 11:00,ZGSZ 231100Z AUTO 32006KT 2 1/2SM 28/18 A2983 RMK T02800180 IEM_DS3505
ZGSZ,2009-10-23 12:00,ZGSZ 231200Z AUTO 25002KT 3SM 27/16 A2983 RMK SLP103 T02720156 52014 IEM_DS3505
ZGSZ,2009-10-23 13:00,ZGSZ 231300Z AUTO 4SM 27/17 A2983 RMK T02700170 IEM_DS3505
ZGSZ,2009-10-23 14:00,ZGSZ 231400Z AUTO 32004KT 2SM 26/17 A2983 RMK T02600170 IEM_DS3505
ZGSZ,2009-10-23 15:00,ZGSZ 231500Z AUTO 16002KT 2 1/2SM 26/19 A2983 RMK SLP107 T02550192 52004 IEM_DS3505
ZGSZ,2009-10-23 16:00,ZGSZ 231600Z AUTO 33004KT 2 1/2SM 26/19 A2983 RMK T02600190 IEM_DS3505
ZGSZ,2009-10-23 17:00,ZGSZ 231700Z AUTO 34002KT 2 1/2SM 25/18 A2983 RMK T02500180 IEM_DS3505
ZGSZ,2009-10-23 18:00,ZGSZ 231800Z AUTO 04004KT 2 1/2SM 25/15 A2983 RMK SLP103 T02530150 57004 IEM_DS3505
ZGSZ,2009-10-23 19:00,ZGSZ 231900Z AUTO 3SM 25/16 A2983 RMK T02500160 IEM_DS3505
ZGSZ,2009-10-23 20:00,ZGSZ 232000Z AUTO 07004KT 3SM 25/16 A2983 RMK T02500160 IEM_DS3505
ZGSZ,2009-10-23 21:00,ZGSZ 232100Z AUTO 07004KT 2 1/2SM 24/18 A2983 RMK SLP108 T02360176 52005 IEM_DS3505
ZGSZ,2009-10-23 22:00,ZGSZ 232200Z AUTO 08004KT 3SM 24/18 A2985 RMK T02400180 IEM_DS3505
ZGSZ,2009-10-23 23:00,ZGSZ 232300Z AUTO 08004KT 3SM 24/19 A2988 RMK T02400190 IEM_DS3505
ZGSZ,2009-10-24 00:00,ZGSZ 240000Z AUTO 07004KT 2 1/2SM 24/20 A2988 RMK SLP125 T02450196 52016 IEM_DS3505
ZGSZ,2009-10-24 01:00,ZGSZ 240100Z AUTO 07006KT 6SM 27/16 A2988 RMK T02700160 IEM_DS3505
ZGSZ,2009-10-24 02:00,ZGSZ 240200Z AUTO 04006KT 6SM 29/13 A2988 RMK T02900130 IEM_DS3505
ZGSZ,2009-10-24 03:00,ZGSZ 240300Z AUTO 07004KT 3SM 28/15 A2988 RMK SLP120 T02770150 57004 IEM_DS3505
ZGSZ,2009-10-24 04:00,ZGSZ 240400Z AUTO 02006KT 6SM 30/11 A2985 RMK T03000110 IEM_DS3505
ZGSZ,2009-10-24 05:00,ZGSZ 240500Z AUTO 33008KT 6SM 31/11 A2983 RMK T03100110 IEM_DS3505
ZGSZ,2009-10-24 06:00,ZGSZ 240600Z AUTO 22006KT 5SM 30/14 A2980 RMK SLP091 T02950141 57029 IEM_DS3505
ZGSZ,2009-10-24 07:00,ZGSZ 240700Z AUTO 29008KT 3SM 30/15 A2977 RMK T03000150 IEM_DS3505
ZGSZ,2009-10-24 08:00,ZGSZ 240800Z AUTO 28008KT 3SM 30/12 A2977 RMK T03000120 IEM_DS3505
ZGSZ,2009-10-24 09:00,ZGSZ 240900Z AUTO 14002KT 4SM 28/16 A2977 RMK SLP086 T02830162 57005 IEM_DS3505
ZGSZ,2009-10-24 10:00,ZGSZ 241000Z AUTO 30006KT 2 1/2SM 29/17 A2980 RMK T02900170 IEM_DS3505
ZGSZ,2009-10-24 11:00,ZGSZ 241100Z AUTO 32004KT 2 1/2SM 27/17 A2980 RMK T02700170 IEM_DS3505
ZGSZ,2009-10-24 12:00,ZGSZ 241200Z AUTO 09002KT 4SM 27/15 A2983 RMK SLP103 T02680149 52016 IEM_DS3505
ZGSZ,2009-10-24 13:00,ZGSZ 241300Z AUTO 33004KT 2SM 26/16 A2983 RMK T02600160 IEM_DS3505
ZGSZ,2009-10-24 14:00,ZGSZ 241400Z AUTO 1 1/4SM 27/15 A2985 RMK T02700150 IEM_DS3505
ZGSZ,2009-10-24 15:00,ZGSZ 241500Z AUTO 00000KT 2SM 25/18 A2985 RMK SLP111 T02490181 52009 IEM_DS3505
ZGSZ,2009-10-24 16:00,ZGSZ 241600Z AUTO 00000KT 2 1/2SM 26/15 A2985 RMK T02600150 IEM_DS3505
ZGSZ,2009-10-24 17:00,ZGSZ 241700Z AUTO 10004KT 2SM 25/15 A2985 RMK T02500150 IEM_DS3505
ZGSZ,2009-10-24 18:00,ZGSZ 241800Z AUTO 07002KT 2SM 24/17 A2985 RMK SLP115 T02410174 52004 IEM_DS3505
ZGSZ,2009-10-24 19:00,ZGSZ 241900Z AUTO 09004KT 1 1/2SM 25/18 A2985 RMK T02500180 IEM_DS3505
ZGSZ,2009-10-24 20:00,ZGSZ 242000Z AUTO 10002KT 2SM 24/17 A2985 RMK T02400170 IEM_DS3505
ZGSZ,2009-10-24 21:00,ZGSZ 242100Z AUTO 07002KT 1 1/2SM 24/18 A2985 RMK SLP120 T02390183 52004 IEM_DS3505
ZGSZ,2009-10-24 22:00,ZGSZ 242200Z AUTO 10006KT 2SM 24/17 A2988 RMK T02400170 IEM_DS3505
ZGSZ,2009-10-24 23:00,ZGSZ 242300Z AUTO 10004KT 2SM 24/18 A2991 RMK T02400180 IEM_DS3505
ZGSZ,2009-10-25 00:00,ZGSZ 250000Z AUTO 04002KT 3SM 25/20 A2994 RMK SLP141 T02460201 52021 IEM_DS3505
ZGSZ,2009-10-25 01:00,ZGSZ 250100Z AUTO 11004KT 2 1/2SM 27/20 A2994 RMK T02700200 IEM_DS3505
ZGSZ,2009-10-25 02:00,ZGSZ 250200Z AUTO 3SM 28/19 A2994 RMK T02800190 IEM_DS3505
ZGSZ,2009-10-25 03:00,ZGSZ 250300Z AUTO 18004KT 4SM 28/18 A2994 RMK SLP141 T02780185 54000 IEM_DS3505
ZGSZ,2009-10-25 04:00,ZGSZ 250400Z AUTO 23006KT 5SM 28/20 A2991 RMK T02800200 IEM_DS3505
ZGSZ,2009-10-25 05:00,ZGSZ 250500Z AUTO 23006KT 4SM 29/21 A2988 RMK T02900210 IEM_DS3505
ZGSZ,2009-10-25 06:00,ZGSZ 250600Z AUTO 22008KT 6SM 27/20 A2985 RMK SLP114 T02730199 57027 IEM_DS3505
ZGSZ,2009-10-25 07:00,ZGSZ 250700Z AUTO 20006KT 5SM 29/20 A2985 RMK T02900200 IEM_DS3505
ZGSZ,2009-10-25 08:00,ZGSZ 250800Z AUTO 19006KT 6SM 28/19 A2985 RMK T02800190 IEM_DS3505
ZGSZ,2009-10-25 09:00,ZGSZ 250900Z AUTO 25002KT 6SM 27/20 A2985 RMK SLP114 T02680202 54000 IEM_DS3505
ZGSZ,2009-10-25 10:00,ZGSZ 251000Z AUTO 19006KT 6SM 27/20 A2985 RMK T02700200 IEM_DS3505
ZGSZ,2009-10-25 11:00,ZGSZ 251100Z AUTO 16004KT 6SM 26/21 A2988 RMK T02600210 IEM_DS3505
ZGSZ,2009-10-25 12:00,ZGSZ 251200Z AUTO 22002KT 4SM 25/21 A2991 RMK SLP133 T02500207 52019 IEM_DS3505
ZGSZ,2009-10-25 13:00,ZGSZ 251300Z AUTO 16006KT 6SM 26/21 A2991 RMK T02600210 IEM_DS3505
ZGSZ,2009-10-25 14:00,ZGSZ 251400Z AUTO 19006KT 6SM 26/21 A2991 RMK T02600210 IEM_DS3505
ZGSZ,2009-10-25 15:00,ZGSZ 251500Z AUTO 16002KT 3SM 24/21 A2994 RMK SLP140 T02430208 52007 IEM_DS3505
ZGSZ,2009-10-25 16:00,ZGSZ 251600Z AUTO 16004KT 6SM 25/21 A2994 RMK T02500210 IEM_DS3505
ZGSZ,2009-10-25 17:00,ZGSZ 251700Z AUTO 12006KT 3SM 25/21 A2991 RMK T02500210 IEM_DS3505
ZGSZ,2009-10-25 18:00,ZGSZ 251800Z AUTO 25002KT 2 1/2SM 23/21 A2991 RMK SLP136 T02340211 57004 IEM_DS3505
ZGSZ,2009-10-25 20:00,ZGSZ 252000Z AUTO 05004KT 3SM 24/21 A2994 RMK T02400210 IEM_DS3505
ZGSZ,2009-10-25 21:00,ZGSZ 252100Z AUTO 02002KT 2 1/2SM 23/21 A2994 RMK SLP143 T02320207 52007 IEM_DS3505
ZGSZ,2009-10-25 22:00,ZGSZ 252200Z AUTO 00000KT 2 1/2SM 24/20 A2997 RMK T02400200 IEM_DS3505
ZGSZ,2009-10-25 23:00,ZGSZ 252300Z AUTO 10004KT 2SM 23/20 A2997 RMK T02300200 IEM_DS3505
ZGSZ,2009-10-26 00:00,ZGSZ 260000Z AUTO 07002KT 3SM 25/20 A3000 RMK SLP162 T02480203 52019 IEM_DS3505
ZGSZ,2009-10-26 01:00,ZGSZ 260100Z AUTO 10008KT 2 1/2SM 26/20 A3000 RMK T02600200 IEM_DS3505
ZGSZ,2009-10-26 02:00,ZGSZ 260200Z AUTO 13004KT 4SM 28/19 A3003 RMK T02800190 IEM_DS3505
ZGSZ,2009-10-26 03:00,ZGSZ 260300Z AUTO 09006KT 6SM 27/18 A3000 RMK SLP163 T02680176 52001 IEM_DS3505
ZGSZ,2009-10-26 04:00,ZGSZ 260400Z AUTO 21006KT 4SM 29/18 A2997 RMK T02900180 IEM_DS3505
ZGSZ,2009-10-26 05:00,ZGSZ 260500Z AUTO 24006KT 4SM 29/18 A2994 RMK T02900180 IEM_DS3505
ZGSZ,2009-10-26 06:00,ZGSZ 260600Z AUTO 27004KT 6SM 28/17 A2991 RMK SLP135 T02790168 57028 IEM_DS3505
ZGSZ,2009-10-26 07:00,ZGSZ 260700Z AUTO 22006KT 4SM 29/18 A2988 RMK T02900180 IEM_DS3505
ZGSZ,2009-10-26 08:00,ZGSZ 260800Z AUTO 20006KT 3SM 29/18 A2988 RMK T02900180 IEM_DS3505
ZGSZ,2009-10-26 09:00,ZGSZ 260900Z AUTO 20004KT 6SM 27/19 A2991 RMK SLP131 T02700194 57004 IEM_DS3505
ZGSZ,2009-10-26 10:00,ZGSZ 261000Z AUTO 18006KT 5SM 27/19 A2991 RMK T02700190 IEM_DS3505
ZGSZ,2009-10-26 11:00,ZGSZ 261100Z AUTO 17006KT 5SM 26/19 A2991 RMK T02600190 IEM_DS3505
ZGSZ,2009-10-26 12:00,ZGSZ 261200Z AUTO 09006KT 7SM 25/18 A2994 RMK SLP148 T02460176 52017 IEM_DS3505
ZGSZ,2009-10-26 13:00,ZGSZ 261300Z AUTO 15004KT 4SM 25/19 A2997 RMK T02500190 IEM_DS3505
ZGSZ,2009-10-26 14:00,ZGSZ 261400Z AUTO 11008KT 5SM 25/18 A2997 RMK T02500180 IEM_DS3505
ZGSZ,2009-10-26 15:00,ZGSZ 261500Z AUTO 09004KT 7SM 24/18 A2997 RMK SLP158 T02360180 52010 IEM_DS3505
ZGSZ,2009-10-26 16:00,ZGSZ 261600Z AUTO 12008KT 5SM 24/18 A2997 RMK T02400180 IEM_DS3505
ZGSZ,2009-10-26 17:00,ZGSZ 261700Z AUTO 11006KT 5SM 24/18 A2997 RMK T02400180 IEM_DS3505
ZGSZ,2009-10-26 18:00,ZGSZ 261800Z AUTO 11006KT 6SM 23/18 A2997 RMK SLP152 T02340183 57006 IEM_DS3505
ZGSZ,2009-10-26 19:00,ZGSZ 261900Z AUTO 08004KT 4SM 24/18 A2997 RMK T02400180 IEM_DS3505
ZGSZ,2009-10-26 20:00,ZGSZ 262000Z AUTO 07004KT 4SM 24/18 A2997 RMK T02400180 IEM_DS3505
ZGSZ,2009-10-26 21:00,ZGSZ 262100Z AUTO 07004KT 5SM 23/18 A2997 RMK SLP156 T02300177 52004 IEM_DS3505
ZGSZ,2009-10-26 22:00,ZGSZ 262200Z AUTO 06002KT 3SM 23/18 A3000 RMK T02300180 IEM_DS3505
ZGSZ,2009-10-26 23:00,ZGSZ 262300Z AUTO 06002KT 3SM 23/18 A3003 RMK T02300180 IEM_DS3505
ZGSZ,2009-10-27 00:00,ZGSZ 270000Z AUTO 09004KT 6SM 24/17 A3003 RMK SLP173 T02370170 52017 IEM_DS3505
ZGSZ,2009-10-27 01:00,ZGSZ 270100Z AUTO 10010KT 4SM 26/17 A3003 RMK T02600170 IEM_DS3505
ZGSZ,2009-10-27 02:00,ZGSZ 270200Z AUTO 10008KT 4SM 27/16 A3003 RMK T02700160 IEM_DS3505
ZGSZ,2009-10-27 03:00,ZGSZ 270300Z AUTO 09004KT 6SM 26/15 A3003 RMK SLP172 T02580149 57001 IEM_DS3505
ZGSZ,2009-10-27 04:00,ZGSZ 270400Z AUTO 13008KT 5SM 29/15 A3000 RMK T02900150 IEM_DS3505
ZGSZ,2009-10-27 05:00,ZGSZ 270500Z AUTO 5SM 29/14 A2997 RMK T02900140 IEM_DS3505
ZGSZ,2009-10-27 06:00,ZGSZ 270600Z AUTO 09004KT 8SM 27/12 A2994 RMK SLP148 T02730125 57024 IEM_DS3505
ZGSZ,2009-10-27 07:00,ZGSZ 270700Z AUTO 21006KT 4SM 29/13 A2994 RMK T02900130 IEM_DS3505
ZGSZ,2009-10-27 08:00,ZGSZ 270800Z AUTO 21010KT 4SM 28/17 A2994 RMK T02800170 IEM_DS3505
ZGSZ,2009-10-27 09:00,ZGSZ 270900Z AUTO 09006KT 9SM 26/15 A2994 RMK SLP148 T02550146 54000 IEM_DS3505
ZGSZ,2009-10-27 10:00,ZGSZ 271000Z AUTO 13008KT 6SM 27/15 A2994 RMK T02700150 IEM_DS3505
ZGSZ,2009-10-27 11:00,ZGSZ 271100Z AUTO 14010KT 6SM 25/15 A2997 RMK T02500150 IEM_DS3505
ZGSZ,2009-10-27 12:00,ZGSZ 271200Z AUTO 11004KT 3SM 24/17 A3000 RMK SLP170 T02350170 52021 IEM_DS3505
ZGSZ,2009-10-27 13:00,ZGSZ 271300Z AUTO 12010KT 6SM 24/17 A3003 RMK T02400170 IEM_DS3505
ZGSZ,2009-10-27 14:00,ZGSZ 271400Z AUTO 11008KT 4SM 24/17 A3003 RMK T02400170 IEM_DS3505
ZGSZ,2009-10-27 15:00,ZGSZ 271500Z AUTO 09008KT 4SM 23/17 A3003 RMK SLP178 T02310171 52009 IEM_DS3505
ZGSZ,2009-10-27 16:00,ZGSZ 271600Z AUTO 11008KT 6SM 24/17 A3003 RMK T02400170 IEM_DS3505
ZGSZ,2009-10-27 17:00,ZGSZ 271700Z AUTO 11008KT 6SM 24/17 A3003 RMK T02400170 IEM_DS3505
ZGSZ,2009-10-27 18:00,ZGSZ 271800Z AUTO 09004KT 6SM 23/17 A3003 RMK SLP174 T02270167 57004 IEM_DS3505
ZGSZ,2009-10-27 19:00,ZGSZ 271900Z AUTO 11004KT 6SM 23/17 A3003 RMK T02300170 IEM_DS3505
ZGSZ,2009-10-27 20:00,ZGSZ 272000Z AUTO 03004KT 6SM 22/17 A3003 RMK T02200170 IEM_DS3505
ZGSZ,2009-10-27 21:00,ZGSZ 272100Z AUTO 07006KT 6SM 22/17 A3003 RMK SLP174 T02250172 54000 IEM_DS3505
ZGSZ,2009-10-27 22:00,ZGSZ 272200Z AUTO 09004KT 7SM 23/17 A3006 RMK T02300170 IEM_DS3505
ZGSZ,2009-10-27 23:00,ZGSZ 272300Z AUTO 02004KT 6SM 23/17 A3006 RMK T02300170 IEM_DS3505
ZGSZ,2009-10-28 00:00,ZGSZ 280000Z AUTO 07006KT 7SM 23/17 A3009 RMK SLP194 T02330168 52019 IEM_DS3505
ZGSZ,2009-10-28 01:00,ZGSZ 280100Z AUTO 10006KT 6SM 25/16 A3012 RMK T02500160 IEM_DS3505
ZGSZ,2009-10-28 02:00,ZGSZ 280200Z AUTO 08008KT 7SM 26/16 A3012 RMK T02600160 IEM_DS3505
ZGSZ,2009-10-28 03:00,ZGSZ 280300Z AUTO 04004KT 6SM 26/15 A3009 RMK SLP198 T02600148 52004 IEM_DS3505
ZGSZ,2009-10-28 04:00,ZGSZ 280400Z AUTO 7SM 29/15 A3006 RMK T02900150 IEM_DS3505
ZGSZ,2009-10-28 05:00,ZGSZ 280500Z AUTO 7SM 28/14 A3006 RMK T02800140 IEM_DS3505
ZGSZ,2009-10-28 06:00,ZGSZ 280600Z AUTO 16004KT 7SM 28/13 A3003 RMK SLP169 T02850132 57028 IEM_DS3505
ZGSZ,2009-10-28 07:00,ZGSZ 280700Z AUTO 26006KT 7SM 28/15 A3000 RMK T02800150 IEM_DS3505
ZGSZ,2009-10-28 08:00,ZGSZ 280800Z AUTO 24006KT 6SM 28/16 A3000 RMK T02800160 IEM_DS3505
ZGSZ,2009-10-28 09:00,ZGSZ 280900Z AUTO 34002KT 7SM 27/14 A3000 RMK SLP161 T02730143 57008 IEM_DS3505
ZGSZ,2009-10-28 10:00,ZGSZ 281000Z AUTO 27002KT 6SM 26/17 A3000 RMK T02600170 IEM_DS3505
ZGSZ,2009-10-28 11:00,ZGSZ 281100Z AUTO 00000KT 4SM 25/18 A3000 RMK T02500180 IEM_DS3505
ZGSZ,2009-10-28 12:00,ZGSZ 281200Z AUTO 11002KT 7SM 25/16 A3003 RMK SLP173 T02500159 52012 IEM_DS3505
ZGSZ,2009-10-28 13:00,ZGSZ 281300Z AUTO 00000KT 4SM 26/15 A3003 RMK T02600150 IEM_DS3505
ZGSZ,2009-10-28 14:00,ZGSZ 281400Z AUTO 4SM 25/16 A3003 RMK T02500160 IEM_DS3505
ZGSZ,2009-10-28 15:00,ZGSZ 281500Z AUTO 07004KT 5SM 23/17 A3003 RMK SLP180 T02320174 52007 IEM_DS3505
ZGSZ,2009-10-28 16:00,ZGSZ 281600Z AUTO 4SM 24/17 A3003 RMK T02400170 IEM_DS3505
ZGSZ,2009-10-28 17:00,ZGSZ 281700Z AUTO 11006KT 4SM 24/18 A3003 RMK T02400180 IEM_DS3505
ZGSZ,2009-10-28 18:00,ZGSZ 281800Z AUTO 09004KT 5SM 23/19 A3003 RMK SLP175 T02270187 57005 IEM_DS3505
ZGSZ,2009-10-28 19:00,ZGSZ 281900Z AUTO 11006KT 4SM 23/18 A3003 RMK T02300180 IEM_DS3505
ZGSZ,2009-10-28 20:00,ZGSZ 282000Z AUTO 09006KT 4SM 23/18 A3003 RMK T02300180 IEM_DS3505
ZGSZ,2009-10-28 21:00,ZGSZ 282100Z AUTO 04002KT 6SM 22/18 A3003 RMK SLP174 T02240184 57001 IEM_DS3505
ZGSZ,2009-10-28 22:00,ZGSZ 282200Z AUTO 01004KT 3SM 22/18 A3006 RMK T02200180 IEM_DS3505
ZGSZ,2009-10-28 23:00,ZGSZ 282300Z AUTO 35004KT 3SM 22/18 A3009 RMK T02200180 IEM_DS3505
ZGSZ,2009-10-29 00:00,ZGSZ 290000Z AUTO 04002KT 5SM 24/18 A3009 RMK SLP192 T02390183 52018 IEM_DS3505
ZGSZ,2009-10-29 01:00,ZGSZ 290100Z AUTO 10008KT 6SM 26/17 A3009 RMK T02600170 IEM_DS3505
ZGSZ,2009-10-29 02:00,ZGSZ 290200Z AUTO 12006KT 6SM 27/17 A3009 RMK T02700170 IEM_DS3505
ZGSZ,2009-10-29 03:00,ZGSZ 290300Z AUTO 04008KT 9SM 27/16 A3006 RMK SLP187 T02670157 57005 IEM_DS3505
ZGSZ,2009-10-29 04:00,ZGSZ 290400Z AUTO 7SM 29/17 A3003 RMK T02900170 IEM_DS3505
ZGSZ,2009-10-29 05:00,ZGSZ 290500Z AUTO 26008KT 7SM 28/17 A3000 RMK T02800170 IEM_DS3505
ZGSZ,2009-10-29 06:00,ZGSZ 290600Z AUTO 02006KT 9SM 28/15 A2997 RMK SLP155 T02850147 57032 IEM_DS3505
ZGSZ,2009-10-29 07:00,ZGSZ 290700Z AUTO 22008KT 6SM 29/17 A2997 RMK T02900170 IEM_DS3505
ZGSZ,2009-10-29 08:00,ZGSZ 290800Z AUTO 21008KT 6SM 28/17 A2997 RMK T02800170 IEM_DS3505
ZGSZ,2009-10-29 09:00,ZGSZ 290900Z AUTO 27002KT 9SM 27/16 A2997 RMK SLP150 T02710164 57005 IEM_DS3505
ZGSZ,2009-10-29 10:00,ZGSZ 291000Z AUTO 19004KT 6SM 27/18 A2997 RMK T02700180 IEM_DS3505
ZGSZ,2009-10-29 11:00,ZGSZ 291100Z AUTO 17006KT 6SM 26/18 A2997 RMK T02600180 IEM_DS3505
ZGSZ,2009-10-29 12:00,ZGSZ 291200Z AUTO 09004KT 8SM 24/17 A3000 RMK SLP164 T02420172 52014 IEM_DS3505
ZGSZ,2009-10-29 13:00,ZGSZ 291300Z AUTO 10010KT 6SM 26/17 A3000 RMK T02600170 IEM_DS3505
ZGSZ,2009-10-29 14:00,ZGSZ 291400Z AUTO 11006KT 6SM 25/18 A3000 RMK T02500180 IEM_DS3505
ZGSZ,2009-10-29 15:00,ZGSZ 291500Z AUTO 09004KT 9SM 23/19 A3000 RMK SLP166 T02340187 52002 IEM_DS3505
ZGSZ,2009-10-29 16:00,ZGSZ 291600Z AUTO 12006KT 6SM 24/18 A3000 RMK T02400180 IEM_DS3505
ZGSZ,2009-10-29 17:00,ZGSZ 291700Z AUTO 10006KT 6SM 24/18 A3000 RMK T02400180 IEM_DS3505
ZGSZ,2009-10-29 18:00,ZGSZ 291800Z AUTO 07004KT 9SM 23/18 A2997 RMK SLP157 T02310182 57009 IEM_DS3505
ZGSZ,2009-10-29 19:00,ZGSZ 291900Z AUTO 09002KT 4SM 24/18 A2997 RMK T02400180 IEM_DS3505
ZGSZ,2009-10-29 20:00,ZGSZ 292000Z AUTO 00000KT 4SM 22/18 A2997 RMK T02200180 IEM_DS3505
ZGSZ,2009-10-29 21:00,ZGSZ 292100Z AUTO 09006KT 7SM 23/18 A2997 RMK SLP156 T02260184 57001 IEM_DS3505
ZGSZ,2009-10-29 22:00,ZGSZ 292200Z AUTO 5SM 22/18 A3000 RMK T02200180 IEM_DS3505
ZGSZ,2009-10-29 23:00,ZGSZ 292300Z AUTO 00000KT 4SM 22/18 A3003 RMK T02200180 IEM_DS3505
ZGSZ,2009-10-30 00:00,ZGSZ 300000Z AUTO 09002KT 6SM 24/18 A3003 RMK SLP179 T02360185 52022 IEM_DS3505
ZGSZ,2009-10-30 01:00,ZGSZ 300100Z AUTO 10008KT 6SM 26/18 A3006 RMK T02600180 IEM_DS3505
ZGSZ,2009-10-30 02:00,ZGSZ 300200Z AUTO 10004KT 6SM 27/17 A3006 RMK T02700170 IEM_DS3505
ZGSZ,2009-10-30 03:00,ZGSZ 300300Z AUTO 09006KT 9SM 26/16 A3003 RMK SLP175 T02630165 57003 IEM_DS3505
ZGSZ,2009-10-30 04:00,ZGSZ 300400Z AUTO 24008KT 7SM 27/18 A3000 RMK T02700180 IEM_DS3505
ZGSZ,2009-10-30 05:00,ZGSZ 300500Z AUTO 21008KT 7SM 29/17 A2997 RMK T02900170 IEM_DS3505
ZGSZ,2009-10-30 06:00,ZGSZ 300600Z AUTO 09004KT 10SM 28/16 A2997 RMK SLP147 T02790159 57028 IEM_DS3505
ZGSZ,2009-10-30 07:00,ZGSZ 300700Z AUTO 23006KT 6SM 28/18 A2994 RMK T02800180 IEM_DS3505
ZGSZ,2009-10-30 08:00,ZGSZ 300800Z AUTO 20006KT 6SM 28/18 A2994 RMK T02800180 IEM_DS3505
ZGSZ,2009-10-30 09:00,ZGSZ 300900Z AUTO 22004KT 9SM 27/17 A2994 RMK SLP142 T02690174 57005 IEM_DS3505
ZGSZ,2009-10-30 10:00,ZGSZ 301000Z AUTO 19004KT 6SM 26/19 A2994 RMK T02600190 IEM_DS3505
ZGSZ,2009-10-30 11:00,ZGSZ 301100Z AUTO 18004KT 6SM 26/19 A2994 RMK T02600190 IEM_DS3505
ZGSZ,2009-10-30 12:00,ZGSZ 301200Z AUTO 14004KT 8SM 25/17 A2997 RMK SLP153 T02470174 52011 IEM_DS3505
ZGSZ,2009-10-30 13:00,ZGSZ 301300Z AUTO 16004KT 6SM 25/19 A2997 RMK T02500190 IEM_DS3505
ZGSZ,2009-10-30 14:00,ZGSZ 301400Z AUTO 11008KT 6SM 25/18 A2997 RMK T02500180 IEM_DS3505
ZGSZ,2009-10-30 15:00,ZGSZ 301500Z AUTO 09004KT 7SM 24/18 A2997 RMK SLP157 T02390181 52004 IEM_DS3505
ZGSZ,2009-10-30 16:00,ZGSZ 301600Z AUTO 11006KT 6SM 25/18 A2997 RMK T02500180 IEM_DS3505
ZGSZ,2009-10-30 17:00,ZGSZ 301700Z AUTO 11006KT 7SM 25/18 A2997 RMK T02500180 IEM_DS3505
ZGSZ,2009-10-30 18:00,ZGSZ 301800Z AUTO 09004KT 10SM 24/19 A2994 RMK SLP146 T02370188 57011 IEM_DS3505
ZGSZ,2009-10-30 19:00,ZGSZ 301900Z AUTO 7SM 25/18 A2994 RMK T02500180 IEM_DS3505
ZGSZ,2009-10-30 20:00,ZGSZ 302000Z AUTO 00000KT 7SM 24/18 A2994 RMK T02400180 IEM_DS3505
ZGSZ,2009-10-30 21:00,ZGSZ 302100Z AUTO 04004KT 11SM 23/18 A2994 RMK SLP141 T02330177 57005 IEM_DS3505
ZGSZ,2009-10-30 22:00,ZGSZ 302200Z AUTO 00000KT 6SM 24/16 A2994 RMK T02400160 IEM_DS3505
ZGSZ,2009-10-30 23:00,ZGSZ 302300Z AUTO 6SM 23/17 A2997 RMK T02300170 IEM_DS3505
ZGSZ,2009-10-31 00:00,ZGSZ 310000Z AUTO 04002KT 11SM 24/16 A3000 RMK SLP158 T02400163 52017 IEM_DS3505
ZGSZ,2009-10-31 01:00,ZGSZ 310100Z AUTO 02006KT 6SM 26/17 A3000 RMK T02600170 IEM_DS3505
ZGSZ,2009-10-31 02:00,ZGSZ 310200Z AUTO 01006KT 6SM 28/16 A3000 RMK T02800160 IEM_DS3505
ZGSZ,2009-10-31 03:00,ZGSZ 310300Z AUTO 02004KT 11SM 28/15 A2997 RMK SLP153 T02790152 57005 IEM_DS3505
ZGSZ,2009-10-31 04:00,ZGSZ 310400Z AUTO 7SM 29/17 A2994 RMK T02900170 IEM_DS3505
ZGSZ,2009-10-31 05:00,ZGSZ 310500Z AUTO 26008KT 4SM 29/18 A2991 RMK T02900180 IEM_DS3505
ZGSZ,2009-10-31 06:00,ZGSZ 310600Z AUTO 04002KT 7SM 29/15 A2985 RMK SLP118 T02890154 57034 IEM_DS3505
ZGSZ,2009-10-31 07:00,ZGSZ 310700Z AUTO 29010KT 3SM 29/19 A2985 RMK T02900190 IEM_DS3505
ZGSZ,2009-10-31 08:00,ZGSZ 310800Z AUTO 30008KT 2 1/2SM 29/19 A2985 RMK T02900190 IEM_DS3505
ZGSZ,2009-10-31 09:00,ZGSZ 310900Z AUTO 20006KT 4SM 28/19 A2985 RMK SLP119 T02790191 54000 IEM_DS3505
ZGSZ,2009-10-31 10:00,ZGSZ 311000Z AUTO 03004KT 4SM 29/17 A2988 RMK T02900170 IEM_DS3505
ZGSZ,2009-10-31 11:00,ZGSZ 311100Z AUTO 03004KT 4SM 28/17 A2991 RMK T02800170 IEM_DS3505
ZGSZ,2009-10-31 12:00,ZGSZ 311200Z AUTO 00000KT 2 1/2SM 26/21 A2994 RMK SLP141 T02580206 52022 IEM_DS3505
ZGSZ,2009-10-31 13:00,ZGSZ 311300Z AUTO 06004KT 4SM 27/18 A2994 RMK T02700180 IEM_DS3505
ZGSZ,2009-10-31 14:00,ZGSZ 311400Z AUTO 4SM 27/18 A2994 RMK T02700180 IEM_DS3505
ZGSZ,2009-10-31 15:00,ZGSZ 311500Z AUTO 34002KT 2 1/2SM 25/18 A2994 RMK SLP146 T02480185 52005 IEM_DS3505
ZGSZ,2009-10-31 16:00,ZGSZ 311600Z AUTO 2 1/2SM 25/19 A2994 RMK T02500190 IEM_DS3505
ZGSZ,2009-10-31 17:00,ZGSZ 311700Z AUTO 02006KT 1 1/2SM 26/19 A2994 RMK T02600190 IEM_DS3505
ZGSZ,2009-10-31 18:00,ZGSZ 311800Z AUTO 02002KT 2 1/2SM 24/19 A2994 RMK SLP140 T02380187 57006 IEM_DS3505
ZGSZ,2009-10-31 19:00,ZGSZ 311900Z AUTO 03006KT 1 1/4SM 25/20 A2991 RMK T02500200 IEM_DS3505
ZGSZ,2009-10-31 20:00,ZGSZ 312000Z AUTO 1 1/4SM 24/19 A2991 RMK T02400190 IEM_DS3505
ZGSZ,2009-10-31 21:00,ZGSZ 312100Z AUTO 36002KT 2 1/2SM 23/19 A2994 RMK SLP139 T02300194 57001 IEM_DS3505
ZGSZ,2009-10-31 22:00,ZGSZ 312200Z AUTO 00000KT 1 1/2SM 23/20 A2994 RMK T02300200 IEM_DS3505
ZGSZ,2009-10-31 23:00,ZGSZ 312300Z AUTO 35004KT 1SM 23/19 A2997 RMK T02300190 IEM_DS3505
ZGSZ,2009-11-01 00:00,ZGSZ 010000Z AUTO 04002KT 3SM 24/18 A2997 RMK SLP158 T02420182 52019 IEM_DS3505
ZGSZ,2009-11-01 01:00,ZGSZ 010100Z AUTO 2 1/2SM 27/19 A3000 RMK T02700190 IEM_DS3505
ZGSZ,2009-11-01 02:00,ZGSZ 010200Z AUTO 02010KT 4SM 29/16 A3000 RMK T02900160 IEM_DS3505
ZGSZ,2009-11-01 03:00,ZGSZ 010300Z AUTO 04006KT 5SM 29/15 A3000 RMK SLP160 T02870149 52002 IEM_DS3505
ZGSZ,2009-11-01 04:00,ZGSZ 010400Z AUTO 02012G21KT 6SM 32/14 A2997 RMK T03200140 IEM_DS3505
ZGSZ,2009-11-01 05:00,ZGSZ 010500Z AUTO 02012KT 6SM 32/14 A2994 RMK T03200140 IEM_DS3505
ZGSZ,2009-11-01 06:00,ZGSZ 010600Z AUTO 02010KT 7SM 30/13 A2991 RMK SLP137 T03030127 57022 IEM_DS3505
ZGSZ,2009-11-01 07:00,ZGSZ 010700Z AUTO 04010KT 6SM 32/14 A2991 RMK T03200140 IEM_DS3505
ZGSZ,2009-11-01 08:00,ZGSZ 010800Z AUTO 04012KT 6SM 32/14 A2991 RMK T03200140 IEM_DS3505
ZGSZ,2009-11-01 09:00,ZGSZ 010900Z AUTO 36012KT 7SM 29/15 A2994 RMK SLP140 T02920150 52002 IEM_DS3505
ZGSZ,2009-11-01 10:00,ZGSZ 011000Z AUTO 03014G23KT 4SM 29/16 A2994 RMK T02900160 IEM_DS3505
ZGSZ,2009-11-01 11:00,ZGSZ 011100Z AUTO 04012KT 4SM 28/15 A3000 RMK T02800150 IEM_DS3505
ZGSZ,2009-11-01 12:00,ZGSZ 011200Z AUTO 04006KT 7SM 27/15 A3003 RMK SLP173 T02660147 52033 IEM_DS3505
ZGSZ,2009-11-01 13:00,ZGSZ 011300Z AUTO 03012KT 4SM 27/16 A3006 RMK T02700160 IEM_DS3505
ZGSZ,2009-11-01 14:00,ZGSZ 011400Z AUTO 04014KT 4SM 26/15 A3009 RMK T02600150 IEM_DS3505
ZGSZ,2009-11-01 15:00,ZGSZ 011500Z AUTO 04012KT 11SM 24/13 A3009 RMK SLP196 T02420131 52023 IEM_DS3505
ZGSZ,2009-11-01 16:00,ZGSZ 011600Z AUTO 03010KT 6SM 24/14 A3012 RMK T02400140 IEM_DS3505
ZGSZ,2009-11-01 17:00,ZGSZ 011700Z AUTO 03017KT 7SM 23/13 A3012 RMK T02300130 IEM_DS3505
ZGSZ,2009-11-01 18:00,ZGSZ 011800Z AUTO 02010KT 12SM 22/12 A3012 RMK SLP202 T02190125 52006 IEM_DS3505
ZGSZ,2009-11-01 19:00,ZGSZ 011900Z AUTO 02012KT 6SM 22/13 A3015 RMK T02200130 IEM_DS3505
ZGSZ,2009-11-01 20:00,ZGSZ 012000Z AUTO 03010KT 6SM 21/12 A3015 RMK T02100120 IEM_DS3505
ZGSZ,2009-11-01 21:00,ZGSZ 012100Z AUTO 04012KT 11SM 21/12 A3015 RMK SLP211 T02090118 52009 IEM_DS3505
ZGSZ,2009-11-01 22:00,ZGSZ 012200Z AUTO 02014KT 6SM 21/12 A3018 RMK T02100120 IEM_DS3505
ZGSZ,2009-11-01 23:00,ZGSZ 012300Z AUTO 02012KT 6SM 21/12 A3021 RMK T02100120 IEM_DS3505
ZGSZ,2009-11-02 00:00,ZGSZ 020000Z AUTO 07008KT 11SM 21/09 A3024 RMK SLP238 T02140093 52026 IEM_DS3505
ZGSZ,2009-11-02 01:00,ZGSZ 020100Z AUTO 04016KT 6SM 23/08 A3027 RMK T02300080 IEM_DS3505
ZGSZ,2009-11-02 02:00,ZGSZ 020200Z AUTO 02016KT 6SM 25/07 A3027 RMK T02500070 IEM_DS3505
ZGSZ,2009-11-02 03:00,ZGSZ 020300Z AUTO 04016KT 12SM 24/03 RMK SLP243 T02370031 52005 IEM_DS3505
ZGSZ,2009-11-02 04:00,ZGSZ 020400Z AUTO 04012KT 6SM 27/03 A3024 RMK T02700030 IEM_DS3505
ZGSZ,2009-11-02 05:00,ZGSZ 020500Z AUTO 04014G25KT 6SM 28/01 A3021 RMK T02800010 IEM_DS3505
ZGSZ,2009-11-02 06:00,ZGSZ 020600Z AUTO 02017KT 12SM 26/00 A3018 RMK SLP222 T02570004 4////0205 57021 IEM_DS3505
ZGSZ,2009-11-02 07:00,ZGSZ 020700Z AUTO 04017G31KT 6SM 28/00 A3018 RMK T02800000 IEM_DS3505
ZGSZ,2009-11-02 08:00,ZGSZ 020800Z AUTO 04016G25KT 6SM 27/02 A3018 RMK T02700020 IEM_DS3505
ZGSZ,2009-11-02 09:00,ZGSZ 020900Z AUTO 02012KT 11SM 25/M00 A3021 RMK SLP227 T02511001 52005 IEM_DS3505
ZGSZ,2009-11-02 10:00,ZGSZ 021000Z AUTO 03014KT 6SM 25/01 A3021 RMK T02500010 IEM_DS3505
ZGSZ,2009-11-02 11:00,ZGSZ 021100Z AUTO 03014KT 6SM 24/01 A3024 RMK T02400010 IEM_DS3505
ZGSZ,2009-11-02 12:00,ZGSZ 021200Z AUTO 02014KT 8SM 23/02 A3027 RMK SLP249 T02270017 52021 IEM_DS3505
ZGSZ,2009-11-02 13:00,ZGSZ 021300Z AUTO 03016KT 6SM 22/04 A3030 RMK T02200040 IEM_DS3505
ZGSZ,2009-11-02 14:00,ZGSZ 021400Z AUTO 03014KT 6SM 21/04 A3030 RMK T02100040 IEM_DS3505
ZGSZ,2009-11-02 15:00,ZGSZ 021500Z AUTO 02016KT 7SM 20/02 A3030 RMK SLP260 T01950015 52011 IEM_DS3505
ZGSZ,2009-11-02 17:00,ZGSZ 021700Z AUTO 03014KT 6SM 18/01 A3030 RMK T01800010 IEM_DS3505
ZGSZ,2009-11-02 18:00,ZGSZ 021800Z AUTO 02012KT 10SM 17/M01 A3030 RMK SLP255 T01711006 57005 IEM_DS3505
ZGSZ,2009-11-02 19:00,ZGSZ 021900Z AUTO 03010KT 6SM 17/M02 A3030 RMK T01701020 IEM_DS3505
ZGSZ,2009-11-02 20:00,ZGSZ 022000Z AUTO 03012KT 6SM 16/M02 A3030 RMK T01601020 IEM_DS3505
ZGSZ,2009-11-02 21:00,ZGSZ 022100Z AUTO 02014KT 11SM 15/M03 A3030 RMK SLP258 T01511028 52003 IEM_DS3505
ZGSZ,2009-11-02 22:00,ZGSZ 022200Z AUTO 03014KT 6SM 15/M03 A3033 RMK T01501030 IEM_DS3505
ZGSZ,2009-11-02 23:00,ZGSZ 022300Z AUTO 03012KT 6SM 15/M03 A3033 RMK T01501030 IEM_DS3505
ZGSZ,2009-11-03 00:00,ZGSZ 030000Z AUTO 02010KT 11SM 14/M03 A3036 RMK SLP285 T01451029 52026 IEM_DS3505
ZGSZ,2009-11-03 01:00,ZGSZ 030100Z AUTO 04012KT 6SM 16/M02 A3039 RMK T01601020 IEM_DS3505
ZGSZ,2009-11-03 02:00,ZGSZ 030200Z AUTO 04014KT 6SM 17/M01 A3039 RMK T01701010 IEM_DS3505
ZGSZ,2009-11-03 03:00,ZGSZ 030300Z AUTO 04010KT 9SM 18/00 A3036 RMK SLP279 T01780000 57006 IEM_DS3505
ZGSZ,2009-11-03 04:00,ZGSZ 030400Z AUTO 03012KT 6SM 19/01 A3033 RMK T01900010 IEM_DS3505
ZGSZ,2009-11-03 05:00,ZGSZ 030500Z AUTO 01008KT 6SM 20/02 A3030 RMK T02000020 IEM_DS3505
ZGSZ,2009-11-03 06:00,ZGSZ 030600Z AUTO 34006KT 8SM 20/02 A3027 RMK SLP246 T02030022 57032 IEM_DS3505
ZGSZ,2009-11-03 07:00,ZGSZ 030700Z AUTO 01008KT 6SM 21/02 A3024 RMK T02100020 IEM_DS3505
ZGSZ,2009-11-03 08:00,ZGSZ 030800Z AUTO 04010KT 6SM 21/03 A3024 RMK T02100030 IEM_DS3505
ZGSZ,2009-11-03 09:00,ZGSZ 030900Z AUTO 04004KT 9SM 20/02 A3024 RMK SLP244 T01960025 57003 IEM_DS3505
ZGSZ,2009-11-03 10:00,ZGSZ 031000Z AUTO 03006KT 6SM 20/03 A3027 RMK T02000030 IEM_DS3505
ZGSZ,2009-11-03 11:00,ZGSZ 031100Z AUTO 04008KT 6SM 19/02 A3027 RMK T01900020 IEM_DS3505
ZGSZ,2009-11-03 12:00,ZGSZ 031200Z AUTO 04004KT 8SM 19/02 A3030 RMK SLP261 T01860020 52017 IEM_DS3505
ZGSZ,2009-11-03 13:00,ZGSZ 031300Z AUTO 06006KT 7SM 20/02 A3030 RMK T02000020 IEM_DS3505
ZGSZ,2009-11-03 14:00,ZGSZ 031400Z AUTO 06006KT 7SM 19/02 A3030 RMK T01900020 IEM_DS3505
ZGSZ,2009-11-03 15:00,ZGSZ 031500Z AUTO 02004KT 8SM 18/02 A3030 RMK SLP266 T01790018 52005 IEM_DS3505
ZGSZ,2009-11-03 16:00,ZGSZ 031600Z AUTO 01008KT 6SM 18/02 A3030 RMK T01800020 IEM_DS3505
ZGSZ,2009-11-03 17:00,ZGSZ 031700Z AUTO 01006KT 6SM 17/04 A3030 RMK T01700040 IEM_DS3505
ZGSZ,2009-11-03 18:00,ZGSZ 031800Z AUTO 04004KT 8SM 16/02 A3027 RMK SLP255 T01640024 57011 IEM_DS3505
ZGSZ,2009-11-03 19:00,ZGSZ 031900Z AUTO 02008KT 6SM 17/03 A3027 RMK T01700030 IEM_DS3505
ZGSZ,2009-11-03 20:00,ZGSZ 032000Z AUTO 36008KT 6SM 16/04 A3024 RMK T01600040 IEM_DS3505
ZGSZ,2009-11-03 21:00,ZGSZ 032100Z AUTO 07006KT 8SM 16/02 A3024 RMK SLP243 T01590023 57012 IEM_DS3505
ZGSZ,2009-11-03 22:00,ZGSZ 032200Z AUTO 01006KT 6SM 15/03 A3024 RMK T01500030 IEM_DS3505
ZGSZ,2009-11-03 23:00,ZGSZ 032300Z AUTO 35006KT 6SM 15/04 A3027 RMK T01500040 IEM_DS3505
ZGSZ,2009-11-04 00:00,ZGSZ 040000Z AUTO 04006KT 9SM 17/02 A3027 RMK SLP249 T01700018 52006 IEM_DS3505
ZGSZ,2009-11-04 01:00,ZGSZ 040100Z AUTO 02010KT 6SM 20/03 A3027 RMK T02000030 IEM_DS3505
ZGSZ,2009-11-04 02:00,ZGSZ 040200Z AUTO 06008KT 6SM 22/04 A3027 RMK T02200040 IEM_DS3505
ZGSZ,2009-11-04 03:00,ZGSZ 040300Z AUTO 04006KT 7SM 22/05 A3027 RMK SLP247 T02150054 57001 IEM_DS3505
ZGSZ,2009-11-04 04:00,ZGSZ 040400Z AUTO 02008KT 6SM 24/06 A3021 RMK T02400060 IEM_DS3505
ZGSZ,2009-11-04 05:00,ZGSZ 040500Z AUTO 01010KT 6SM 25/06 A3018 RMK T02500060 IEM_DS3505
ZGSZ,2009-11-04 06:00,ZGSZ 040600Z AUTO 02006KT 9SM 24/06 A3015 RMK SLP215 T02420055 57032 IEM_DS3505
ZGSZ,2009-11-04 07:00,ZGSZ 040700Z AUTO 36008KT 6SM 26/05 A3015 RMK T02600050 IEM_DS3505
ZGSZ,2009-11-04 08:00,ZGSZ 040800Z AUTO 35008KT 6SM 26/06 A3012 RMK T02600060 IEM_DS3505
ZGSZ,2009-11-04 09:00,ZGSZ 040900Z AUTO 36004KT 10SM 24/06 A3012 RMK SLP210 T02390062 57005 IEM_DS3505
ZGSZ,2009-11-04 10:00,ZGSZ 041000Z AUTO 06006KT 7SM 24/06 A3015 RMK T02400060 IEM_DS3505
ZGSZ,2009-11-04 11:00,ZGSZ 041100Z AUTO 06004KT 7SM 23/07 A3015 RMK T02300070 IEM_DS3505
ZGSZ,2009-11-04 12:00,ZGSZ 041200Z AUTO 11002KT 12SM 22/08 A3018 RMK SLP221 T02190077 52011 IEM_DS3505
ZGSZ,2009-11-04 13:00,ZGSZ 041300Z AUTO 6SM 22/08 A3018 RMK T02200080 IEM_DS3505
ZGSZ,2009-11-04 14:00,ZGSZ 041400Z AUTO 7SM 22/08 A3018 RMK T02200080 IEM_DS3505
ZGSZ,2009-11-04 15:00,ZGSZ 041500Z AUTO 04004KT 12SM 21/09 A3018 RMK SLP221 T02100086 54000 IEM_DS3505
ZGSZ,2009-11-04 16:00,ZGSZ 041600Z AUTO 00000KT 7SM 20/10 A3015 RMK T02000100 IEM_DS3505
ZGSZ,2009-11-04 17:00,ZGSZ 041700Z AUTO 4SM 21/09 A3015 RMK T02100090 IEM_DS3505
ZGSZ,2009-11-04 18:00,ZGSZ 041800Z AUTO 00000KT 12SM 20/11 A3015 RMK SLP208 T02000110 57012 IEM_DS3505
ZGSZ,2009-11-04 19:00,ZGSZ 041900Z AUTO 4SM 19/11 A3012 RMK T01900110 IEM_DS3505
ZGSZ,2009-11-04 20:00,ZGSZ 042000Z AUTO 35004KT 3SM 19/11 A3012 RMK T01900110 IEM_DS3505
ZGSZ,2009-11-04 21:00,ZGSZ 042100Z AUTO 04002KT 9SM 19/11 A3012 RMK SLP202 T01900113 57006 IEM_DS3505
ZGSZ,2009-11-04 22:00,ZGSZ 042200Z AUTO 35004KT 3SM 18/11 A3012 RMK T01800110 IEM_DS3505
ZGSZ,2009-11-04 23:00,ZGSZ 042300Z AUTO 34004KT 4SM 19/11 A3015 RMK T01900110 IEM_DS3505
ZGSZ,2009-11-05 00:00,ZGSZ 050000Z AUTO 11002KT 9SM 20/11 A3015 RMK SLP213 T02050106 52011 IEM_DS3505
ZGSZ,2009-11-05 01:00,ZGSZ 050100Z AUTO 36008KT 3SM 22/11 A3015 RMK T02200110 IEM_DS3505
ZGSZ,2009-11-05 02:00,ZGSZ 050200Z AUTO 36006KT 3SM 24/11 A3015 RMK T02400110 IEM_DS3505
ZGSZ,2009-11-05 03:00,ZGSZ 050300Z AUTO 07002KT 8SM 25/11 A3015 RMK SLP209 T02480114 57004 IEM_DS3505
ZGSZ,2009-11-05 04:00,ZGSZ 050400Z AUTO 21006KT 5SM 26/13 A3012 RMK T02600130 IEM_DS3505
ZGSZ,2009-11-05 05:00,ZGSZ 050500Z AUTO 34008KT 6SM 28/09 A3009 RMK T02800090 IEM_DS3505
ZGSZ,2009-11-05 06:00,ZGSZ 050600Z AUTO 22006KT 7SM 27/12 A3006 RMK SLP179 T02670124 57030 IEM_DS3505
ZGSZ,2009-11-05 07:00,ZGSZ 050700Z AUTO 29008KT 5SM 28/12 A3003 RMK T02800120 IEM_DS3505
ZGSZ,2009-11-05 08:00,ZGSZ 050800Z AUTO 30008KT 5SM 27/12 A3000 RMK T02700120 IEM_DS3505
ZGSZ,2009-11-05 09:00,ZGSZ 050900Z AUTO 22002KT 4SM 26/13 A3000 RMK SLP170 T02610132 57009 IEM_DS3505
ZGSZ,2009-11-05 10:00,ZGSZ 051000Z AUTO 31004KT 3SM 26/14 A3003 RMK T02600140 IEM_DS3505
ZGSZ,2009-11-05 11:00,ZGSZ 051100Z AUTO 33004KT 4SM 25/14 A3003 RMK T02500140 IEM_DS3505
ZGSZ,2009-11-05 12:00,ZGSZ 051200Z AUTO 04002KT 4SM 23/14 A3006 RMK SLP185 T02340141 52015 IEM_DS3505
ZGSZ,2009-11-05 13:00,ZGSZ 051300Z AUTO 00000KT 2SM 24/14 A3006 RMK T02400140 IEM_DS3505
ZGSZ,2009-11-05 14:00,ZGSZ 051400Z AUTO 2 1/2SM 24/14 A3006 RMK T02400140 IEM_DS3505
ZGSZ,2009-11-05 15:00,ZGSZ 051500Z AUTO 07002KT 4SM 22/15 A3006 RMK SLP183 T02250149 57002 IEM_DS3505
ZGSZ,2009-11-05 16:00,ZGSZ 051600Z AUTO 3SM 23/15 A3003 RMK T02300150 IEM_DS3505
ZGSZ,2009-11-05 17:00,ZGSZ 051700Z AUTO 13002KT 3SM 21/15 A3003 RMK T02100150 IEM_DS3505
ZGSZ,2009-11-05 18:00,ZGSZ 051800Z AUTO 04004KT 6SM 21/17 A3000 RMK SLP165 T02140172 57017 IEM_DS3505
ZGSZ,2009-11-05 19:00,ZGSZ 051900Z AUTO 3SM 20/15 A3000 RMK T02000150 IEM_DS3505
ZGSZ,2009-11-05 20:00,ZGSZ 052000Z AUTO 00000KT 3SM 21/14 A3000 RMK T02100140 IEM_DS3505
ZGSZ,2009-11-05 21:00,ZGSZ 052100Z AUTO 36002KT 5SM 21/18 A3000 RMK SLP157 T02090179 57008 IEM_DS3505
ZGSZ,2009-11-05 22:00,ZGSZ 052200Z AUTO 07002KT 3SM 21/16 A3000 RMK T02100160 IEM_DS3505
ZGSZ,2009-11-05 23:00,ZGSZ 052300Z AUTO 00000KT 2 1/2SM 20/16 A3000 RMK T02000160 IEM_DS3505
ZGSZ,2009-11-06 00:00,ZGSZ 060000Z AUTO 04002KT 4SM 22/18 A3003 RMK SLP173 T02240180 52015 IEM_DS3505
ZGSZ,2009-11-06 01:00,ZGSZ 060100Z AUTO 00000KT 3SM 25/17 A3003 RMK T02500170 IEM_DS3505
ZGSZ,2009-11-06 02:00,ZGSZ 060200Z AUTO 00000KT 5SM 27/17 A3003 RMK T02700170 IEM_DS3505
ZGSZ,2009-11-06 03:00,ZGSZ 060300Z AUTO 18004KT 7SM 27/17 A3003 RMK SLP171 T02710173 57001 IEM_DS3505
ZGSZ,2009-11-06 04:00,ZGSZ 060400Z AUTO 22006KT 3SM 27/18 A3000 RMK T02700180 IEM_DS3505
ZGSZ,2009-11-06 05:00,ZGSZ 060500Z AUTO 22008KT 3SM 27/19 A2997 RMK T02700190 IEM_DS3505
ZGSZ,2009-11-06 06:00,ZGSZ 060600Z AUTO 22006KT 7SM 28/18 A2994 RMK SLP139 T02780185 57032 IEM_DS3505
ZGSZ,2009-11-06 07:00,ZGSZ 060700Z AUTO 20008KT 5SM 27/20 A2991 RMK T02700200 IEM_DS3505
ZGSZ,2009-11-06 08:00,ZGSZ 060800Z AUTO 21006KT 6SM 27/19 A2991 RMK T02700190 IEM_DS3505
ZGSZ,2009-11-06 09:00,ZGSZ 060900Z AUTO 20004KT 7SM 27/19 A2991 RMK SLP134 T02730186 57005 IEM_DS3505
ZGSZ,2009-11-06 10:00,ZGSZ 061000Z AUTO 17006KT 7SM 25/20 A2991 RMK T02500200 IEM_DS3505
ZGSZ,2009-11-06 11:00,ZGSZ 061100Z AUTO 16004KT 6SM 25/20 A2994 RMK T02500200 IEM_DS3505
ZGSZ,2009-11-06 12:00,ZGSZ 061200Z AUTO 07004KT 9SM 24/19 A2994 RMK SLP146 T02440188 52012 IEM_DS3505
ZGSZ,2009-11-06 13:00,ZGSZ 061300Z AUTO 17004KT 6SM 24/20 A2994 RMK T02400200 IEM_DS3505
ZGSZ,2009-11-06 14:00,ZGSZ 061400Z AUTO 00000KT 4SM 25/21 A2997 RMK T02500210 IEM_DS3505
ZGSZ,2009-11-06 15:00,ZGSZ 061500Z AUTO 09004KT 9SM 24/19 A2997 RMK SLP152 T02370194 52006 IEM_DS3505
ZGSZ,2009-11-06 16:00,ZGSZ 061600Z AUTO 11006KT 6SM 25/19 A2997 RMK T02500190 IEM_DS3505
ZGSZ,2009-11-06 17:00,ZGSZ 061700Z AUTO 12004KT 6SM 25/19 A2994 RMK T02500190 IEM_DS3505
ZGSZ,2009-11-06 18:00,ZGSZ 061800Z AUTO 09004KT 9SM 24/19 A2991 RMK SLP140 T02380187 57012 IEM_DS3505
ZGSZ,2009-11-06 19:00,ZGSZ 061900Z AUTO 11004KT 6SM 24/19 A2991 RMK T02400190 IEM_DS3505
ZGSZ,2009-11-06 20:00,ZGSZ 062000Z AUTO 00000KT 6SM 23/18 A2991 RMK T02300180 IEM_DS3505
ZGSZ,2009-11-06 21:00,ZGSZ 062100Z AUTO 09004KT 12SM 23/17 A2991 RMK SLP131 T02340174 57009 IEM_DS3505
ZGSZ,2009-11-06 22:00,ZGSZ 062200Z AUTO 00000KT 6SM 24/18 A2991 RMK T02400180 IEM_DS3505
ZGSZ,2009-11-06 23:00,ZGSZ 062300Z AUTO 00000KT 6SM 24/19 A2994 RMK T02400190 IEM_DS3505
ZGSZ,2009-11-07 00:00,ZGSZ 070000Z AUTO 09002KT 14SM 24/18 A2994 RMK SLP147 T02440179 52016 IEM_DS3505
ZGSZ,2009-11-07 01:00,ZGSZ 070100Z AUTO 09008KT 6SM 27/17 A2997 RMK T02700170 IEM_DS3505
ZGSZ,2009-11-07 02:00,ZGSZ 070200Z AUTO 6SM 28/18 A2997 RMK T02800180 IEM_DS3505
ZGSZ,2009-11-07 03:00,ZGSZ 070300Z AUTO 09006KT 16SM 27/20 A2997 RMK SLP150 T02690195 52003 IEM_DS3505
ZGSZ,2009-11-07 04:00,ZGSZ 070400Z AUTO 13004KT 7SM 30/19 A2994 RMK T03000190 IEM_DS3505
ZGSZ,2009-11-07 05:00,ZGSZ 070500Z AUTO 24006KT 7SM 29/20 A2991 RMK T02900200 IEM_DS3505
ZGSZ,2009-11-07 06:00,ZGSZ 070600Z AUTO 09006KT 16SM 28/19 A2991 RMK SLP130 T02780191 57020 IEM_DS3505
ZGSZ,2009-11-07 07:00,ZGSZ 070700Z AUTO 23006KT 6SM 29/20 A2988 RMK T02900200 IEM_DS3505
ZGSZ,2009-11-07 08:00,ZGSZ 070800Z AUTO 20008KT 7SM 27/21 A2988 RMK T02700210 IEM_DS3505
ZGSZ,2009-11-07 09:00,ZGSZ 070900Z AUTO 07006KT 16SM 27/19 A2988 RMK SLP129 T02670186 57001 IEM_DS3505
ZGSZ,2009-11-07 10:00,ZGSZ 071000Z AUTO 18004KT 5SM 26/21 A2991 RMK T02600210 IEM_DS3505
ZGSZ,2009-11-07 11:00,ZGSZ 071100Z AUTO 20004KT 5SM 26/22 A2994 RMK T02600220 IEM_DS3505
ZGSZ,2009-11-07 12:00,ZGSZ 071200Z AUTO 07006KT 16SM 25/20 A2994 RMK SLP145 T02510197 52016 IEM_DS3505
ZGSZ,2009-11-07 13:00,ZGSZ 071300Z AUTO 11006KT 6SM 27/20 A2994 RMK T02700200 IEM_DS3505
ZGSZ,2009-11-07 14:00,ZGSZ 071400Z AUTO 11008KT 6SM 26/20 A2994 RMK T02600200 IEM_DS3505
ZGSZ,2009-11-07 15:00,ZGSZ 071500Z AUTO 09006KT 14SM 24/20 A2994 RMK SLP143 T02400199 57002 IEM_DS3505
ZGSZ,2009-11-07 16:00,ZGSZ 071600Z AUTO 11006KT 6SM 25/20 A2994 RMK T02500200 IEM_DS3505
ZGSZ,2009-11-07 17:00,ZGSZ 071700Z AUTO 11006KT 6SM 25/20 A2991 RMK T02500200 IEM_DS3505
ZGSZ,2009-11-07 18:00,ZGSZ 071800Z AUTO 09004KT 11SM 24/20 A2991 RMK SLP130 T02360203 57013 IEM_DS3505
ZGSZ,2009-11-07 19:00,ZGSZ 071900Z AUTO 6SM 24/20 A2991 RMK T02400200 IEM_DS3505
ZGSZ,2009-11-07 20:00,ZGSZ 072000Z AUTO 08004KT 7SM 25/20 A2988 RMK T02500200 IEM_DS3505
ZGSZ,2009-11-07 21:00,ZGSZ 072100Z AUTO 07006KT 12SM 24/21 A2991 RMK SLP128 T02380207 57002 IEM_DS3505
ZGSZ,2009-11-07 22:00,ZGSZ 072200Z AUTO 7SM 25/20 A2991 RMK T02500200 IEM_DS3505
ZGSZ,2009-11-07 23:00,ZGSZ 072300Z AUTO 03004KT 5SM 25/20 A2991 RMK T02500200 IEM_DS3505
ZGSZ,2009-11-08 00:00,ZGSZ 080000Z AUTO 07002KT 11SM 24/21 A2994 RMK SLP143 T02450208 52015 IEM_DS3505
ZGSZ,2009-11-08 01:00,ZGSZ 080100Z AUTO 7SM 26/21 A2997 RMK T02600210 IEM_DS3505
ZGSZ,2009-11-08 02:00,ZGSZ 080200Z AUTO 7SM 26/21 A2997 RMK T02600210 IEM_DS3505
ZGSZ,2009-11-08 03:00,ZGSZ 080300Z AUTO 02002KT 10SM 27/21 A2994 RMK SLP142 T02710207 57001 IEM_DS3505
ZGSZ,2009-11-08 04:00,ZGSZ 080400Z AUTO 30004KT 7SM 29/21 A2991 RMK T02900210 IEM_DS3505
ZGSZ,2009-11-08 05:00,ZGSZ 080500Z AUTO 04004KT 5SM 29/21 A2988 RMK T02900210 IEM_DS3505
ZGSZ,2009-11-08 06:00,ZGSZ 080600Z AUTO 34002KT 12SM 28/21 A2985 RMK 60000 SLP117 T02770210 57025 IEM_DS3505
ZGSZ,2009-11-08 07:00,ZGSZ 080700Z AUTO 22004KT 4SM 29/21 A2985 RMK T02900210 IEM_DS3505
ZGSZ,2009-11-08 08:00,ZGSZ 080800Z AUTO 21004KT 5SM 28/21 A2985 RMK T02800210 IEM_DS3505
ZGSZ,2009-11-08 09:00,ZGSZ 080900Z AUTO 14006KT 16SM 27/20 A2985 RMK SLP112 T02660204 57005 IEM_DS3505
ZGSZ,2009-11-08 10:00,ZGSZ 081000Z AUTO 17006KT 4SM 26/22 A2985 RMK T02600220 IEM_DS3505
ZGSZ,2009-11-08 11:00,ZGSZ 081100Z AUTO 17004KT 5SM 26/22 A2985 RMK T02600220 IEM_DS3505
ZGSZ,2009-11-08 12:00,ZGSZ 081200Z AUTO 09004KT 12SM 25/21 A2988 RMK SLP124 T02510208 52012 IEM_DS3505
ZGSZ,2009-11-08 13:00,ZGSZ 081300Z AUTO 12006KT 6SM 26/20 A2988 RMK T02600200 IEM_DS3505
ZGSZ,2009-11-08 14:00,ZGSZ 081400Z AUTO 12008KT 6SM 26/20 A2988 RMK T02600200 IEM_DS3505
ZGSZ,2009-11-08 15:00,ZGSZ 081500Z AUTO 09006KT 11SM 24/21 A2985 RMK SLP119 T02420209 57005 IEM_DS3505
ZGSZ,2009-11-08 16:00,ZGSZ 081600Z AUTO 13006KT 6SM 25/21 A2985 RMK T02500210 IEM_DS3505
ZGSZ,2009-11-08 17:00,ZGSZ 081700Z AUTO 00000KT 6SM 24/20 A2985 RMK T02400200 IEM_DS3505
ZGSZ,2009-11-08 18:00,ZGSZ 081800Z AUTO 11002KT 11SM 24/21 A2985 RMK SLP109 T02410206 57010 IEM_DS3505
ZGSZ,2009-11-08 19:00,ZGSZ 081900Z AUTO 00000KT 6SM 24/20 A2983 RMK T02400200 IEM_DS3505
ZGSZ,2009-11-08 20:00,ZGSZ 082000Z AUTO 6SM 24/21 A2983 RMK T02400210 IEM_DS3505
ZGSZ,2009-11-08 21:00,ZGSZ 082100Z AUTO 34002KT 10SM 24/21 A2983 RMK 70000 SLP104 T02350208 57005 IEM_DS3505
ZGSZ,2009-11-08 22:00,ZGSZ 082200Z AUTO 00000KT 6SM 24/21 A2985 RMK T02400210 IEM_DS3505
ZGSZ,2009-11-08 23:00,ZGSZ 082300Z AUTO 00000KT 7SM 24/21 A2985 RMK T02400210 IEM_DS3505
ZGSZ,2009-11-09 00:00,ZGSZ 090000Z AUTO 04002KT 9SM 25/21 A2985 RMK 70000 SLP115 T02480213 52011 IEM_DS3505
ZGSZ,2009-11-09 01:00,ZGSZ 090100Z AUTO 7SM 26/21 A2985 RMK T02600210 IEM_DS3505
ZGSZ,2009-11-09 02:00,ZGSZ 090200Z AUTO 7SM 27/21 A2985 RMK T02700210 IEM_DS3505
ZGSZ,2009-11-09 03:00,ZGSZ 090300Z AUTO 02002KT 10SM 28/21 A2985 RMK SLP111 T02810212 57003 IEM_DS3505
ZGSZ,2009-11-09 04:00,ZGSZ 090400Z AUTO 21010KT 7SM 30/21 A2983 RMK T03000210 IEM_DS3505
ZGSZ,2009-11-09 05:00,ZGSZ 090500Z AUTO 21008KT 7SM 29/21 A2980 RMK T02900210 IEM_DS3505
ZGSZ,2009-11-09 06:00,ZGSZ 090600Z AUTO 22008KT 16SM 30/20 A2974 RMK SLP077 T02990199 57034 IEM_DS3505
ZGSZ,2009-11-09 07:00,ZGSZ 090700Z AUTO 20012KT 7SM 28/22 A2974 RMK T02800220 IEM_DS3505
ZGSZ,2009-11-09 08:00,ZGSZ 090800Z AUTO 19012KT 7SM 28/21 A2974 RMK T02800210 IEM_DS3505
ZGSZ,2009-11-09 09:00,ZGSZ 090900Z AUTO 22004KT 16SM 28/21 A2974 RMK SLP069 T02760209 57008 IEM_DS3505
ZGSZ,2009-11-09 10:00,ZGSZ 091000Z AUTO 18010KT 6SM 26/22 A2974 RMK T02600220 IEM_DS3505
ZGSZ,2009-11-09 11:00,ZGSZ 091100Z AUTO 17008KT 7SM 26/22 A2974 RMK T02600220 IEM_DS3505
ZGSZ,2009-11-09 12:00,ZGSZ 091200Z AUTO 22004KT 14SM 25/22 A2977 RMK SLP079 T02530218 52009 IEM_DS3505
ZGSZ,2009-11-09 13:00,ZGSZ 091300Z AUTO 18006KT 7SM 27/22 A2977 RMK T02700220 IEM_DS3505
ZGSZ,2009-11-09 14:00,ZGSZ 091400Z AUTO 17006KT 7SM 26/22 A2977 RMK T02600220 IEM_DS3505
ZGSZ,2009-11-09 15:00,ZGSZ 091500Z AUTO 11002KT 14SM 25/22 A2974 RMK SLP079 T02500217 52001 IEM_DS3505
ZGSZ,2009-11-09 16:00,ZGSZ 091600Z AUTO 17006KT 6SM 26/22 A2974 RMK T02600220 IEM_DS3505
ZGSZ,2009-11-09 17:00,ZGSZ 091700Z AUTO 18006KT 7SM 26/22 A2974 RMK T02600220 IEM_DS3505
ZGSZ,2009-11-09 18:00,ZGSZ 091800Z AUTO 00000KT 12SM 24/22 A2974 RMK SLP069 T02440215 57010 IEM_DS3505
ZGSZ,2009-11-09 19:00,ZGSZ 091900Z AUTO 18006KT 7SM 26/22 A2974 RMK T02600220 IEM_DS3505
ZGSZ,2009-11-09 20:00,ZGSZ 092000Z AUTO 19004KT 7SM 26/23 A2974 RMK T02600230 IEM_DS3505
ZGSZ,2009-11-09 21:00,ZGSZ 092100Z AUTO 22006KT 12SM 24/22 A2974 RMK SLP070 T02440223 52001 IEM_DS3505
ZGSZ,2009-11-09 22:00,ZGSZ 092200Z AUTO 00000KT 7SM 25/22 A2974 RMK T02500220 IEM_DS3505
ZGSZ,2009-11-09 23:00,ZGSZ 092300Z AUTO 16004KT 7SM 24/22 A2977 RMK T02400220 IEM_DS3505
ZGSZ,2009-11-10 00:00,ZGSZ 100000Z AUTO 20002KT 14SM 26/22 A2977 RMK SLP080 T02570218 52010 IEM_DS3505
ZGSZ,2009-11-10 01:00,ZGSZ 100100Z AUTO 21004KT 7SM 27/22 A2977 RMK T02700220 IEM_DS3505
ZGSZ,2009-11-10 02:00,ZGSZ 100200Z AUTO 18004KT 7SM 29/22 A2980 RMK T02900220 IEM_DS3505
ZGSZ,2009-11-10 03:00,ZGSZ 100300Z AUTO 25002KT 16SM 28/20 A2977 RMK SLP081 T02850197 52001 IEM_DS3505
ZGSZ,2009-11-10 04:00,ZGSZ 100400Z AUTO 26004KT 7SM 30/21 A2974 RMK T03000210 IEM_DS3505
ZGSZ,2009-11-10 05:00,ZGSZ 100500Z AUTO 22006KT 7SM 29/21 A2971 RMK T02900210 IEM_DS3505
ZGSZ,2009-11-10 06:00,ZGSZ 100600Z AUTO 22006KT 17SM 30/19 A2968 RMK SLP058 T02960190 57023 IEM_DS3505
ZGSZ,2009-11-10 07:00,ZGSZ 100700Z AUTO 19008KT 7SM 29/22 A2968 RMK T02900220 IEM_DS3505
ZGSZ,2009-11-10 08:00,ZGSZ 100800Z AUTO 18012KT 6SM 28/22 A2968 RMK T02800220 IEM_DS3505
ZGSZ,2009-11-10 09:00,ZGSZ 100900Z AUTO 20008KT 16SM 27/21 A2968 RMK SLP053 T02740207 57005 IEM_DS3505
ZGSZ,2009-11-10 10:00,ZGSZ 101000Z AUTO 17012KT 7SM 26/22 A2968 RMK T02600220 IEM_DS3505
ZGSZ,2009-11-10 11:00,ZGSZ 101100Z AUTO 17010KT 7SM 27/23 A2971 RMK T02700230 IEM_DS3505
ZGSZ,2009-11-10 12:00,ZGSZ 101200Z AUTO 00000KT 16SM 25/22 A2971 RMK SLP069 T02540219 52016 IEM_DS3505
ZGSZ,2009-11-10 13:00,ZGSZ 101300Z AUTO 17010KT 7SM 26/22 A2974 RMK T02600220 IEM_DS3505
ZGSZ,2009-11-10 14:00,ZGSZ 101400Z AUTO 16008KT 7SM 26/22 A2974 RMK T02600220 IEM_DS3505
ZGSZ,2009-11-10 15:00,ZGSZ 101500Z AUTO 22002KT 16SM 25/22 A2974 RMK SLP074 T02480215 52005 IEM_DS3505
ZGSZ,2009-11-10 16:00,ZGSZ 101600Z AUTO 16006KT 6SM 25/22 A2974 RMK T02500220 IEM_DS3505
ZGSZ,2009-11-10 17:00,ZGSZ 101700Z AUTO 16004KT 6SM 25/22 A2974 RMK T02500220 IEM_DS3505
ZGSZ,2009-11-10 18:00,ZGSZ 101800Z AUTO 00000KT 16SM 24/21 A2971 RMK SLP068 T02400211 57006 IEM_DS3505
ZGSZ,2009-11-10 19:00,ZGSZ 101900Z AUTO 15004KT 6SM 24/21 A2974 RMK T02400210 IEM_DS3505
ZGSZ,2009-11-10 20:00,ZGSZ 102000Z AUTO 06002KT 7SM 25/21 A2974 RMK T02500210 IEM_DS3505
ZGSZ,2009-11-10 21:00,ZGSZ 102100Z AUTO 07002KT 14SM 24/21 A2974 RMK SLP077 T02430214 52009 IEM_DS3505
ZGSZ,2009-11-10 22:00,ZGSZ 102200Z AUTO 11004KT 7SM 25/21 A2977 RMK T02500210 IEM_DS3505
ZGSZ,2009-11-10 23:00,ZGSZ 102300Z AUTO 12004KT 7SM 25/21 A2977 RMK T02500210 IEM_DS3505
ZGSZ,2009-11-11 00:00,ZGSZ 110000Z AUTO 00000KT 14SM 26/21 A2980 RMK SLP093 T02620214 52016 IEM_DS3505
ZGSZ,2009-11-11 01:00,ZGSZ 110100Z AUTO 14010KT 6SM 27/21 A2980 RMK T02700210 IEM_DS3505
ZGSZ,2009-11-11 02:00,ZGSZ 110200Z AUTO 16010KT 7SM 28/21 A2980 RMK T02800210 IEM_DS3505
ZGSZ,2009-11-11 03:00,ZGSZ 110300Z AUTO 20006KT 17SM 29/20 A2980 RMK SLP096 T02890201 52003 IEM_DS3505
ZGSZ,2009-11-11 04:00,ZGSZ 110400Z AUTO 18014KT 7SM 30/21 A2977 RMK T03000210 IEM_DS3505
ZGSZ,2009-11-11 05:00,ZGSZ 110500Z AUTO 18016KT 7SM 30/20 A2977 RMK T03000200 IEM_DS3505
ZGSZ,2009-11-11 06:00,ZGSZ 110600Z AUTO 18004KT 19SM 30/19 A2974 RMK SLP076 T03050186 57020 IEM_DS3505
ZGSZ,2009-11-11 07:00,ZGSZ 110700Z AUTO 15016KT 7SM 30/19 A2971 RMK T03000190 IEM_DS3505
ZGSZ,2009-11-11 08:00,ZGSZ 110800Z AUTO 14016KT 7SM 30/19 A2974 RMK T03000190 IEM_DS3505
ZGSZ,2009-11-11 09:00,ZGSZ 110900Z AUTO 11008KT 19SM 27/19 A2974 RMK SLP077 T02700194 52001 IEM_DS3505
ZGSZ,2009-11-11 10:00,ZGSZ 111000Z AUTO 15014KT 7SM 28/18 A2977 RMK T02800180 IEM_DS3505
ZGSZ,2009-11-11 11:00,ZGSZ 111100Z AUTO 13014KT 7SM 27/19 A2977 RMK T02700190 IEM_DS3505
ZGSZ,2009-11-11 12:00,ZGSZ 111200Z AUTO 14008KT 19SM 26/20 A2980 RMK SLP097 T02620198 52020 IEM_DS3505
ZGSZ,2009-11-11 13:00,ZGSZ 111300Z AUTO 13016KT 7SM 27/20 A2980 RMK T02700200 IEM_DS3505
ZGSZ,2009-11-11 14:00,ZGSZ 111400Z AUTO 14014KT 6SM 27/20 A2983 RMK T02700200 IEM_DS3505
ZGSZ,2009-11-11 15:00,ZGSZ 111500Z AUTO 09004KT 16SM 25/21 A2983 RMK SLP110 T02500207 52013 IEM_DS3505
ZGSZ,2009-11-11 16:00,ZGSZ 111600Z AUTO 14016KT 6SM 27/20 A2983 RMK T02700200 IEM_DS3505
ZGSZ,2009-11-11 17:00,ZGSZ 111700Z AUTO 14017KT 6SM 27/20 A2983 RMK T02700200 IEM_DS3505
ZGSZ,2009-11-11 18:00,ZGSZ 111800Z AUTO 11006KT 16SM 25/20 A2983 RMK SLP105 T02510204 57005 IEM_DS3505
ZGSZ,2009-11-11 19:00,ZGSZ 111900Z AUTO 14014KT 6SM 26/20 A2983 RMK T02600200 IEM_DS3505
ZGSZ,2009-11-11 20:00,ZGSZ 112000Z AUTO 13012KT 6SM 26/20 A2983 RMK T02600200 IEM_DS3505
ZGSZ,2009-11-11 21:00,ZGSZ 112100Z AUTO 09004KT 16SM 25/20 A2985 RMK SLP111 T02460205 52005 IEM_DS3505
ZGSZ,2009-11-11 22:00,ZGSZ 112200Z AUTO 12008KT 7SM 26/20 A2985 RMK T02600200 IEM_DS3505
ZGSZ,2009-11-11 23:00,ZGSZ 112300Z AUTO 12006KT 6SM 26/21 A2988 RMK T02600210 IEM_DS3505
ZGSZ,2009-11-12 00:00,ZGSZ 120000Z AUTO 07002KT 14SM 25/21 A2988 RMK SLP129 T02540213 52018 IEM_DS3505
ZGSZ,2009-11-12 01:00,ZGSZ 120100Z AUTO 13010KT 7SM 27/21 A2991 RMK T02700210 IEM_DS3505
ZGSZ,2009-11-12 02:00,ZGSZ 120200Z AUTO 15010KT 7SM 28/21 A2991 RMK T02800210 IEM_DS3505
ZGSZ,2009-11-12 03:00,ZGSZ 120300Z AUTO 04002KT 14SM 26/21 A2991 RMK SLP135 T02640214 52006 IEM_DS3505
ZGSZ,2009-11-12 04:00,ZGSZ 120400Z AUTO 17008KT 7SM 28/21 A2988 RMK T02800210 IEM_DS3505
ZGSZ,2009-11-12 05:00,ZGSZ 120500Z AUTO 20006KT 7SM 27/23 A2988 RMK T02700230 IEM_DS3505
ZGSZ,2009-11-12 06:00,ZGSZ 120600Z AUTO 16002KT 16SM 27/21 A2988 RMK 60000 SLP117 T02660211 57018 IEM_DS3505
ZGSZ,2009-11-12 07:00,ZGSZ 120700Z AUTO 28004KT 2SM 25/23 A2985 RMK T02500230 IEM_DS3505
ZGSZ,2009-11-12 08:00,ZGSZ 120800Z AUTO 01006KT 3SM 24/22 A2988 RMK T02400220 IEM_DS3505
ZGSZ,2009-11-12 09:00,ZGSZ 120900Z AUTO 36006KT 5SM 23/22 A2988 RMK SLP121 T02340217 52004 IEM_DS3505
ZGSZ,2009-11-12 10:00,ZGSZ 121000Z AUTO 02008KT 3SM 22/20 A2991 RMK T02200200 IEM_DS3505
ZGSZ,2009-11-12 11:00,ZGSZ 121100Z AUTO 02006KT 4SM 22/20 A2991 RMK T02200200 IEM_DS3505
ZGSZ,2009-11-12 12:00,ZGSZ 121200Z AUTO 04002KT 9SM 22/20 A2994 RMK 60051 SLP140 T02210204 52019 IEM_DS3505
ZGSZ,2009-11-12 13:00,ZGSZ 121300Z AUTO 35008KT 3SM 22/20 A2994 RMK T02200200 IEM_DS3505
ZGSZ,2009-11-12 14:00,ZGSZ 121400Z AUTO 36010KT 3SM 21/19 A2997 RMK T02100190 IEM_DS3505
ZGSZ,2009-11-12 15:00,ZGSZ 121500Z AUTO 04002KT 3SM 21/19 A2997 RMK SLP149 T02070192 52009 IEM_DS3505
ZGSZ,2009-11-12 16:00,ZGSZ 121600Z AUTO 33016KT 3SM 18/16 A2997 RMK T01800160 IEM_DS3505
ZGSZ,2009-11-12 17:00,ZGSZ 121700Z AUTO 34012G23KT 3SM 17/15 A2997 RMK T01700150 IEM_DS3505
ZGSZ,2009-11-12 18:00,ZGSZ 121800Z AUTO 33016KT 2 1/2SM 15/14 A3000 RMK T01500140 IEM_DS3505
ZGSZ,2009-11-12 19:00,ZGSZ 121900Z AUTO 33017KT 3SM 14/12 A3000 RMK T01400120 IEM_DS3505
ZGSZ,2009-11-12 20:00,ZGSZ 122000Z AUTO 32014KT 4SM 14/12 A3000 RMK T01400120 IEM_DS3505
ZGSZ,2009-11-12 21:00,ZGSZ 122100Z AUTO 32004KT 6SM 14/13 A3000 RMK 70080 SLP159 T01420128 52006 IEM_DS3505
ZGSZ,2009-11-12 22:00,ZGSZ 122200Z AUTO 01004KT 7SM 15/13 A3000 RMK T01500130 IEM_DS3505
ZGSZ,2009-11-12 23:00,ZGSZ 122300Z AUTO 35008KT 7SM 15/13 A3000 RMK T01500130 IEM_DS3505
ZGSZ,2009-11-13 00:00,ZGSZ 130000Z AUTO 36006KT 9SM 15/13 A3003 RMK 60008 70080 SLP171 T01530132 52012 IEM_DS3505
ZGSZ,2009-11-13 01:00,ZGSZ 130100Z AUTO 33010KT 7SM 15/12 A3006 RMK T01500120 IEM_DS3505
ZGSZ,2009-11-13 02:00,ZGSZ 130200Z AUTO 34010KT 7SM 15/12 A3006 RMK T01500120 IEM_DS3505
ZGSZ,2009-11-13 03:00,ZGSZ 130300Z AUTO 34008KT 7SM 16/12 A3003 RMK SLP171 T01560122 54000 IEM_DS3505
ZGSZ,2009-11-13 04:00,ZGSZ 130400Z AUTO 34012G21KT 7SM 17/12 A3003 RMK T01700120 IEM_DS3505
ZGSZ,2009-11-13 05:00,ZGSZ 130500Z AUTO 36012KT 7SM 18/11 A3000 RMK T01800110 IEM_DS3505
ZGSZ,2009-11-13 06:00,ZGSZ 130600Z AUTO 02010G21KT 10SM 18/11 A2994 RMK SLP142 T01810112 57029 IEM_DS3505
ZGSZ,2009-11-13 07:00,ZGSZ 130700Z AUTO 35012KT 7SM 20/11 A2994 RMK T02000110 IEM_DS3505
ZGSZ,2009-11-13 08:00,ZGSZ 130800Z AUTO 36012KT 7SM 19/11 A2991 RMK T01900110 IEM_DS3505
ZGSZ,2009-11-13 09:00,ZGSZ 130900Z AUTO 02012KT 11SM 18/11 A2994 RMK SLP136 T01780111 57006 IEM_DS3505
ZGSZ,2009-11-13 10:00,ZGSZ 131000Z AUTO 36012KT 7SM 18/11 A2994 RMK T01800110 IEM_DS3505
ZGSZ,2009-11-13 11:00,ZGSZ 131100Z AUTO 03010KT 7SM 18/10 A2997 RMK T01800100 IEM_DS3505
ZGSZ,2009-11-13 12:00,ZGSZ 131200Z AUTO 36010KT 12SM 16/09 A3000 RMK SLP155 T01570094 52018 IEM_DS3505
ZGSZ,2009-11-13 13:00,ZGSZ 131300Z AUTO 03012KT 6SM 16/09 A3000 RMK T01600090 IEM_DS3505
ZGSZ,2009-11-13 14:00,ZGSZ 131400Z AUTO 01012KT 6SM 16/09 A3000 RMK T01600090 IEM_DS3505
ZGSZ,2009-11-13 15:00,ZGSZ 131500Z AUTO 36006KT 12SM 14/08 A3003 RMK SLP168 T01390079 52013 IEM_DS3505
ZGSZ,2009-11-13 16:00,ZGSZ 131600Z AUTO 02012KT 6SM 14/08 A3000 RMK T01400080 IEM_DS3505
ZGSZ,2009-11-13 17:00,ZGSZ 131700Z AUTO 03010KT 6SM 13/08 A3000 RMK T01300080 IEM_DS3505
ZGSZ,2009-11-13 18:00,ZGSZ 131800Z AUTO 36004KT 11SM 13/08 A3000 RMK SLP162 T01270076 57006 IEM_DS3505
ZGSZ,2009-11-13 19:00,ZGSZ 131900Z AUTO 03012KT 7SM 13/07 A3000 RMK T01300070 IEM_DS3505
ZGSZ,2009-11-13 20:00,ZGSZ 132000Z AUTO 03012KT 7SM 13/07 A3000 RMK T01300070 IEM_DS3505
ZGSZ,2009-11-13 21:00,ZGSZ 132100Z AUTO 02006KT 10SM 13/08 A3000 RMK 70000 SLP160 T01280077 57002 IEM_DS3505
ZGSZ,2009-11-13 22:00,ZGSZ 132200Z AUTO 03010KT 7SM 13/08 A3000 RMK T01300080 IEM_DS3505
ZGSZ,2009-11-13 23:00,ZGSZ 132300Z AUTO 02010KT 7SM 13/08 A3003 RMK T01300080 IEM_DS3505
ZGSZ,2009-11-14 00:00,ZGSZ 140000Z AUTO 02008KT 7SM 13/08 A3003 RMK SLP173 T01260075 52013 IEM_DS3505
ZGSZ,2009-11-14 01:00,ZGSZ 140100Z AUTO 02010KT 7SM 14/07 A3006 RMK T01400070 IEM_DS3505
ZGSZ,2009-11-14 02:00,ZGSZ 140200Z AUTO 03010KT 7SM 14/07 A3006 RMK T01400070 IEM_DS3505
ZGSZ,2009-11-14 03:00,ZGSZ 140300Z AUTO 02008KT 7SM 14/08 A3003 RMK SLP174 T01430083 52001 IEM_DS3505
ZGSZ,2009-11-14 04:00,ZGSZ 140400Z AUTO 01012KT 7SM 15/08 A3003 RMK T01500080 IEM_DS3505
ZGSZ,2009-11-14 05:00,ZGSZ 140500Z AUTO 02010KT 7SM 15/08 A3000 RMK T01500080 IEM_DS3505
ZGSZ,2009-11-14 06:00,ZGSZ 140600Z AUTO 36008KT 7SM 15/08 A2997 RMK SLP149 T01470084 57025 IEM_DS3505
ZGSZ,2009-11-14 07:00,ZGSZ 140700Z AUTO 01012KT 5SM 15/08 A2994 RMK T01500080 IEM_DS3505
ZGSZ,2009-11-14 08:00,ZGSZ 140800Z AUTO 02010KT 5SM 15/08 A2994 RMK T01500080 IEM_DS3505
ZGSZ,2009-11-14 09:00,ZGSZ 140900Z AUTO 36008KT 5SM 14/09 A2997 RMK SLP147 T01430087 57002 IEM_DS3505
ZGSZ,2009-11-14 10:00,ZGSZ 141000Z AUTO 03008KT 4SM 15/09 A2997 RMK T01500090 IEM_DS3505
ZGSZ,2009-11-14 11:00,ZGSZ 141100Z AUTO 03010KT 4SM 14/09 A2997 RMK T01400090 IEM_DS3505
ZGSZ,2009-11-14 12:00,ZGSZ 141200Z AUTO 36006KT 6SM 14/09 A2997 RMK SLP155 T01440088 52008 IEM_DS3505
ZGSZ,2009-11-14 13:00,ZGSZ 141300Z AUTO 36008KT 4SM 15/09 A3000 RMK T01500090 IEM_DS3505
ZGSZ,2009-11-14 14:00,ZGSZ 141400Z AUTO 04008KT 4SM 15/08 A3000 RMK T01500080 IEM_DS3505
ZGSZ,2009-11-14 15:00,ZGSZ 141500Z AUTO 04006KT 7SM 14/09 A3000 RMK SLP161 T01450089 52006 IEM_DS3505
ZGSZ,2009-11-14 16:00,ZGSZ 141600Z AUTO 01008KT 7SM 15/09 A3000 RMK T01500090 IEM_DS3505
ZGSZ,2009-11-14 17:00,ZGSZ 141700Z AUTO 03008KT 7SM 14/09 A2997 RMK T01400090 IEM_DS3505
ZGSZ,2009-11-14 18:00,ZGSZ 141800Z AUTO 02008KT 7SM 14/09 A2997 RMK SLP150 T01430093 57011 IEM_DS3505
ZGSZ,2009-11-14 19:00,ZGSZ 141900Z AUTO 03006KT 7SM 14/09 A2994 RMK T01400090 IEM_DS3505
ZGSZ,2009-11-14 20:00,ZGSZ 142000Z AUTO 03008KT 7SM 15/09 A2994 RMK T01500090 IEM_DS3505
ZGSZ,2009-11-14 21:00,ZGSZ 142100Z AUTO 04006KT 7SM 14/09 A2994 RMK 70000 SLP142 T01400090 57008 IEM_DS3505
ZGSZ,2009-11-14 22:00,ZGSZ 142200Z AUTO 01008KT 7SM 14/09 A2997 RMK T01400090 IEM_DS3505
ZGSZ,2009-11-14 23:00,ZGSZ 142300Z AUTO 02006KT 7SM 15/09 A2997 RMK T01500090 IEM_DS3505
ZGSZ,2009-11-15 00:00,ZGSZ 150000Z AUTO 04006KT 5SM 14/10 A2997 RMK 60000 70000 SLP152 T01440100 52010 IEM_DS3505
ZGSZ,2009-11-15 01:00,ZGSZ 150100Z AUTO 01008KT 4SM 15/11 A3000 RMK T01500110 IEM_DS3505
ZGSZ,2009-11-15 02:00,ZGSZ 150200Z AUTO 03004KT 5SM 16/11 A2997 RMK T01600110 IEM_DS3505
ZGSZ,2009-11-15 03:00,ZGSZ 150300Z AUTO 02004KT 4SM 16/11 A2997 RMK SLP154 T01640113 52002 IEM_DS3505
ZGSZ,2009-11-15 04:00,ZGSZ 150400Z AUTO 36008KT 4SM 17/11 A2994 RMK T01700110 IEM_DS3505
ZGSZ,2009-11-15 05:00,ZGSZ 150500Z AUTO 35008KT 4SM 17/11 A2991 RMK T01700110 IEM_DS3505
ZGSZ,2009-11-15 06:00,ZGSZ 150600Z AUTO 07004KT 4SM 18/13 A2988 RMK 60000 SLP122 T01780127 57031 IEM_DS3505
ZGSZ,2009-11-15 07:00,ZGSZ 150700Z AUTO 01008KT 4SM 17/11 A2988 RMK T01700110 IEM_DS3505
ZGSZ,2009-11-15 08:00,ZGSZ 150800Z AUTO 01006KT 4SM 17/12 A2988 RMK T01700120 IEM_DS3505
ZGSZ,2009-11-15 09:00,ZGSZ 150900Z AUTO 02004KT 4SM 17/13 A2988 RMK SLP118 T01720129 57004 IEM_DS3505
ZGSZ,2009-11-15 10:00,ZGSZ 151000Z AUTO 01008KT 3SM 17/12 A2988 RMK T01700120 IEM_DS3505
ZGSZ,2009-11-15 11:00,ZGSZ 151100Z AUTO 34006KT 3SM 16/13 A2991 RMK T01600130 IEM_DS3505
ZGSZ,2009-11-15 12:00,ZGSZ 151200Z AUTO 32002KT 2 1/2SM 17/14 A2991 RMK 60000 SLP133 T01720139 52015 IEM_DS3505
ZGSZ,2009-11-15 13:00,ZGSZ 151300Z AUTO 35008KT 3SM 16/13 A2994 RMK T01600130 IEM_DS3505
ZGSZ,2009-11-15 14:00,ZGSZ 151400Z AUTO 36008KT 2 1/2SM 16/13 A2994 RMK T01600130 IEM_DS3505
ZGSZ,2009-11-15 15:00,ZGSZ 151500Z AUTO 29002KT 2SM 17/14 A2994 RMK SLP144 T01670143 52011 IEM_DS3505
ZGSZ,2009-11-15 16:00,ZGSZ 151600Z AUTO 36008KT 2 1/2SM 16/13 A2994 RMK T01600130 IEM_DS3505
ZGSZ,2009-11-15 17:00,ZGSZ 151700Z AUTO 36010KT 3SM 16/13 A2994 RMK T01600130 IEM_DS3505
ZGSZ,2009-11-15 18:00,ZGSZ 151800Z AUTO 36002KT 1SM 16/14 A2994 RMK 60001 SLP140 T01570141 57004 IEM_DS3505
ZGSZ,2009-11-15 19:00,ZGSZ 151900Z AUTO 36008KT 2 1/2SM 15/13 A2994 RMK T01500130 IEM_DS3505
ZGSZ,2009-11-15 20:00,ZGSZ 152000Z AUTO 35008KT 3SM 14/13 A2994 RMK T01400130 IEM_DS3505
ZGSZ,2009-11-15 21:00,ZGSZ 152100Z AUTO 22002KT 2SM 14/13 A2994 RMK 70018 SLP143 T01450129 52003 IEM_DS3505
ZGSZ,2009-11-15 22:00,ZGSZ 152200Z AUTO 36008KT 3SM 14/12 A2997 RMK T01400120 IEM_DS3505
ZGSZ,2009-11-15 23:00,ZGSZ 152300Z AUTO 36012KT 7SM 14/12 A2997 RMK T01400120 IEM_DS3505
ZGSZ,2009-11-16 00:00,ZGSZ 160000Z AUTO 36006KT 4SM 14/13 A3000 RMK 60039 70042 SLP163 T01420129 52019 IEM_DS3505
ZGSZ,2009-11-16 01:00,ZGSZ 160100Z AUTO 36010KT 7SM 14/11 A3003 RMK T01400110 IEM_DS3505
ZGSZ,2009-11-16 02:00,ZGSZ 160200Z AUTO 01010KT 7SM 14/11 A3003 RMK T01400110 IEM_DS3505
ZGSZ,2009-11-16 03:00,ZGSZ 160300Z AUTO 04010KT 16SM 14/11 A3003 RMK SLP172 T01400110 52009 IEM_DS3505
ZGSZ,2009-11-16 04:00,ZGSZ 160400Z AUTO 01014KT 7SM 14/10 A3003 RMK T01400100 IEM_DS3505
ZGSZ,2009-11-16 05:00,ZGSZ 160500Z AUTO 01012KT 7SM 14/10 A3000 RMK T01400100 IEM_DS3505
ZGSZ,2009-11-16 06:00,ZGSZ 160600Z AUTO 34006KT 12SM 14/11 A2997 RMK 60001 SLP149 T01410109 57023 IEM_DS3505
ZGSZ,2009-11-16 07:00,ZGSZ 160700Z AUTO 36012KT 7SM 14/10 A2997 RMK T01400100 IEM_DS3505
ZGSZ,2009-11-16 08:00,ZGSZ 160800Z AUTO 01012KT 7SM 14/10 A2997 RMK T01400100 IEM_DS3505
ZGSZ,2009-11-16 09:00,ZGSZ 160900Z AUTO 02008KT 11SM 13/10 A3000 RMK SLP158 T01300096 52009 IEM_DS3505
ZGSZ,2009-11-16 10:00,ZGSZ 161000Z AUTO 35012KT 7SM 13/10 A3003 RMK T01300100 IEM_DS3505
ZGSZ,2009-11-16 11:00,ZGSZ 161100Z AUTO 01014KT 7SM 13/10 A3006 RMK T01300100 IEM_DS3505
ZGSZ,2009-11-16 12:00,ZGSZ 161200Z AUTO 36010KT 5SM 12/10 A3006 RMK 60000 SLP181 T01170096 52023 IEM_DS3505
ZGSZ,2009-11-16 13:00,ZGSZ 161300Z AUTO 01014KT 7SM 12/09 A3009 RMK T01200090 IEM_DS3505
ZGSZ,2009-11-16 14:00,ZGSZ 161400Z AUTO 36014KT 7SM 12/08 A3012 RMK T01200080 IEM_DS3505
ZGSZ,2009-11-16 15:00,ZGSZ 161500Z AUTO 36006KT 7SM 11/08 A3012 RMK SLP203 T01060085 52021 IEM_DS3505
ZGSZ,2009-11-16 16:00,ZGSZ 161600Z AUTO 01016G25KT 7SM 11/07 A3015 RMK T01100070 IEM_DS3505
ZGSZ,2009-11-16 17:00,ZGSZ 161700Z AUTO 03014KT 7SM 11/07 A3015 RMK T01100070 IEM_DS3505
ZGSZ,2009-11-16 18:00,ZGSZ 161800Z AUTO 36012KT 10SM 10/07 A3015 RMK 60008 SLP207 T00970070 52004 IEM_DS3505
ZGSZ,2009-11-16 19:00,ZGSZ 161900Z AUTO 01012G21KT 7SM 11/05 A3015 RMK T01100050 IEM_DS3505
ZGSZ,2009-11-16 20:00,ZGSZ 162000Z AUTO 01014G23KT 7SM 11/05 A3015 RMK T01100050 IEM_DS3505
ZGSZ,2009-11-16 21:00,ZGSZ 162100Z AUTO 02008G21KT 12SM 09/05 A3018 RMK 70033 SLP215 T00930047 52008 IEM_DS3505
ZGSZ,2009-11-16 22:00,ZGSZ 162200Z AUTO 01014KT 7SM 10/04 A3021 RMK T01000040 IEM_DS3505
ZGSZ,2009-11-16 23:00,ZGSZ 162300Z AUTO 01014KT 7SM 10/04 A3021 RMK T01000040 IEM_DS3505
ZGSZ,2009-11-17 00:00,ZGSZ 170000Z AUTO 02016G23KT 16SM 10/04 A3024 RMK 60000 70009 SLP236 T00950045 52021 IEM_DS3505
ZGSZ,2009-11-17 01:00,ZGSZ 170100Z AUTO 02019G29KT 7SM 11/03 A3027 RMK T01100030 IEM_DS3505
ZGSZ,2009-11-17 02:00,ZGSZ 170200Z AUTO 01017G27KT 6SM 13/03 A3027 RMK T01300030 IEM_DS3505
ZGSZ,2009-11-17 03:00,ZGSZ 170300Z AUTO 36012G25KT 16SM 11/04 A3027 RMK SLP248 T01060039 52011 IEM_DS3505
ZGSZ,2009-11-17 04:00,ZGSZ 170400Z AUTO 35016KT 6SM 15/04 A3024 RMK T01500040 IEM_DS3505
ZGSZ,2009-11-17 05:00,ZGSZ 170500Z AUTO 02016G25KT 6SM 15/04 A3021 RMK T01500040 IEM_DS3505
ZGSZ,2009-11-17 06:00,ZGSZ 170600Z AUTO 02014G25KT 16SM 12/03 A3018 RMK SLP223 T01190029 57024 IEM_DS3505
ZGSZ,2009-11-17 07:00,ZGSZ 170700Z AUTO 02016KT 6SM 14/03 A3018 RMK T01400030 IEM_DS3505
ZGSZ,2009-11-17 08:00,ZGSZ 170800Z AUTO 03016KT 6SM 14/03 A3018 RMK T01400030 IEM_DS3505
ZGSZ,2009-11-17 09:00,ZGSZ 170900Z AUTO 36014KT 14SM 11/03 A3018 RMK SLP222 T01130033 57001 IEM_DS3505
ZGSZ,2009-11-17 10:00,ZGSZ 171000Z AUTO 03014G23KT 6SM 12/02 A3021 RMK T01200020 IEM_DS3505
ZGSZ,2009-11-17 11:00,ZGSZ 171100Z AUTO 03012KT 6SM 11/02 A3021 RMK T01100020 IEM_DS3505
ZGSZ,2009-11-17 12:00,ZGSZ 171200Z AUTO 36010KT 14SM 10/02 A3024 RMK SLP239 T00960025 52016 IEM_DS3505
ZGSZ,2009-11-17 13:00,ZGSZ 171300Z AUTO 02014KT 6SM 09/02 A3024 RMK T00900020 IEM_DS3505
ZGSZ,2009-11-17 14:00,ZGSZ 171400Z AUTO 02012KT 7SM 09/01 A3024 RMK T00900010 IEM_DS3505
ZGSZ,2009-11-17 15:00,ZGSZ 171500Z AUTO 36006KT 13SM 08/02 A3027 RMK SLP244 T00840015 52005 IEM_DS3505
ZGSZ,2009-11-17 16:00,ZGSZ 171600Z AUTO 02016KT 7SM 09/01 A3027 RMK T00900010 IEM_DS3505
ZGSZ,2009-11-17 17:00,ZGSZ 171700Z AUTO 03014KT 7SM 08/01 A3024 RMK T00800010 IEM_DS3505
ZGSZ,2009-11-17 18:00,ZGSZ 171800Z AUTO 36012KT 12SM 08/02 A3027 RMK SLP244 T00790015 54000 IEM_DS3505
ZGSZ,2009-11-17 19:00,ZGSZ 171900Z AUTO 02010KT 7SM 08/01 A3027 RMK T00800010 IEM_DS3505
ZGSZ,2009-11-17 20:00,ZGSZ 172000Z AUTO 01012KT 7SM 08/01 A3024 RMK T00800010 IEM_DS3505
ZGSZ,2009-11-17 21:00,ZGSZ 172100Z AUTO 02002KT 10SM 07/02 A3027 RMK SLP246 T00740015 52002 IEM_DS3505
ZGSZ,2009-11-17 22:00,ZGSZ 172200Z AUTO 01012KT 7SM 08/02 A3027 RMK T00800020 IEM_DS3505
ZGSZ,2009-11-17 23:00,ZGSZ 172300Z AUTO 03010KT 7SM 08/02 A3027 RMK T00800020 IEM_DS3505
ZGSZ,2009-11-18 00:00,ZGSZ 180000Z AUTO 02006KT 8SM 08/02 A3030 RMK SLP257 T00780019 52011 IEM_DS3505
ZGSZ,2009-11-18 01:00,ZGSZ 180100Z AUTO 02012KT 7SM 09/02 A3030 RMK T00900020 IEM_DS3505
ZGSZ,2009-11-18 02:00,ZGSZ 180200Z AUTO 02010KT 7SM 09/03 A3033 RMK T00900030 IEM_DS3505
ZGSZ,2009-11-18 03:00,ZGSZ 180300Z AUTO 02008KT 7SM 09/03 A3030 RMK SLP258 T00910027 52001 IEM_DS3505
ZGSZ,2009-11-18 04:00,ZGSZ 180400Z AUTO 03012KT 7SM 11/03 A3024 RMK T01100030 IEM_DS3505
ZGSZ,2009-11-18 05:00,ZGSZ 180500Z AUTO 02014KT 7SM 12/04 A3021 RMK T01200040 IEM_DS3505
ZGSZ,2009-11-18 06:00,ZGSZ 180600Z AUTO 07008KT 7SM 13/04 A3018 RMK SLP222 T01260041 57035 IEM_DS3505
ZGSZ,2009-11-18 07:00,ZGSZ 180700Z AUTO 35012KT 7SM 12/04 A3018 RMK T01200040 IEM_DS3505
ZGSZ,2009-11-18 08:00,ZGSZ 180800Z AUTO 03012KT 7SM 12/04 A3018 RMK T01200040 IEM_DS3505
ZGSZ,2009-11-18 09:00,ZGSZ 180900Z AUTO 02008KT 7SM 11/04 A3018 RMK SLP226 T01100042 52003 IEM_DS3505
ZGSZ,2009-11-18 10:00,ZGSZ 181000Z AUTO 02012KT 7SM 12/04 A3021 RMK T01200040 IEM_DS3505
ZGSZ,2009-11-18 12:00,ZGSZ 181200Z AUTO 04006KT 7SM 11/04 A3027 RMK SLP248 T01080043 52022 IEM_DS3505
ZGSZ,2009-11-18 13:00,ZGSZ 181300Z AUTO 03010KT 7SM 11/05 A3027 RMK T01100050 IEM_DS3505
ZGSZ,2009-11-18 14:00,ZGSZ 181400Z AUTO 01012KT 7SM 11/04 A3030 RMK T01100040 IEM_DS3505
ZGSZ,2009-11-18 15:00,ZGSZ 181500Z AUTO 36006KT 6SM 10/05 A3030 RMK SLP261 T01020046 52013 IEM_DS3505
ZGSZ,2009-11-18 16:00,ZGSZ 181600Z AUTO 03010KT 7SM 11/04 A3030 RMK T01100040 IEM_DS3505
ZGSZ,2009-11-18 17:00,ZGSZ 181700Z AUTO 03008KT 7SM 10/04 A3030 RMK T01000040 IEM_DS3505
ZGSZ,2009-11-18 18:00,ZGSZ 181800Z AUTO 36006KT 6SM 10/04 A3027 RMK SLP255 T00950045 57005 IEM_DS3505
ZGSZ,2009-11-18 19:00,ZGSZ 181900Z AUTO 01010KT 7SM 11/04 A3027 RMK T01100040 IEM_DS3505
ZGSZ,2009-11-18 20:00,ZGSZ 182000Z AUTO 01012KT 7SM 10/03 A3027 RMK T01000030 IEM_DS3505
ZGSZ,2009-11-18 21:00,ZGSZ 182100Z AUTO 04006KT 8SM 09/04 A3027 RMK SLP256 T00940036 54000 IEM_DS3505
ZGSZ,2009-11-18 22:00,ZGSZ 182200Z AUTO 36014KT 7SM 10/03 A3030 RMK T01000030 IEM_DS3505
ZGSZ,2009-11-18 23:00,ZGSZ 182300Z AUTO 01012KT 7SM 10/03 A3030 RMK T01000030 IEM_DS3505
ZGSZ,2009-11-19 00:00,ZGSZ 190000Z AUTO 36010KT 9SM 10/03 A3033 RMK SLP267 T00960031 52011 IEM_DS3505
ZGSZ,2009-11-19 01:00,ZGSZ 190100Z AUTO 01014KT 6SM 12/03 A3033 RMK T01200030 IEM_DS3505
ZGSZ,2009-11-19 02:00,ZGSZ 190200Z AUTO 36014KT 6SM 14/04 A3033 RMK T01400040 IEM_DS3505
ZGSZ,2009-11-19 03:00,ZGSZ 190300Z AUTO 36010KT 7SM 13/05 A3030 RMK SLP260 T01340046 57006 IEM_DS3505
ZGSZ,2009-11-19 04:00,ZGSZ 190400Z AUTO 35012G23KT 6SM 15/04 A3027 RMK T01500040 IEM_DS3505
ZGSZ,2009-11-19 05:00,ZGSZ 190500Z AUTO 01012KT 6SM 17/05 A3024 RMK T01700050 IEM_DS3505
ZGSZ,2009-11-19 06:00,ZGSZ 190600Z AUTO 02008KT 7SM 16/06 A3021 RMK SLP230 T01640060 57030 IEM_DS3505
ZGSZ,2009-11-19 07:00,ZGSZ 190700Z AUTO 36010KT 6SM 18/05 A3018 RMK T01800050 IEM_DS3505
ZGSZ,2009-11-19 08:00,ZGSZ 190800Z AUTO 01010KT 6SM 17/06 A3018 RMK T01700060 IEM_DS3505
ZGSZ,2009-11-19 09:00,ZGSZ 190900Z AUTO 02010KT 9SM 16/06 A3021 RMK SLP227 T01640060 57003 IEM_DS3505
ZGSZ,2009-11-19 10:00,ZGSZ 191000Z AUTO 36008KT 7SM 16/06 A3021 RMK T01600060 IEM_DS3505
ZGSZ,2009-11-19 11:00,ZGSZ 191100Z AUTO 33008KT 7SM 15/06 A3024 RMK T01500060 IEM_DS3505
ZGSZ,2009-11-19 12:00,ZGSZ 191200Z 35005MPS 9999 BKN050 15/06 Q1024 NOSIG
ZGSZ,2009-11-19 13:00,ZGSZ 191300Z AUTO 02010KT 7SM 14/06 A3027 RMK T01400060 IEM_DS3505
ZGSZ,2009-11-19 14:00,ZGSZ 191400Z AUTO 02012KT 7SM 14/05 A3030 RMK T01400050 IEM_DS3505
ZGSZ,2009-11-19 15:00,ZGSZ 191500Z AUTO 02004KT 8SM 13/05 A3030 RMK SLP260 T01320046 52013 IEM_DS3505
ZGSZ,2009-11-19 16:00,ZGSZ 191600Z AUTO 01008KT 7SM 13/04 A3030 RMK T01300040 IEM_DS3505
ZGSZ,2009-11-19 17:00,ZGSZ 191700Z AUTO 01010KT 7SM 13/04 A3030 RMK T01300040 IEM_DS3505
ZGSZ,2009-11-19 18:00,ZGSZ 191800Z AUTO 36004KT 7SM 12/05 A3030 RMK SLP260 T01220047 54000 IEM_DS3505
ZGSZ,2009-11-19 19:00,ZGSZ 191900Z AUTO 03010KT 7SM 13/04 A3030 RMK T01300040 IEM_DS3505
ZGSZ,2009-11-19 20:00,ZGSZ 192000Z AUTO 01010KT 7SM 12/04 A3027 RMK T01200040 IEM_DS3505
ZGSZ,2009-11-19 21:00,ZGSZ 192100Z AUTO 02006KT 6SM 12/04 A3030 RMK SLP257 T01160041 57003 IEM_DS3505
ZGSZ,2009-11-19 22:00,ZGSZ 192200Z AUTO 01012KT 7SM 12/04 A3030 RMK T01200040 IEM_DS3505
ZGSZ,2009-11-19 23:00,ZGSZ 192300Z AUTO 02012KT 7SM 12/04 A3033 RMK T01200040 IEM_DS3505
ZGSZ,2009-11-20 00:00,ZGSZ 200000Z AUTO 04006KT 7SM 11/04 A3036 RMK SLP277 T01110041 52020 IEM_DS3505
ZGSZ,2009-11-20 01:00,ZGSZ 200100Z AUTO 02010KT 7SM 13/04 A3036 RMK T01300040 IEM_DS3505
ZGSZ,2009-11-20 02:00,ZGSZ 200200Z AUTO 36012KT 7SM 14/04 A3036 RMK T01400040 IEM_DS3505
ZGSZ,2009-11-20 03:00,ZGSZ 200300Z AUTO 02010KT 6SM 13/04 A3036 RMK SLP276 T01330042 57001 IEM_DS3505
ZGSZ,2009-11-20 04:00,ZGSZ 200400Z AUTO 02014KT 6SM 17/04 A3030 RMK T01700040 IEM_DS3505
ZGSZ,2009-11-20 05:00,ZGSZ 200500Z AUTO 01014KT 6SM 17/05 A3027 RMK T01700050 IEM_DS3505
ZGSZ,2009-11-20 06:00,ZGSZ 200600Z AUTO 34008KT 7SM 16/05 A3024 RMK SLP241 T01640054 57034 IEM_DS3505
ZGSZ,2009-11-20 07:00,ZGSZ 200700Z AUTO 01014KT 6SM 18/06 A3024 RMK T01800060 IEM_DS3505
ZGSZ,2009-11-20 08:00,ZGSZ 200800Z AUTO 36014KT 6SM 18/05 A3024 RMK T01800050 IEM_DS3505
ZGSZ,2009-11-20 09:00,ZGSZ 200900Z AUTO 02008KT 10SM 16/06 A3024 RMK SLP245 T01590058 52003 IEM_DS3505
ZGSZ,2009-11-20 10:00,ZGSZ 201000Z AUTO 36010KT 6SM 16/05 A3027 RMK T01600050 IEM_DS3505
ZGSZ,2009-11-20 11:00,ZGSZ 201100Z AUTO 03010KT 6SM 15/05 A3030 RMK T01500050 IEM_DS3505
ZGSZ,2009-11-20 12:00,ZGSZ 201200Z AUTO 36006G27KT 10SM 14/05 A3030 RMK SLP263 T01370046 52018 IEM_DS3505
ZGSZ,2009-11-20 13:00,ZGSZ 201300Z AUTO 04014KT 6SM 13/03 A3033 RMK T01300030 IEM_DS3505
ZGSZ,2009-11-20 14:00,ZGSZ 201400Z AUTO 03012KT 6SM 13/03 A3033 RMK T01300030 IEM_DS3505
ZGSZ,2009-11-20 15:00,ZGSZ 201500Z AUTO 36010KT 11SM 12/02 A3033 RMK SLP270 T01170022 52007 IEM_DS3505
ZGSZ,2009-11-20 16:00,ZGSZ 201600Z AUTO 02014KT 6SM 12/01 A3033 RMK T01200010 IEM_DS3505
ZGSZ,2009-11-20 17:00,ZGSZ 201700Z AUTO 03014KT 6SM 11/00 A3033 RMK T01100000 IEM_DS3505
ZGSZ,2009-11-20 18:00,ZGSZ 201800Z AUTO 02010KT 12SM 10/01 A3030 RMK SLP262 T01040010 57008 IEM_DS3505
ZGSZ,2009-11-20 19:00,ZGSZ 201900Z AUTO 02014KT 6SM 11/00 A3030 RMK T01100000 IEM_DS3505
ZGSZ,2009-11-20 20:00,ZGSZ 202000Z AUTO 02014KT 6SM 11/00 A3030 RMK T01100000 IEM_DS3505
ZGSZ,2009-11-20 21:00,ZGSZ 202100Z AUTO 36006KT 11SM 10/01 A3030 RMK SLP260 T01000009 57002 IEM_DS3505
ZGSZ,2009-11-20 22:00,ZGSZ 202200Z AUTO 02010KT 6SM 11/00 A3030 RMK T01100000 IEM_DS3505
ZGSZ,2009-11-20 23:00,ZGSZ 202300Z AUTO 02012KT 6SM 11/00 A3033 RMK T01100000 IEM_DS3505
ZGSZ,2009-11-21 00:00,ZGSZ 210000Z AUTO 36006KT 10SM 11/00 A3033 RMK SLP270 T01060001 52010 IEM_DS3505
ZGSZ,2009-11-21 01:00,ZGSZ 210100Z AUTO 03010KT 6SM 12/00 A3036 RMK T01200000 IEM_DS3505
ZGSZ,2009-11-21 02:00,ZGSZ 210200Z AUTO 02010KT 7SM 13/M01 A3033 RMK T01301010 IEM_DS3505
ZGSZ,2009-11-21 03:00,ZGSZ 210300Z AUTO 36010KT 9SM 13/01 A3033 RMK SLP266 T01260007 57004 IEM_DS3505
ZGSZ,2009-11-21 04:00,ZGSZ 210400Z AUTO 36012KT 7SM 16/01 A3030 RMK T01600010 IEM_DS3505
ZGSZ,2009-11-21 05:00,ZGSZ 210500Z AUTO 02012KT 6SM 17/01 A3024 RMK T01700010 IEM_DS3505
ZGSZ,2009-11-21 06:00,ZGSZ 210600Z AUTO 36008KT 9SM 16/03 A3021 RMK SLP230 T01620026 57036 IEM_DS3505
ZGSZ,2009-11-21 07:00,ZGSZ 210700Z AUTO 03008G17KT 6SM 18/03 A3018 RMK T01800030 IEM_DS3505
ZGSZ,2009-11-21 08:00,ZGSZ 210800Z AUTO 36010KT 6SM 18/03 A3018 RMK T01800030 IEM_DS3505
ZGSZ,2009-11-21 09:00,ZGSZ 210900Z AUTO 36006KT 7SM 16/03 A3018 RMK SLP225 T01630034 57005 IEM_DS3505
ZGSZ,2009-11-21 10:00,ZGSZ 211000Z AUTO 02010KT 6SM 17/03 A3021 RMK T01700030 IEM_DS3505
ZGSZ,2009-11-21 11:00,ZGSZ 211100Z AUTO 03006KT 6SM 16/04 A3021 RMK T01600040 IEM_DS3505
ZGSZ,2009-11-21 12:00,ZGSZ 211200Z AUTO 36002KT 7SM 14/04 A3024 RMK SLP241 T01450039 52016 IEM_DS3505
ZGSZ,2009-11-21 13:00,ZGSZ 211300Z AUTO 02006KT 4SM 15/05 A3024 RMK T01500050 IEM_DS3505
ZGSZ,2009-11-21 14:00,ZGSZ 211400Z AUTO 36008KT 5SM 15/03 A3024 RMK T01500030 IEM_DS3505
ZGSZ,2009-11-21 15:00,ZGSZ 211500Z AUTO 36006KT 7SM 14/04 A3024 RMK SLP247 T01370035 52006 IEM_DS3505
ZGSZ,2009-11-21 16:00,ZGSZ 211600Z AUTO 01008KT 5SM 14/05 A3024 RMK T01400050 IEM_DS3505
ZGSZ,2009-11-21 17:00,ZGSZ 211700Z AUTO 01010KT 5SM 13/04 A3024 RMK T01300040 IEM_DS3505
ZGSZ,2009-11-21 18:00,ZGSZ 211800Z AUTO 02004KT 7SM 12/03 A3024 RMK SLP237 T01240034 57009 IEM_DS3505
ZGSZ,2009-11-21 19:00,ZGSZ 211900Z AUTO 36012KT 6SM 12/04 A3021 RMK T01200040 IEM_DS3505
ZGSZ,2009-11-21 20:00,ZGSZ 212000Z AUTO 01010KT 6SM 12/04 A3021 RMK T01200040 IEM_DS3505
ZGSZ,2009-11-21 21:00,ZGSZ 212100Z AUTO 02006KT 8SM 11/03 A3021 RMK SLP233 T01090027 57005 IEM_DS3505
ZGSZ,2009-11-21 22:00,ZGSZ 212200Z AUTO 02008KT 6SM 11/03 A3021 RMK T01100030 IEM_DS3505
ZGSZ,2009-11-21 23:00,ZGSZ 212300Z AUTO 36014KT 6SM 11/02 A3021 RMK T01100020 IEM_DS3505
ZGSZ,2009-11-22 00:00,ZGSZ 220000Z AUTO 02006KT 7SM 11/02 A3021 RMK SLP236 T01070025 52003 IEM_DS3505
ZGSZ,2009-11-22 01:00,ZGSZ 220100Z AUTO 01014G23KT 4SM 13/02 A3024 RMK T01300020 IEM_DS3505
ZGSZ,2009-11-22 02:00,ZGSZ 220200Z AUTO 01014KT 6SM 14/02 A3024 RMK T01400020 IEM_DS3505
ZGSZ,2009-11-22 03:00,ZGSZ 220300Z AUTO 02006KT 7SM 16/04 A3021 RMK SLP228 T01550036 57007 IEM_DS3505
ZGSZ,2009-11-22 04:00,ZGSZ 220400Z AUTO 01012KT 6SM 18/03 A3018 RMK T01800030 IEM_DS3505
ZGSZ,2009-11-22 05:00,ZGSZ 220500Z AUTO 03010KT 6SM 19/03 A3015 RMK T01900030 IEM_DS3505
ZGSZ,2009-11-22 06:00,ZGSZ 220600Z AUTO 36008KT 7SM 19/04 A3012 RMK SLP197 T01880038 57031 IEM_DS3505
ZGSZ,2009-11-22 07:00,ZGSZ 220700Z AUTO 36006KT 6SM 20/03 A3009 RMK T02000030 IEM_DS3505
ZGSZ,2009-11-22 08:00,ZGSZ 220800Z AUTO 01008KT 6SM 20/03 A3009 RMK T02000030 IEM_DS3505
ZGSZ,2009-11-22 09:00,ZGSZ 220900Z AUTO 36006KT 8SM 18/04 A3009 RMK SLP197 T01810043 54000 IEM_DS3505
ZGSZ,2009-11-22 10:00,ZGSZ 221000Z AUTO 03004KT 6SM 18/04 A3012 RMK T01800040 IEM_DS3505
ZGSZ,2009-11-22 11:00,ZGSZ 221100Z AUTO 04004KT 5SM 18/04 A3012 RMK T01800040 IEM_DS3505
ZGSZ,2009-11-22 12:00,ZGSZ 221200Z AUTO 36002KT 7SM 16/05 A3015 RMK SLP209 T01630047 52012 IEM_DS3505
ZGSZ,2009-11-22 13:00,ZGSZ 221300Z AUTO 3SM 16/06 A3015 RMK T01600060 IEM_DS3505
ZGSZ,2009-11-22 14:00,ZGSZ 221400Z AUTO 4SM 16/05 A3015 RMK T01600050 IEM_DS3505
ZGSZ,2009-11-22 15:00,ZGSZ 221500Z AUTO 04002KT 7SM 16/02 A3015 RMK SLP212 T01600021 52003 IEM_DS3505
ZGSZ,2009-11-22 16:00,ZGSZ 221600Z AUTO 00000KT 4SM 15/06 A3015 RMK T01500060 IEM_DS3505
ZGSZ,2009-11-22 17:00,ZGSZ 221700Z AUTO 00000KT 4SM 15/07 A3012 RMK T01500070 IEM_DS3505
ZGSZ,2009-11-22 18:00,ZGSZ 221800Z AUTO 09004KT 7SM 15/02 A3012 RMK SLP201 T01500015 57010 IEM_DS3505
ZGSZ,2009-11-22 19:00,ZGSZ 221900Z AUTO 5SM 14/04 A3012 RMK T01400040 IEM_DS3505
ZGSZ,2009-11-22 20:00,ZGSZ 222000Z AUTO 36004KT 6SM 14/04 A3009 RMK T01400040 IEM_DS3505
ZGSZ,2009-11-22 21:00,ZGSZ 222100Z AUTO 07004KT 7SM 14/02 A3009 RMK SLP196 T01440017 57006 IEM_DS3505
ZGSZ,2009-11-22 22:00,ZGSZ 222200Z AUTO 35006KT 6SM 14/02 A3012 RMK T01400020 IEM_DS3505
ZGSZ,2009-11-22 23:00,ZGSZ 222300Z AUTO 35004KT 7SM 15/02 A3012 RMK T01500020 IEM_DS3505
ZGSZ,2009-11-23 00:00,ZGSZ 230000Z AUTO 09004KT 7SM 16/03 A3015 RMK SLP208 T01550030 52012 IEM_DS3505
ZGSZ,2009-11-23 01:00,ZGSZ 230100Z AUTO 35006KT 7SM 17/03 A3015 RMK T01700030 IEM_DS3505
ZGSZ,2009-11-23 02:00,ZGSZ 230200Z AUTO 01008KT 7SM 19/04 A3015 RMK T01900040 IEM_DS3505
ZGSZ,2009-11-23 03:00,ZGSZ 230300Z AUTO 36004KT 6SM 20/07 A3012 RMK SLP203 T01970068 57004 IEM_DS3505
ZGSZ,2009-11-23 04:00,ZGSZ 230400Z AUTO 6SM 22/07 A3009 RMK T02200070 IEM_DS3505
ZGSZ,2009-11-23 05:00,ZGSZ 230500Z AUTO 35008KT 6SM 23/07 A3006 RMK T02300070 IEM_DS3505
ZGSZ,2009-11-23 06:00,ZGSZ 230600Z AUTO 02004KT 6SM 23/10 A3003 RMK SLP172 T02300101 57031 IEM_DS3505
ZGSZ,2009-11-23 07:00,ZGSZ 230700Z AUTO 34008KT 5SM 23/07 A3000 RMK T02300070 IEM_DS3505
ZGSZ,2009-11-23 08:00,ZGSZ 230800Z AUTO 34008KT 5SM 23/08 A3000 RMK T02300080 IEM_DS3505
ZGSZ,2009-11-23 09:00,ZGSZ 230900Z AUTO 20002KT 4SM 21/10 A3000 RMK SLP165 T02130102 57007 IEM_DS3505
ZGSZ,2009-11-23 10:00,ZGSZ 231000Z AUTO 35006KT 4SM 20/09 A3000 RMK T02000090 IEM_DS3505
ZGSZ,2009-11-23 11:00,ZGSZ 231100Z AUTO 02004KT 4SM 21/09 A3003 RMK T02100090 IEM_DS3505
ZGSZ,2009-11-23 12:00,ZGSZ 231200Z AUTO 18002KT 2 1/2SM 18/12 A3003 RMK SLP178 T01840117 52013 IEM_DS3505
ZGSZ,2009-11-23 13:00,ZGSZ 231300Z AUTO 4SM 19/10 A3006 RMK T01900100 IEM_DS3505
ZGSZ,2009-11-23 14:00,ZGSZ 231400Z AUTO 00000KT 3SM 19/10 A3006 RMK T01900100 IEM_DS3505
ZGSZ,2009-11-23 15:00,ZGSZ 231500Z AUTO 07002KT 2 1/2SM 17/11 A3006 RMK SLP187 T01710112 52009 IEM_DS3505
ZGSZ,2009-11-23 16:00,ZGSZ 231600Z AUTO 3SM 18/11 A3006 RMK T01800110 IEM_DS3505
ZGSZ,2009-11-23 17:00,ZGSZ 231700Z AUTO 00000KT 2SM 16/11 A3006 RMK T01600110 IEM_DS3505
ZGSZ,2009-11-23 18:00,ZGSZ 231800Z AUTO 04002KT 5SM 17/14 A3006 RMK SLP179 T01710136 57008 IEM_DS3505
ZGSZ,2009-11-23 19:00,ZGSZ 231900Z AUTO 00000KT 2 1/2SM 15/11 A3003 RMK T01500110 IEM_DS3505
ZGSZ,2009-11-23 20:00,ZGSZ 232000Z AUTO 00000KT 3SM 15/11 A3003 RMK T01500110 IEM_DS3505
ZGSZ,2009-11-23 21:00,ZGSZ 232100Z AUTO 07002KT 4SM 16/14 A3003 RMK SLP176 T01550135 57003 IEM_DS3505
ZGSZ,2009-11-23 22:00,ZGSZ 232200Z AUTO 00000KT 3SM 15/12 A3003 RMK T01500120 IEM_DS3505
ZGSZ,2009-11-23 23:00,ZGSZ 232300Z AUTO 24002KT 2 1/2SM 15/12 A3006 RMK T01500120 IEM_DS3505
ZGSZ,2009-11-24 00:00,ZGSZ 240000Z AUTO 07002KT 4SM 17/14 A3006 RMK SLP185 T01700135 52009 IEM_DS3505
ZGSZ,2009-11-24 01:00,ZGSZ 240100Z AUTO 2 1/2SM 19/13 A3009 RMK T01900130 IEM_DS3505
ZGSZ,2009-11-24 02:00,ZGSZ 240200Z AUTO 36004KT 2 1/2SM 22/11 A3006 RMK T02200110 IEM_DS3505
ZGSZ,2009-11-24 03:00,ZGSZ 240300Z AUTO 20004KT 3SM 22/15 A3003 RMK SLP176 T02250146 57009 IEM_DS3505
ZGSZ,2009-11-24 04:00,ZGSZ 240400Z AUTO 29008KT 3SM 23/13 A3000 RMK T02300130 IEM_DS3505
ZGSZ,2009-11-24 05:00,ZGSZ 240500Z AUTO 30010KT 3SM 24/12 A2997 RMK T02400120 IEM_DS3505
ZGSZ,2009-11-24 06:00,ZGSZ 240600Z AUTO 20006KT 2 1/2SM 25/13 A2994 RMK SLP140 T02460129 57035 IEM_DS3505
ZGSZ,2009-11-24 07:00,ZGSZ 240700Z AUTO 30010KT 3SM 24/12 A2991 RMK T02400120 IEM_DS3505
ZGSZ,2009-11-24 08:00,ZGSZ 240800Z AUTO 31008KT 3SM 24/12 A2991 RMK T02400120 IEM_DS3505
ZGSZ,2009-11-24 09:00,ZGSZ 240900Z AUTO 25004KT 2 1/2SM 23/12 A2991 RMK SLP136 T02290125 57004 IEM_DS3505
ZGSZ,2009-11-24 10:00,ZGSZ 241000Z AUTO 34004KT 3SM 21/13 A2994 RMK T02100130 IEM_DS3505
ZGSZ,2009-11-24 11:00,ZGSZ 241100Z AUTO 33004KT 2 1/2SM 21/12 A2994 RMK T02100120 IEM_DS3505
ZGSZ,2009-11-24 12:00,ZGSZ 241200Z AUTO 09002KT 2 1/2SM 20/14 A2997 RMK SLP156 T02000144 52019 IEM_DS3505
ZGSZ,2009-11-24 13:00,ZGSZ 241300Z AUTO 2SM 20/12 A3000 RMK T02000120 IEM_DS3505
ZGSZ,2009-11-24 14:00,ZGSZ 241400Z AUTO 2SM 20/13 A3000 RMK T02000130 IEM_DS3505
ZGSZ,2009-11-24 15:00,ZGSZ 241500Z AUTO 07002KT 2SM 19/14 A3000 RMK SLP165 T01890135 52010 IEM_DS3505
ZGSZ,2009-11-24 16:00,ZGSZ 241600Z AUTO 00000KT 1 1/2SM 19/13 A3000 RMK T01900130 IEM_DS3505
ZGSZ,2009-11-24 17:00,ZGSZ 241700Z AUTO 11004KT 1 1/2SM 18/13 A3000 RMK T01800130 IEM_DS3505
ZGSZ,2009-11-24 18:00,ZGSZ 241800Z AUTO 07004KT 2SM 18/15 A3000 RMK SLP160 T01810146 57005 IEM_DS3505
ZGSZ,2009-11-24 19:00,ZGSZ 241900Z AUTO 00000KT 1 1/2SM 16/13 A3000 RMK T01600130 IEM_DS3505
ZGSZ,2009-11-24 20:00,ZGSZ 242000Z AUTO 00000KT 1 1/4SM 16/13 A3000 RMK T01600130 IEM_DS3505
ZGSZ,2009-11-24 21:00,ZGSZ 242100Z AUTO 07004KT 1 1/2SM 18/15 A3000 RMK SLP164 T01750153 52004 IEM_DS3505
ZGSZ,2009-11-24 22:00,ZGSZ 242200Z AUTO 13004KT 1SM 16/13 A3003 RMK T01600130 IEM_DS3505
ZGSZ,2009-11-24 23:00,ZGSZ 242300Z AUTO 00000KT 1SM 16/13 A3003 RMK T01600130 IEM_DS3505
ZGSZ,2009-11-25 00:00,ZGSZ 250000Z AUTO 04004KT 2SM 18/16 A3006 RMK SLP182 T01850157 52017 IEM_DS3505
ZGSZ,2009-11-25 01:00,ZGSZ 250100Z AUTO 00000KT 2SM 20/15 A3006 RMK T02000150 IEM_DS3505
ZGSZ,2009-11-25 02:00,ZGSZ 250200Z AUTO 08004KT 3SM 23/16 A3006 RMK T02300160 IEM_DS3505
ZGSZ,2009-11-25 03:00,ZGSZ 250300Z AUTO 04002KT 4SM 24/16 A3006 RMK SLP181 T02370157 54000 IEM_DS3505
ZGSZ,2009-11-25 04:00,ZGSZ 250400Z AUTO 26006KT 2SM 23/16 A3003 RMK T02300160 IEM_DS3505
ZGSZ,2009-11-25 05:00,ZGSZ 250500Z AUTO 26006KT 3SM 23/16 A3000 RMK T02300160 IEM_DS3505
ZGSZ,2009-11-25 06:00,ZGSZ 250600Z AUTO 22004KT 4SM 26/16 A2997 RMK SLP149 T02600160 57032 IEM_DS3505
ZGSZ,2009-11-25 07:00,ZGSZ 250700Z AUTO 21004KT 4SM 24/15 A2994 RMK T02400150 IEM_DS3505
ZGSZ,2009-11-25 08:00,ZGSZ 250800Z AUTO 18006KT 3SM 23/17 A2994 RMK T02300170 IEM_DS3505
ZGSZ,2009-11-25 09:00,ZGSZ 250900Z AUTO 20004KT 4SM 22/17 A2994 RMK SLP146 T02230166 57003 IEM_DS3505
ZGSZ,2009-11-25 10:00,ZGSZ 251000Z AUTO 18004KT 3SM 21/17 A2994 RMK T02100170 IEM_DS3505
ZGSZ,2009-11-25 11:00,ZGSZ 251100Z AUTO 17004KT 2 1/2SM 20/18 A2997 RMK T02000180 IEM_DS3505
ZGSZ,2009-11-25 12:00,ZGSZ 251200Z AUTO 04002KT 5SM 20/16 A2997 RMK SLP159 T02040158 52012 IEM_DS3505
ZGSZ,2009-11-25 13:00,ZGSZ 251300Z AUTO 08004KT 2 1/2SM 21/17 A2997 RMK T02100170 IEM_DS3505
ZGSZ,2009-11-25 14:00,ZGSZ 251400Z AUTO 12004KT 1 1/4SM 21/17 A3000 RMK T02100170 IEM_DS3505
ZGSZ,2009-11-25 15:00,ZGSZ 251500Z AUTO 04004KT 4SM 19/16 A3000 RMK SLP164 T01920164 52006 IEM_DS3505
ZGSZ,2009-11-25 16:00,ZGSZ 251600Z AUTO 11004KT 2 1/2SM 20/16 A3000 RMK T02000160 IEM_DS3505
ZGSZ,2009-11-25 17:00,ZGSZ 251700Z AUTO 13004KT 1 1/2SM 19/16 A3000 RMK T01900160 IEM_DS3505
ZGSZ,2009-11-25 18:00,ZGSZ 251800Z AUTO 04004KT 4SM 19/17 A3000 RMK SLP160 T01910167 57004 IEM_DS3505
ZGSZ,2009-11-25 19:00,ZGSZ 251900Z AUTO 11004KT 2 1/2SM 20/16 A2997 RMK T02000160 IEM_DS3505
ZGSZ,2009-11-25 20:00,ZGSZ 252000Z AUTO 10002KT 2 1/2SM 20/16 A2997 RMK T02000160 IEM_DS3505
ZGSZ,2009-11-25 21:00,ZGSZ 252100Z AUTO 07002KT 4SM 19/17 A3000 RMK SLP160 T01940168 54000 IEM_DS3505
ZGSZ,2009-11-25 22:00,ZGSZ 252200Z AUTO 09004KT 1 1/2SM 20/17 A3000 RMK T02000170 IEM_DS3505
ZGSZ,2009-11-25 23:00,ZGSZ 252300Z AUTO 10002KT 2 1/2SM 20/16 A3003 RMK T02000160 IEM_DS3505
ZGSZ,2009-11-26 00:00,ZGSZ 260000Z AUTO 14006KT 5SM 20/16 A3003 RMK SLP177 T02030163 52017 IEM_DS3505
ZGSZ,2009-11-26 01:00,ZGSZ 260100Z AUTO 14004KT 3SM 22/17 A3006 RMK T02200170 IEM_DS3505
ZGSZ,2009-11-26 02:00,ZGSZ 260200Z AUTO 08006KT 4SM 24/17 A3006 RMK T02400170 IEM_DS3505
ZGSZ,2009-11-26 03:00,ZGSZ 260300Z AUTO 04004KT 7SM 22/15 A3003 RMK SLP178 T02250154 52001 IEM_DS3505
ZGSZ,2009-11-26 04:00,ZGSZ 260400Z AUTO 12004KT 7SM 25/15 A3000 RMK T02500150 IEM_DS3505
ZGSZ,2009-11-26 05:00,ZGSZ 260500Z AUTO 11006KT 7SM 24/16 A2997 RMK T02400160 IEM_DS3505
ZGSZ,2009-11-26 06:00,ZGSZ 260600Z AUTO 07004KT 8SM 24/15 A2994 RMK SLP148 T02360151 57030 IEM_DS3505
ZGSZ,2009-11-26 07:00,ZGSZ 260700Z AUTO 24008KT 4SM 24/17 A2994 RMK T02400170 IEM_DS3505
ZGSZ,2009-11-26 08:00,ZGSZ 260800Z AUTO 19006KT 5SM 23/17 A2994 RMK T02300170 IEM_DS3505
ZGSZ,2009-11-26 09:00,ZGSZ 260900Z AUTO 09002KT 9SM 23/16 A2994 RMK SLP145 T02300156 57003 IEM_DS3505
ZGSZ,2009-11-26 10:00,ZGSZ 261000Z AUTO 7SM 22/17 A2997 RMK T02200170 IEM_DS3505
ZGSZ,2009-11-26 11:00,ZGSZ 261100Z AUTO 18006KT 4SM 21/17 A2997 RMK T02100170 IEM_DS3505
ZGSZ,2009-11-26 12:00,ZGSZ 261200Z AUTO 07004KT 7SM 21/17 A3000 RMK SLP160 T02080166 52015 IEM_DS3505
ZGSZ,2009-11-26 13:00,ZGSZ 261300Z AUTO 00000KT 4SM 21/18 A3000 RMK T02100180 IEM_DS3505
ZGSZ,2009-11-26 14:00,ZGSZ 261400Z AUTO 13008KT 4SM 22/17 A3000 RMK T02200170 IEM_DS3505
ZGSZ,2009-11-26 15:00,ZGSZ 261500Z AUTO 09004KT 7SM 20/16 A3000 RMK SLP169 T02010165 52009 IEM_DS3505
ZGSZ,2009-11-26 16:00,ZGSZ 261600Z AUTO 11002KT 4SM 21/16 A3003 RMK T02100160 IEM_DS3505
ZGSZ,2009-11-26 17:00,ZGSZ 261700Z AUTO 00000KT 3SM 21/16 A3003 RMK T02100160 IEM_DS3505
ZGSZ,2009-11-26 18:00,ZGSZ 261800Z AUTO 09004KT 7SM 20/17 A3003 RMK SLP170 T02020168 52001 IEM_DS3505
ZGSZ,2009-11-26 19:00,ZGSZ 261900Z AUTO 00000KT 4SM 21/16 A3003 RMK T02100160 IEM_DS3505
ZGSZ,2009-11-26 20:00,ZGSZ 262000Z AUTO 00000KT 5SM 20/17 A3003 RMK T02000170 IEM_DS3505
ZGSZ,2009-11-26 21:00,ZGSZ 262100Z AUTO 07002KT 6SM 20/17 A3003 RMK SLP169 T01990169 57001 IEM_DS3505
ZGSZ,2009-11-26 22:00,ZGSZ 262200Z AUTO 00000KT 3SM 20/17 A3003 RMK T02000170 IEM_DS3505
ZGSZ,2009-11-26 23:00,ZGSZ 262300Z AUTO 00000KT 3SM 20/17 A3006 RMK T02000170 IEM_DS3505
ZGSZ,2009-11-27 00:00,ZGSZ 270000Z AUTO 00000KT 2 1/2SM 21/17 A3009 RMK T02100170 IEM_DS3505
ZGSZ,2009-11-27 01:00,ZGSZ 270100Z AUTO 00000KT 3SM 23/17 A3009 RMK T02300170 IEM_DS3505
ZGSZ,2009-11-27 02:00,ZGSZ 270200Z AUTO 3SM 24/17 A3009 RMK T02400170 IEM_DS3505
ZGSZ,2009-11-27 03:00,ZGSZ 270300Z AUTO 09004KT 4SM 25/16 A3009 RMK SLP188 T02460158 57001 IEM_DS3505
ZGSZ,2009-11-27 04:00,ZGSZ 270400Z AUTO 3SM 26/17 A3006 RMK T02600170 IEM_DS3505
ZGSZ,2009-11-27 05:00,ZGSZ 270500Z AUTO 04004KT 3SM 27/16 A3000 RMK T02700160 IEM_DS3505
ZGSZ,2009-11-27 06:00,ZGSZ 270600Z AUTO 11002KT 3SM 26/14 A2997 RMK SLP156 T02620143 57032 IEM_DS3505
ZGSZ,2009-11-27 07:00,ZGSZ 270700Z AUTO 28006KT 2 1/2SM 26/17 A2997 RMK T02600170 IEM_DS3505
ZGSZ,2009-11-27 08:00,ZGSZ 270800Z AUTO 2 1/2SM 25/18 A2997 RMK T02500180 IEM_DS3505
ZGSZ,2009-11-27 09:00,ZGSZ 270900Z AUTO 22006KT 2SM 23/18 A2997 RMK SLP155 T02340176 57001 IEM_DS3505
ZGSZ,2009-11-27 10:00,ZGSZ 271000Z AUTO 00000KT 2 1/2SM 22/18 A3000 RMK T02200180 IEM_DS3505
ZGSZ,2009-11-27 11:00,ZGSZ 271100Z AUTO 00000KT 3SM 21/18 A3000 RMK T02100180 IEM_DS3505
ZGSZ,2009-11-27 12:00,ZGSZ 271200Z AUTO 00000KT 2 1/2SM 22/17 A3003 RMK SLP168 T02190168 52013 IEM_DS3505
ZGSZ,2009-11-27 13:00,ZGSZ 271300Z AUTO 00000KT 3SM 20/17 A3003 RMK T02000170 IEM_DS3505
ZGSZ,2009-11-27 14:00,ZGSZ 271400Z AUTO 00000KT 3SM 20/18 A3003 RMK T02000180 IEM_DS3505
ZGSZ,2009-11-27 15:00,ZGSZ 271500Z AUTO 07002KT 1 1/2SM 21/17 A3003 RMK SLP173 T02110173 52005 IEM_DS3505
ZGSZ,2009-11-27 16:00,ZGSZ 271600Z AUTO 00000KT 1 1/2SM 20/18 A3003 RMK T02000180 IEM_DS3505
ZGSZ,2009-11-27 17:00,ZGSZ 271700Z AUTO 00000KT 1 1/2SM 20/18 A3003 RMK T02000180 IEM_DS3505
ZGSZ,2009-11-27 18:00,ZGSZ 271800Z AUTO 09004KT 2 1/2SM 20/17 A3003 RMK SLP171 T02040166 57002 IEM_DS3505
ZGSZ,2009-11-27 19:00,ZGSZ 271900Z AUTO 00000KT 1 1/4SM 20/18 A3003 RMK T02000180 IEM_DS3505
ZGSZ,2009-11-27 20:00,ZGSZ 272000Z AUTO 11008KT 2 1/2SM 21/17 A3003 RMK T02100170 IEM_DS3505
ZGSZ,2009-11-27 21:00,ZGSZ 272100Z AUTO 11004KT 7SM 21/16 A3003 RMK SLP176 T02080156 52005 IEM_DS3505
ZGSZ,2009-11-27 22:00,ZGSZ 272200Z AUTO 12006KT 7SM 21/16 A3006 RMK T02100160 IEM_DS3505
ZGSZ,2009-11-27 23:00,ZGSZ 272300Z AUTO 09006KT 6SM 21/15 A3009 RMK T02100150 IEM_DS3505
ZGSZ,2009-11-28 00:00,ZGSZ 280000Z AUTO 07006KT 12SM 21/13 A3009 RMK SLP197 T02060133 52021 IEM_DS3505
ZGSZ,2009-11-28 01:00,ZGSZ 280100Z AUTO 09008KT 6SM 24/13 A3012 RMK T02400130 IEM_DS3505
ZGSZ,2009-11-28 02:00,ZGSZ 280200Z AUTO 11008KT 6SM 24/13 A3012 RMK T02400130 IEM_DS3505
ZGSZ,2009-11-28 03:00,ZGSZ 280300Z AUTO 11006KT 16SM 23/14 A3009 RMK SLP198 T02330135 52001 IEM_DS3505
ZGSZ,2009-11-28 04:00,ZGSZ 280400Z AUTO 6SM 26/13 A3009 RMK T02600130 IEM_DS3505
ZGSZ,2009-11-28 05:00,ZGSZ 280500Z AUTO 23010KT 6SM 24/14 A3003 RMK T02400140 IEM_DS3505
ZGSZ,2009-11-28 06:00,ZGSZ 280600Z AUTO 14004KT 12SM 25/14 A3003 RMK SLP171 T02470136 57027 IEM_DS3505
ZGSZ,2009-11-28 07:00,ZGSZ 280700Z AUTO 21006KT 6SM 25/14 A3003 RMK T02500140 IEM_DS3505
ZGSZ,2009-11-28 08:00,ZGSZ 280800Z AUTO 21006KT 6SM 24/15 A3003 RMK T02400150 IEM_DS3505
ZGSZ,2009-11-28 09:00,ZGSZ 280900Z AUTO 07004KT 12SM 23/14 A3003 RMK SLP176 T02310136 52005 IEM_DS3505
ZGSZ,2009-11-28 10:00,ZGSZ 281000Z AUTO 18004KT 6SM 22/15 A3006 RMK T02200150 IEM_DS3505
ZGSZ,2009-11-28 11:00,ZGSZ 281100Z AUTO 00000KT 7SM 22/16 A3006 RMK T02200160 IEM_DS3505
ZGSZ,2009-11-28 12:00,ZGSZ 281200Z AUTO 09004KT 9SM 20/14 A3009 RMK SLP192 T02050144 52016 IEM_DS3505
ZGSZ,2009-11-28 13:00,ZGSZ 281300Z AUTO 00000KT 4SM 20/16 A3009 RMK T02000160 IEM_DS3505
ZGSZ,2009-11-28 14:00,ZGSZ 281400Z AUTO 12004KT 4SM 21/15 A3009 RMK T02100150 IEM_DS3505
ZGSZ,2009-11-28 15:00,ZGSZ 281500Z AUTO 07006KT 7SM 20/15 A3009 RMK SLP199 T01950150 52007 IEM_DS3505
ZGSZ,2009-11-28 16:00,ZGSZ 281600Z AUTO 11006KT 4SM 20/14 A3009 RMK T02000140 IEM_DS3505
ZGSZ,2009-11-28 17:00,ZGSZ 281700Z AUTO 12004KT 4SM 20/15 A3009 RMK T02000150 IEM_DS3505
ZGSZ,2009-11-28 18:00,ZGSZ 281800Z AUTO 09004KT 4SM 19/16 A3009 RMK SLP194 T01940157 57005 IEM_DS3505
ZGSZ,2009-11-28 19:00,ZGSZ 281900Z AUTO 3SM 20/16 A3009 RMK T02000160 IEM_DS3505
ZGSZ,2009-11-28 20:00,ZGSZ 282000Z AUTO 01004KT 3SM 20/16 A3009 RMK T02000160 IEM_DS3505
ZGSZ,2009-11-28 21:00,ZGSZ 282100Z AUTO 04004KT 3SM 20/16 A3012 RMK SLP199 T01970160 52005 IEM_DS3505
ZGSZ,2009-11-28 22:00,ZGSZ 282200Z AUTO 03002KT 2 1/2SM 20/16 A3012 RMK T02000160 IEM_DS3505
ZGSZ,2009-11-28 23:00,ZGSZ 282300Z AUTO 00000KT 3SM 20/15 A3015 RMK T02000150 IEM_DS3505
ZGSZ,2009-11-29 00:00,ZGSZ 290000Z AUTO 04004KT 2SM 20/16 A3018 RMK SLP219 T01960159 52019 IEM_DS3505
ZGSZ,2009-11-29 01:00,ZGSZ 290100Z AUTO 01008KT 2 1/2SM 21/16 A3018 RMK T02100160 IEM_DS3505
ZGSZ,2009-11-29 02:00,ZGSZ 290200Z AUTO 04008KT 1 1/2SM 21/16 A3018 RMK T02100160 IEM_DS3505
ZGSZ,2009-11-29 03:00,ZGSZ 290300Z AUTO 07006KT 2 1/2SM 21/13 A3018 RMK SLP221 T02110133 52002 IEM_DS3505
ZGSZ,2009-11-29 04:00,ZGSZ 290400Z AUTO 04008KT 4SM 24/14 A3015 RMK T02400140 IEM_DS3505
ZGSZ,2009-11-29 05:00,ZGSZ 290500Z AUTO 03008KT 4SM 25/14 A3012 RMK T02500140 IEM_DS3505
ZGSZ,2009-11-29 06:00,ZGSZ 290600Z AUTO 07006KT 4SM 24/13 A3006 RMK SLP187 T02360126 57033 IEM_DS3505
ZGSZ,2009-11-29 07:00,ZGSZ 290700Z AUTO 03008KT 4SM 25/12 A3006 RMK T02500120 IEM_DS3505
ZGSZ,2009-11-29 08:00,ZGSZ 290800Z AUTO 03008KT 4SM 25/12 A3006 RMK T02500120 IEM_DS3505
ZGSZ,2009-11-29 09:00,ZGSZ 290900Z AUTO 07006KT 4SM 23/11 A3006 RMK SLP182 T02280112 57005 IEM_DS3505
ZGSZ,2009-11-29 10:00,ZGSZ 291000Z AUTO 02010KT 3SM 23/12 A3009 RMK T02300120 IEM_DS3505
ZGSZ,2009-11-29 11:00,ZGSZ 291100Z AUTO 04006KT 3SM 22/13 A3009 RMK T02200130 IEM_DS3505
ZGSZ,2009-11-29 12:00,ZGSZ 291200Z AUTO 04004KT 5SM 20/12 A3012 RMK SLP201 T02030115 52018 IEM_DS3505
ZGSZ,2009-11-29 13:00,ZGSZ 291300Z AUTO 05004KT 3SM 21/12 A3012 RMK T02100120 IEM_DS3505
ZGSZ,2009-11-29 14:00,ZGSZ 291400Z AUTO 02004KT 2 1/2SM 21/12 A3015 RMK T02100120 IEM_DS3505
ZGSZ,2009-11-29 15:00,ZGSZ 291500Z AUTO 02004KT 5SM 19/11 A3015 RMK SLP217 T01860109 52016 IEM_DS3505
ZGSZ,2009-11-29 16:00,ZGSZ 291600Z AUTO 03004KT 4SM 19/11 A3018 RMK T01900110 IEM_DS3505
ZGSZ,2009-11-29 17:00,ZGSZ 291700Z AUTO 04006KT 4SM 18/11 A3018 RMK T01800110 IEM_DS3505
ZGSZ,2009-11-29 18:00,ZGSZ 291800Z AUTO 02006KT 3SM 17/11 A3015 RMK SLP215 T01740112 57002 IEM_DS3505
ZGSZ,2009-11-29 19:00,ZGSZ 291900Z AUTO 03010KT 3SM 17/10 A3015 RMK T01700100 IEM_DS3505
ZGSZ,2009-11-29 20:00,ZGSZ 292000Z AUTO 02008KT 3SM 17/10 A3018 RMK T01700100 IEM_DS3505
ZGSZ,2009-11-29 21:00,ZGSZ 292100Z AUTO 04004KT 2SM 16/10 A3018 RMK SLP220 T01630102 52005 IEM_DS3505
ZGSZ,2009-11-29 22:00,ZGSZ 292200Z AUTO 02006KT 3SM 16/10 A3018 RMK T01600100 IEM_DS3505
ZGSZ,2009-11-29 23:00,ZGSZ 292300Z AUTO 02006KT 3SM 15/10 A3021 RMK T01500100 IEM_DS3505
ZGSZ,2009-11-30 00:00,ZGSZ 300000Z AUTO 36006KT 4SM 16/10 A3021 RMK SLP234 T01580099 52014 IEM_DS3505
ZGSZ,2009-11-30 01:00,ZGSZ 300100Z AUTO 03008KT 3SM 17/10 A3024 RMK T01700100 IEM_DS3505
ZGSZ,2009-11-30 02:00,ZGSZ 300200Z AUTO 04006KT 4SM 19/10 A3024 RMK T01900100 IEM_DS3505
ZGSZ,2009-11-30 03:00,ZGSZ 300300Z AUTO 02004KT 4SM 19/10 A3021 RMK SLP234 T01910104 54000 IEM_DS3505
ZGSZ,2009-11-30 04:00,ZGSZ 300400Z AUTO 36006KT 4SM 22/11 A3018 RMK T02200110 IEM_DS3505
ZGSZ,2009-11-30 05:00,ZGSZ 300500Z AUTO 01006KT 4SM 23/11 A3015 RMK T02300110 IEM_DS3505
ZGSZ,2009-11-30 06:00,ZGSZ 300600Z AUTO 07004KT 4SM 23/11 A3009 RMK SLP198 T02260107 57036 IEM_DS3505
ZGSZ,2009-11-30 07:00,ZGSZ 300700Z AUTO 30012KT 3SM 22/12 A3009 RMK T02200120 IEM_DS3505
ZGSZ,2009-11-30 08:00,ZGSZ 300800Z AUTO 30010KT 3SM 22/12 A3009 RMK T02200120 IEM_DS3505
ZGSZ,2009-11-30 09:00,ZGSZ 300900Z AUTO 32002KT 4SM 22/12 A3009 RMK SLP191 T02190119 57007 IEM_DS3505
ZGSZ,2009-11-30 10:00,ZGSZ 301000Z AUTO 04006KT 4SM 21/12 A3009 RMK T02100120 IEM_DS3505
ZGSZ,2009-11-30 11:00,ZGSZ 301100Z AUTO 04006KT 3SM 20/12 A3012 RMK T02000120 IEM_DS3505
ZGSZ,2009-11-30 12:00,ZGSZ 301200Z AUTO 04004KT 4SM 19/11 A3015 RMK SLP210 T01890112 52019 IEM_DS3505
ZGSZ,2009-11-30 13:00,ZGSZ 301300Z AUTO 05010KT 3SM 19/11 A3015 RMK T01900110 IEM_DS3505
ZGSZ,2009-11-30 14:00,ZGSZ 301400Z AUTO 06006KT 4SM 18/10 A3018 RMK T01800100 IEM_DS3505
ZGSZ,2009-11-30 15:00,ZGSZ 301500Z AUTO 04006KT 4SM 16/09 A3018 RMK SLP224 T01650094 52014 IEM_DS3505
ZGSZ,2009-11-30 16:00,ZGSZ 301600Z AUTO 03006KT 4SM 17/10 A3018 RMK T01700100 IEM_DS3505
ZGSZ,2009-11-30 17:00,ZGSZ 301700Z AUTO 01008KT 4SM 16/09 A3018 RMK T01600090 IEM_DS3505
ZGSZ,2009-11-30 18:00,ZGSZ 301800Z AUTO 07002KT 4SM 15/10 A3018 RMK SLP225 T01530097 52001 IEM_DS3505
ZGSZ,2009-11-30 19:00,ZGSZ 301900Z AUTO 02008KT 4SM 15/08 A3018 RMK T01500080 IEM_DS3505
ZGSZ,2009-11-30 20:00,ZGSZ 302000Z AUTO 02006KT 4SM 15/08 A3018 RMK T01500080 IEM_DS3505
ZGSZ,2009-11-30 21:00,ZGSZ 302100Z AUTO 02006KT 5SM 14/09 A3018 RMK SLP225 T01420086 54000 IEM_DS3505
ZGSZ,2009-11-30 22:00,ZGSZ 302200Z AUTO 36006KT 4SM 14/08 A3021 RMK T01400080 IEM_DS3505
ZGSZ,2009-11-30 23:00,ZGSZ 302300Z AUTO 01006KT 4SM 14/08 A3021 RMK T01400080 IEM_DS3505
ZGSZ,2009-12-01 00:00,ZGSZ 010000Z AUTO 04004KT 5SM 15/08 A3024 RMK SLP241 T01490084 52015 IEM_DS3505
ZGSZ,2009-12-01 01:00,ZGSZ 010100Z AUTO 01004KT 5SM 17/08 A3024 RMK T01700080 IEM_DS3505
ZGSZ,2009-12-01 02:00,ZGSZ 010200Z AUTO 01008KT 5SM 18/09 A3027 RMK T01800090 IEM_DS3505
ZGSZ,2009-12-01 03:00,ZGSZ 010300Z AUTO 07004KT 4SM 19/09 A3024 RMK SLP241 T01910090 54000 IEM_DS3505
ZGSZ,2009-12-01 04:00,ZGSZ 010400Z AUTO 36006KT 5SM 21/09 A3021 RMK T02100090 IEM_DS3505
ZGSZ,2009-12-01 05:00,ZGSZ 010500Z AUTO 5SM 22/10 A3015 RMK T02200100 IEM_DS3505
ZGSZ,2009-12-01 06:00,ZGSZ 010600Z AUTO 09002KT 5SM 22/09 A3012 RMK SLP201 T02220087 57039 IEM_DS3505
ZGSZ,2009-12-01 07:00,ZGSZ 010700Z AUTO 29010KT 3SM 21/10 A3009 RMK T02100100 IEM_DS3505
ZGSZ,2009-12-01 08:00,ZGSZ 010800Z AUTO 29008KT 3SM 22/10 A3006 RMK T02200100 IEM_DS3505
ZGSZ,2009-12-01 09:00,ZGSZ 010900Z AUTO 22002KT 4SM 21/11 A3006 RMK SLP187 T02100108 57014 IEM_DS3505
ZGSZ,2009-12-01 10:00,ZGSZ 011000Z AUTO 33004KT 2 1/2SM 19/11 A3009 RMK T01900110 IEM_DS3505
ZGSZ,2009-12-01 11:00,ZGSZ 011100Z AUTO 02004KT 3SM 20/10 A3009 RMK T02000100 IEM_DS3505
ZGSZ,2009-12-01 12:00,ZGSZ 011200Z AUTO 07004KT 2 1/2SM 19/13 A3012 RMK SLP206 T01860126 52018 IEM_DS3505
ZGSZ,2009-12-01 13:00,ZGSZ 011300Z AUTO 09006KT 4SM 20/11 A3012 RMK T02000110 IEM_DS3505
ZGSZ,2009-12-01 14:00,ZGSZ 011400Z AUTO 10006KT 2 1/2SM 19/12 A3012 RMK T01900120 IEM_DS3505
ZGSZ,2009-12-01 15:00,ZGSZ 011500Z AUTO 02002KT 2 1/2SM 17/13 A3012 RMK SLP209 T01730130 52004 IEM_DS3505
ZGSZ,2009-12-01 16:00,ZGSZ 011600Z AUTO 09004KT 2 1/2SM 18/13 A3012 RMK T01800130 IEM_DS3505
ZGSZ,2009-12-01 17:00,ZGSZ 011700Z AUTO 03002KT 2SM 18/13 A3015 RMK T01800130 IEM_DS3505
ZGSZ,2009-12-01 18:00,ZGSZ 011800Z AUTO 02002KT 2SM 18/14 A3012 RMK SLP207 T01760137 57002 IEM_DS3505
ZGSZ,2009-12-01 19:00,ZGSZ 011900Z AUTO 01004KT 2 1/2SM 18/12 A3012 RMK T01800120 IEM_DS3505
ZGSZ,2009-12-01 20:00,ZGSZ 012000Z AUTO 03004KT 4SM 18/12 A3012 RMK T01800120 IEM_DS3505
ZGSZ,2009-12-01 21:00,ZGSZ 012100Z AUTO 04004KT 2 1/2SM 17/12 A3012 RMK SLP207 T01720125 54000 IEM_DS3505
ZGSZ,2009-12-01 22:00,ZGSZ 012200Z AUTO 35008KT 3SM 17/11 A3015 RMK T01700110 IEM_DS3505
ZGSZ,2009-12-01 23:00,ZGSZ 012300Z AUTO 01006KT 3SM 16/11 A3018 RMK T01600110 IEM_DS3505
ZGSZ,2009-12-02 00:00,ZGSZ 020000Z AUTO 02002KT 4SM 17/12 A3021 RMK SLP230 T01690120 52023 IEM_DS3505
ZGSZ,2009-12-02 01:00,ZGSZ 020100Z AUTO 36008KT 3SM 19/11 A3021 RMK T01900110 IEM_DS3505
ZGSZ,2009-12-02 02:00,ZGSZ 020200Z AUTO 36008KT 3SM 20/11 A3021 RMK T02000110 IEM_DS3505
ZGSZ,2009-12-02 03:00,ZGSZ 020300Z AUTO 09006KT 3SM 21/12 A3021 RMK SLP232 T02110120 52002 IEM_DS3505
ZGSZ,2009-12-02 04:00,ZGSZ 020400Z AUTO 35008KT 3SM 23/12 A3018 RMK T02300120 IEM_DS3505
ZGSZ,2009-12-02 05:00,ZGSZ 020500Z AUTO 34008KT 3SM 23/11 A3015 RMK T02300110 IEM_DS3505
ZGSZ,2009-12-02 06:00,ZGSZ 020600Z AUTO 04006KT 4SM 22/10 A3012 RMK SLP198 T02200105 57034 IEM_DS3505
ZGSZ,2009-12-02 07:00,ZGSZ 020700Z AUTO 30008KT 3SM 23/12 A3009 RMK T02300120 IEM_DS3505
ZGSZ,2009-12-02 08:00,ZGSZ 020800Z AUTO 30008KT 3SM 23/12 A3006 RMK T02300120 IEM_DS3505
ZGSZ,2009-12-02 09:00,ZGSZ 020900Z AUTO 36006KT 4SM 22/11 A3009 RMK SLP192 T02150107 57006 IEM_DS3505
ZGSZ,2009-12-02 10:00,ZGSZ 021000Z AUTO 34006KT 5SM 21/10 A3009 RMK T02100100 IEM_DS3505
ZGSZ,2009-12-02 11:00,ZGSZ 021100Z AUTO 35006KT 6SM 21/10 A3012 RMK T02100100 IEM_DS3505
ZGSZ,2009-12-02 12:00,ZGSZ 021200Z AUTO 34008KT 4SM 20/11 A3012 RMK SLP205 T01990106 52013 IEM_DS3505
ZGSZ,2009-12-02 13:00,ZGSZ 021300Z AUTO 01006KT 6SM 20/11 A3015 RMK T02000110 IEM_DS3505
ZGSZ,2009-12-02 14:00,ZGSZ 021400Z AUTO 02008KT 4SM 20/11 A3015 RMK T02000110 IEM_DS3505
ZGSZ,2009-12-02 15:00,ZGSZ 021500Z AUTO 04008KT 4SM 18/09 A3015 RMK SLP215 T01850090 52010 IEM_DS3505
ZGSZ,2009-12-02 16:00,ZGSZ 021600Z AUTO 03008KT 4SM 19/09 A3018 RMK T01900090 IEM_DS3505
ZGSZ,2009-12-02 17:00,ZGSZ 021700Z AUTO 03008KT 4SM 18/10 A3018 RMK T01800100 IEM_DS3505
ZGSZ,2009-12-02 18:00,ZGSZ 021800Z AUTO 36004KT 4SM 16/09 A3018 RMK SLP219 T01640091 52004 IEM_DS3505
ZGSZ,2009-12-02 19:00,ZGSZ 021900Z AUTO 03008KT 4SM 17/08 A3018 RMK T01700080 IEM_DS3505
ZGSZ,2009-12-02 20:00,ZGSZ 022000Z AUTO 02008KT 4SM 16/08 A3018 RMK T01600080 IEM_DS3505
ZGSZ,2009-12-02 21:00,ZGSZ 022100Z AUTO 02010KT 6SM 15/07 A3018 RMK SLP223 T01480071 52004 IEM_DS3505
ZGSZ,2009-12-02 22:00,ZGSZ 022200Z AUTO 03010KT 4SM 15/07 A3021 RMK T01500070 IEM_DS3505
ZGSZ,2009-12-02 23:00,ZGSZ 022300Z AUTO 04008KT 3SM 14/07 A3021 RMK T01400070 IEM_DS3505
ZGSZ,2009-12-03 00:00,ZGSZ 030000Z AUTO 04010KT 6SM 15/06 A3024 RMK SLP236 T01460057 52012 IEM_DS3505
ZGSZ,2009-12-03 01:00,ZGSZ 030100Z AUTO 02012KT 3SM 16/06 A3024 RMK T01600060 IEM_DS3505
ZGSZ,2009-12-03 02:00,ZGSZ 030200Z AUTO 02012G23KT 3SM 17/06 A3024 RMK T01700060 IEM_DS3505
ZGSZ,2009-12-03 03:00,ZGSZ 030300Z AUTO 07010KT 6SM 18/06 A3024 RMK SLP234 T01760059 57001 IEM_DS3505
ZGSZ,2009-12-03 04:00,ZGSZ 030400Z AUTO 01014KT 4SM 19/06 A3021 RMK T01900060 IEM_DS3505
ZGSZ,2009-12-03 05:00,ZGSZ 030500Z AUTO 35012KT 4SM 20/06 A3015 RMK T02000060 IEM_DS3505
ZGSZ,2009-12-03 06:00,ZGSZ 030600Z AUTO 02008KT 6SM 19/06 A3012 RMK SLP204 T01900055 57030 IEM_DS3505
ZGSZ,2009-12-03 07:00,ZGSZ 030700Z AUTO 36010KT 4SM 20/06 A3012 RMK T02000060 IEM_DS3505
ZGSZ,2009-12-03 08:00,ZGSZ 030800Z AUTO 01010KT 4SM 20/06 A3012 RMK T02000060 IEM_DS3505
ZGSZ,2009-12-03 09:00,ZGSZ 030900Z AUTO 36008KT 6SM 18/06 A3012 RMK SLP198 T01820061 57007 IEM_DS3505
ZGSZ,2009-12-03 10:00,ZGSZ 031000Z AUTO 03008KT 4SM 18/06 A3012 RMK T01800060 IEM_DS3505
ZGSZ,2009-12-03 11:00,ZGSZ 031100Z AUTO 03008KT 4SM 18/06 A3012 RMK T01800060 IEM_DS3505
ZGSZ,2009-12-03 12:00,ZGSZ 031200Z AUTO 04004KT 5SM 16/06 A3015 RMK SLP209 T01640062 52011 IEM_DS3505
ZGSZ,2009-12-03 13:00,ZGSZ 031300Z AUTO 06006KT 4SM 17/05 A3015 RMK T01700050 IEM_DS3505
ZGSZ,2009-12-03 14:00,ZGSZ 031400Z AUTO 05006KT 5SM 17/05 A3015 RMK T01700050 IEM_DS3505
ZGSZ,2009-12-03 15:00,ZGSZ 031500Z AUTO 02004KT 6SM 16/05 A3015 RMK SLP210 T01550051 52001 IEM_DS3505
ZGSZ,2009-12-03 16:00,ZGSZ 031600Z AUTO 36004KT 4SM 16/05 A3015 RMK T01600050 IEM_DS3505
ZGSZ,2009-12-03 17:00,ZGSZ 031700Z AUTO 01006KT 4SM 16/06 A3015 RMK T01600060 IEM_DS3505
ZGSZ,2009-12-03 18:00,ZGSZ 031800Z AUTO 02006KT 6SM 15/04 A3012 RMK SLP205 T01540045 57004 IEM_DS3505
ZGSZ,2009-12-03 19:00,ZGSZ 031900Z AUTO 01004KT 5SM 15/03 A3012 RMK T01500030 IEM_DS3505
ZGSZ,2009-12-03 20:00,ZGSZ 032000Z AUTO 00000KT 5SM 15/04 A3012 RMK T01500040 IEM_DS3505
ZGSZ,2009-12-03 21:00,ZGSZ 032100Z AUTO 04004KT 7SM 14/03 A3009 RMK SLP196 T01430034 57010 IEM_DS3505
ZGSZ,2009-12-03 22:00,ZGSZ 032200Z AUTO 01006KT 5SM 15/05 A3012 RMK T01500050 IEM_DS3505
ZGSZ,2009-12-03 23:00,ZGSZ 032300Z AUTO 01004KT 5SM 15/04 A3012 RMK T01500040 IEM_DS3505
ZGSZ,2009-12-04 00:00,ZGSZ 040000Z AUTO 07004KT 7SM 14/04 A3015 RMK SLP210 T01440038 52014 IEM_DS3505
ZGSZ,2009-12-04 01:00,ZGSZ 040100Z AUTO 7SM 16/04 A3015 RMK T01600040 IEM_DS3505
ZGSZ,2009-12-04 02:00,ZGSZ 040200Z AUTO 35004KT 7SM 18/04 A3018 RMK T01800040 IEM_DS3505
ZGSZ,2009-12-04 03:00,ZGSZ 040300Z AUTO 07004KT 5SM 18/06 A3015 RMK SLP211 T01790064 52001 IEM_DS3505
ZGSZ,2009-12-04 04:00,ZGSZ 040400Z AUTO 6SM 20/06 A3012 RMK T02000060 IEM_DS3505
ZGSZ,2009-12-04 05:00,ZGSZ 040500Z AUTO 30010KT 4SM 20/06 A3009 RMK T02000060 IEM_DS3505
ZGSZ,2009-12-04 06:00,ZGSZ 040600Z AUTO 22004KT 5SM 22/08 A3006 RMK SLP181 T02160085 57029 IEM_DS3505
ZGSZ,2009-12-04 07:00,ZGSZ 040700Z AUTO 31008KT 4SM 21/08 A3006 RMK T02100080 IEM_DS3505
ZGSZ,2009-12-04 08:00,ZGSZ 040800Z AUTO 30006KT 5SM 21/10 A3003 RMK T02100100 IEM_DS3505
ZGSZ,2009-12-04 09:00,ZGSZ 040900Z AUTO 29004KT 5SM 20/08 A3006 RMK SLP179 T01980079 57002 IEM_DS3505
ZGSZ,2009-12-04 10:00,ZGSZ 041000Z AUTO 31004KT 3SM 19/10 A3006 RMK T01900100 IEM_DS3505
ZGSZ,2009-12-04 11:00,ZGSZ 041100Z AUTO 33006KT 3SM 17/10 A3009 RMK T01700100 IEM_DS3505
ZGSZ,2009-12-04 12:00,ZGSZ 041200Z AUTO 36006KT 4SM 18/08 A3012 RMK SLP201 T01810075 52021 IEM_DS3505
ZGSZ,2009-12-04 13:00,ZGSZ 041300Z AUTO 02004KT 3SM 19/08 A3012 RMK T01900080 IEM_DS3505
ZGSZ,2009-12-04 14:00,ZGSZ 041400Z AUTO 03004KT 3SM 18/08 A3012 RMK T01800080 IEM_DS3505
ZGSZ,2009-12-04 15:00,ZGSZ 041500Z AUTO 36004KT 5SM 17/07 A3012 RMK SLP206 T01690073 52006 IEM_DS3505
ZGSZ,2009-12-04 16:00,ZGSZ 041600Z AUTO 3SM 17/08 A3012 RMK T01700080 IEM_DS3505
ZGSZ,2009-12-04 17:00,ZGSZ 041700Z AUTO 02008KT 2 1/2SM 17/08 A3012 RMK T01700080 IEM_DS3505
ZGSZ,2009-12-04 18:00,ZGSZ 041800Z AUTO 04004KT 3SM 16/08 A3012 RMK SLP200 T01590077 57006 IEM_DS3505
ZGSZ,2009-12-04 19:00,ZGSZ 041900Z AUTO 01006KT 3SM 16/07 A3012 RMK T01600070 IEM_DS3505
ZGSZ,2009-12-04 20:00,ZGSZ 042000Z AUTO 05006KT 3SM 16/05 A3012 RMK T01600050 IEM_DS3505
ZGSZ,2009-12-04 21:00,ZGSZ 042100Z AUTO 02006KT 6SM 15/01 A3009 RMK SLP196 T01520013 57004 IEM_DS3505
ZGSZ,2009-12-04 22:00,ZGSZ 042200Z AUTO 02004KT 6SM 14/02 A3012 RMK T01400020 IEM_DS3505
ZGSZ,2009-12-04 23:00,ZGSZ 042300Z AUTO 03006KT 6SM 15/02 A3015 RMK T01500020 IEM_DS3505
ZGSZ,2009-12-05 00:00,ZGSZ 050000Z AUTO 02010KT 7SM 15/M01 A3015 RMK SLP213 T01511006 52016 IEM_DS3505
ZGSZ,2009-12-05 01:00,ZGSZ 050100Z AUTO 02010KT 6SM 17/02 A3018 RMK T01700020 IEM_DS3505
ZGSZ,2009-12-05 02:00,ZGSZ 050200Z AUTO 02010KT 6SM 18/01 A3018 RMK T01800010 IEM_DS3505
ZGSZ,2009-12-05 03:00,ZGSZ 050300Z AUTO 07006KT 6SM 18/M01 A3018 RMK SLP218 T01791009 52006 IEM_DS3505
ZGSZ,2009-12-05 04:00,ZGSZ 050400Z AUTO 36006KT 6SM 20/01 A3015 RMK T02000010 IEM_DS3505
ZGSZ,2009-12-05 05:00,ZGSZ 050500Z AUTO 03004KT 6SM 21/00 A3009 RMK T02100000 IEM_DS3505
ZGSZ,2009-12-05 06:00,ZGSZ 050600Z AUTO 36004KT 7SM 20/01 A3006 RMK SLP186 T02040013 57032 IEM_DS3505
ZGSZ,2009-12-05 07:00,ZGSZ 050700Z AUTO 6SM 22/00 A3006 RMK T02200000 IEM_DS3505
ZGSZ,2009-12-05 08:00,ZGSZ 050800Z AUTO 13004KT 6SM 22/02 A3003 RMK T02200020 IEM_DS3505
ZGSZ,2009-12-05 09:00,ZGSZ 050900Z AUTO 16004KT 7SM 19/05 A3003 RMK SLP178 T01930054 57008 IEM_DS3505
ZGSZ,2009-12-05 10:00,ZGSZ 051000Z AUTO 04006KT 5SM 20/04 A3006 RMK T02000040 IEM_DS3505
ZGSZ,2009-12-05 11:00,ZGSZ 051100Z AUTO 06008KT 5SM 19/03 A3006 RMK T01900030 IEM_DS3505
ZGSZ,2009-12-05 12:00,ZGSZ 051200Z AUTO 09004KT 7SM 17/08 A3006 RMK SLP187 T01720084 52008 IEM_DS3505
ZGSZ,2009-12-05 13:00,ZGSZ 051300Z AUTO 09004KT 4SM 18/08 A3009 RMK T01800080 IEM_DS3505
ZGSZ,2009-12-05 14:00,ZGSZ 051400Z AUTO 4SM 17/07 A3009 RMK T01700070 IEM_DS3505
ZGSZ,2009-12-05 15:00,ZGSZ 051500Z AUTO 02004KT 5SM 16/08 A3009 RMK SLP194 T01620079 52008 IEM_DS3505
ZGSZ,2009-12-05 16:00,ZGSZ 051600Z AUTO 07004KT 4SM 17/08 A3009 RMK T01700080 IEM_DS3505
ZGSZ,2009-12-05 17:00,ZGSZ 051700Z AUTO 02004KT 3SM 17/08 A3009 RMK T01700080 IEM_DS3505
ZGSZ,2009-12-05 18:00,ZGSZ 051800Z AUTO 07002KT 5SM 16/09 A3009 RMK SLP190 T01620087 57004 IEM_DS3505
ZGSZ,2009-12-05 19:00,ZGSZ 051900Z AUTO 00000KT 4SM 15/09 A3009 RMK T01500090 IEM_DS3505
ZGSZ,2009-12-05 20:00,ZGSZ 052000Z AUTO 3SM 14/08 A3006 RMK T01400080 IEM_DS3505
ZGSZ,2009-12-05 21:00,ZGSZ 052100Z AUTO 07002KT 4SM 16/07 A3009 RMK SLP187 T01550073 57003 IEM_DS3505
ZGSZ,2009-12-05 22:00,ZGSZ 052200Z AUTO 05006KT 4SM 16/06 A3009 RMK T01600060 IEM_DS3505
ZGSZ,2009-12-05 23:00,ZGSZ 052300Z AUTO 07004KT 3SM 15/06 A3009 RMK T01500060 IEM_DS3505
ZGSZ,2009-12-06 00:00,ZGSZ 060000Z AUTO 07004KT 4SM 15/06 A3012 RMK SLP201 T01540061 52013 IEM_DS3505
ZGSZ,2009-12-06 01:00,ZGSZ 060100Z AUTO 10004KT 3SM 18/06 A3012 RMK T01800060 IEM_DS3505
ZGSZ,2009-12-06 02:00,ZGSZ 060200Z AUTO 08004KT 4SM 20/06 A3012 RMK T02000060 IEM_DS3505
ZGSZ,2009-12-06 03:00,ZGSZ 060300Z AUTO 07002KT 4SM 20/10 A3009 RMK SLP197 T01970096 57003 IEM_DS3505
ZGSZ,2009-12-06 04:00,ZGSZ 060400Z AUTO 3SM 23/09 A3006 RMK T02300090 IEM_DS3505
ZGSZ,2009-12-06 05:00,ZGSZ 060500Z AUTO 26004KT 3SM 21/09 A3003 RMK T02100090 IEM_DS3505
ZGSZ,2009-12-06 06:00,ZGSZ 060600Z AUTO 16004KT 8SM 22/11 A3000 RMK SLP166 T02160107 57031 IEM_DS3505
ZGSZ,2009-12-06 07:00,ZGSZ 060700Z AUTO 21008KT 3SM 21/12 A2997 RMK T02100120 IEM_DS3505
ZGSZ,2009-12-06 08:00,ZGSZ 060800Z AUTO 3SM 22/13 A3000 RMK T02200130 IEM_DS3505
ZGSZ,2009-12-06 09:00,ZGSZ 060900Z AUTO 07006KT 9SM 20/08 A2997 RMK SLP160 T02020082 57006 IEM_DS3505
ZGSZ,2009-12-06 10:00,ZGSZ 061000Z AUTO 12008KT 6SM 21/09 A3000 RMK T02100090 IEM_DS3505
ZGSZ,2009-12-06 11:00,ZGSZ 061100Z AUTO 11004KT 5SM 20/09 A3000 RMK T02000090 IEM_DS3505
ZGSZ,2009-12-06 12:00,ZGSZ 061200Z AUTO 04004KT 8SM 18/11 A3003 RMK SLP171 T01830109 52011 IEM_DS3505
ZGSZ,2009-12-06 13:00,ZGSZ 061300Z AUTO 10004KT 6SM 19/10 A3003 RMK T01900100 IEM_DS3505
ZGSZ,2009-12-06 14:00,ZGSZ 061400Z AUTO 5SM 19/10 A3006 RMK T01900100 IEM_DS3505
ZGSZ,2009-12-06 15:00,ZGSZ 061500Z AUTO 09002KT 7SM 19/13 A3006 RMK SLP179 T01870127 52008 IEM_DS3505
ZGSZ,2009-12-06 16:00,ZGSZ 061600Z AUTO 02004KT 3SM 19/11 A3006 RMK T01900110 IEM_DS3505
ZGSZ,2009-12-06 17:00,ZGSZ 061700Z AUTO 03004KT 3SM 18/12 A3003 RMK T01800120 IEM_DS3505
ZGSZ,2009-12-06 18:00,ZGSZ 061800Z AUTO 07004KT 9SM 18/13 A3003 RMK SLP173 T01850127 57005 IEM_DS3505
ZGSZ,2009-12-06 19:00,ZGSZ 061900Z AUTO 02004KT 3SM 19/12 A3006 RMK T01900120 IEM_DS3505
ZGSZ,2009-12-06 20:00,ZGSZ 062000Z AUTO 01004KT 3SM 19/12 A3003 RMK T01900120 IEM_DS3505
ZGSZ,2009-12-06 21:00,ZGSZ 062100Z AUTO 07004KT 7SM 18/12 A3006 RMK SLP178 T01810123 52004 IEM_DS3505
ZGSZ,2009-12-06 22:00,ZGSZ 062200Z AUTO 00000KT 3SM 19/12 A3006 RMK T01900120 IEM_DS3505
ZGSZ,2009-12-06 23:00,ZGSZ 062300Z AUTO 09006KT 2 1/2SM 18/13 A3006 RMK T01800130 IEM_DS3505
ZGSZ,2009-12-07 00:00,ZGSZ 070000Z AUTO 09004KT 4SM 17/13 A3009 RMK 60003 70003 SLP192 T01660133 52014 IEM_DS3505
ZGSZ,2009-12-07 01:00,ZGSZ 070100Z AUTO 03004KT 3SM 17/14 A3012 RMK T01700140 IEM_DS3505
ZGSZ,2009-12-07 02:00,ZGSZ 070200Z AUTO 06004KT 4SM 19/14 A3009 RMK T01900140 IEM_DS3505
ZGSZ,2009-12-07 03:00,ZGSZ 070300Z AUTO 07006KT 3SM 17/14 A3009 RMK SLP191 T01670142 57001 IEM_DS3505
ZGSZ,2009-12-07 04:00,ZGSZ 070400Z AUTO 07004KT 3SM 18/15 A3006 RMK T01800150 IEM_DS3505
ZGSZ,2009-12-07 05:00,ZGSZ 070500Z AUTO 04008KT 3SM 18/15 A3003 RMK T01800150 IEM_DS3505
ZGSZ,2009-12-07 06:00,ZGSZ 070600Z AUTO 07004KT 2 1/2SM 16/15 A3003 RMK 60012 SLP167 T01640146 57024 IEM_DS3505
ZGSZ,2009-12-07 07:00,ZGSZ 070700Z AUTO 05006KT 2 1/2SM 18/15 A3000 RMK T01800150 IEM_DS3505
ZGSZ,2009-12-07 08:00,ZGSZ 070800Z AUTO 03006KT 2 1/2SM 18/15 A3000 RMK T01800150 IEM_DS3505
ZGSZ,2009-12-07 09:00,ZGSZ 070900Z AUTO 07006KT 2 1/2SM 17/15 A3000 RMK SLP168 T01680146 52001 IEM_DS3505
ZGSZ,2009-12-07 10:00,ZGSZ 071000Z AUTO 07006KT 3SM 18/15 A3003 RMK T01800150 IEM_DS3505
ZGSZ,2009-12-07 11:00,ZGSZ 071100Z AUTO 07004KT 4SM 18/15 A3003 RMK T01800150 IEM_DS3505
ZGSZ,2009-12-07 12:00,ZGSZ 071200Z AUTO 07006KT 2 1/2SM 17/15 A3003 RMK 60004 SLP175 T01730146 52007 IEM_DS3505
ZGSZ,2009-12-07 13:00,ZGSZ 071300Z AUTO 05004KT 4SM 18/14 A3003 RMK T01800140 IEM_DS3505
ZGSZ,2009-12-07 14:00,ZGSZ 071400Z AUTO 03004KT 4SM 18/14 A3006 RMK T01800140 IEM_DS3505
ZGSZ,2009-12-07 15:00,ZGSZ 071500Z AUTO 09004KT 4SM 18/14 A3006 RMK SLP177 T01760141 52002 IEM_DS3505
ZGSZ,2009-12-07 16:00,ZGSZ 071600Z AUTO 3SM 18/14 A3003 RMK T01800140 IEM_DS3505
ZGSZ,2009-12-07 17:00,ZGSZ 071700Z AUTO 02002KT 2 1/2SM 18/14 A3003 RMK T01800140 IEM_DS3505
ZGSZ,2009-12-07 18:00,ZGSZ 071800Z AUTO 07004KT 4SM 17/15 A3003 RMK 60000 SLP166 T01730146 57011 IEM_DS3505
ZGSZ,2009-12-07 21:00,ZGSZ 072100Z AUTO 32002KT 4SM 17/15 A3003 RMK 70023 SLP169 T01680150 52003 IEM_DS3505
ZGSZ,2009-12-07 22:00,ZGSZ 072200Z AUTO 36004KT 1SM 17/15 A3003 RMK T01700150 IEM_DS3505
ZGSZ,2009-12-07 23:00,ZGSZ 072300Z AUTO 01006KT 1 1/2SM 17/15 A3006 RMK T01700150 IEM_DS3505
ZGSZ,2009-12-08 00:00,ZGSZ 080000Z AUTO 04006KT 2 1/2SM 17/15 A3006 RMK 60008 70023 SLP183 T01680152 52014 IEM_DS3505
ZGSZ,2009-12-08 01:00,ZGSZ 080100Z AUTO 02008KT 2SM 17/15 A3009 RMK T01700150 IEM_DS3505
ZGSZ,2009-12-08 02:00,ZGSZ 080200Z AUTO 02006KT 2SM 18/15 A3009 RMK T01800150 IEM_DS3505
ZGSZ,2009-12-08 03:00,ZGSZ 080300Z AUTO 04006KT 2SM 18/15 A3006 RMK SLP183 T01770153 54000 IEM_DS3505
ZGSZ,2009-12-08 04:00,ZGSZ 080400Z AUTO 01006KT 2SM 18/15 A3006 RMK T01800150 IEM_DS3505
ZGSZ,2009-12-08 05:00,ZGSZ 080500Z AUTO 02008KT 1 1/4SM 18/16 A3000 RMK T01800160 IEM_DS3505
ZGSZ,2009-12-08 06:00,ZGSZ 080600Z AUTO 04004KT 2SM 18/16 A2997 RMK 60000 SLP157 T01810155 57026 IEM_DS3505
ZGSZ,2009-12-08 07:00,ZGSZ 080700Z AUTO 02006KT 2 1/2SM 19/16 A2997 RMK T01900160 IEM_DS3505
ZGSZ,2009-12-08 08:00,ZGSZ 080800Z AUTO 01008KT 2 1/2SM 19/16 A2997 RMK T01900160 IEM_DS3505
ZGSZ,2009-12-08 09:00,ZGSZ 080900Z AUTO 04008KT 3SM 18/15 A3000 RMK SLP159 T01810152 52002 IEM_DS3505
ZGSZ,2009-12-08 10:00,ZGSZ 081000Z AUTO 36008KT 3SM 18/15 A3000 RMK T01800150 IEM_DS3505
ZGSZ,2009-12-08 11:00,ZGSZ 081100Z AUTO 01008KT 3SM 18/15 A3003 RMK T01800150 IEM_DS3505
ZGSZ,2009-12-08 12:00,ZGSZ 081200Z AUTO 04004KT 5SM 18/15 A3003 RMK 60002 SLP171 T01760154 52012 IEM_DS3505
ZGSZ,2009-12-08 13:00,ZGSZ 081300Z AUTO 36006KT 2 1/2SM 18/16 A3003 RMK T01800160 IEM_DS3505
ZGSZ,2009-12-08 14:00,ZGSZ 081400Z AUTO 2 1/2SM 18/16 A3003 RMK T01800160 IEM_DS3505
ZGSZ,2009-12-08 15:00,ZGSZ 081500Z AUTO 07004KT 4SM 17/16 A3003 RMK SLP172 T01720155 52001 IEM_DS3505
ZGSZ,2009-12-08 16:00,ZGSZ 081600Z AUTO 35006KT 3SM 17/16 A3003 RMK T01700160 IEM_DS3505
ZGSZ,2009-12-08 17:00,ZGSZ 081700Z AUTO 01008KT 3SM 17/15 A3003 RMK T01700150 IEM_DS3505
ZGSZ,2009-12-08 18:00,ZGSZ 081800Z AUTO 36002KT 5SM 17/15 RMK 60002 SLP166 T01730153 57006 IEM_DS3505
ZGSZ,2009-12-08 19:00,ZGSZ 081900Z AUTO 35006KT 4SM 17/15 A3000 RMK T01700150 IEM_DS3505
ZGSZ,2009-12-08 20:00,ZGSZ 082000Z AUTO 01008KT 4SM 17/15 A3000 RMK T01700150 IEM_DS3505
ZGSZ,2009-12-08 21:00,ZGSZ 082100Z AUTO 02002KT 2 1/2SM 17/15 A3000 RMK 70007 SLP163 T01690153 57003 IEM_DS3505
ZGSZ,2009-12-08 22:00,ZGSZ 082200Z AUTO 35006KT 4SM 18/15 A3000 RMK T01800150 IEM_DS3505
ZGSZ,2009-12-08 23:00,ZGSZ 082300Z AUTO 35004KT 4SM 18/15 A3003 RMK T01800150 IEM_DS3505
ZGSZ,2009-12-09 00:00,ZGSZ 090000Z AUTO 07002KT 5SM 17/15 A3003 RMK 70004 SLP175 T01740152 52012 IEM_DS3505
ZGSZ,2009-12-09 01:00,ZGSZ 090100Z AUTO 02006KT 4SM 18/16 A3006 RMK T01800160 IEM_DS3505
ZGSZ,2009-12-09 02:00,ZGSZ 090200Z AUTO 05004KT 5SM 19/16 A3006 RMK T01900160 IEM_DS3505
ZGSZ,2009-12-09 03:00,ZGSZ 090300Z AUTO 04004KT 7SM 19/16 A3003 RMK SLP173 T01900155 57002 IEM_DS3505
ZGSZ,2009-12-09 04:00,ZGSZ 090400Z AUTO 4SM 21/16 A3000 RMK T02100160 IEM_DS3505
ZGSZ,2009-12-09 05:00,ZGSZ 090500Z AUTO 4SM 21/16 A2997 RMK T02100160 IEM_DS3505
ZGSZ,2009-12-09 06:00,ZGSZ 090600Z AUTO 02004KT 5SM 19/16 A2994 RMK SLP145 T01930158 57028 IEM_DS3505
ZGSZ,2009-12-09 07:00,ZGSZ 090700Z AUTO 01006KT 4SM 20/16 A2991 RMK T02000160 IEM_DS3505
ZGSZ,2009-12-09 08:00,ZGSZ 090800Z AUTO 01006KT 4SM 20/16 A2991 RMK T02000160 IEM_DS3505
ZGSZ,2009-12-09 09:00,ZGSZ 090900Z AUTO 07004KT 3SM 19/16 A2994 RMK SLP143 T01910163 57002 IEM_DS3505
ZGSZ,2009-12-09 10:00,ZGSZ 091000Z AUTO 04004KT 3SM 20/16 A2994 RMK T02000160 IEM_DS3505
ZGSZ,2009-12-09 11:00,ZGSZ 091100Z AUTO 3SM 20/16 A2997 RMK T02000160 IEM_DS3505
ZGSZ,2009-12-09 12:00,ZGSZ 091200Z AUTO 07002KT 3SM 19/16 A2997 RMK SLP155 T01890163 52012 IEM_DS3505
ZGSZ,2009-12-09 13:00,ZGSZ 091300Z AUTO 35008KT 2 1/2SM 19/16 A3000 RMK T01900160 IEM_DS3505
ZGSZ,2009-12-09 14:00,ZGSZ 091400Z AUTO 02006KT 2SM 19/16 A3000 RMK T01900160 IEM_DS3505
ZGSZ,2009-12-09 15:00,ZGSZ 091500Z AUTO 04004KT 2SM 18/16 A3000 RMK SLP161 T01850165 52006 IEM_DS3505
ZGSZ,2009-12-09 16:00,ZGSZ 091600Z AUTO 35008KT 2SM 19/16 A3000 RMK T01900160 IEM_DS3505
ZGSZ,2009-12-09 17:00,ZGSZ 091700Z AUTO 36006KT 1 1/2SM 19/16 A2997 RMK T01900160 IEM_DS3505
ZGSZ,2009-12-09 18:00,ZGSZ 091800Z AUTO 02006KT 2 1/2SM 18/16 A2997 RMK SLP154 T01830161 57007 IEM_DS3505
ZGSZ,2009-12-09 19:00,ZGSZ 091900Z AUTO 01006KT 1 1/2SM 19/16 A2997 RMK T01900160 IEM_DS3505
ZGSZ,2009-12-09 20:00,ZGSZ 092000Z AUTO 1 1/2SM 19/16 A2997 RMK T01900160 IEM_DS3505
ZGSZ,2009-12-09 21:00,ZGSZ 092100Z AUTO 04006KT 2 1/2SM 18/16 A2997 RMK SLP151 T01790155 57003 IEM_DS3505
ZGSZ,2009-12-09 22:00,ZGSZ 092200Z AUTO 00000KT 3SM 18/15 A2997 RMK T01800150 IEM_DS3505
ZGSZ,2009-12-09 23:00,ZGSZ 092300Z AUTO 29002KT 1 1/2SM 18/16 A2997 RMK T01800160 IEM_DS3505
ZGSZ,2009-12-10 00:00,ZGSZ 100000Z AUTO 09004KT 3SM 18/16 A3000 RMK SLP160 T01810159 52009 IEM_DS3505
ZGSZ,2009-12-10 01:00,ZGSZ 100100Z AUTO 35004KT 2SM 19/16 A3000 RMK T01900160 IEM_DS3505
ZGSZ,2009-12-10 02:00,ZGSZ 100200Z AUTO 01006KT 2SM 19/16 A3003 RMK T01900160 IEM_DS3505
ZGSZ,2009-12-10 03:00,ZGSZ 100300Z AUTO 36002KT 5SM 22/16 A3000 RMK SLP157 T02190155 57002 IEM_DS3505
ZGSZ,2009-12-10 04:00,ZGSZ 100400Z AUTO 35006KT 2 1/2SM 21/16 A2997 RMK T02100160 IEM_DS3505
ZGSZ,2009-12-10 05:00,ZGSZ 100500Z AUTO 01008KT 2 1/2SM 21/16 A2994 RMK T02100160 IEM_DS3505
ZGSZ,2009-12-10 06:00,ZGSZ 100600Z AUTO 29004KT 3SM 22/16 A2994 RMK SLP137 T02180161 57020 IEM_DS3505
ZGSZ,2009-12-10 07:00,ZGSZ 100700Z AUTO 01008KT 2 1/2SM 21/15 A2994 RMK T02100150 IEM_DS3505
ZGSZ,2009-12-10 08:00,ZGSZ 100800Z AUTO 36008KT 2SM 22/15 A2994 RMK T02200150 IEM_DS3505
ZGSZ,2009-12-10 09:00,ZGSZ 100900Z AUTO 02002KT 2 1/2SM 21/16 A2994 RMK SLP141 T02060158 52004 IEM_DS3505
ZGSZ,2009-12-10 10:00,ZGSZ 101000Z AUTO 09006KT 2 1/2SM 20/15 A2991 RMK T02000150 IEM_DS3505
ZGSZ,2009-12-10 11:00,ZGSZ 101100Z AUTO 2 1/2SM 20/15 A2991 RMK T02000150 IEM_DS3505
ZGSZ,2009-12-10 12:00,ZGSZ 101200Z AUTO 36002KT 1 1/2SM 19/16 A2997 RMK SLP148 T01920159 52006 IEM_DS3505
ZGSZ,2009-12-10 13:00,ZGSZ 101300Z AUTO 01008KT 2SM 19/15 A2997 RMK T01900150 IEM_DS3505
ZGSZ,2009-12-10 14:00,ZGSZ 101400Z AUTO 03004KT 2SM 19/15 A2997 RMK T01900150 IEM_DS3505
ZGSZ,2009-12-10 15:00,ZGSZ 101500Z AUTO 04004KT 2 1/2SM 18/15 A2997 RMK SLP157 T01800153 52010 IEM_DS3505
ZGSZ,2009-12-10 16:00,ZGSZ 101600Z AUTO 09004KT 2SM 19/16 A2997 RMK T01900160 IEM_DS3505
ZGSZ,2009-12-10 17:00,ZGSZ 101700Z AUTO 28004KT 1 1/4SM 17/15 A2997 RMK T01700150 IEM_DS3505
ZGSZ,2009-12-10 18:00,ZGSZ 101800Z AUTO 09004KT 2SM 17/15 A2997 RMK SLP151 T01720152 57006 IEM_DS3505
ZGSZ,2009-12-10 19:00,ZGSZ 101900Z AUTO 2SM 17/15 A2994 RMK T01700150 IEM_DS3505
ZGSZ,2009-12-10 20:00,ZGSZ 102000Z AUTO 00000KT 1 1/2SM 17/15 A2994 RMK T01700150 IEM_DS3505
ZGSZ,2009-12-10 21:00,ZGSZ 102100Z AUTO 00000KT 2 1/2SM 17/15 A2997 RMK SLP150 T01680152 57002 IEM_DS3505
ZGSZ,2009-12-10 22:00,ZGSZ 102200Z AUTO 00000KT 2 1/2SM 17/15 A2997 RMK T01700150 IEM_DS3505
ZGSZ,2009-12-10 23:00,ZGSZ 102300Z AUTO 00000KT 3SM 17/15 A3003 RMK T01700150 IEM_DS3505
ZGSZ,2009-12-11 00:00,ZGSZ 110000Z AUTO 09004KT 3SM 18/15 A3003 RMK SLP180 T01780154 52030 IEM_DS3505
ZGSZ,2009-12-11 01:00,ZGSZ 110100Z AUTO 11006KT 3SM 20/16 A3006 RMK T02000160 IEM_DS3505
ZGSZ,2009-12-11 02:00,ZGSZ 110200Z AUTO 12004KT 4SM 22/16 A3009 RMK T02200160 IEM_DS3505
ZGSZ,2009-12-11 03:00,ZGSZ 110300Z AUTO 07006KT 4SM 22/16 A3006 RMK SLP186 T02170160 52006 IEM_DS3505
ZGSZ,2009-12-11 04:00,ZGSZ 110400Z AUTO 16004KT 6SM 25/16 A3003 RMK T02500160 IEM_DS3505
ZGSZ,2009-12-11 05:00,ZGSZ 110500Z AUTO 26006KT 3SM 24/17 A3000 RMK T02400170 IEM_DS3505
ZGSZ,2009-12-11 06:00,ZGSZ 110600Z AUTO 11006KT 9SM 26/16 A2997 RMK SLP155 T02560156 57030 IEM_DS3505
ZGSZ,2009-12-11 07:00,ZGSZ 110700Z AUTO 27004KT 3SM 25/17 A2997 RMK T02500170 IEM_DS3505
ZGSZ,2009-12-11 08:00,ZGSZ 110800Z AUTO 24004KT 4SM 24/17 A2994 RMK T02400170 IEM_DS3505
ZGSZ,2009-12-11 09:00,ZGSZ 110900Z AUTO 18004KT 7SM 23/17 A2997 RMK SLP151 T02310166 57004 IEM_DS3505
ZGSZ,2009-12-11 10:00,ZGSZ 111000Z AUTO 18004KT 2SM 21/18 A2997 RMK T02100180 IEM_DS3505
ZGSZ,2009-12-11 11:00,ZGSZ 111100Z AUTO 16004KT 1 1/2SM 21/18 A3000 RMK T02100180 IEM_DS3505
ZGSZ,2009-12-11 12:00,ZGSZ 111200Z AUTO 07006KT 6SM 21/17 A3000 RMK SLP171 T02060168 52019 IEM_DS3505
ZGSZ,2009-12-11 13:00,ZGSZ 111300Z AUTO 10006KT 3SM 22/17 A3003 RMK T02200170 IEM_DS3505
ZGSZ,2009-12-11 14:00,ZGSZ 111400Z AUTO 10008KT 3SM 21/17 A3006 RMK T02100170 IEM_DS3505
ZGSZ,2009-12-11 15:00,ZGSZ 111500Z AUTO 09006KT 6SM 20/17 A3006 RMK SLP180 T02020170 52010 IEM_DS3505
ZGSZ,2009-12-11 16:00,ZGSZ 111600Z AUTO 10004KT 4SM 21/17 A3006 RMK T02100170 IEM_DS3505
ZGSZ,2009-12-11 17:00,ZGSZ 111700Z AUTO 4SM 21/17 A3003 RMK T02100170 IEM_DS3505
ZGSZ,2009-12-11 18:00,ZGSZ 111800Z AUTO 09004KT 7SM 20/17 A3003 RMK SLP174 T01980166 57006 IEM_DS3505
ZGSZ,2009-12-11 19:00,ZGSZ 111900Z AUTO 02002KT 2 1/2SM 20/16 A3003 RMK T02000160 IEM_DS3505
ZGSZ,2009-12-11 20:00,ZGSZ 112000Z AUTO 04004KT 3SM 20/17 A3003 RMK T02000170 IEM_DS3505
ZGSZ,2009-12-11 21:00,ZGSZ 112100Z AUTO 09006KT 10SM 20/16 A3003 RMK SLP170 T01950162 57004 IEM_DS3505
ZGSZ,2009-12-11 22:00,ZGSZ 112200Z AUTO 00000KT 2SM 19/16 A3003 RMK T01900160 IEM_DS3505
ZGSZ,2009-12-11 23:00,ZGSZ 112300Z AUTO 00000KT 2SM 18/15 A3006 RMK T01800150 IEM_DS3505
ZGSZ,2009-12-12 00:00,ZGSZ 120000Z AUTO 09004KT 9SM 20/16 A3006 RMK SLP186 T02030159 52016 IEM_DS3505
ZGSZ,2009-12-12 01:00,ZGSZ 120100Z AUTO 11004KT 3SM 22/17 A3009 RMK T02200170 IEM_DS3505
ZGSZ,2009-12-12 02:00,ZGSZ 120200Z AUTO 13006KT 3SM 23/16 A3009 RMK T02300160 IEM_DS3505
ZGSZ,2009-12-12 03:00,ZGSZ 120300Z AUTO 14010KT 9SM 22/16 A3009 RMK SLP193 T02230156 52007 IEM_DS3505
ZGSZ,2009-12-12 04:00,ZGSZ 120400Z AUTO 13006KT 7SM 25/16 A3006 RMK T02500160 IEM_DS3505
ZGSZ,2009-12-12 05:00,ZGSZ 120500Z AUTO 09008KT 7SM 26/16 A3003 RMK T02600160 IEM_DS3505
ZGSZ,2009-12-12 06:00,ZGSZ 120600Z AUTO 14006KT 9SM 23/16 A2997 RMK SLP161 T02340160 57032 IEM_DS3505
ZGSZ,2009-12-12 07:00,ZGSZ 120700Z AUTO 20008KT 4SM 24/18 A2997 RMK T02400180 IEM_DS3505
ZGSZ,2009-12-12 08:00,ZGSZ 120800Z AUTO 20008KT 4SM 24/17 A2997 RMK T02400170 IEM_DS3505
ZGSZ,2009-12-12 09:00,ZGSZ 120900Z AUTO 07008KT 7SM 21/16 A2997 RMK SLP160 T02140157 57001 IEM_DS3505
ZGSZ,2009-12-12 10:00,ZGSZ 121000Z AUTO 11008KT 5SM 23/16 A3000 RMK T02300160 IEM_DS3505
ZGSZ,2009-12-12 11:00,ZGSZ 121100Z AUTO 11008KT 4SM 22/16 A3000 RMK T02200160 IEM_DS3505
ZGSZ,2009-12-12 12:00,ZGSZ 121200Z AUTO 09004KT 6SM 20/16 A3003 RMK SLP170 T01960159 52010 IEM_DS3505
ZGSZ,2009-12-12 13:00,ZGSZ 121300Z AUTO 11006KT 3SM 21/16 A3003 RMK T02100160 IEM_DS3505
ZGSZ,2009-12-12 14:00,ZGSZ 121400Z AUTO 10008KT 3SM 20/16 A3003 RMK T02000160 IEM_DS3505
ZGSZ,2009-12-12 15:00,ZGSZ 121500Z AUTO 11006KT 6SM 20/16 A3003 RMK SLP178 T01950160 52008 IEM_DS3505
ZGSZ,2009-12-12 16:00,ZGSZ 121600Z AUTO 10006KT 3SM 20/16 A3003 RMK T02000160 IEM_DS3505
ZGSZ,2009-12-12 17:00,ZGSZ 121700Z AUTO 11006KT 2 1/2SM 20/16 A3003 RMK T02000160 IEM_DS3505
ZGSZ,2009-12-12 18:00,ZGSZ 121800Z AUTO 07004KT 4SM 19/16 A3003 RMK SLP176 T01930158 57002 IEM_DS3505
ZGSZ,2009-12-12 19:00,ZGSZ 121900Z AUTO 00000KT 2 1/2SM 18/15 A3003 RMK T01800150 IEM_DS3505
ZGSZ,2009-12-12 20:00,ZGSZ 122000Z AUTO 00000KT 2SM 17/15 A3003 RMK T01700150 IEM_DS3505
ZGSZ,2009-12-12 21:00,ZGSZ 122100Z AUTO 09002KT 3SM 18/16 A3003 RMK SLP179 T01850159 52002 IEM_DS3505
ZGSZ,2009-12-12 22:00,ZGSZ 122200Z AUTO 1 1/2SM 18/15 A3006 RMK T01800150 IEM_DS3505
ZGSZ,2009-12-12 23:00,ZGSZ 122300Z AUTO 00000KT 2SM 19/16 A3009 RMK T01900160 IEM_DS3505
ZGSZ,2009-12-13 00:00,ZGSZ 130000Z AUTO 02002KT 3SM 19/16 A3009 RMK SLP193 T01920155 52014 IEM_DS3505
ZGSZ,2009-12-13 01:00,ZGSZ 130100Z AUTO 2 1/2SM 20/16 A3012 RMK T02000160 IEM_DS3505
ZGSZ,2009-12-13 02:00,ZGSZ 130200Z AUTO 34004KT 2SM 21/16 A3012 RMK T02100160 IEM_DS3505
ZGSZ,2009-12-13 03:00,ZGSZ 130300Z AUTO 34004KT 3SM 22/16 A3009 RMK SLP195 T02190160 52003 IEM_DS3505
ZGSZ,2009-12-13 04:00,ZGSZ 130400Z AUTO 35006KT 2SM 22/16 A3009 RMK T02200160 IEM_DS3505
ZGSZ,2009-12-13 05:00,ZGSZ 130500Z AUTO 33006KT 2 1/2SM 23/16 A3003 RMK T02300160 IEM_DS3505
ZGSZ,2009-12-13 06:00,ZGSZ 130600Z AUTO 14004KT 2 1/2SM 24/16 A3000 RMK SLP163 T02400158 57032 IEM_DS3505
ZGSZ,2009-12-13 07:00,ZGSZ 130700Z AUTO 29006KT 2SM 22/17 A3000 RMK T02200170 IEM_DS3505
ZGSZ,2009-12-13 08:00,ZGSZ 130800Z AUTO 30008KT 1 1/2SM 23/17 A3000 RMK T02300170 IEM_DS3505
ZGSZ,2009-12-13 09:00,ZGSZ 130900Z AUTO 25004KT 2SM 22/17 A3000 RMK SLP163 T02250168 54000 IEM_DS3505
ZGSZ,2009-12-13 10:00,ZGSZ 131000Z AUTO 30004KT 1SM 22/17 A3000 RMK T02200170 IEM_DS3505
ZGSZ,2009-12-13 11:00,ZGSZ 131100Z AUTO 36004KT 1 1/2SM 22/16 A3000 RMK T02200160 IEM_DS3505
ZGSZ,2009-12-13 12:00,ZGSZ 131200Z AUTO 18004KT 2 1/2SM 20/17 A3003 RMK SLP173 T02040170 52009 IEM_DS3505
ZGSZ,2009-12-13 13:00,ZGSZ 131300Z AUTO 1 1/2SM 22/15 A3003 RMK T02200150 IEM_DS3505
ZGSZ,2009-12-13 14:00,ZGSZ 131400Z AUTO 10004KT 1 1/2SM 21/16 A3006 RMK T02100160 IEM_DS3505
ZGSZ,2009-12-13 15:00,ZGSZ 131500Z AUTO 07002KT 1 1/2SM 20/17 A3006 RMK SLP182 T01960172 52010 IEM_DS3505
ZGSZ,2009-12-13 16:00,ZGSZ 131600Z AUTO 1SM 20/16 A3006 RMK T02000160 IEM_DS3505
ZGSZ,2009-12-13 17:00,ZGSZ 131700Z AUTO 00000KT 1SM 19/16 A3003 RMK T01900160 IEM_DS3505
ZGSZ,2009-12-13 18:00,ZGSZ 131800Z AUTO 04004KT 1 1/2SM 19/17 A3003 RMK SLP176 T01870167 57006 IEM_DS3505
ZGSZ,2009-12-13 19:00,ZGSZ 131900Z AUTO 00000KT 1 1/2SM 19/16 A3003 RMK T01900160 IEM_DS3505
ZGSZ,2009-12-13 20:00,ZGSZ 132000Z AUTO 07004KT 1 1/2SM 19/16 A3003 RMK T01900160 IEM_DS3505
ZGSZ,2009-12-13 21:00,ZGSZ 132100Z AUTO 04004KT 1 1/2SM 18/16 A3006 RMK SLP178 T01850161 52002 IEM_DS3505
ZGSZ,2009-12-13 22:00,ZGSZ 132200Z AUTO 07006KT 2SM 19/15 A3006 RMK T01900150 IEM_DS3505
ZGSZ,2009-12-13 23:00,ZGSZ 132300Z AUTO 00000KT 2SM 18/15 A3009 RMK T01800150 IEM_DS3505
ZGSZ,2009-12-14 00:00,ZGSZ 140000Z AUTO 04006KT 2 1/2SM 19/15 A3009 RMK SLP197 T01860151 52018 IEM_DS3505
ZGSZ,2009-12-14 01:00,ZGSZ 140100Z AUTO 07004KT 3SM 20/15 A3012 RMK T02000150 IEM_DS3505
ZGSZ,2009-12-14 02:00,ZGSZ 140200Z AUTO 3SM 21/15 A3012 RMK T02100150 IEM_DS3505
ZGSZ,2009-12-14 03:00,ZGSZ 140300Z AUTO 07006KT 4SM 22/15 A3012 RMK SLP199 T02160152 52002 IEM_DS3505
ZGSZ,2009-12-14 04:00,ZGSZ 140400Z AUTO 09006KT 4SM 23/15 A3009 RMK T02300150 IEM_DS3505
ZGSZ,2009-12-14 05:00,ZGSZ 140500Z AUTO 12010KT 4SM 23/15 A3003 RMK T02300150 IEM_DS3505
ZGSZ,2009-12-14 06:00,ZGSZ 140600Z AUTO 14006KT 4SM 21/15 A3003 RMK SLP173 T02130147 57025 IEM_DS3505
ZGSZ,2009-12-14 07:00,ZGSZ 140700Z AUTO 11010KT 5SM 23/15 A3000 RMK T02300150 IEM_DS3505
ZGSZ,2009-12-14 08:00,ZGSZ 140800Z AUTO 11008KT 7SM 23/15 A3000 RMK T02300150 IEM_DS3505
ZGSZ,2009-12-14 09:00,ZGSZ 140900Z AUTO 11006KT 5SM 20/15 A3000 RMK SLP169 T02020146 57005 IEM_DS3505
ZGSZ,2009-12-14 10:00,ZGSZ 141000Z AUTO 10010KT 5SM 21/14 A3003 RMK T02100140 IEM_DS3505
ZGSZ,2009-12-14 11:00,ZGSZ 141100Z AUTO 10008KT 5SM 21/15 A3003 RMK T02100150 IEM_DS3505
ZGSZ,2009-12-14 12:00,ZGSZ 141200Z AUTO 14006KT 6SM 20/14 A3006 RMK SLP185 T01970145 52016 IEM_DS3505
ZGSZ,2009-12-14 13:00,ZGSZ 141300Z AUTO 11010KT 7SM 21/14 A3009 RMK T02100140 IEM_DS3505
ZGSZ,2009-12-14 14:00,ZGSZ 141400Z AUTO 10012KT 7SM 21/14 A3006 RMK T02100140 IEM_DS3505
ZGSZ,2009-12-14 15:00,ZGSZ 141500Z AUTO 07008KT 7SM 19/15 A3006 RMK SLP188 T01940151 52004 IEM_DS3505
ZGSZ,2009-12-14 16:00,ZGSZ 141600Z AUTO 11010KT 7SM 20/15 A3006 RMK T02000150 IEM_DS3505
ZGSZ,2009-12-14 17:00,ZGSZ 141700Z AUTO 10014KT 7SM 20/15 A3003 RMK T02000150 IEM_DS3505
ZGSZ,2009-12-14 18:00,ZGSZ 141800Z AUTO 07006KT 9SM 19/15 A3003 RMK SLP174 T01870154 57014 IEM_DS3505
ZGSZ,2009-12-14 19:00,ZGSZ 141900Z AUTO 36004KT 7SM 20/15 A3003 RMK T02000150 IEM_DS3505
ZGSZ,2009-12-14 20:00,ZGSZ 142000Z AUTO 05004KT 7SM 19/15 A3003 RMK T01900150 IEM_DS3505
ZGSZ,2009-12-14 21:00,ZGSZ 142100Z AUTO 07006KT 9SM 19/15 A3000 RMK SLP168 T01870150 57007 IEM_DS3505
ZGSZ,2009-12-14 22:00,ZGSZ 142200Z AUTO 03002KT 4SM 19/15 A3003 RMK T01900150 IEM_DS3505
ZGSZ,2009-12-14 23:00,ZGSZ 142300Z AUTO 00000KT 4SM 19/15 A3006 RMK T01900150 IEM_DS3505
ZGSZ,2009-12-15 00:00,ZGSZ 150000Z AUTO 09004KT 6SM 19/15 A3006 RMK SLP184 T01920153 52016 IEM_DS3505
ZGSZ,2009-12-15 01:00,ZGSZ 150100Z AUTO 11006KT 4SM 21/16 A3009 RMK T02100160 IEM_DS3505
ZGSZ,2009-12-15 02:00,ZGSZ 150200Z AUTO 13006KT 5SM 21/16 A3009 RMK T02100160 IEM_DS3505
ZGSZ,2009-12-15 03:00,ZGSZ 150300Z AUTO 14006KT 5SM 20/16 A3009 RMK SLP192 T02000156 52008 IEM_DS3505
ZGSZ,2009-12-15 04:00,ZGSZ 150400Z AUTO 11006KT 7SM 22/16 A3006 RMK T02200160 IEM_DS3505
ZGSZ,2009-12-15 05:00,ZGSZ 150500Z AUTO 09004KT 7SM 22/16 A3003 RMK T02200160 IEM_DS3505
ZGSZ,2009-12-15 06:00,ZGSZ 150600Z AUTO 09004KT 5SM 21/16 A3000 RMK SLP160 T02110159 57031 IEM_DS3505
ZGSZ,2009-12-15 07:00,ZGSZ 150700Z AUTO 7SM 22/16 A3000 RMK T02200160 IEM_DS3505
ZGSZ,2009-12-15 08:00,ZGSZ 150800Z AUTO 33006KT 3SM 21/18 A3000 RMK T02100180 IEM_DS3505
ZGSZ,2009-12-15 09:00,ZGSZ 150900Z AUTO 09006KT 4SM 20/16 A3000 RMK SLP163 T02000162 52002 IEM_DS3505
ZGSZ,2009-12-15 10:00,ZGSZ 151000Z AUTO 35008KT 2SM 19/17 A3003 RMK T01900170 IEM_DS3505
ZGSZ,2009-12-15 11:00,ZGSZ 151100Z AUTO 33012KT 3SM 16/14 A3009 RMK T01600140 IEM_DS3505
ZGSZ,2009-12-15 12:00,ZGSZ 151200Z AUTO 34006KT 3SM 17/15 A3009 RMK 60039 SLP191 T01680152 52028 IEM_DS3505
ZGSZ,2009-12-15 13:00,ZGSZ 151300Z AUTO 32010KT 7SM 15/14 A3012 RMK T01500140 IEM_DS3505
ZGSZ,2009-12-15 14:00,ZGSZ 151400Z AUTO 01014KT 7SM 16/13 A3015 RMK T01600130 IEM_DS3505
ZGSZ,2009-12-15 15:00,ZGSZ 151500Z AUTO 02008KT 9SM 14/12 A3015 RMK SLP206 T01440123 52015 IEM_DS3505
ZGSZ,2009-12-15 16:00,ZGSZ 151600Z AUTO 03010KT 7SM 14/11 A3015 RMK T01400110 IEM_DS3505
ZGSZ,2009-12-15 17:00,ZGSZ 151700Z AUTO 03010KT 7SM 14/10 A3015 RMK T01400100 IEM_DS3505
ZGSZ,2009-12-15 18:00,ZGSZ 151800Z AUTO 02006KT 12SM 13/09 A3015 RMK 60008 SLP208 T01320091 52002 IEM_DS3505
ZGSZ,2009-12-15 19:00,ZGSZ 151900Z AUTO 03010KT 7SM 13/09 A3015 RMK T01300090 IEM_DS3505
ZGSZ,2009-12-15 20:00,ZGSZ 152000Z AUTO 03012KT 7SM 13/08 A3012 RMK T01300080 IEM_DS3505
ZGSZ,2009-12-15 21:00,ZGSZ 152100Z AUTO 36008KT 14SM 12/08 A3015 RMK 70049 SLP205 T01190082 57004 IEM_DS3505
ZGSZ,2009-12-15 22:00,ZGSZ 152200Z AUTO 02014KT 6SM 12/07 A3015 RMK T01200070 IEM_DS3505
ZGSZ,2009-12-15 23:00,ZGSZ 152300Z AUTO 02012KT 6SM 12/06 A3018 RMK T01200060 IEM_DS3505
ZGSZ,2009-12-16 00:00,ZGSZ 160000Z AUTO 04006KT 14SM 12/06 A3021 RMK 60004 70054 SLP227 T01150060 52022 IEM_DS3505
ZGSZ,2009-12-16 01:00,ZGSZ 160100Z AUTO 03010KT 6SM 13/06 A3024 RMK T01300060 IEM_DS3505
ZGSZ,2009-12-16 02:00,ZGSZ 160200Z AUTO 02012KT 7SM 13/06 A3024 RMK T01300060 IEM_DS3505
ZGSZ,2009-12-16 03:00,ZGSZ 160300Z AUTO 02006KT 12SM 12/06 A3024 RMK SLP239 T01250063 52011 IEM_DS3505
ZGSZ,2009-12-16 04:00,ZGSZ 160400Z AUTO 02012KT 7SM 13/06 A3021 RMK T01300060 IEM_DS3505
ZGSZ,2009-12-16 05:00,ZGSZ 160500Z AUTO 36012KT 7SM 13/06 A3018 RMK T01300060 IEM_DS3505
ZGSZ,2009-12-16 06:00,ZGSZ 160600Z AUTO 04008KT 9SM 12/06 A3015 RMK SLP215 T01250063 57024 IEM_DS3505
ZGSZ,2009-12-16 07:00,ZGSZ 160700Z AUTO 03010KT 7SM 13/06 A3015 RMK T01300060 IEM_DS3505
ZGSZ,2009-12-16 08:00,ZGSZ 160800Z AUTO 02010KT 7SM 13/07 A3015 RMK T01300070 IEM_DS3505
ZGSZ,2009-12-16 09:00,ZGSZ 160900Z AUTO 02010KT 9SM 12/06 A3015 RMK SLP215 T01190062 54000 IEM_DS3505
ZGSZ,2009-12-16 10:00,ZGSZ 161000Z AUTO 03010KT 7SM 12/07 A3018 RMK T01200070 IEM_DS3505
ZGSZ,2009-12-16 11:00,ZGSZ 161100Z AUTO 02010KT 5SM 12/06 A3018 RMK T01200060 IEM_DS3505
ZGSZ,2009-12-16 12:00,ZGSZ 161200Z AUTO 02008KT 9SM 12/06 A3021 RMK SLP229 T01160057 52014 IEM_DS3505
ZGSZ,2009-12-16 13:00,ZGSZ 161300Z AUTO 03010KT 5SM 12/06 A3021 RMK T01200060 IEM_DS3505
ZGSZ,2009-12-16 14:00,ZGSZ 161400Z AUTO 03008KT 5SM 12/06 A3024 RMK T01200060 IEM_DS3505
ZGSZ,2009-12-16 15:00,ZGSZ 161500Z AUTO 36006KT 9SM 11/05 A3024 RMK SLP241 T01100053 52012 IEM_DS3505
ZGSZ,2009-12-16 16:00,ZGSZ 161600Z AUTO 03012KT 5SM 11/06 A3024 RMK T01100060 IEM_DS3505
ZGSZ,2009-12-16 18:00,ZGSZ 161800Z AUTO 02006KT 9SM 10/06 A3024 RMK SLP241 T01040056 54000 IEM_DS3505
ZGSZ,2009-12-16 19:00,ZGSZ 161900Z AUTO 02008KT 4SM 10/06 A3024 RMK T01000060 IEM_DS3505
ZGSZ,2009-12-16 20:00,ZGSZ 162000Z AUTO 02010KT 4SM 10/06 A3024 RMK T01000060 IEM_DS3505
ZGSZ,2009-12-16 21:00,ZGSZ 162100Z AUTO 36006KT 5SM 09/06 A3024 RMK 70005 SLP239 T00940061 57002 IEM_DS3505
ZGSZ,2009-12-16 22:00,ZGSZ 162200Z AUTO 02008KT 4SM 10/06 A3024 RMK T01000060 IEM_DS3505
ZGSZ,2009-12-16 23:00,ZGSZ 162300Z AUTO 03010KT 4SM 09/06 A3027 RMK T00900060 IEM_DS3505
ZGSZ,2009-12-17 00:00,ZGSZ 170000Z AUTO 36008KT 4SM 09/06 A3027 RMK 70000 SLP256 T00880064 52016 IEM_DS3505
ZGSZ,2009-12-17 01:00,ZGSZ 170100Z AUTO 02012KT 7SM 10/06 A3030 RMK T01000060 IEM_DS3505
ZGSZ,2009-12-17 02:00,ZGSZ 170200Z AUTO 01010KT 7SM 11/05 A3033 RMK T01100050 IEM_DS3505
ZGSZ,2009-12-17 03:00,ZGSZ 170300Z AUTO 36006KT 4SM 10/06 A3030 RMK SLP261 T00980063 52005 IEM_DS3505
ZGSZ,2009-12-17 04:00,ZGSZ 170400Z AUTO 01014KT 7SM 11/05 A3027 RMK T01100050 IEM_DS3505
ZGSZ,2009-12-17 05:00,ZGSZ 170500Z AUTO 04010KT 7SM 12/06 A3021 RMK T01200060 IEM_DS3505
ZGSZ,2009-12-17 06:00,ZGSZ 170600Z AUTO 04006KT 7SM 11/06 A3021 RMK SLP228 T01110056 57032 IEM_DS3505
ZGSZ,2009-12-17 07:00,ZGSZ 170700Z AUTO 01010KT 7SM 13/06 A3018 RMK T01300060 IEM_DS3505
ZGSZ,2009-12-17 08:00,ZGSZ 170800Z AUTO 01014KT 7SM 13/05 A3018 RMK T01300050 IEM_DS3505
ZGSZ,2009-12-17 09:00,ZGSZ 170900Z AUTO 36010KT 9SM 12/05 A3021 RMK SLP231 T01180052 52003 IEM_DS3505
ZGSZ,2009-12-17 10:00,ZGSZ 171000Z AUTO 02010KT 7SM 12/05 A3021 RMK T01200050 IEM_DS3505
ZGSZ,2009-12-17 11:00,ZGSZ 171100Z AUTO 03008KT 6SM 11/05 A3024 RMK T01100050 IEM_DS3505
ZGSZ,2009-12-17 12:00,ZGSZ 171200Z AUTO 02008KT 9SM 10/05 A3024 RMK SLP245 T01020050 52013 IEM_DS3505
ZGSZ,2009-12-17 13:00,ZGSZ 171300Z AUTO 03010KT 6SM 11/05 A3027 RMK T01100050 IEM_DS3505
ZGSZ,2009-12-17 14:00,ZGSZ 171400Z AUTO 03008KT 7SM 11/05 A3027 RMK T01100050 IEM_DS3505
ZGSZ,2009-12-17 15:00,ZGSZ 171500Z AUTO 04008KT 9SM 10/04 A3027 RMK SLP252 T01010038 52007 IEM_DS3505
ZGSZ,2009-12-17 16:00,ZGSZ 171600Z AUTO 03010KT 7SM 11/04 A3027 RMK T01100040 IEM_DS3505
ZGSZ,2009-12-17 17:00,ZGSZ 171700Z AUTO 02012KT 7SM 10/04 A3027 RMK T01000040 IEM_DS3505
ZGSZ,2009-12-17 18:00,ZGSZ 171800Z AUTO 04006KT 12SM 10/04 A3027 RMK SLP252 T00970037 54000 IEM_DS3505
ZGSZ,2009-12-17 19:00,ZGSZ 171900Z AUTO 02010KT 7SM 10/03 A3027 RMK T01000030 IEM_DS3505
ZGSZ,2009-12-17 20:00,ZGSZ 172000Z AUTO 02010KT 7SM 10/03 A3027 RMK T01000030 IEM_DS3505
ZGSZ,2009-12-17 21:00,ZGSZ 172100Z AUTO 02010KT 14SM 10/03 A3027 RMK SLP244 T00970034 57007 IEM_DS3505
ZGSZ,2009-12-17 22:00,ZGSZ 172200Z AUTO 02010KT 7SM 10/04 A3027 RMK T01000040 IEM_DS3505
ZGSZ,2009-12-17 23:00,ZGSZ 172300Z AUTO 02010KT 7SM 10/03 A3030 RMK T01000030 IEM_DS3505
ZGSZ,2009-12-18 00:00,ZGSZ 180000Z AUTO 02004KT 11SM 10/03 A3033 RMK SLP268 T00970032 52023 IEM_DS3505
ZGSZ,2009-12-18 01:00,ZGSZ 180100Z AUTO 02010KT 7SM 10/03 A3033 RMK T01000030 IEM_DS3505
ZGSZ,2009-12-18 02:00,ZGSZ 180200Z AUTO 01010KT 7SM 11/04 A3036 RMK T01100040 IEM_DS3505
ZGSZ,2009-12-18 03:00,ZGSZ 180300Z AUTO 04006KT 9SM 10/04 A3036 RMK SLP279 T01010038 52011 IEM_DS3505
ZGSZ,2009-12-18 04:00,ZGSZ 180400Z AUTO 03010KT 7SM 11/04 A3033 RMK T01100040 IEM_DS3505
ZGSZ,2009-12-18 05:00,ZGSZ 180500Z AUTO 02008KT 7SM 12/04 A3030 RMK T01200040 IEM_DS3505
ZGSZ,2009-12-18 06:00,ZGSZ 180600Z AUTO 02006KT 7SM 11/04 A3030 RMK SLP259 T01100042 57020 IEM_DS3505
ZGSZ,2009-12-18 07:00,ZGSZ 180700Z AUTO 02012KT 7SM 12/04 A3027 RMK T01200040 IEM_DS3505
ZGSZ,2009-12-18 08:00,ZGSZ 180800Z AUTO 02010KT 5SM 12/04 A3027 RMK T01200040 IEM_DS3505
ZGSZ,2009-12-18 09:00,ZGSZ 180900Z AUTO 04008KT 6SM 11/04 A3030 RMK SLP259 T01100045 54000 IEM_DS3505
ZGSZ,2009-12-18 10:00,ZGSZ 181000Z AUTO 04008KT 5SM 12/04 A3030 RMK T01200040 IEM_DS3505
ZGSZ,2009-12-18 11:00,ZGSZ 181100Z AUTO 01008KT 7SM 12/05 A3033 RMK T01200050 IEM_DS3505
ZGSZ,2009-12-18 12:00,ZGSZ 181200Z AUTO 02008KT 6SM 11/04 A3033 RMK SLP275 T01100042 52016 IEM_DS3505
ZGSZ,2009-12-18 13:00,ZGSZ 181300Z AUTO 03006KT 7SM 12/04 A3036 RMK T01200040 IEM_DS3505
ZGSZ,2009-12-18 14:00,ZGSZ 181400Z AUTO 03006KT 7SM 12/04 A3036 RMK T01200040 IEM_DS3505
ZGSZ,2009-12-18 15:00,ZGSZ 181500Z AUTO 04006KT 7SM 11/04 A3036 RMK SLP283 T01100038 52008 IEM_DS3505
ZGSZ,2009-12-18 16:00,ZGSZ 181600Z AUTO 02010KT 7SM 11/03 A3036 RMK T01100030 IEM_DS3505
ZGSZ,2009-12-18 17:00,ZGSZ 181700Z AUTO 02012KT 7SM 11/03 A3036 RMK T01100030 IEM_DS3505
ZGSZ,2009-12-18 18:00,ZGSZ 181800Z AUTO 02006KT 8SM 10/03 A3036 RMK SLP282 T01040027 57001 IEM_DS3505
ZGSZ,2009-12-18 19:00,ZGSZ 181900Z AUTO 03008KT 7SM 11/03 A3036 RMK T01100030 IEM_DS3505
ZGSZ,2009-12-18 20:00,ZGSZ 182000Z AUTO 02010KT 7SM 11/02 A3036 RMK T01100020 IEM_DS3505
ZGSZ,2009-12-18 21:00,ZGSZ 182100Z AUTO 04006KT 9SM 10/02 A3036 RMK SLP280 T01010020 57002 IEM_DS3505
ZGSZ,2009-12-18 22:00,ZGSZ 182200Z AUTO 02010KT 6SM 10/02 A3036 RMK T01000020 IEM_DS3505
ZGSZ,2009-12-18 23:00,ZGSZ 182300Z AUTO 03010KT 6SM 09/02 A3036 RMK T00900020 IEM_DS3505
ZGSZ,2009-12-19 00:00,ZGSZ 190000Z AUTO 04008KT 7SM 10/01 A3039 RMK SLP289 T00950012 52009 IEM_DS3505
ZGSZ,2009-12-19 01:00,ZGSZ 190100Z AUTO 02008KT 6SM 11/02 A3039 RMK T01100020 IEM_DS3505
ZGSZ,2009-12-19 02:00,ZGSZ 190200Z AUTO 01010KT 6SM 12/01 A3042 RMK T01200010 IEM_DS3505
ZGSZ,2009-12-19 03:00,ZGSZ 190300Z AUTO 04006KT 7SM 12/02 A3042 RMK SLP297 T01150020 52008 IEM_DS3505
ZGSZ,2009-12-19 04:00,ZGSZ 190400Z AUTO 36008KT 6SM 15/03 A3036 RMK T01500030 IEM_DS3505
ZGSZ,2009-12-19 05:00,ZGSZ 190500Z AUTO 01008KT 6SM 16/03 A3033 RMK T01600030 IEM_DS3505
ZGSZ,2009-12-19 06:00,ZGSZ 190600Z AUTO 34004KT 7SM 15/04 A3030 RMK SLP266 T01500038 57030 IEM_DS3505
ZGSZ,2009-12-19 07:00,ZGSZ 190700Z AUTO 35010KT 5SM 16/03 A3030 RMK T01600030 IEM_DS3505
ZGSZ,2009-12-19 08:00,ZGSZ 190800Z AUTO 01010KT 5SM 16/03 A3030 RMK T01600030 IEM_DS3505
ZGSZ,2009-12-19 09:00,ZGSZ 190900Z AUTO 07002KT 7SM 15/04 A3030 RMK SLP266 T01470044 54000 IEM_DS3505
ZGSZ,2009-12-19 10:00,ZGSZ 191000Z AUTO 36010KT 5SM 15/04 A3033 RMK T01500040 IEM_DS3505
ZGSZ,2009-12-19 11:00,ZGSZ 191100Z AUTO 03004KT 4SM 14/04 A3033 RMK T01400040 IEM_DS3505
ZGSZ,2009-12-19 12:00,ZGSZ 191200Z AUTO 36004KT 4SM 13/05 A3036 RMK SLP283 T01290046 52016 IEM_DS3505
ZGSZ,2009-12-19 13:00,ZGSZ 191300Z AUTO 04006KT 4SM 14/03 A3036 RMK T01400030 IEM_DS3505
ZGSZ,2009-12-19 14:00,ZGSZ 191400Z AUTO 02010KT 4SM 14/03 A3036 RMK T01400030 IEM_DS3505
ZGSZ,2009-12-19 15:00,ZGSZ 191500Z AUTO 04006KT 6SM 13/01 A3036 RMK SLP286 T01280012 52004 IEM_DS3505
ZGSZ,2009-12-19 16:00,ZGSZ 191600Z AUTO 04006KT 5SM 13/02 A3036 RMK T01300020 IEM_DS3505
ZGSZ,2009-12-19 17:00,ZGSZ 191700Z AUTO 03008KT 5SM 12/01 A3036 RMK T01200010 IEM_DS3505
ZGSZ,2009-12-19 18:00,ZGSZ 191800Z AUTO 04006KT 9SM 12/M01 A3036 RMK SLP281 T01151006 57005 IEM_DS3505
ZGSZ,2009-12-19 19:00,ZGSZ 191900Z AUTO 06010KT 6SM 12/00 A3033 RMK T01200000 IEM_DS3505
ZGSZ,2009-12-19 20:00,ZGSZ 192000Z AUTO 01006KT 6SM 11/00 A3033 RMK T01100000 IEM_DS3505
ZGSZ,2009-12-19 21:00,ZGSZ 192100Z AUTO 02006KT 9SM 11/M02 A3036 RMK SLP274 T01071017 57007 IEM_DS3505
ZGSZ,2009-12-19 22:00,ZGSZ 192200Z AUTO 04006KT 6SM 11/M02 A3033 RMK T01101020 IEM_DS3505
ZGSZ,2009-12-19 23:00,ZGSZ 192300Z AUTO 03008KT 6SM 11/M03 A3036 RMK T01101030 IEM_DS3505
ZGSZ,2009-12-20 00:00,ZGSZ 200000Z AUTO 02006KT 8SM 10/M03 A3036 RMK SLP280 T01051029 52006 IEM_DS3505
ZGSZ,2009-12-20 01:00,ZGSZ 200100Z AUTO 02008KT 6SM 12/M02 A3039 RMK T01201020 IEM_DS3505
ZGSZ,2009-12-20 02:00,ZGSZ 200200Z AUTO 02010KT 6SM 13/M01 A3039 RMK T01301010 IEM_DS3505
ZGSZ,2009-12-20 03:00,ZGSZ 200300Z AUTO 04006KT 7SM 13/M03 A3036 RMK SLP284 T01311028 52004 IEM_DS3505
ZGSZ,2009-12-20 04:00,ZGSZ 200400Z AUTO 01008KT 6SM 16/M02 A3033 RMK T01601020 IEM_DS3505
ZGSZ,2009-12-20 05:00,ZGSZ 200500Z AUTO 35008KT 6SM 16/M02 A3030 RMK T01601020 IEM_DS3505
ZGSZ,2009-12-20 06:00,ZGSZ 200600Z AUTO 32004KT 7SM 16/M03 A3027 RMK SLP255 T01611029 57029 IEM_DS3505
ZGSZ,2009-12-20 07:00,ZGSZ 200700Z AUTO 36010KT 6SM 17/M02 A3027 RMK T01701020 IEM_DS3505
ZGSZ,2009-12-20 08:00,ZGSZ 200800Z AUTO 35010KT 6SM 16/M03 A3027 RMK T01601030 IEM_DS3505
ZGSZ,2009-12-20 09:00,ZGSZ 200900Z AUTO 02004KT 7SM 15/M03 A3027 RMK SLP253 T01521027 57002 IEM_DS3505
ZGSZ,2009-12-20 10:00,ZGSZ 201000Z AUTO 04008KT 6SM 16/M03 A3027 RMK T01601030 IEM_DS3505
ZGSZ,2009-12-20 11:00,ZGSZ 201100Z AUTO 04006KT 6SM 15/M03 A3030 RMK T01501030 IEM_DS3505
ZGSZ,2009-12-20 12:00,ZGSZ 201200Z AUTO 02004KT 7SM 14/M02 A3033 RMK SLP270 T01411019 52017 IEM_DS3505
ZGSZ,2009-12-20 13:00,ZGSZ 201300Z AUTO 04008KT 6SM 15/M04 A3033 RMK T01501040 IEM_DS3505
ZGSZ,2009-12-20 14:00,ZGSZ 201400Z AUTO 03006KT 6SM 15/M03 A3036 RMK T01501030 IEM_DS3505
ZGSZ,2009-12-20 15:00,ZGSZ 201500Z AUTO 04004KT 8SM 14/M03 A3036 RMK SLP284 T01381030 52014 IEM_DS3505
ZGSZ,2009-12-20 16:00,ZGSZ 201600Z AUTO 04006KT 7SM 14/M03 A3033 RMK T01401030 IEM_DS3505
ZGSZ,2009-12-20 17:00,ZGSZ 201700Z AUTO 02006KT 6SM 14/M02 A3036 RMK T01401020 IEM_DS3505
ZGSZ,2009-12-20 18:00,ZGSZ 201800Z AUTO 02006KT 8SM 13/M02 A3033 RMK SLP273 T01301025 57011 IEM_DS3505
ZGSZ,2009-12-20 19:00,ZGSZ 201900Z AUTO 03008KT 6SM 13/M03 A3033 RMK T01301030 IEM_DS3505
ZGSZ,2009-12-20 20:00,ZGSZ 202000Z AUTO 04004KT 6SM 13/M04 A3033 RMK T01301040 IEM_DS3505
ZGSZ,2009-12-20 21:00,ZGSZ 202100Z AUTO 02006KT 9SM 12/M03 A3033 RMK SLP268 T01231027 57005 IEM_DS3505
ZGSZ,2009-12-20 22:00,ZGSZ 202200Z AUTO 03008KT 7SM 13/M03 A3033 RMK T01301030 IEM_DS3505
ZGSZ,2009-12-20 23:00,ZGSZ 202300Z AUTO 02008KT 7SM 13/M03 A3033 RMK T01301030 IEM_DS3505
ZGSZ,2009-12-21 00:00,ZGSZ 210000Z AUTO 07006KT 9SM 12/M04 A3036 RMK SLP279 T01211041 52011 IEM_DS3505
ZGSZ,2009-12-21 01:00,ZGSZ 210100Z AUTO 04006KT 6SM 13/M03 A3036 RMK T01301030 IEM_DS3505
ZGSZ,2009-12-21 02:00,ZGSZ 210200Z AUTO 05006KT 6SM 15/M03 A3036 RMK T01501030 IEM_DS3505
ZGSZ,2009-12-21 03:00,ZGSZ 210300Z AUTO 04004KT 10SM 14/M03 A3036 RMK SLP279 T01431026 54000 IEM_DS3505
ZGSZ,2009-12-21 04:00,ZGSZ 210400Z AUTO 03006KT 6SM 17/M02 A3033 RMK T01701020 IEM_DS3505
ZGSZ,2009-12-21 05:00,ZGSZ 210500Z AUTO 03004KT 6SM 18/M01 A3027 RMK T01801010 IEM_DS3505
ZGSZ,2009-12-21 06:00,ZGSZ 210600Z AUTO 34002KT 7SM 18/M01 A3024 RMK SLP244 T01761006 57034 IEM_DS3505
ZGSZ,2009-12-21 07:00,ZGSZ 210700Z AUTO 25004KT 6SM 18/00 A3021 RMK T01800000 IEM_DS3505
ZGSZ,2009-12-21 08:00,ZGSZ 210800Z AUTO 6SM 19/00 A3021 RMK T01900000 IEM_DS3505
ZGSZ,2009-12-21 09:00,ZGSZ 210900Z AUTO 22006KT 7SM 16/04 A3021 RMK SLP238 T01590043 57007 IEM_DS3505
ZGSZ,2009-12-21 10:00,ZGSZ 211000Z AUTO 32004KT 4SM 16/05 A3021 RMK T01600050 IEM_DS3505
ZGSZ,2009-12-21 11:00,ZGSZ 211100Z AUTO 4SM 16/02 A3024 RMK T01600020 IEM_DS3505
ZGSZ,2009-12-21 12:00,ZGSZ 211200Z AUTO 07004KT 7SM 15/04 A3024 RMK SLP251 T01470038 52013 IEM_DS3505
ZGSZ,2009-12-21 13:00,ZGSZ 211300Z AUTO 3SM 16/05 A3027 RMK T01600050 IEM_DS3505
ZGSZ,2009-12-21 14:00,ZGSZ 211400Z AUTO 10004KT 4SM 15/05 A3027 RMK T01500050 IEM_DS3505
ZGSZ,2009-12-21 15:00,ZGSZ 211500Z AUTO 09004KT 9SM 14/05 A3027 RMK SLP251 T01410052 54000 IEM_DS3505
ZGSZ,2009-12-21 16:00,ZGSZ 211600Z AUTO 10004KT 7SM 15/05 A3024 RMK T01500050 IEM_DS3505
ZGSZ,2009-12-21 17:00,ZGSZ 211700Z AUTO 10004KT 7SM 15/06 A3024 RMK T01500060 IEM_DS3505
ZGSZ,2009-12-21 18:00,ZGSZ 211800Z AUTO 07004KT 9SM 14/07 A3021 RMK SLP239 T01400066 57011 IEM_DS3505
ZGSZ,2009-12-21 19:00,ZGSZ 211900Z AUTO 09004KT 4SM 14/06 A3021 RMK T01400060 IEM_DS3505
ZGSZ,2009-12-21 20:00,ZGSZ 212000Z AUTO 09006KT 4SM 14/07 A3021 RMK T01400070 IEM_DS3505
ZGSZ,2009-12-21 21:00,ZGSZ 212100Z AUTO 04004KT 7SM 13/08 A3018 RMK SLP226 T01340076 57013 IEM_DS3505
ZGSZ,2009-12-21 22:00,ZGSZ 212200Z AUTO 03004KT 3SM 13/07 A3018 RMK T01300070 IEM_DS3505
ZGSZ,2009-12-21 23:00,ZGSZ 212300Z AUTO 36004KT 3SM 13/07 A3021 RMK T01300070 IEM_DS3505
ZGSZ,2009-12-22 00:00,ZGSZ 220000Z AUTO 04006KT 6SM 13/08 A3024 RMK SLP240 T01320079 52013 IEM_DS3505
ZGSZ,2009-12-22 01:00,ZGSZ 220100Z AUTO 4SM 15/08 A3024 RMK T01500080 IEM_DS3505
ZGSZ,2009-12-22 02:00,ZGSZ 220200Z AUTO 08006KT 4SM 17/08 A3024 RMK T01700080 IEM_DS3505
ZGSZ,2009-12-22 03:00,ZGSZ 220300Z AUTO 04002KT 4SM 17/08 A3021 RMK SLP238 T01700079 57001 IEM_DS3505
ZGSZ,2009-12-22 04:00,ZGSZ 220400Z AUTO 4SM 19/08 A3018 RMK T01900080 IEM_DS3505
ZGSZ,2009-12-22 05:00,ZGSZ 220500Z AUTO 27006KT 3SM 19/09 A3015 RMK T01900090 IEM_DS3505
ZGSZ,2009-12-22 06:00,ZGSZ 220600Z AUTO 02002KT 5SM 20/08 A3012 RMK SLP202 T01970084 57036 IEM_DS3505
ZGSZ,2009-12-22 07:00,ZGSZ 220700Z AUTO 26004KT 3SM 20/09 A3009 RMK T02000090 IEM_DS3505
ZGSZ,2009-12-22 08:00,ZGSZ 220800Z AUTO 24004KT 3SM 20/09 A3009 RMK T02000090 IEM_DS3505
ZGSZ,2009-12-22 09:00,ZGSZ 220900Z AUTO 11002KT 5SM 19/11 A3009 RMK SLP191 T01880109 57011 IEM_DS3505
ZGSZ,2009-12-22 10:00,ZGSZ 221000Z AUTO 17004KT 4SM 17/12 A3009 RMK T01700120 IEM_DS3505
ZGSZ,2009-12-22 11:00,ZGSZ 221100Z AUTO 22004KT 4SM 18/12 A3012 RMK T01800120 IEM_DS3505
ZGSZ,2009-12-22 12:00,ZGSZ 221200Z AUTO 09004KT 4SM 16/09 A3012 RMK SLP205 T01640091 52014 IEM_DS3505
ZGSZ,2009-12-22 13:00,ZGSZ 221300Z AUTO 15004KT 3SM 17/13 A3012 RMK T01700130 IEM_DS3505
ZGSZ,2009-12-22 14:00,ZGSZ 221400Z AUTO 11004KT 4SM 18/10 A3012 RMK T01800100 IEM_DS3505
ZGSZ,2009-12-22 15:00,ZGSZ 221500Z AUTO 09004KT 4SM 16/08 A3012 RMK SLP207 T01600085 52002 IEM_DS3505
ZGSZ,2009-12-22 16:00,ZGSZ 221600Z AUTO 5SM 17/10 A3012 RMK T01700100 IEM_DS3505
ZGSZ,2009-12-22 17:00,ZGSZ 221700Z AUTO 11004KT 6SM 17/09 A3012 RMK T01700090 IEM_DS3505
ZGSZ,2009-12-22 18:00,ZGSZ 221800Z AUTO 04004KT 6SM 16/10 A3009 RMK SLP198 T01590098 57008 IEM_DS3505
ZGSZ,2009-12-22 19:00,ZGSZ 221900Z AUTO 08002KT 4SM 16/09 A3009 RMK T01600090 IEM_DS3505
ZGSZ,2009-12-22 20:00,ZGSZ 222000Z AUTO 06002KT 4SM 16/09 A3009 RMK T01600090 IEM_DS3505
ZGSZ,2009-12-22 21:00,ZGSZ 222100Z AUTO 09002KT 6SM 16/09 A3009 RMK SLP197 T01550094 57001 IEM_DS3505
ZGSZ,2009-12-22 22:00,ZGSZ 222200Z AUTO 4SM 16/10 A3009 RMK T01600100 IEM_DS3505
ZGSZ,2009-12-22 23:00,ZGSZ 222300Z AUTO 00000KT 3SM 16/10 A3012 RMK T01600100 IEM_DS3505
ZGSZ,2009-12-23 00:00,ZGSZ 230000Z AUTO 07002KT 4SM 16/09 A3012 RMK SLP210 T01560093 52012 IEM_DS3505
ZGSZ,2009-12-23 01:00,ZGSZ 230100Z AUTO 11004KT 5SM 18/09 A3015 RMK T01800090 IEM_DS3505
ZGSZ,2009-12-23 02:00,ZGSZ 230200Z AUTO 4SM 19/09 A3015 RMK T01900090 IEM_DS3505
ZGSZ,2009-12-23 03:00,ZGSZ 230300Z AUTO 07004KT 3SM 20/10 A3012 RMK SLP204 T02030101 57005 IEM_DS3505
ZGSZ,2009-12-23 04:00,ZGSZ 230400Z AUTO 5SM 22/11 A3009 RMK T02200110 IEM_DS3505
ZGSZ,2009-12-23 05:00,ZGSZ 230500Z AUTO 22006KT 4SM 22/11 A3006 RMK T02200110 IEM_DS3505
ZGSZ,2009-12-23 06:00,ZGSZ 230600Z AUTO 22008KT 5SM 23/12 A3003 RMK SLP173 T02340124 57031 IEM_DS3505
ZGSZ,2009-12-23 07:00,ZGSZ 230700Z AUTO 22006KT 3SM 21/14 A3000 RMK T02100140 IEM_DS3505
ZGSZ,2009-12-23 08:00,ZGSZ 230800Z AUTO 27004KT 4SM 22/15 A3000 RMK T02200150 IEM_DS3505
ZGSZ,2009-12-23 09:00,ZGSZ 230900Z AUTO 09004KT 6SM 21/14 A3000 RMK SLP167 T02060138 57006 IEM_DS3505
ZGSZ,2009-12-23 10:00,ZGSZ 231000Z AUTO 27004KT 3SM 20/15 A3003 RMK T02000150 IEM_DS3505
ZGSZ,2009-12-23 11:00,ZGSZ 231100Z AUTO 00000KT 4SM 19/15 A3003 RMK T01900150 IEM_DS3505
ZGSZ,2009-12-23 12:00,ZGSZ 231200Z AUTO 09004KT 5SM 18/15 A3006 RMK SLP181 T01840147 52014 IEM_DS3505
ZGSZ,2009-12-23 13:00,ZGSZ 231300Z AUTO 12006KT 3SM 19/15 A3006 RMK T01900150 IEM_DS3505
ZGSZ,2009-12-23 14:00,ZGSZ 231400Z AUTO 11006KT 2 1/2SM 20/15 A3006 RMK T02000150 IEM_DS3505
ZGSZ,2009-12-23 15:00,ZGSZ 231500Z AUTO 07004KT 4SM 18/15 A3006 RMK SLP182 T01790153 52001 IEM_DS3505
ZGSZ,2009-12-23 16:00,ZGSZ 231600Z AUTO 08004KT 3SM 19/15 A3006 RMK T01900150 IEM_DS3505
ZGSZ,2009-12-23 17:00,ZGSZ 231700Z AUTO 2 1/2SM 18/15 A3003 RMK T01800150 IEM_DS3505
ZGSZ,2009-12-23 18:00,ZGSZ 231800Z AUTO 04004KT 4SM 18/16 A3003 RMK SLP171 T01800156 57010 IEM_DS3505
ZGSZ,2009-12-23 19:00,ZGSZ 231900Z AUTO 36002KT 1 1/4SM 16/14 A3003 RMK T01600140 IEM_DS3505
ZGSZ,2009-12-23 20:00,ZGSZ 232000Z AUTO 01002KT 1 1/4SM 17/15 A3003 RMK T01700150 IEM_DS3505
ZGSZ,2009-12-23 21:00,ZGSZ 232100Z AUTO 02002KT 2 1/2SM 17/15 A3003 RMK SLP168 T01720152 57004 IEM_DS3505
ZGSZ,2009-12-23 22:00,ZGSZ 232200Z AUTO 02004KT 1 1/2SM 17/15 A3003 RMK T01700150 IEM_DS3505
ZGSZ,2009-12-23 23:00,ZGSZ 232300Z AUTO 01004KT 2SM 17/14 A3006 RMK T01700140 IEM_DS3505
ZGSZ,2009-12-24 00:00,ZGSZ 240000Z AUTO 04004KT 2 1/2SM 17/15 A3006 RMK SLP182 T01720148 52014 IEM_DS3505
ZGSZ,2009-12-24 01:00,ZGSZ 240100Z AUTO 2SM 20/15 A3006 RMK T02000150 IEM_DS3505
ZGSZ,2009-12-24 02:00,ZGSZ 240200Z AUTO 25004KT 2SM 21/16 A3006 RMK T02100160 IEM_DS3505
ZGSZ,2009-12-24 03:00,ZGSZ 240300Z AUTO 07004KT 3SM 23/16 A3006 RMK SLP178 T02300156 57003 IEM_DS3505
ZGSZ,2009-12-24 04:00,ZGSZ 240400Z AUTO 26006KT 2SM 23/16 A3000 RMK T02300160 IEM_DS3505
ZGSZ,2009-12-24 05:00,ZGSZ 240500Z AUTO 29008KT 2 1/2SM 24/16 A2997 RMK T02400160 IEM_DS3505
ZGSZ,2009-12-24 06:00,ZGSZ 240600Z AUTO 22006KT 4SM 25/16 A2994 RMK SLP141 T02530159 57037 IEM_DS3505
ZGSZ,2009-12-24 07:00,ZGSZ 240700Z AUTO 26004KT 5SM 24/16 A2991 RMK T02400160 IEM_DS3505
ZGSZ,2009-12-24 08:00,ZGSZ 240800Z AUTO 24006KT 6SM 24/16 A2991 RMK T02400160 IEM_DS3505
ZGSZ,2009-12-24 09:00,ZGSZ 240900Z AUTO 22004KT 4SM 22/16 A2994 RMK SLP139 T02250161 57002 IEM_DS3505
ZGSZ,2009-12-24 10:00,ZGSZ 241000Z AUTO 15006KT 2SM 20/17 A2994 RMK T02000170 IEM_DS3505
ZGSZ,2009-12-24 11:00,ZGSZ 241100Z AUTO 15006KT 1 1/4SM 19/16 A2994 RMK T01900160 IEM_DS3505
ZGSZ,2009-12-24 12:00,ZGSZ 241200Z AUTO 14002KT 4SM 20/16 A2994 RMK SLP148 T01990163 52008 IEM_DS3505
ZGSZ,2009-12-24 13:00,ZGSZ 241300Z AUTO 15002KT 1SM 19/16 A2997 RMK T01900160 IEM_DS3505
ZGSZ,2009-12-24 14:00,ZGSZ 241400Z AUTO 18004KT 1/2SM 19/17 A2997 RMK T01900170 IEM_DS3505
ZGSZ,2009-12-24 15:00,ZGSZ 241500Z AUTO 07002KT 2 1/2SM 19/16 A3000 RMK SLP156 T01870165 52009 IEM_DS3505
ZGSZ,2009-12-24 16:00,ZGSZ 241600Z AUTO 15004KT 1SM 18/16 A2997 RMK T01800160 IEM_DS3505
ZGSZ,2009-12-24 17:00,ZGSZ 241700Z AUTO 13002KT 1SM 17/16 A2997 RMK T01700160 IEM_DS3505
ZGSZ,2009-12-24 18:00,ZGSZ 241800Z AUTO 04002KT 2 1/2SM 18/16 A2997 RMK SLP151 T01830159 57005 IEM_DS3505
ZGSZ,2009-12-24 19:00,ZGSZ 241900Z AUTO 00000KT 1SM 17/15 A2997 RMK T01700150 IEM_DS3505
ZGSZ,2009-12-24 20:00,ZGSZ 242000Z AUTO 00000KT 1SM 18/16 A2994 RMK T01800160 IEM_DS3505
ZGSZ,2009-12-24 21:00,ZGSZ 242100Z AUTO 11002KT 2SM 17/16 A2994 RMK SLP145 T01720155 57006 IEM_DS3505
ZGSZ,2009-12-24 22:00,ZGSZ 242200Z AUTO 00000KT 1SM 17/15 A2997 RMK T01700150 IEM_DS3505
ZGSZ,2009-12-24 23:00,ZGSZ 242300Z AUTO 13002KT 1SM 17/15 A2997 RMK T01700150 IEM_DS3505
ZGSZ,2009-12-25 00:00,ZGSZ 250000Z AUTO 22002KT 2 1/2SM 17/16 A3000 RMK SLP164 T01710156 52018 IEM_DS3505
ZGSZ,2009-12-25 01:00,ZGSZ 250100Z AUTO 29004KT 1/2SM 19/17 A3003 RMK T01900170 IEM_DS3505
ZGSZ,2009-12-25 02:00,ZGSZ 250200Z AUTO 28004KT 1SM 19/17 A3003 RMK T01900170 IEM_DS3505
ZGSZ,2009-12-25 03:00,ZGSZ 250300Z AUTO 22004KT 3SM 22/17 A3003 RMK SLP170 T02240169 52007 IEM_DS3505
ZGSZ,2009-12-25 04:00,ZGSZ 250400Z AUTO 28006KT 1SM 20/17 A3000 RMK T02000170 IEM_DS3505
ZGSZ,2009-12-25 05:00,ZGSZ 250500Z AUTO 29008KT 1 1/4SM 21/17 A2997 RMK T02100170 IEM_DS3505
ZGSZ,2009-12-25 06:00,ZGSZ 250600Z AUTO 20004KT 2SM 22/17 A2991 RMK SLP138 T02240173 57032 IEM_DS3505
ZGSZ,2009-12-25 07:00,ZGSZ 250700Z AUTO 36010KT 3SM 25/14 A2991 RMK T02500140 IEM_DS3505
ZGSZ,2009-12-25 08:00,ZGSZ 250800Z AUTO 01012KT 4SM 25/14 A2991 RMK T02500140 IEM_DS3505
ZGSZ,2009-12-25 09:00,ZGSZ 250900Z AUTO 02006KT 5SM 22/14 A2994 RMK SLP139 T02250136 52001 IEM_DS3505
ZGSZ,2009-12-25 10:00,ZGSZ 251000Z AUTO 03006KT 4SM 23/14 A2994 RMK T02300140 IEM_DS3505
ZGSZ,2009-12-25 11:00,ZGSZ 251100Z AUTO 02008KT 4SM 22/13 A2994 RMK T02200130 IEM_DS3505
ZGSZ,2009-12-25 12:00,ZGSZ 251200Z AUTO 04008KT 6SM 20/11 A2997 RMK SLP153 T02030107 52013 IEM_DS3505
ZGSZ,2009-12-25 13:00,ZGSZ 251300Z AUTO 03006KT 5SM 20/11 A3000 RMK T02000110 IEM_DS3505
ZGSZ,2009-12-25 14:00,ZGSZ 251400Z AUTO 02010KT 6SM 20/11 A3000 RMK T02000110 IEM_DS3505
ZGSZ,2009-12-25 15:00,ZGSZ 251500Z AUTO 04010KT 7SM 18/11 A3000 RMK SLP164 T01840110 52012 IEM_DS3505
ZGSZ,2009-12-25 16:00,ZGSZ 251600Z AUTO 02010KT 5SM 18/11 A3003 RMK T01800110 IEM_DS3505
ZGSZ,2009-12-25 17:00,ZGSZ 251700Z AUTO 03006KT 5SM 17/10 A3003 RMK T01700100 IEM_DS3505
ZGSZ,2009-12-25 18:00,ZGSZ 251800Z AUTO 04006KT 7SM 17/10 A3003 RMK SLP167 T01690101 52002 IEM_DS3505
ZGSZ,2009-12-25 19:00,ZGSZ 251900Z AUTO 03006KT 4SM 17/10 A3000 RMK T01700100 IEM_DS3505
ZGSZ,2009-12-25 20:00,ZGSZ 252000Z AUTO 5SM 17/10 A3000 RMK T01700100 IEM_DS3505
ZGSZ,2009-12-25 21:00,ZGSZ 252100Z AUTO 07004KT 7SM 16/10 A3000 RMK SLP167 T01580099 54000 IEM_DS3505
ZGSZ,2009-12-25 22:00,ZGSZ 252200Z AUTO 10004KT 4SM 16/10 A3003 RMK T01600100 IEM_DS3505
ZGSZ,2009-12-25 23:00,ZGSZ 252300Z AUTO 09004KT 4SM 16/10 A3003 RMK T01600100 IEM_DS3505
ZGSZ,2009-12-26 00:00,ZGSZ 260000Z AUTO 07002KT 6SM 16/10 A3006 RMK SLP179 T01560102 52012 IEM_DS3505
ZGSZ,2009-12-26 01:00,ZGSZ 260100Z AUTO 07008KT 4SM 18/11 A3003 RMK T01800110 IEM_DS3505
ZGSZ,2009-12-26 02:00,ZGSZ 260200Z AUTO 09010KT 3SM 19/11 A3003 RMK T01900110 IEM_DS3505
ZGSZ,2009-12-26 03:00,ZGSZ 260300Z AUTO 11014KT 6SM 19/12 A3003 RMK SLP175 T01920125 57004 IEM_DS3505
ZGSZ,2009-12-26 04:00,ZGSZ 260400Z AUTO 05004KT 3SM 20/12 A3003 RMK T02000120 IEM_DS3505
ZGSZ,2009-12-26 05:00,ZGSZ 260500Z AUTO 04006KT 3SM 20/12 A3000 RMK T02000120 IEM_DS3505
ZGSZ,2009-12-26 06:00,ZGSZ 260600Z AUTO 09004KT 4SM 19/13 A2997 RMK SLP152 T01940129 57023 IEM_DS3505
ZGSZ,2009-12-26 07:00,ZGSZ 260700Z AUTO 02006KT 3SM 19/11 A2997 RMK T01900110 IEM_DS3505
ZGSZ,2009-12-26 08:00,ZGSZ 260800Z AUTO 2 1/2SM 19/12 A2994 RMK T01900120 IEM_DS3505
ZGSZ,2009-12-26 09:00,ZGSZ 260900Z AUTO 11004KT 2SM 18/12 A2994 RMK SLP149 T01820124 57003 IEM_DS3505
ZGSZ,2009-12-26 10:00,ZGSZ 261000Z AUTO 09004KT 2 1/2SM 19/13 A2997 RMK T01900130 IEM_DS3505
ZGSZ,2009-12-26 11:00,ZGSZ 261100Z AUTO 10006KT 2SM 18/13 A2997 RMK T01800130 IEM_DS3505
ZGSZ,2009-12-26 12:00,ZGSZ 261200Z AUTO 07006KT 2SM 17/12 A3000 RMK SLP158 T01740125 52009 IEM_DS3505
ZGSZ,2009-12-26 13:00,ZGSZ 261300Z AUTO 09006KT 2SM 18/13 A3000 RMK T01800130 IEM_DS3505
ZGSZ,2009-12-26 14:00,ZGSZ 261400Z AUTO 11006KT 2SM 18/13 A3003 RMK T01800130 IEM_DS3505
ZGSZ,2009-12-26 15:00,ZGSZ 261500Z AUTO 09004KT 2SM 17/12 A2997 RMK SLP170 T01720125 52012 IEM_DS3505
ZGSZ,2009-12-26 16:00,ZGSZ 261600Z AUTO 11010KT 2SM 18/12 A2997 RMK T01800120 IEM_DS3505
ZGSZ,2009-12-26 17:00,ZGSZ 261700Z AUTO 00000KT 2SM 17/12 A2997 RMK T01700120 IEM_DS3505
ZGSZ,2009-12-26 18:00,ZGSZ 261800Z AUTO 09006KT 2SM 16/13 A2997 RMK SLP153 T01640128 57017 IEM_DS3505
ZGSZ,2009-12-26 19:00,ZGSZ 261900Z AUTO 1 1/2SM 16/12 A2997 RMK T01600120 IEM_DS3505
ZGSZ,2009-12-26 20:00,ZGSZ 262000Z AUTO 09006KT 2SM 17/12 A2997 RMK T01700120 IEM_DS3505
ZGSZ,2009-12-26 21:00,ZGSZ 262100Z AUTO 07006KT 2SM 16/13 A2994 RMK SLP146 T01600127 57007 IEM_DS3505
ZGSZ,2009-12-26 22:00,ZGSZ 262200Z AUTO 15004KT 2SM 16/12 A2997 RMK T01600120 IEM_DS3505
ZGSZ,2009-12-26 23:00,ZGSZ 262300Z AUTO 00000KT 2SM 16/12 A2997 RMK T01600120 IEM_DS3505
ZGSZ,2009-12-27 00:00,ZGSZ 270000Z AUTO 07006KT 2 1/2SM 16/13 A2997 RMK SLP156 T01650130 52010 IEM_DS3505
ZGSZ,2009-12-27 01:00,ZGSZ 270100Z AUTO 13004KT 2 1/2SM 18/13 A3000 RMK T01800130 IEM_DS3505
ZGSZ,2009-12-27 02:00,ZGSZ 270200Z AUTO 13006KT 2 1/2SM 19/13 A3003 RMK T01900130 IEM_DS3505
ZGSZ,2009-12-27 03:00,ZGSZ 270300Z AUTO 07006KT 3SM 18/13 A3000 RMK SLP169 T01820133 52013 IEM_DS3505
ZGSZ,2009-12-27 04:00,ZGSZ 270400Z AUTO 03008KT 2SM 19/14 A3000 RMK T01900140 IEM_DS3505
ZGSZ,2009-12-27 05:00,ZGSZ 270500Z AUTO 36014KT 1SM 17/14 A3000 RMK T01700140 IEM_DS3505
ZGSZ,2009-12-27 06:00,ZGSZ 270600Z AUTO 36006KT 1 1/4SM 15/13 A3000 RMK 60000 SLP158 T01530132 57011 IEM_DS3505
ZGSZ,2009-12-27 07:00,ZGSZ 270700Z AUTO 33014KT 3SM 13/11 A3003 RMK T01300110 IEM_DS3505
ZGSZ,2009-12-27 08:00,ZGSZ 270800Z AUTO 36014KT 5SM 13/11 A3006 RMK T01300110 IEM_DS3505
ZGSZ,2009-12-27 09:00,ZGSZ 270900Z AUTO 04006G21KT 3SM 12/10 A3006 RMK SLP177 T01240105 52018 IEM_DS3505
ZGSZ,2009-12-27 10:00,ZGSZ 271000Z AUTO 02012KT 7SM 12/09 A3009 RMK T01200090 IEM_DS3505
ZGSZ,2009-12-27 11:00,ZGSZ 271100Z AUTO 01012KT 7SM 11/07 A3009 RMK T01100070 IEM_DS3505
ZGSZ,2009-12-27 12:00,ZGSZ 271200Z AUTO 04006KT 6SM 09/06 A3012 RMK 60012 SLP197 T00900063 52019 IEM_DS3505
ZGSZ,2009-12-27 13:00,ZGSZ 271300Z AUTO 02012KT 7SM 10/06 A3012 RMK T01000060 IEM_DS3505
ZGSZ,2009-12-27 14:00,ZGSZ 271400Z AUTO 02010KT 7SM 10/05 A3015 RMK T01000050 IEM_DS3505
ZGSZ,2009-12-27 15:00,ZGSZ 271500Z AUTO 02008KT 10SM 09/05 A3012 RMK SLP204 T00910053 52008 IEM_DS3505
ZGSZ,2009-12-27 16:00,ZGSZ 271600Z AUTO 02010KT 7SM 10/05 A3012 RMK T01000050 IEM_DS3505
ZGSZ,2009-12-27 17:00,ZGSZ 271700Z AUTO 02010KT 7SM 10/05 A3012 RMK T01000050 IEM_DS3505
ZGSZ,2009-12-27 18:00,ZGSZ 271800Z AUTO 02006G21KT 9SM 09/05 A3012 RMK 60008 SLP195 T00870047 57010 IEM_DS3505
ZGSZ,2009-12-27 19:00,ZGSZ 271900Z AUTO 01012KT 7SM 10/04 A3009 RMK T01000040 IEM_DS3505
ZGSZ,2009-12-27 20:00,ZGSZ 272000Z AUTO 02012KT 6SM 09/04 A3009 RMK T00900040 IEM_DS3505
ZGSZ,2009-12-27 21:00,ZGSZ 272100Z AUTO 02006KT 10SM 08/04 A3009 RMK 70019 SLP190 T00840035 57005 IEM_DS3505
ZGSZ,2009-12-27 22:00,ZGSZ 272200Z AUTO 03010KT 6SM 09/03 A3009 RMK T00900030 IEM_DS3505
ZGSZ,2009-12-27 23:00,ZGSZ 272300Z AUTO 03008KT 6SM 09/03 A3012 RMK T00900030 IEM_DS3505
ZGSZ,2009-12-28 00:00,ZGSZ 280000Z AUTO 04004KT 8SM 09/03 A3012 RMK 60000 70019 SLP206 T00860030 52015 IEM_DS3505
ZGSZ,2009-12-28 01:00,ZGSZ 280100Z AUTO 02010KT 5SM 10/03 A3015 RMK T01000030 IEM_DS3505
ZGSZ,2009-12-28 02:00,ZGSZ 280200Z AUTO 03010KT 5SM 10/03 A3018 RMK T01000030 IEM_DS3505
ZGSZ,2009-12-28 03:00,ZGSZ 280300Z AUTO 04006KT 7SM 10/03 A3015 RMK SLP213 T00970030 52007 IEM_DS3505
ZGSZ,2009-12-28 04:00,ZGSZ 280400Z AUTO 36008KT 5SM 12/03 A3012 RMK T01200030 IEM_DS3505
ZGSZ,2009-12-28 05:00,ZGSZ 280500Z AUTO 36008KT 5SM 12/04 A3009 RMK T01200040 IEM_DS3505
ZGSZ,2009-12-28 06:00,ZGSZ 280600Z AUTO 02006KT 6SM 11/04 A3003 RMK SLP178 T01140044 57034 IEM_DS3505
ZGSZ,2009-12-28 07:00,ZGSZ 280700Z AUTO 03006KT 5SM 13/05 A3003 RMK T01300050 IEM_DS3505
ZGSZ,2009-12-28 08:00,ZGSZ 280800Z AUTO 01006KT 4SM 13/05 A3000 RMK T01300050 IEM_DS3505
ZGSZ,2009-12-28 09:00,ZGSZ 280900Z AUTO 04004KT 5SM 12/05 A3000 RMK SLP164 T01150054 57014 IEM_DS3505
ZGSZ,2009-12-28 10:00,ZGSZ 281000Z AUTO 07004KT 4SM 13/06 A3000 RMK T01300060 IEM_DS3505
ZGSZ,2009-12-28 11:00,ZGSZ 281100Z AUTO 06004KT 4SM 12/06 A3003 RMK T01200060 IEM_DS3505
ZGSZ,2009-12-28 12:00,ZGSZ 281200Z AUTO 04004KT 4SM 11/07 A3003 RMK SLP175 T01130068 52011 IEM_DS3505
ZGSZ,2009-12-28 13:00,ZGSZ 281300Z AUTO 03004KT 3SM 12/07 A3006 RMK T01200070 IEM_DS3505
ZGSZ,2009-12-28 14:00,ZGSZ 281400Z AUTO 05004KT 3SM 12/07 A3006 RMK T01200070 IEM_DS3505
ZGSZ,2009-12-28 15:00,ZGSZ 281500Z AUTO 36002KT 2 1/2SM 11/08 A3006 RMK SLP184 T01100084 52009 IEM_DS3505
ZGSZ,2009-12-28 16:00,ZGSZ 281600Z AUTO 03004KT 2SM 12/09 A3003 RMK T01200090 IEM_DS3505
ZGSZ,2009-12-28 17:00,ZGSZ 281700Z AUTO 2SM 12/09 A3000 RMK T01200090 IEM_DS3505
ZGSZ,2009-12-28 18:00,ZGSZ 281800Z AUTO 07004KT 2 1/2SM 12/09 A3000 RMK 60000 SLP161 T01160088 57023 IEM_DS3505
ZGSZ,2009-12-28 19:00,ZGSZ 281900Z AUTO 02004KT 2 1/2SM 12/09 A2997 RMK T01200090 IEM_DS3505
ZGSZ,2009-12-28 20:00,ZGSZ 282000Z AUTO 2 1/2SM 12/09 A2997 RMK T01200090 IEM_DS3505
ZGSZ,2009-12-28 21:00,ZGSZ 282100Z AUTO 09004KT 2 1/2SM 12/10 A2994 RMK 70000 SLP150 T01250095 57010 IEM_DS3505
ZGSZ,2009-12-28 22:00,ZGSZ 282200Z AUTO 03004KT 2SM 12/10 A2997 RMK T01200100 IEM_DS3505
ZGSZ,2009-12-28 23:00,ZGSZ 282300Z AUTO 1 1/4SM 12/10 A2997 RMK T01200100 IEM_DS3505
ZGSZ,2009-12-29 00:00,ZGSZ 290000Z AUTO 07004KT 2 1/2SM 13/11 A2997 RMK 60008 70009 SLP161 T01280112 52011 IEM_DS3505
ZGSZ,2009-12-29 01:00,ZGSZ 290100Z AUTO 13010KT 2SM 14/11 A3000 RMK T01400110 IEM_DS3505
ZGSZ,2009-12-29 02:00,ZGSZ 290200Z AUTO 2 1/2SM 15/12 A3000 RMK T01500120 IEM_DS3505
ZGSZ,2009-12-29 03:00,ZGSZ 290300Z AUTO 09006KT 3SM 17/14 A3000 RMK SLP158 T01720135 57003 IEM_DS3505
ZGSZ,2009-12-29 04:00,ZGSZ 290400Z AUTO 29004KT 2SM 16/13 A2997 RMK T01600130 IEM_DS3505
ZGSZ,2009-12-29 05:00,ZGSZ 290500Z AUTO 31010KT 1 1/4SM 15/13 A2994 RMK T01500130 IEM_DS3505
ZGSZ,2009-12-29 06:00,ZGSZ 290600Z AUTO 04004KT 2 1/2SM 16/14 A2991 RMK 60000 SLP138 T01620137 57020 IEM_DS3505
ZGSZ,2009-12-29 07:00,ZGSZ 290700Z AUTO 31006KT 1SM 15/12 A2988 RMK T01500120 IEM_DS3505
ZGSZ,2009-12-29 08:00,ZGSZ 290800Z AUTO 31004KT 1SM 15/12 A2988 RMK T01500120 IEM_DS3505
ZGSZ,2009-12-29 09:00,ZGSZ 290900Z AUTO 09004KT 2 1/2SM 17/14 A2988 RMK SLP125 T01690142 57012 IEM_DS3505
ZGSZ,2009-12-29 10:00,ZGSZ 291000Z AUTO 30006KT 1SM 15/12 A2991 RMK T01500120 IEM_DS3505
ZGSZ,2009-12-29 11:00,ZGSZ 291100Z AUTO 33006KT 1SM 15/12 A2994 RMK T01500120 IEM_DS3505
ZGSZ,2009-12-29 12:00,ZGSZ 291200Z AUTO 07006KT 2 1/2SM 16/15 A2994 RMK 60008 SLP142 T01650149 52016 IEM_DS3505
ZGSZ,2009-12-29 13:00,ZGSZ 291300Z AUTO 31004KT 1/2SM 15/13 A2997 RMK T01500130 IEM_DS3505
ZGSZ,2009-12-29 14:00,ZGSZ 291400Z AUTO 34004KT 1SM 15/13 A2997 RMK T01500130 IEM_DS3505
ZGSZ,2009-12-29 15:00,ZGSZ 291500Z AUTO 36004KT 1 1/4SM 16/15 A3000 RMK SLP149 T01650150 52008 IEM_DS3505
ZGSZ,2009-12-29 16:00,ZGSZ 291600Z AUTO 35006KT 1 1/4SM 15/13 A2997 RMK T01500130 IEM_DS3505
ZGSZ,2009-12-29 17:00,ZGSZ 291700Z AUTO 32004KT 1 1/4SM 15/13 A2997 RMK T01500130 IEM_DS3505
ZGSZ,2009-12-29 18:00,ZGSZ 291800Z AUTO 27002KT 3/8SM 15/14 A2997 RMK 60016 SLP148 T01520139 57001 IEM_DS3505
ZGSZ,2009-12-29 19:00,ZGSZ 291900Z AUTO 36008KT 2SM 15/13 A2994 RMK T01500130 IEM_DS3505
ZGSZ,2009-12-29 20:00,ZGSZ 292000Z AUTO 36008KT 1 1/4SM 15/13 A2994 RMK T01500130 IEM_DS3505
ZGSZ,2009-12-29 21:00,ZGSZ 292100Z AUTO 02006KT 1SM 15/14 A2994 RMK 70033 SLP141 T01500139 57007 IEM_DS3505
ZGSZ,2009-12-29 22:00,ZGSZ 292200Z AUTO 2 1/2SM 15/13 A2994 RMK T01500130 IEM_DS3505
ZGSZ,2009-12-29 23:00,ZGSZ 292300Z AUTO 03006KT 2SM 15/13 A2997 RMK T01500130 IEM_DS3505
ZGSZ,2009-12-30 00:00,ZGSZ 300000Z AUTO 04006KT 7SM 15/13 A3000 RMK 60020 70040 SLP160 T01470134 52018 IEM_DS3505
ZGSZ,2009-12-30 01:00,ZGSZ 300100Z AUTO 33004KT 4SM 16/14 A3003 RMK T01600140 IEM_DS3505
ZGSZ,2009-12-30 02:00,ZGSZ 300200Z AUTO 34004KT 4SM 17/14 A3003 RMK T01700140 IEM_DS3505
ZGSZ,2009-12-30 03:00,ZGSZ 300300Z AUTO 09002KT 14SM 17/14 A3003 RMK SLP172 T01680137 52013 IEM_DS3505
ZGSZ,2009-12-30 04:00,ZGSZ 300400Z AUTO 36008KT 7SM 17/14 A3000 RMK T01700140 IEM_DS3505
ZGSZ,2009-12-30 05:00,ZGSZ 300500Z AUTO 02006KT 7SM 18/14 A2997 RMK T01800140 IEM_DS3505
ZGSZ,2009-12-30 06:00,ZGSZ 300600Z AUTO 09002KT 8SM 18/14 A2997 RMK 60000 SLP147 T01780139 57025 IEM_DS3505
ZGSZ,2009-12-30 07:00,ZGSZ 300700Z AUTO 03006KT 7SM 18/13 A2994 RMK T01800130 IEM_DS3505
ZGSZ,2009-12-30 08:00,ZGSZ 300800Z AUTO 03006KT 7SM 18/13 A2994 RMK T01800130 IEM_DS3505
ZGSZ,2009-12-30 09:00,ZGSZ 300900Z AUTO 04004KT 6SM 17/14 A2994 RMK SLP142 T01710140 57005 IEM_DS3505
ZGSZ,2009-12-30 10:00,ZGSZ 301000Z AUTO 02006KT 6SM 18/13 A2997 RMK T01800130 IEM_DS3505
ZGSZ,2009-12-30 11:00,ZGSZ 301100Z AUTO 5SM 18/13 A2997 RMK T01800130 IEM_DS3505
ZGSZ,2009-12-30 12:00,ZGSZ 301200Z AUTO 02006KT 6SM 17/14 A3000 RMK 60000 SLP160 T01700135 52018 IEM_DS3505
ZGSZ,2009-12-30 13:00,ZGSZ 301300Z AUTO 01006KT 2SM 17/14 A3003 RMK T01700140 IEM_DS3505
ZGSZ,2009-12-30 14:00,ZGSZ 301400Z AUTO 04004KT 2 1/2SM 16/14 A3003 RMK T01600140 IEM_DS3505
ZGSZ,2009-12-30 15:00,ZGSZ 301500Z AUTO 36004KT 2 1/2SM 16/14 A3003 RMK SLP173 T01570142 52013 IEM_DS3505
ZGSZ,2009-12-30 16:00,ZGSZ 301600Z AUTO 03006KT 2 1/2SM 16/14 A3003 RMK T01600140 IEM_DS3505
ZGSZ,2009-12-30 17:00,ZGSZ 301700Z AUTO 01006KT 3SM 15/13 A3003 RMK T01500130 IEM_DS3505
ZGSZ,2009-12-30 18:00,ZGSZ 301800Z AUTO 04006KT 3SM 15/13 A3003 RMK 60004 SLP172 T01510133 57001 IEM_DS3505
ZGSZ,2009-12-30 19:00,ZGSZ 301900Z AUTO 03010KT 4SM 15/12 A3003 RMK T01500120 IEM_DS3505
ZGSZ,2009-12-30 20:00,ZGSZ 302000Z AUTO 36006KT 4SM 15/13 A3003 RMK T01500130 IEM_DS3505
ZGSZ,2009-12-30 21:00,ZGSZ 302100Z AUTO 04002KT 5SM 14/12 A3003 RMK 70022 SLP174 T01430122 52001 IEM_DS3505
ZGSZ,2009-12-30 22:00,ZGSZ 302200Z AUTO 02006KT 4SM 15/12 A3003 RMK T01500120 IEM_DS3505
ZGSZ,2009-12-30 23:00,ZGSZ 302300Z AUTO 04004KT 4SM 15/11 A3006 RMK T01500110 IEM_DS3505
